{"type":"FeatureCollection","features":[{"type":"Feature","geometry":{"type":"Point","coordinates":[-104.581,40.456]},"properties":{"key":"64021-0af51d78","layer":"power","name":"Alden Solar CSG LLC","state":"CO","detail_file":"data/details/power-plants-52.json","plant_id":"64021","capacity_mw":1.6,"status_group":"Operating","energy_sources":"SUN","type":"Power plant","is_nuclear":false}},{"type":"Feature","geometry":{"type":"Point","coordinates":[-107.753,40.328]},"properties":{"key":"65480-91f8a5eb","layer":"power","name":"Axial Basin Solar","state":"CO","detail_file":"data/details/power-plants-43.json","plant_id":"65480","capacity_mw":145.0,"status_group":"Operating","energy_sources":"SUN","type":"Power plant","is_nuclear":false}},{"type":"Feature","geometry":{"type":"Point","coordinates":[-104.651,40.471]},"properties":{"key":"67364-0cf3e0cc","layer":"power","name":"BecLee Solar CSG","state":"CO","detail_file":"data/details/power-plants-34.json","plant_id":"67364","capacity_mw":5.0,"status_group":"Operating","energy_sources":"SUN","type":"Power plant","is_nuclear":false}},{"type":"Feature","geometry":{"type":"Point","coordinates":[-105.224,40.421]},"properties":{"key":"515-70cacf70","layer":"power","name":"Big Thompson","state":"CO","detail_file":"data/details/power-plants-39.json","plant_id":"515","capacity_mw":4.5,"status_group":"Operating","energy_sources":"WAT","type":"Power plant","is_nuclear":false}},{"type":"Feature","geometry":{"type":"Point","coordinates":[-105.011,40.864]},"properties":{"key":"60351-bd1b9e00","layer":"power","name":"Bison Solar LLC","state":"CO","detail_file":"data/details/power-plants-16.json","plant_id":"60351","capacity_mw":30.0,"status_group":"Operating","energy_sources":"SUN","type":"Power plant","is_nuclear":false}},{"type":"Feature","geometry":{"type":"Point","coordinates":[-104.849,40.617]},"properties":{"key":"64745-9f8c2319","layer":"power","name":"Black Hollow Sun","state":"CO","detail_file":"data/details/power-plants-46.json","plant_id":"64745","capacity_mw":150.0,"status_group":"Operating","energy_sources":"SUN","type":"Power plant","is_nuclear":false}},{"type":"Feature","geometry":{"type":"Point","coordinates":[-104.849,40.617]},"properties":{"key":"64745-c3280eda","layer":"power","name":"Black Hollow Sun","state":"CO","detail_file":"data/details/power-plants-12.json","plant_id":"64745","capacity_mw":107.0,"status_group":"Under construction","energy_sources":"SUN","type":"Power plant","is_nuclear":false}},{"type":"Feature","geometry":{"type":"Point","coordinates":[-105.332,40.005]},"properties":{"key":"466-ae59e074","layer":"power","name":"Boulder Canyon Hydro","state":"CO","detail_file":"data/details/power-plants-56.json","plant_id":"466","capacity_mw":5.0,"status_group":"Operating","energy_sources":"WAT","type":"Power plant","is_nuclear":false}},{"type":"Feature","geometry":{"type":"Point","coordinates":[-105.335,40.011]},"properties":{"key":"54680-3bfab389","layer":"power","name":"Boulder City Betasso Hydro Plant","state":"CO","detail_file":"data/details/power-plants-49.json","plant_id":"54680","capacity_mw":3.0,"status_group":"Operating","energy_sources":"WAT","type":"Power plant","is_nuclear":false}},{"type":"Feature","geometry":{"type":"Point","coordinates":[-105.335,40.011]},"properties":{"key":"54679-f02bff68","layer":"power","name":"Boulder City Lakewood Hydro","state":"CO","detail_file":"data/details/power-plants-02.json","plant_id":"54679","capacity_mw":3.5,"status_group":"Operating","energy_sources":"WAT","type":"Power plant","is_nuclear":false}},{"type":"Feature","geometry":{"type":"Point","coordinates":[-104.717,40.48]},"properties":{"key":"70062-e51e6ec7","layer":"power","name":"CBEP SOLAR 6, LLC","state":"CO","detail_file":"data/details/power-plants-20.json","plant_id":"70062","capacity_mw":4.5,"status_group":"Operating","energy_sources":"SUN","type":"Power plant","is_nuclear":false}},{"type":"Feature","geometry":{"type":"Point","coordinates":[-104.995,40.59]},"properties":{"key":"69774-cc9368d3","layer":"power","name":"CBEP Solar 3","state":"CO","detail_file":"data/details/power-plants-22.json","plant_id":"69774","capacity_mw":2.4,"status_group":"Operating","energy_sources":"SUN","type":"Power plant","is_nuclear":false}},{"type":"Feature","geometry":{"type":"Point","coordinates":[-104.836,40.319]},"properties":{"key":"67466-1f8f8c01","layer":"power","name":"CBEP Solar 4, LLC","state":"CO","detail_file":"data/details/power-plants-40.json","plant_id":"67466","capacity_mw":4.0,"status_group":"Operating","energy_sources":"SUN","type":"Power plant","is_nuclear":false}},{"type":"Feature","geometry":{"type":"Point","coordinates":[-104.882,40.34]},"properties":{"key":"67467-0ccd0643","layer":"power","name":"CBEP Solar 5, LLC","state":"CO","detail_file":"data/details/power-plants-24.json","plant_id":"67467","capacity_mw":5.0,"status_group":"Operating","energy_sources":"SUN","type":"Power plant","is_nuclear":false}},{"type":"Feature","geometry":{"type":"Point","coordinates":[-104.879,40.34]},"properties":{"key":"68639-1d8bcc7c","layer":"power","name":"CBEP Solar 7","state":"CO","detail_file":"data/details/power-plants-08.json","plant_id":"68639","capacity_mw":5.0,"status_group":"Operating","energy_sources":"SUN","type":"Power plant","is_nuclear":false}},{"type":"Feature","geometry":{"type":"Point","coordinates":[-105.146,40.591]},"properties":{"key":"57141-c82885d6","layer":"power","name":"CO- CSU- Fort Collins","state":"CO","detail_file":"data/details/power-plants-13.json","plant_id":"57141","capacity_mw":1.9,"status_group":"Operating","energy_sources":"SUN","type":"Power plant","is_nuclear":false}},{"type":"Feature","geometry":{"type":"Point","coordinates":[-105.147,40.593]},"properties":{"key":"57507-6b840d48","layer":"power","name":"CO- CSU- Fort Collins II","state":"CO","detail_file":"data/details/power-plants-12.json","plant_id":"57507","capacity_mw":3.0,"status_group":"Operating","energy_sources":"SUN","type":"Power plant","is_nuclear":false}},{"type":"Feature","geometry":{"type":"Point","coordinates":[-105.209,40.324]},"properties":{"key":"58622-6703eee8","layer":"power","name":"Carter Hydro","state":"CO","detail_file":"data/details/power-plants-09.json","plant_id":"58622","capacity_mw":2.6,"status_group":"Operating","energy_sources":"WAT","type":"Power plant","is_nuclear":false}},{"type":"Feature","geometry":{"type":"Point","coordinates":[-104.021,40.894]},"properties":{"key":"56371-751ce61d","layer":"power","name":"Cedar Creek Wind","state":"CO","detail_file":"data/details/power-plants-52.json","plant_id":"56371","capacity_mw":300.5,"status_group":"Operating","energy_sources":"WND","type":"Power plant","is_nuclear":false}},{"type":"Feature","geometry":{"type":"Point","coordinates":[-105.18,40.048]},"properties":{"key":"57681-9c29ffc1","layer":"power","name":"City of Boulder WWTP","state":"CO","detail_file":"data/details/power-plants-33.json","plant_id":"57681","capacity_mw":1.0,"status_group":"Operating","energy_sources":"SUN","type":"Power plant","is_nuclear":false}},{"type":"Feature","geometry":{"type":"Point","coordinates":[-105.131,40.501]},"properties":{"key":"61425-dc746317","layer":"power","name":"Coyote Ridge Community Solar","state":"CO","detail_file":"data/details/power-plants-13.json","plant_id":"61425","capacity_mw":1.5,"status_group":"Operating","energy_sources":"SUN","type":"Power plant","is_nuclear":false}},{"type":"Feature","geometry":{"type":"Point","coordinates":[-107.591,40.463]},"properties":{"key":"6021-c87d4621","layer":"power","name":"Craig (CO)","state":"CO","detail_file":"data/details/power-plants-13.json","plant_id":"6021","capacity_mw":1427.6,"status_group":"Operating","energy_sources":"SUB","type":"Power plant","is_nuclear":false}},{"type":"Feature","geometry":{"type":"Point","coordinates":[-104.745,40.144]},"properties":{"key":"67304-6163fc29","layer":"power","name":"Davis Battery Storage","state":"CO","detail_file":"data/details/power-plants-58.json","plant_id":"67304","capacity_mw":11.8,"status_group":"Operating","energy_sources":"MWH","type":"Power plant","is_nuclear":false}},{"type":"Feature","geometry":{"type":"Point","coordinates":[-104.891,40.318]},"properties":{"key":"67361-5d3fa256","layer":"power","name":"Dove Solar CSG","state":"CO","detail_file":"data/details/power-plants-25.json","plant_id":"67361","capacity_mw":5.0,"status_group":"Operating","energy_sources":"SUN","type":"Power plant","is_nuclear":false}},{"type":"Feature","geometry":{"type":"Point","coordinates":[-104.716,40.481]},"properties":{"key":"68640-7d8e3876","layer":"power","name":"ECA CO Greeley","state":"CO","detail_file":"data/details/power-plants-29.json","plant_id":"68640","capacity_mw":3.3,"status_group":"Operating","energy_sources":"SUN","type":"Power plant","is_nuclear":false}},{"type":"Feature","geometry":{"type":"Point","coordinates":[-107.502,40.513]},"properties":{"key":"66945-297bc225","layer":"power","name":"East Victory Way Solar","state":"CO","detail_file":"data/details/power-plants-55.json","plant_id":"66945","capacity_mw":4.0,"status_group":"Operating","energy_sources":"SUN","type":"Power plant","is_nuclear":false}},{"type":"Feature","geometry":{"type":"Point","coordinates":[-105.51,40.377]},"properties":{"key":"513-f0d3dcda","layer":"power","name":"Estes","state":"CO","detail_file":"data/details/power-plants-56.json","plant_id":"513","capacity_mw":45.0,"status_group":"Operating","energy_sources":"WAT","type":"Power plant","is_nuclear":false}},{"type":"Feature","geometry":{"type":"Point","coordinates":[-105.236,40.365]},"properties":{"key":"518-e71dbc10","layer":"power","name":"Flatiron","state":"CO","detail_file":"data/details/power-plants-02.json","plant_id":"518","capacity_mw":94.5,"status_group":"Operating","energy_sources":"WAT","type":"Power plant","is_nuclear":false}},{"type":"Feature","geometry":{"type":"Point","coordinates":[-104.796,40.092]},"properties":{"key":"8067-a1935a42","layer":"power","name":"Fort Lupton","state":"CO","detail_file":"data/details/power-plants-10.json","plant_id":"8067","capacity_mw":100.8,"status_group":"Operating","energy_sources":"NG","type":"Power plant","is_nuclear":false}},{"type":"Feature","geometry":{"type":"Point","coordinates":[-104.874,40.246]},"properties":{"key":"6112-2c1d181b","layer":"power","name":"Fort St Vrain","state":"CO","detail_file":"data/details/power-plants-10.json","plant_id":"6112","capacity_mw":1148.5,"status_group":"Operating","energy_sources":"NG","type":"Power plant","is_nuclear":false}},{"type":"Feature","geometry":{"type":"Point","coordinates":[-104.874,40.246]},"properties":{"key":"6112-fb646ce0","layer":"power","name":"Fort St Vrain","state":"CO","detail_file":"data/details/power-plants-36.json","plant_id":"6112","capacity_mw":478.0,"status_group":"Under construction","energy_sources":"NG","type":"Power plant","is_nuclear":false}},{"type":"Feature","geometry":{"type":"Point","coordinates":[-104.984,40.105]},"properties":{"key":"67302-08071972","layer":"power","name":"Frederick Battery Storage","state":"CO","detail_file":"data/details/power-plants-54.json","plant_id":"67302","capacity_mw":7.8,"status_group":"Operating","energy_sources":"MWH","type":"Power plant","is_nuclear":false}},{"type":"Feature","geometry":{"type":"Point","coordinates":[-105.005,40.029]},"properties":{"key":"59143-24cf0075","layer":"power","name":"Front Range Project","state":"CO","detail_file":"data/details/power-plants-19.json","plant_id":"59143","capacity_mw":3.2,"status_group":"Operating","energy_sources":"LFG","type":"Power plant","is_nuclear":false}},{"type":"Feature","geometry":{"type":"Point","coordinates":[-104.784,40.289]},"properties":{"key":"62663-aaeec3ef","layer":"power","name":"Gilcrest Solar","state":"CO","detail_file":"data/details/power-plants-13.json","plant_id":"62663","capacity_mw":1.5,"status_group":"Operating","energy_sources":"SUN","type":"Power plant","is_nuclear":false}},{"type":"Feature","geometry":{"type":"Point","coordinates":[-104.806,40.294]},"properties":{"key":"65609-d356fb89","layer":"power","name":"Gilcrest Sun CSG","state":"CO","detail_file":"data/details/power-plants-36.json","plant_id":"65609","capacity_mw":1.8,"status_group":"Operating","energy_sources":"SUN","type":"Power plant","is_nuclear":false}},{"type":"Feature","geometry":{"type":"Point","coordinates":[-104.771,40.318]},"properties":{"key":"64386-962ec4cd","layer":"power","name":"Gilcrest V CSG","state":"CO","detail_file":"data/details/power-plants-37.json","plant_id":"64386","capacity_mw":4.8,"status_group":"Operating","energy_sources":"SUN","type":"Power plant","is_nuclear":false}},{"type":"Feature","geometry":{"type":"Point","coordinates":[-105.868,40.146]},"properties":{"key":"60119-dfe0ae43","layer":"power","name":"Granby Hydro","state":"CO","detail_file":"data/details/power-plants-00.json","plant_id":"60119","capacity_mw":1.2,"status_group":"Operating","energy_sources":"WAT","type":"Power plant","is_nuclear":false}},{"type":"Feature","geometry":{"type":"Point","coordinates":[-107.185,40.486]},"properties":{"key":"525-f663cdb5","layer":"power","name":"Hayden","state":"CO","detail_file":"data/details/power-plants-40.json","plant_id":"525","capacity_mw":465.4,"status_group":"Operating","energy_sources":"BIT","type":"Power plant","is_nuclear":false}},{"type":"Feature","geometry":{"type":"Point","coordinates":[-104.978,40.14]},"properties":{"key":"62373-74668a60","layer":"power","name":"I25 Battery Storage","state":"CO","detail_file":"data/details/power-plants-28.json","plant_id":"62373","capacity_mw":4.0,"status_group":"Operating","energy_sources":"MWH","type":"Power plant","is_nuclear":false}},{"type":"Feature","geometry":{"type":"Point","coordinates":[-105.245,40.038]},"properties":{"key":"63869-93f7b17f","layer":"power","name":"IBM Solar","state":"CO","detail_file":"data/details/power-plants-53.json","plant_id":"63869","capacity_mw":8.1,"status_group":"Operating","energy_sources":"SUN","type":"Power plant","is_nuclear":false}},{"type":"Feature","geometry":{"type":"Point","coordinates":[-104.774,40.099]},"properties":{"key":"50707-1444e263","layer":"power","name":"JM Shafer Generating Station","state":"CO","detail_file":"data/details/power-plants-17.json","plant_id":"50707","capacity_mw":396.9,"status_group":"Operating","energy_sources":"NG","type":"Power plant","is_nuclear":false}},{"type":"Feature","geometry":{"type":"Point","coordinates":[-105.13,40.123]},"properties":{"key":"64200-73133379","layer":"power","name":"Jack's Solar Garden","state":"CO","detail_file":"data/details/power-plants-06.json","plant_id":"64200","capacity_mw":1.0,"status_group":"Operating","energy_sources":"SUN","type":"Power plant","is_nuclear":false}},{"type":"Feature","geometry":{"type":"Point","coordinates":[-104.549,40.146]},"properties":{"key":"67306-6c262f9f","layer":"power","name":"Keenesburg Battery Storage","state":"CO","detail_file":"data/details/power-plants-36.json","plant_id":"67306","capacity_mw":11.8,"status_group":"Operating","energy_sources":"MWH","type":"Power plant","is_nuclear":false}},{"type":"Feature","geometry":{"type":"Point","coordinates":[-104.771,40.312]},"properties":{"key":"67362-8d1caf7e","layer":"power","name":"Lark Bunting Solar CSG","state":"CO","detail_file":"data/details/power-plants-07.json","plant_id":"67362","capacity_mw":5.0,"status_group":"Operating","energy_sources":"SUN","type":"Power plant","is_nuclear":false}},{"type":"Feature","geometry":{"type":"Point","coordinates":[-105.534,40.344]},"properties":{"key":"517-0ba3566a","layer":"power","name":"Marys Lake","state":"CO","detail_file":"data/details/power-plants-35.json","plant_id":"517","capacity_mw":8.1,"status_group":"Operating","energy_sources":"WAT","type":"Power plant","is_nuclear":false}},{"type":"Feature","geometry":{"type":"Point","coordinates":[-104.942,40.219]},"properties":{"key":"67303-94dca64b","layer":"power","name":"Mead Battery Storage","state":"CO","detail_file":"data/details/power-plants-53.json","plant_id":"67303","capacity_mw":7.8,"status_group":"Operating","energy_sources":"MWH","type":"Power plant","is_nuclear":false}},{"type":"Feature","geometry":{"type":"Point","coordinates":[-107.603,40.469]},"properties":{"key":"70136-abe79f1a","layer":"power","name":"Morel Energy Storage","state":"CO","detail_file":"data/details/power-plants-63.json","plant_id":"70136","capacity_mw":200.0,"status_group":"Under construction","energy_sources":"MWH","type":"Power plant","is_nuclear":false}},{"type":"Feature","geometry":{"type":"Point","coordinates":[-104.003,40.961]},"properties":{"key":"62840-be936b89","layer":"power","name":"Mountain Breeze Wind, LLC","state":"CO","detail_file":"data/details/power-plants-58.json","plant_id":"62840","capacity_mw":171.7,"status_group":"Operating","energy_sources":"WND","type":"Power plant","is_nuclear":false}},{"type":"Feature","geometry":{"type":"Point","coordinates":[-104.549,40.147]},"properties":{"key":"68386-6e1cbed8","layer":"power","name":"Mountain Peak Power Station","state":"CO","detail_file":"data/details/power-plants-54.json","plant_id":"68386","capacity_mw":162.6,"status_group":"Operating","energy_sources":"NG","type":"Power plant","is_nuclear":false}},{"type":"Feature","geometry":{"type":"Point","coordinates":[-104.84,40.25]},"properties":{"key":"64358-66dc18e0","layer":"power","name":"NSE Camber Solar PS5 LLC (CSG)","state":"CO","detail_file":"data/details/power-plants-13.json","plant_id":"64358","capacity_mw":2.0,"status_group":"Operating","energy_sources":"SUN","type":"Power plant","is_nuclear":false}},{"type":"Feature","geometry":{"type":"Point","coordinates":[-104.824,40.261]},"properties":{"key":"64357-e6725ed8","layer":"power","name":"NSE Camber Solar PS6 LLC CSG","state":"CO","detail_file":"data/details/power-plants-01.json","plant_id":"64357","capacity_mw":2.0,"status_group":"Operating","energy_sources":"SUN","type":"Power plant","is_nuclear":false}},{"type":"Feature","geometry":{"type":"Point","coordinates":[-104.64,40.44]},"properties":{"key":"62224-a1651732","layer":"power","name":"Oak Leaf Solar XXVII LLC","state":"CO","detail_file":"data/details/power-plants-32.json","plant_id":"62224","capacity_mw":1.5,"status_group":"Operating","energy_sources":"SUN","type":"Power plant","is_nuclear":false}},{"type":"Feature","geometry":{"type":"Point","coordinates":[-104.779,40.237]},"properties":{"key":"62255-81b1e252","layer":"power","name":"Oak Leaf Solar XXVIII LLC (CSG)","state":"CO","detail_file":"data/details/power-plants-05.json","plant_id":"62255","capacity_mw":1.5,"status_group":"Operating","energy_sources":"SUN","type":"Power plant","is_nuclear":false}},{"type":"Feature","geometry":{"type":"Point","coordinates":[-104.645,40.135]},"properties":{"key":"68041-d0b3bcc8","layer":"power","name":"Overland","state":"CO","detail_file":"data/details/power-plants-33.json","plant_id":"68041","capacity_mw":11.0,"status_group":"Operating","energy_sources":"SUN","type":"Power plant","is_nuclear":false}},{"type":"Feature","geometry":{"type":"Point","coordinates":[-104.931,40.318]},"properties":{"key":"68943-5d5747cb","layer":"power","name":"Pivot Solar 20","state":"CO","detail_file":"data/details/power-plants-40.json","plant_id":"68943","capacity_mw":5.0,"status_group":"Operating","energy_sources":"SUN","type":"Power plant","is_nuclear":false}},{"type":"Feature","geometry":{"type":"Point","coordinates":[-104.646,40.435]},"properties":{"key":"68957-b6882db7","layer":"power","name":"Pivot Solar 30","state":"CO","detail_file":"data/details/power-plants-14.json","plant_id":"68957","capacity_mw":5.0,"status_group":"Operating","energy_sources":"SUN","type":"Power plant","is_nuclear":false}},{"type":"Feature","geometry":{"type":"Point","coordinates":[-104.731,40.325]},"properties":{"key":"70102-4461c0de","layer":"power","name":"Pivot Solar 33 LLC","state":"CO","detail_file":"data/details/power-plants-34.json","plant_id":"70102","capacity_mw":5.0,"status_group":"Under construction","energy_sources":"SUN","type":"Power plant","is_nuclear":false}},{"type":"Feature","geometry":{"type":"Point","coordinates":[-105.167,40.082]},"properties":{"key":"69016-6d5fee3f","layer":"power","name":"Pivot Solar 34","state":"CO","detail_file":"data/details/power-plants-13.json","plant_id":"69016","capacity_mw":4.5,"status_group":"Operating","energy_sources":"SUN","type":"Power plant","is_nuclear":false}},{"type":"Feature","geometry":{"type":"Point","coordinates":[-104.752,40.327]},"properties":{"key":"68964-c522b7df","layer":"power","name":"Pivot Solar 35","state":"CO","detail_file":"data/details/power-plants-59.json","plant_id":"68964","capacity_mw":3.9,"status_group":"Operating","energy_sources":"SUN","type":"Power plant","is_nuclear":false}},{"type":"Feature","geometry":{"type":"Point","coordinates":[-104.731,40.346]},"properties":{"key":"69035-1a4e4e97","layer":"power","name":"Pivot Solar 36","state":"CO","detail_file":"data/details/power-plants-48.json","plant_id":"69035","capacity_mw":5.0,"status_group":"Under construction","energy_sources":"SUN","type":"Power plant","is_nuclear":false}},{"type":"Feature","geometry":{"type":"Point","coordinates":[-104.777,40.228]},"properties":{"key":"64648-4bb402db","layer":"power","name":"Pivot Solar 4 LLC (CSG)","state":"CO","detail_file":"data/details/power-plants-42.json","plant_id":"64648","capacity_mw":2.0,"status_group":"Operating","energy_sources":"SUN","type":"Power plant","is_nuclear":false}},{"type":"Feature","geometry":{"type":"Point","coordinates":[-104.928,40.318]},"properties":{"key":"69483-76d59c31","layer":"power","name":"Pivot Solar 40","state":"CO","detail_file":"data/details/power-plants-28.json","plant_id":"69483","capacity_mw":2.8,"status_group":"Operating","energy_sources":"SUN","type":"Power plant","is_nuclear":false}},{"type":"Feature","geometry":{"type":"Point","coordinates":[-104.634,40.366]},"properties":{"key":"70201-6edfa566","layer":"power","name":"Pivot Solar 50 LLC","state":"CO","detail_file":"data/details/power-plants-01.json","plant_id":"70201","capacity_mw":4.0,"status_group":"Under construction","energy_sources":"SUN","type":"Power plant","is_nuclear":false}},{"type":"Feature","geometry":{"type":"Point","coordinates":[-104.723,40.351]},"properties":{"key":"70202-96110c4d","layer":"power","name":"Pivot Solar 56 LLC","state":"CO","detail_file":"data/details/power-plants-30.json","plant_id":"70202","capacity_mw":3.6,"status_group":"Under construction","energy_sources":"SUN","type":"Power plant","is_nuclear":false}},{"type":"Feature","geometry":{"type":"Point","coordinates":[-104.623,40.474]},"properties":{"key":"70207-01666b17","layer":"power","name":"Pivot Solar 60 LLC","state":"CO","detail_file":"data/details/power-plants-47.json","plant_id":"70207","capacity_mw":1.1,"status_group":"Under construction","energy_sources":"SUN","type":"Power plant","is_nuclear":false}},{"type":"Feature","geometry":{"type":"Point","coordinates":[-104.771,40.241]},"properties":{"key":"64655-16c63132","layer":"power","name":"Pivot Solar 8 LLC (CSG)","state":"CO","detail_file":"data/details/power-plants-60.json","plant_id":"64655","capacity_mw":2.0,"status_group":"Operating","energy_sources":"SUN","type":"Power plant","is_nuclear":false}},{"type":"Feature","geometry":{"type":"Point","coordinates":[-104.775,40.228]},"properties":{"key":"63753-553a442b","layer":"power","name":"Platteville Solar CSG, LLC","state":"CO","detail_file":"data/details/power-plants-16.json","plant_id":"63753","capacity_mw":1.3,"status_group":"Operating","energy_sources":"SUN","type":"Power plant","is_nuclear":false}},{"type":"Feature","geometry":{"type":"Point","coordinates":[-105.325,40.365]},"properties":{"key":"519-65a8785a","layer":"power","name":"Pole Hill","state":"CO","detail_file":"data/details/power-plants-08.json","plant_id":"519","capacity_mw":38.2,"status_group":"Operating","energy_sources":"WAT","type":"Power plant","is_nuclear":false}},{"type":"Feature","geometry":{"type":"Point","coordinates":[-104.608,40.197]},"properties":{"key":"67300-b2e2456e","layer":"power","name":"Rattlesnake Ridge Battery Storage","state":"CO","detail_file":"data/details/power-plants-57.json","plant_id":"67300","capacity_mw":11.8,"status_group":"Operating","energy_sources":"MWH","type":"Power plant","is_nuclear":false}},{"type":"Feature","geometry":{"type":"Point","coordinates":[-105.021,40.861]},"properties":{"key":"6761-71506339","layer":"power","name":"Rawhide","state":"CO","detail_file":"data/details/power-plants-33.json","plant_id":"6761","capacity_mw":800.4,"status_group":"Operating","energy_sources":"NG; SUB","type":"Power plant","is_nuclear":false}},{"type":"Feature","geometry":{"type":"Point","coordinates":[-105.021,40.861]},"properties":{"key":"6761-979b98d8","layer":"power","name":"Rawhide","state":"CO","detail_file":"data/details/power-plants-29.json","plant_id":"6761","capacity_mw":223.0,"status_group":"Planned","energy_sources":"NG","type":"Power plant","is_nuclear":false}},{"type":"Feature","geometry":{"type":"Point","coordinates":[-105.016,40.858]},"properties":{"key":"63722-5dad6073","layer":"power","name":"Rawhide Prairie Solar Hybrid","state":"CO","detail_file":"data/details/power-plants-42.json","plant_id":"63722","capacity_mw":23.0,"status_group":"Operating","energy_sources":"MWH; SUN","type":"Power plant","is_nuclear":false}},{"type":"Feature","geometry":{"type":"Point","coordinates":[-104.595,40.091]},"properties":{"key":"55835-3e654de5","layer":"power","name":"Rocky Mountain Energy Center","state":"CO","detail_file":"data/details/power-plants-53.json","plant_id":"55835","capacity_mw":685.1,"status_group":"Operating","energy_sources":"NG","type":"Power plant","is_nuclear":false}},{"type":"Feature","geometry":{"type":"Point","coordinates":[-104.747,40.081]},"properties":{"key":"60023-acbce218","layer":"power","name":"SR Jenkins Ft Lupton","state":"CO","detail_file":"data/details/power-plants-50.json","plant_id":"60023","capacity_mw":13.0,"status_group":"Operating","energy_sources":"SUN","type":"Power plant","is_nuclear":false}},{"type":"Feature","geometry":{"type":"Point","coordinates":[-104.551,40.386]},"properties":{"key":"61314-dbffeb9a","layer":"power","name":"SR Kersey","state":"CO","detail_file":"data/details/power-plants-62.json","plant_id":"61314","capacity_mw":3.5,"status_group":"Operating","energy_sources":"SUN","type":"Power plant","is_nuclear":false}},{"type":"Feature","geometry":{"type":"Point","coordinates":[-104.554,40.386]},"properties":{"key":"63586-e06934c9","layer":"power","name":"SR Kersey II","state":"CO","detail_file":"data/details/power-plants-34.json","plant_id":"63586","capacity_mw":1.0,"status_group":"Operating","energy_sources":"SUN","type":"Power plant","is_nuclear":false}},{"type":"Feature","geometry":{"type":"Point","coordinates":[-105.03,40.23]},"properties":{"key":"60283-fbf61ad9","layer":"power","name":"SR Mavericks","state":"CO","detail_file":"data/details/power-plants-27.json","plant_id":"60283","capacity_mw":7.8,"status_group":"Operating","energy_sources":"SUN","type":"Power plant","is_nuclear":false}},{"type":"Feature","geometry":{"type":"Point","coordinates":[-104.692,40.182]},"properties":{"key":"61462-1d04b067","layer":"power","name":"SR Platte Solar Farm","state":"CO","detail_file":"data/details/power-plants-13.json","plant_id":"61462","capacity_mw":16.0,"status_group":"Operating","energy_sources":"SUN","type":"Power plant","is_nuclear":false}},{"type":"Feature","geometry":{"type":"Point","coordinates":[-104.413,40.105]},"properties":{"key":"64152-3c3ff232","layer":"power","name":"SR Rattlesnake","state":"CO","detail_file":"data/details/power-plants-33.json","plant_id":"64152","capacity_mw":6.0,"status_group":"Operating","energy_sources":"SUN","type":"Power plant","is_nuclear":false}},{"type":"Feature","geometry":{"type":"Point","coordinates":[-104.896,40.579]},"properties":{"key":"60497-dc8e8d4d","layer":"power","name":"SR Skylark B","state":"CO","detail_file":"data/details/power-plants-49.json","plant_id":"60497","capacity_mw":2.0,"status_group":"Operating","energy_sources":"SUN","type":"Power plant","is_nuclear":false}},{"type":"Feature","geometry":{"type":"Point","coordinates":[-104.896,40.575]},"properties":{"key":"63587-021c13a7","layer":"power","name":"SR Skylark C","state":"CO","detail_file":"data/details/power-plants-11.json","plant_id":"63587","capacity_mw":1.1,"status_group":"Operating","energy_sources":"SUN","type":"Power plant","is_nuclear":false}},{"type":"Feature","geometry":{"type":"Point","coordinates":[-104.895,40.578]},"properties":{"key":"60248-851f3864","layer":"power","name":"Skylark","state":"CO","detail_file":"data/details/power-plants-45.json","plant_id":"60248","capacity_mw":4.0,"status_group":"Operating","energy_sources":"SUN","type":"Power plant","is_nuclear":false}},{"type":"Feature","geometry":{"type":"Point","coordinates":[-104.901,40.092]},"properties":{"key":"69946-81d6631b","layer":"power","name":"Spindle BESS","state":"CO","detail_file":"data/details/power-plants-11.json","plant_id":"69946","capacity_mw":199.0,"status_group":"Under construction","energy_sources":"MWH","type":"Power plant","is_nuclear":false}},{"type":"Feature","geometry":{"type":"Point","coordinates":[-104.888,40.092]},"properties":{"key":"56445-f188d9b0","layer":"power","name":"Spindle Hill Energy Center","state":"CO","detail_file":"data/details/power-plants-27.json","plant_id":"56445","capacity_mw":420.0,"status_group":"Operating","energy_sources":"NG","type":"Power plant","is_nuclear":false}},{"type":"Feature","geometry":{"type":"Point","coordinates":[-104.64,40.363]},"properties":{"key":"70113-5a2364be","layer":"power","name":"USS Auburn Solar","state":"CO","detail_file":"data/details/power-plants-46.json","plant_id":"70113","capacity_mw":4.9,"status_group":"Operating","energy_sources":"SUN","type":"Power plant","is_nuclear":false}},{"type":"Feature","geometry":{"type":"Point","coordinates":[-104.61,40.464]},"properties":{"key":"66436-9c6c8a60","layer":"power","name":"USS Cogburn Solar LLC (CSG)","state":"CO","detail_file":"data/details/power-plants-25.json","plant_id":"66436","capacity_mw":2.4,"status_group":"Operating","energy_sources":"SUN","type":"Power plant","is_nuclear":false}},{"type":"Feature","geometry":{"type":"Point","coordinates":[-105.269,40.008]},"properties":{"key":"54372-acc7d691","layer":"power","name":"University of Colorado","state":"CO","detail_file":"data/details/power-plants-50.json","plant_id":"54372","capacity_mw":33.0,"status_group":"Operating","energy_sources":"NG","type":"Power plant","is_nuclear":false}},{"type":"Feature","geometry":{"type":"Point","coordinates":[-104.892,40.419]},"properties":{"key":"60247-d9644cdd","layer":"power","name":"Valley View Solar","state":"CO","detail_file":"data/details/power-plants-04.json","plant_id":"60247","capacity_mw":4.0,"status_group":"Operating","energy_sources":"SUN","type":"Power plant","is_nuclear":false}},{"type":"Feature","geometry":{"type":"Point","coordinates":[-105.202,40.02]},"properties":{"key":"477-574d3d62","layer":"power","name":"Valmont","state":"CO","detail_file":"data/details/power-plants-04.json","plant_id":"477","capacity_mw":59.3,"status_group":"Operating","energy_sources":"NG","type":"Power plant","is_nuclear":false}},{"type":"Feature","geometry":{"type":"Point","coordinates":[-105.201,40.02]},"properties":{"key":"55207-641cab78","layer":"power","name":"Valmont Combustion Turbine Project","state":"CO","detail_file":"data/details/power-plants-13.json","plant_id":"55207","capacity_mw":142.2,"status_group":"Operating","energy_sources":"NG","type":"Power plant","is_nuclear":false}},{"type":"Feature","geometry":{"type":"Point","coordinates":[-104.799,40.232]},"properties":{"key":"65520-82d761ce","layer":"power","name":"Vasquez V CSG","state":"CO","detail_file":"data/details/power-plants-43.json","plant_id":"65520","capacity_mw":4.0,"status_group":"Operating","energy_sources":"SUN","type":"Power plant","is_nuclear":false}},{"type":"Feature","geometry":{"type":"Point","coordinates":[-104.792,40.232]},"properties":{"key":"60720-a2414dc8","layer":"power","name":"Weld 1 Community Solar Array","state":"CO","detail_file":"data/details/power-plants-60.json","plant_id":"60720","capacity_mw":1.5,"status_group":"Operating","energy_sources":"SUN","type":"Power plant","is_nuclear":false}},{"type":"Feature","geometry":{"type":"Point","coordinates":[-104.847,40.613]},"properties":{"key":"70188-e3cd468a","layer":"power","name":"Weld Energy Storage","state":"CO","detail_file":"data/details/power-plants-59.json","plant_id":"70188","capacity_mw":100.0,"status_group":"Under construction","energy_sources":"MWH","type":"Power plant","is_nuclear":false}},{"type":"Feature","geometry":{"type":"Point","coordinates":[-106.29,40.812]},"properties":{"key":"63164-1337a9e8","layer":"power","name":"Whiskey Hill Solar","state":"CO","detail_file":"data/details/power-plants-49.json","plant_id":"63164","capacity_mw":1.0,"status_group":"Operating","energy_sources":"SUN","type":"Power plant","is_nuclear":false}},{"type":"Feature","geometry":{"type":"Point","coordinates":[-106.205,40.035]},"properties":{"key":"10422-47744e4c","layer":"power","name":"Williams Fork Hydro Plant","state":"CO","detail_file":"data/details/power-plants-36.json","plant_id":"10422","capacity_mw":3.5,"status_group":"Operating","energy_sources":"WAT","type":"Power plant","is_nuclear":false}},{"type":"Feature","geometry":{"type":"Point","coordinates":[-106.718,42.548]},"properties":{"key":"6409-99bccd50","layer":"power","name":"Alcova","state":"WY","detail_file":"data/details/power-plants-23.json","plant_id":"6409","capacity_mw":41.4,"status_group":"Operating","energy_sources":"WAT","type":"Power plant","is_nuclear":false}},{"type":"Feature","geometry":{"type":"Point","coordinates":[-106.347,43.146]},"properties":{"key":"67193-4f925ccc","layer":"power","name":"Anticline Wind","state":"WY","detail_file":"data/details/power-plants-31.json","plant_id":"67193","capacity_mw":124.3,"status_group":"Operating","energy_sources":"WND","type":"Power plant","is_nuclear":false}},{"type":"Feature","geometry":{"type":"Point","coordinates":[-105.769,43.722]},"properties":{"key":"8030-982361cb","layer":"power","name":"Barber Creek","state":"WY","detail_file":"data/details/power-plants-11.json","plant_id":"8030","capacity_mw":22.5,"status_group":"Operating","energy_sources":"NG","type":"Power plant","is_nuclear":false}},{"type":"Feature","geometry":{"type":"Point","coordinates":[-105.869,41.919]},"properties":{"key":"65403-9002cfce","layer":"power","name":"Boswell Wind","state":"WY","detail_file":"data/details/power-plants-33.json","plant_id":"65403","capacity_mw":329.8,"status_group":"Operating","energy_sources":"WND","type":"Power plant","is_nuclear":false}},{"type":"Feature","geometry":{"type":"Point","coordinates":[-105.999,43.015]},"properties":{"key":"57090-967eb470","layer":"power","name":"Campbell Hill Windpower","state":"WY","detail_file":"data/details/power-plants-37.json","plant_id":"57090","capacity_mw":99.0,"status_group":"Operating","energy_sources":"WND","type":"Power plant","is_nuclear":false}},{"type":"Feature","geometry":{"type":"Point","coordinates":[-106.221,42.885]},"properties":{"key":"57093-994996cc","layer":"power","name":"Casper Wind Farm","state":"WY","detail_file":"data/details/power-plants-49.json","plant_id":"57093","capacity_mw":17.0,"status_group":"Operating","energy_sources":"WND","type":"Power plant","is_nuclear":false}},{"type":"Feature","geometry":{"type":"Point","coordinates":[-105.472,43.02]},"properties":{"key":"63914-d9b2be02","layer":"power","name":"Cedar Springs I","state":"WY","detail_file":"data/details/power-plants-30.json","plant_id":"63914","capacity_mw":200.0,"status_group":"Operating","energy_sources":"WND","type":"Power plant","is_nuclear":false}},{"type":"Feature","geometry":{"type":"Point","coordinates":[-105.366,42.969]},"properties":{"key":"63915-51163169","layer":"power","name":"Cedar Springs II","state":"WY","detail_file":"data/details/power-plants-49.json","plant_id":"63915","capacity_mw":200.0,"status_group":"Operating","energy_sources":"WND","type":"Power plant","is_nuclear":false}},{"type":"Feature","geometry":{"type":"Point","coordinates":[-105.584,43.077]},"properties":{"key":"63916-c053a5c4","layer":"power","name":"Cedar Springs III","state":"WY","detail_file":"data/details/power-plants-37.json","plant_id":"63916","capacity_mw":133.0,"status_group":"Operating","energy_sources":"WND","type":"Power plant","is_nuclear":false}},{"type":"Feature","geometry":{"type":"Point","coordinates":[-105.712,43.101]},"properties":{"key":"67289-fa8f3ad2","layer":"power","name":"Cedar Springs Wind IV","state":"WY","detail_file":"data/details/power-plants-17.json","plant_id":"67289","capacity_mw":390.4,"status_group":"Operating","energy_sources":"WND","type":"Power plant","is_nuclear":false}},{"type":"Feature","geometry":{"type":"Point","coordinates":[-104.72,41.124]},"properties":{"key":"57703-b95b8ceb","layer":"power","name":"Cheyenne Prairie Generating Station","state":"WY","detail_file":"data/details/power-plants-21.json","plant_id":"57703","capacity_mw":140.0,"status_group":"Operating","energy_sources":"NG","type":"Power plant","is_nuclear":false}},{"type":"Feature","geometry":{"type":"Point","coordinates":[-104.72,41.124]},"properties":{"key":"57703-dd6ed29d","layer":"power","name":"Cheyenne Prairie Generating Station","state":"WY","detail_file":"data/details/power-plants-53.json","plant_id":"57703","capacity_mw":120.0,"status_group":"Planned","energy_sources":"NG","type":"Power plant","is_nuclear":false}},{"type":"Feature","geometry":{"type":"Point","coordinates":[-107.2,41.683]},"properties":{"key":"58987-c93cf658","layer":"power","name":"Chokecherry and Sierra Madre Wind","state":"WY","detail_file":"data/details/power-plants-07.json","plant_id":"58987","capacity_mw":3550.5,"status_group":"Under construction","energy_sources":"WND","type":"Power plant","is_nuclear":false}},{"type":"Feature","geometry":{"type":"Point","coordinates":[-104.984,41.113]},"properties":{"key":"63436-9792636c","layer":"power","name":"Corriedale Wind Energy","state":"WY","detail_file":"data/details/power-plants-10.json","plant_id":"63436","capacity_mw":52.5,"status_group":"Operating","energy_sources":"WND","type":"Power plant","is_nuclear":false}},{"type":"Feature","geometry":{"type":"Point","coordinates":[-104.382,41.033]},"properties":{"key":"68022-2914a74a","layer":"power","name":"Cowboy Solar I","state":"WY","detail_file":"data/details/power-plants-21.json","plant_id":"68022","capacity_mw":800.0,"status_group":"Planned","energy_sources":"MWH; SUN","type":"Power plant","is_nuclear":false}},{"type":"Feature","geometry":{"type":"Point","coordinates":[-104.382,41.033]},"properties":{"key":"69189-f5729cc7","layer":"power","name":"Cowboy Solar II","state":"WY","detail_file":"data/details/power-plants-43.json","plant_id":"69189","capacity_mw":565.0,"status_group":"Under construction","energy_sources":"MWH; SUN","type":"Power plant","is_nuclear":false}},{"type":"Feature","geometry":{"type":"Point","coordinates":[-105.777,42.838]},"properties":{"key":"4158-04a8a836","layer":"power","name":"Dave Johnston","state":"WY","detail_file":"data/details/power-plants-04.json","plant_id":"4158","capacity_mw":816.7,"status_group":"Operating","energy_sources":"SUB","type":"Power plant","is_nuclear":false}},{"type":"Feature","geometry":{"type":"Point","coordinates":[-106.16,42.044]},"properties":{"key":"57299-605c3619","layer":"power","name":"Dunlap","state":"WY","detail_file":"data/details/power-plants-06.json","plant_id":"57299","capacity_mw":129.5,"status_group":"Operating","energy_sources":"WND","type":"Power plant","is_nuclear":false}},{"type":"Feature","geometry":{"type":"Point","coordinates":[-105.818,42.872]},"properties":{"key":"68317-d0cc25be","layer":"power","name":"Dutchman Solar generation and BESS","state":"WY","detail_file":"data/details/power-plants-12.json","plant_id":"68317","capacity_mw":998.0,"status_group":"Under construction","energy_sources":"MWH; SUN","type":"Power plant","is_nuclear":false}},{"type":"Feature","geometry":{"type":"Point","coordinates":[-106.358,41.932]},"properties":{"key":"62591-6cc52e1c","layer":"power","name":"Ekola Flats","state":"WY","detail_file":"data/details/power-plants-28.json","plant_id":"62591","capacity_mw":250.9,"status_group":"Operating","energy_sources":"WND","type":"Power plant","is_nuclear":false}},{"type":"Feature","geometry":{"type":"Point","coordinates":[-106.201,41.628]},"properties":{"key":"67916-cd98dbf5","layer":"power","name":"Foote Creek Rim","state":"WY","detail_file":"data/details/power-plants-33.json","plant_id":"67916","capacity_mw":134.8,"status_group":"Operating","energy_sources":"WND","type":"Power plant","is_nuclear":false}},{"type":"Feature","geometry":{"type":"Point","coordinates":[-106.796,42.477]},"properties":{"key":"4176-c1119d14","layer":"power","name":"Fremont Canyon","state":"WY","detail_file":"data/details/power-plants-14.json","plant_id":"4176","capacity_mw":66.8,"status_group":"Operating","energy_sources":"WAT","type":"Power plant","is_nuclear":false}},{"type":"Feature","geometry":{"type":"Point","coordinates":[-104.956,42.467]},"properties":{"key":"4177-393f90dc","layer":"power","name":"Glendo","state":"WY","detail_file":"data/details/power-plants-57.json","plant_id":"4177","capacity_mw":38.0,"status_group":"Operating","energy_sources":"WAT","type":"Power plant","is_nuclear":false}},{"type":"Feature","geometry":{"type":"Point","coordinates":[-105.835,43.018]},"properties":{"key":"56841-89034c9c","layer":"power","name":"Glenrock","state":"WY","detail_file":"data/details/power-plants-15.json","plant_id":"56841","capacity_mw":165.6,"status_group":"Operating","energy_sources":"WND","type":"Power plant","is_nuclear":false}},{"type":"Feature","geometry":{"type":"Point","coordinates":[-104.503,41.853]},"properties":{"key":"67936-fc9f6cdc","layer":"power","name":"Goshen Solar","state":"WY","detail_file":"data/details/power-plants-10.json","plant_id":"67936","capacity_mw":163.0,"status_group":"Under construction","energy_sources":"SUN","type":"Power plant","is_nuclear":false}},{"type":"Feature","geometry":{"type":"Point","coordinates":[-104.761,42.29]},"properties":{"key":"4178-1ed35d6b","layer":"power","name":"Guernsey","state":"WY","detail_file":"data/details/power-plants-00.json","plant_id":"4178","capacity_mw":6.4,"status_group":"Operating","energy_sources":"WAT","type":"Power plant","is_nuclear":false}},{"type":"Feature","geometry":{"type":"Point","coordinates":[-104.998,41.14]},"properties":{"key":"56960-3438d988","layer":"power","name":"Happy Jack Windpower Project","state":"WY","detail_file":"data/details/power-plants-33.json","plant_id":"56960","capacity_mw":29.4,"status_group":"Operating","energy_sources":"WND","type":"Power plant","is_nuclear":false}},{"type":"Feature","geometry":{"type":"Point","coordinates":[-105.532,43.829]},"properties":{"key":"8026-81324c20","layer":"power","name":"Hartzog","state":"WY","detail_file":"data/details/power-plants-32.json","plant_id":"8026","capacity_mw":22.5,"status_group":"Operating","energy_sources":"NG","type":"Power plant","is_nuclear":false}},{"type":"Feature","geometry":{"type":"Point","coordinates":[-106.011,41.675]},"properties":{"key":"57040-b5d975fe","layer":"power","name":"High Plains","state":"WY","detail_file":"data/details/power-plants-45.json","plant_id":"57040","capacity_mw":122.1,"status_group":"Operating","energy_sources":"WND","type":"Power plant","is_nuclear":false}},{"type":"Feature","geometry":{"type":"Point","coordinates":[-106.88,42.174]},"properties":{"key":"4180-bfec0bf7","layer":"power","name":"Kortes","state":"WY","detail_file":"data/details/power-plants-58.json","plant_id":"4180","capacity_mw":36.0,"status_group":"Operating","energy_sources":"WAT","type":"Power plant","is_nuclear":false}},{"type":"Feature","geometry":{"type":"Point","coordinates":[-104.882,42.109]},"properties":{"key":"6204-123ee8cb","layer":"power","name":"Laramie River Station","state":"WY","detail_file":"data/details/power-plants-17.json","plant_id":"6204","capacity_mw":1863.0,"status_group":"Operating","energy_sources":"SUB","type":"Power plant","is_nuclear":false}},{"type":"Feature","geometry":{"type":"Point","coordinates":[-105.991,41.724]},"properties":{"key":"57039-49026fcf","layer":"power","name":"McFadden Ridge","state":"WY","detail_file":"data/details/power-plants-55.json","plant_id":"57039","capacity_mw":35.2,"status_group":"Operating","energy_sources":"WND","type":"Power plant","is_nuclear":false}},{"type":"Feature","geometry":{"type":"Point","coordinates":[-105.867,42.728]},"properties":{"key":"60259-44165d27","layer":"power","name":"Pioneer Wind Park, LLC","state":"WY","detail_file":"data/details/power-plants-61.json","plant_id":"60259","capacity_mw":80.0,"status_group":"Operating","energy_sources":"WND","type":"Power plant","is_nuclear":false}},{"type":"Feature","geometry":{"type":"Point","coordinates":[-105.494,41.056]},"properties":{"key":"64847-8126b8a8","layer":"power","name":"Rail Tie Wind","state":"WY","detail_file":"data/details/power-plants-31.json","plant_id":"64847","capacity_mw":504.0,"status_group":"Under construction","energy_sources":"WND","type":"Power plant","is_nuclear":false}},{"type":"Feature","geometry":{"type":"Point","coordinates":[-106.077,41.583]},"properties":{"key":"67769-b06433f4","layer":"power","name":"Rock Creek Wind","state":"WY","detail_file":"data/details/power-plants-12.json","plant_id":"67769","capacity_mw":590.0,"status_group":"Operating","energy_sources":"WND","type":"Power plant","is_nuclear":false}},{"type":"Feature","geometry":{"type":"Point","coordinates":[-105.854,43.057]},"properties":{"key":"56842-b490b4c3","layer":"power","name":"Rolling Hills","state":"WY","detail_file":"data/details/power-plants-57.json","plant_id":"56842","capacity_mw":115.8,"status_group":"Operating","energy_sources":"WND","type":"Power plant","is_nuclear":false}},{"type":"Feature","geometry":{"type":"Point","coordinates":[-104.995,41.055]},"properties":{"key":"67026-df84030f","layer":"power","name":"Roundhouse Renewable Energy II","state":"WY","detail_file":"data/details/power-plants-61.json","plant_id":"67026","capacity_mw":105.7,"status_group":"Operating","energy_sources":"WND","type":"Power plant","is_nuclear":false}},{"type":"Feature","geometry":{"type":"Point","coordinates":[-105.107,41.095]},"properties":{"key":"63133-3ae66fbc","layer":"power","name":"Roundhouse Wind Energy Project","state":"WY","detail_file":"data/details/power-plants-29.json","plant_id":"63133","capacity_mw":226.0,"status_group":"Operating","energy_sources":"WND","type":"Power plant","is_nuclear":false}},{"type":"Feature","geometry":{"type":"Point","coordinates":[-106.909,42.156]},"properties":{"key":"4182-f4dd40b7","layer":"power","name":"Seminoe","state":"WY","detail_file":"data/details/power-plants-14.json","plant_id":"4182","capacity_mw":51.6,"status_group":"Operating","energy_sources":"WAT","type":"Power plant","is_nuclear":false}},{"type":"Feature","geometry":{"type":"Point","coordinates":[-106.376,41.92]},"properties":{"key":"56843-1196aff0","layer":"power","name":"Seven Mile Hill","state":"WY","detail_file":"data/details/power-plants-22.json","plant_id":"56843","capacity_mw":146.2,"status_group":"Operating","energy_sources":"WND","type":"Power plant","is_nuclear":false}},{"type":"Feature","geometry":{"type":"Point","coordinates":[-105.024,41.13]},"properties":{"key":"57091-74d2402c","layer":"power","name":"Silver Sage Windpower","state":"WY","detail_file":"data/details/power-plants-04.json","plant_id":"57091","capacity_mw":42.0,"status_group":"Operating","energy_sources":"WND","type":"Power plant","is_nuclear":false}},{"type":"Feature","geometry":{"type":"Point","coordinates":[-107.11,41.78]},"properties":{"key":"54374-fab64e79","layer":"power","name":"Sinclair Oil Refinery","state":"WY","detail_file":"data/details/power-plants-50.json","plant_id":"54374","capacity_mw":5.0,"status_group":"Operating","energy_sources":"DFO; NG; OG","type":"Power plant","is_nuclear":false}},{"type":"Feature","geometry":{"type":"Point","coordinates":[-104.776,41.027]},"properties":{"key":"67147-a921d998","layer":"power","name":"South Cheyenne Solar","state":"WY","detail_file":"data/details/power-plants-62.json","plant_id":"67147","capacity_mw":150.0,"status_group":"Operating","energy_sources":"SUN","type":"Power plant","is_nuclear":false}},{"type":"Feature","geometry":{"type":"Point","coordinates":[-106.234,42.177]},"properties":{"key":"62516-5995d9a1","layer":"power","name":"TB Flats","state":"WY","detail_file":"data/details/power-plants-21.json","plant_id":"62516","capacity_mw":503.2,"status_group":"Operating","energy_sources":"WND","type":"Power plant","is_nuclear":false}},{"type":"Feature","geometry":{"type":"Point","coordinates":[-104.83,41.02]},"properties":{"key":"tallgrass-cheyenne-power-hub-wy-dddfa693","layer":"power","name":"Tallgrass Cheyenne Power Hub (BFC Power Project)","state":"WY","detail_file":"data/details/power-plants-34.json","plant_id":"tallgrass-cheyenne-power-hub-wy","capacity_mw":2700.0,"status_group":"Permitted","energy_sources":"natural_gas","type":"Power plant","is_nuclear":false}},{"type":"Feature","geometry":{"type":"Point","coordinates":[-105.787,42.926]},"properties":{"key":"57327-6ff07614","layer":"power","name":"Top of the World Windpower Project","state":"WY","detail_file":"data/details/power-plants-27.json","plant_id":"57327","capacity_mw":200.0,"status_group":"Operating","energy_sources":"WND","type":"Power plant","is_nuclear":false}},{"type":"Feature","geometry":{"type":"Point","coordinates":[-106.18,41.975]},"properties":{"key":"63972-386a1ac3","layer":"power","name":"Two Rivers Wind Facility","state":"WY","detail_file":"data/details/power-plants-60.json","plant_id":"63972","capacity_mw":6.1,"status_group":"Under construction","energy_sources":"WND","type":"Power plant","is_nuclear":false}}]}