{"type":"FeatureCollection","features":[{"type":"Feature","geometry":{"type":"Point","coordinates":[-116.897,44.837]},"properties":{"key":"811-c2e0bd58","layer":"power","name":"Brownlee","state":"ID","detail_file":"data/details/power-plants-45.json","plant_id":"811","capacity_mw":675.0,"status_group":"Operating","energy_sources":"WAT","type":"Power plant","is_nuclear":false}},{"type":"Feature","geometry":{"type":"Point","coordinates":[-116.048,44.526]},"properties":{"key":"813-e647c5bf","layer":"power","name":"Cascade Dam (ID)","state":"ID","detail_file":"data/details/power-plants-06.json","plant_id":"813","capacity_mw":12.4,"status_group":"Operating","energy_sources":"WAT","type":"Power plant","is_nuclear":false}},{"type":"Feature","geometry":{"type":"Point","coordinates":[-116.976,46.423]},"properties":{"key":"50637-8214ec27","layer":"power","name":"Clearwater Paper IPP Lewiston","state":"ID","detail_file":"data/details/power-plants-28.json","plant_id":"50637","capacity_mw":113.8,"status_group":"Operating","energy_sources":"BLQ","type":"Power plant","is_nuclear":false}},{"type":"Feature","geometry":{"type":"Point","coordinates":[-116.298,46.514]},"properties":{"key":"840-3c93262f","layer":"power","name":"Dworshak","state":"ID","detail_file":"data/details/power-plants-36.json","plant_id":"840","capacity_mw":465.0,"status_group":"Operating","energy_sources":"WAT","type":"Power plant","is_nuclear":false}},{"type":"Feature","geometry":{"type":"Point","coordinates":[-116.316,45.218]},"properties":{"key":"50891-bd3a88f0","layer":"power","name":"El Dorado Hydro Elk Creek","state":"ID","detail_file":"data/details/power-plants-54.json","plant_id":"50891","capacity_mw":2.6,"status_group":"Operating","energy_sources":"WAT","type":"Power plant","is_nuclear":false}},{"type":"Feature","geometry":{"type":"Point","coordinates":[-116.93,47.532]},"properties":{"key":"57902-1827f163","layer":"power","name":"Fighting Creek LFGTE Plant","state":"ID","detail_file":"data/details/power-plants-29.json","plant_id":"57902","capacity_mw":3.2,"status_group":"Operating","energy_sources":"LFG","type":"Power plant","is_nuclear":false}},{"type":"Feature","geometry":{"type":"Point","coordinates":[-116.89,47.331]},"properties":{"key":"55090-7e307a69","layer":"power","name":"Plummer Cogen","state":"ID","detail_file":"data/details/power-plants-19.json","plant_id":"55090","capacity_mw":6.2,"status_group":"Operating","energy_sources":"WDS","type":"Power plant","is_nuclear":false}},{"type":"Feature","geometry":{"type":"Point","coordinates":[-116.954,47.703]},"properties":{"key":"835-68e50b6e","layer":"power","name":"Post Falls","state":"ID","detail_file":"data/details/power-plants-11.json","plant_id":"835","capacity_mw":14.5,"status_group":"Operating","energy_sources":"WAT","type":"Power plant","is_nuclear":false}},{"type":"Feature","geometry":{"type":"Point","coordinates":[-116.867,47.804]},"properties":{"key":"7456-bb2cbdf5","layer":"power","name":"Rathdrum","state":"ID","detail_file":"data/details/power-plants-62.json","plant_id":"7456","capacity_mw":166.4,"status_group":"Operating","energy_sources":"NG","type":"Power plant","is_nuclear":false}},{"type":"Feature","geometry":{"type":"Point","coordinates":[-116.92,47.786]},"properties":{"key":"55179-db4f690e","layer":"power","name":"Rathdrum Power LLC","state":"ID","detail_file":"data/details/power-plants-11.json","plant_id":"55179","capacity_mw":301.5,"status_group":"Operating","energy_sources":"NG","type":"Power plant","is_nuclear":false}},{"type":"Feature","geometry":{"type":"Point","coordinates":[-116.387,44.955]},"properties":{"key":"50099-a38806d4","layer":"power","name":"Tamarack Energy","state":"ID","detail_file":"data/details/power-plants-57.json","plant_id":"50099","capacity_mw":6.2,"status_group":"Operating","energy_sources":"WDS","type":"Power plant","is_nuclear":false}},{"type":"Feature","geometry":{"type":"Point","coordinates":[-116.985,44.248]},"properties":{"key":"66330-61a8c512","layer":"power","name":"Weiser BESS","state":"ID","detail_file":"data/details/power-plants-39.json","plant_id":"66330","capacity_mw":3.0,"status_group":"Operating","energy_sources":"MWH","type":"Power plant","is_nuclear":false}},{"type":"Feature","geometry":{"type":"Point","coordinates":[-117.763,44.702]},"properties":{"key":"61854-6d072fed","layer":"power","name":"Baker City Solar","state":"OR","detail_file":"data/details/power-plants-54.json","plant_id":"61854","capacity_mw":15.0,"status_group":"Operating","energy_sources":"SUN","type":"Power plant","is_nuclear":false}},{"type":"Feature","geometry":{"type":"Point","coordinates":[-117.344,44.367]},"properties":{"key":"59491-8450d9ef","layer":"power","name":"Benson Creek Windfarm (Burnt River)","state":"OR","detail_file":"data/details/power-plants-39.json","plant_id":"59491","capacity_mw":10.0,"status_group":"Operating","energy_sources":"WND","type":"Power plant","is_nuclear":false}},{"type":"Feature","geometry":{"type":"Point","coordinates":[-119.465,45.655]},"properties":{"key":"56968-67b59a89","layer":"power","name":"Big Top LLC","state":"OR","detail_file":"data/details/power-plants-50.json","plant_id":"56968","capacity_mw":1.7,"status_group":"Operating","energy_sources":"WND","type":"Power plant","is_nuclear":false}},{"type":"Feature","geometry":{"type":"Point","coordinates":[-118.204,44.465]},"properties":{"key":"61844-2114bca0","layer":"power","name":"Brush Solar Center","state":"OR","detail_file":"data/details/power-plants-22.json","plant_id":"61844","capacity_mw":2.8,"status_group":"Operating","energy_sources":"SUN","type":"Power plant","is_nuclear":false}},{"type":"Feature","geometry":{"type":"Point","coordinates":[-119.422,45.702]},"properties":{"key":"56967-42b20c48","layer":"power","name":"Butter Creek Power LLC","state":"OR","detail_file":"data/details/power-plants-51.json","plant_id":"56967","capacity_mw":5.0,"status_group":"Operating","energy_sources":"WND","type":"Power plant","is_nuclear":false}},{"type":"Feature","geometry":{"type":"Point","coordinates":[-119.813,45.699]},"properties":{"key":"58503-e053122b","layer":"power","name":"Carty Generating Station","state":"OR","detail_file":"data/details/power-plants-52.json","plant_id":"58503","capacity_mw":500.0,"status_group":"Operating","energy_sources":"NG","type":"Power plant","is_nuclear":false}},{"type":"Feature","geometry":{"type":"Point","coordinates":[-118.463,45.88]},"properties":{"key":"59076-445cae1b","layer":"power","name":"Chopin Wind LLC","state":"OR","detail_file":"data/details/power-plants-06.json","plant_id":"59076","capacity_mw":10.0,"status_group":"Operating","energy_sources":"WND","type":"Power plant","is_nuclear":false}},{"type":"Feature","geometry":{"type":"Point","coordinates":[-118.721,44.459]},"properties":{"key":"50921-fbff34ac","layer":"power","name":"Co-Gen LLC","state":"OR","detail_file":"data/details/power-plants-16.json","plant_id":"50921","capacity_mw":7.5,"status_group":"Operating","energy_sources":"WDS","type":"Power plant","is_nuclear":false}},{"type":"Feature","geometry":{"type":"Point","coordinates":[-118.591,45.943]},"properties":{"key":"56195-f9445306","layer":"power","name":"Combine Hills I","state":"OR","detail_file":"data/details/power-plants-15.json","plant_id":"56195","capacity_mw":43.0,"status_group":"Operating","energy_sources":"WND","type":"Power plant","is_nuclear":false}},{"type":"Feature","geometry":{"type":"Point","coordinates":[-119.674,45.848]},"properties":{"key":"7350-a54a70c1","layer":"power","name":"Coyote Springs","state":"OR","detail_file":"data/details/power-plants-31.json","plant_id":"7350","capacity_mw":296.0,"status_group":"Operating","energy_sources":"NG","type":"Power plant","is_nuclear":false}},{"type":"Feature","geometry":{"type":"Point","coordinates":[-119.674,45.848]},"properties":{"key":"7931-76c76c4a","layer":"power","name":"Coyote Springs II","state":"OR","detail_file":"data/details/power-plants-14.json","plant_id":"7931","capacity_mw":287.0,"status_group":"Operating","energy_sources":"NG","type":"Power plant","is_nuclear":false}},{"type":"Feature","geometry":{"type":"Point","coordinates":[-117.323,44.353]},"properties":{"key":"59492-15791404","layer":"power","name":"Durbin Creek Windfarm (Burnt River)","state":"OR","detail_file":"data/details/power-plants-23.json","plant_id":"59492","capacity_mw":10.0,"status_group":"Operating","energy_sources":"WND","type":"Power plant","is_nuclear":false}},{"type":"Feature","geometry":{"type":"Point","coordinates":[-117.816,45.085]},"properties":{"key":"56623-db3b9d88","layer":"power","name":"Elkhorn Valley Wind Farm","state":"OR","detail_file":"data/details/power-plants-17.json","plant_id":"56623","capacity_mw":100.7,"status_group":"Operating","energy_sources":"WND","type":"Power plant","is_nuclear":false}},{"type":"Feature","geometry":{"type":"Point","coordinates":[-118.591,45.943]},"properties":{"key":"57137-9093122a","layer":"power","name":"Eurus Combine Hills Turbine Ranch 2","state":"OR","detail_file":"data/details/power-plants-53.json","plant_id":"57137","capacity_mw":66.1,"status_group":"Operating","energy_sources":"WND","type":"Power plant","is_nuclear":false}},{"type":"Feature","geometry":{"type":"Point","coordinates":[-118.816,46.013]},"properties":{"key":"55989-de4d8510","layer":"power","name":"FPL Energy Vansycle LLC (OR)","state":"OR","detail_file":"data/details/power-plants-10.json","plant_id":"55989","capacity_mw":122.8,"status_group":"Operating","energy_sources":"WND","type":"Power plant","is_nuclear":false}},{"type":"Feature","geometry":{"type":"Point","coordinates":[-119.61,45.69]},"properties":{"key":"58687-aa97f00f","layer":"power","name":"Finley Buttes Landfill Gas","state":"OR","detail_file":"data/details/power-plants-53.json","plant_id":"58687","capacity_mw":4.8,"status_group":"Operating","energy_sources":"LFG","type":"Power plant","is_nuclear":false}},{"type":"Feature","geometry":{"type":"Point","coordinates":[-119.418,45.729]},"properties":{"key":"56969-9ca7ab20","layer":"power","name":"Four Corners Windfarm LLC","state":"OR","detail_file":"data/details/power-plants-30.json","plant_id":"56969","capacity_mw":8.0,"status_group":"Operating","energy_sources":"WND","type":"Power plant","is_nuclear":false}},{"type":"Feature","geometry":{"type":"Point","coordinates":[-119.453,45.645]},"properties":{"key":"56970-1c924b80","layer":"power","name":"Four Mile Canyon Windfarm LLC","state":"OR","detail_file":"data/details/power-plants-34.json","plant_id":"56970","capacity_mw":10.0,"status_group":"Operating","energy_sources":"WND","type":"Power plant","is_nuclear":false}},{"type":"Feature","geometry":{"type":"Point","coordinates":[-116.701,45.244]},"properties":{"key":"3013-fd113936","layer":"power","name":"Hells Canyon","state":"OR","detail_file":"data/details/power-plants-49.json","plant_id":"3013","capacity_mw":411.1,"status_group":"Operating","energy_sources":"WAT","type":"Power plant","is_nuclear":false}},{"type":"Feature","geometry":{"type":"Point","coordinates":[-119.37,45.804]},"properties":{"key":"54761-ced65319","layer":"power","name":"Hermiston Generating Plant","state":"OR","detail_file":"data/details/power-plants-53.json","plant_id":"54761","capacity_mw":621.2,"status_group":"Operating","energy_sources":"NG","type":"Power plant","is_nuclear":false}},{"type":"Feature","geometry":{"type":"Point","coordinates":[-119.313,45.794]},"properties":{"key":"55328-d61b3973","layer":"power","name":"Hermiston Power Partnership","state":"OR","detail_file":"data/details/power-plants-39.json","plant_id":"55328","capacity_mw":689.4,"status_group":"Operating","energy_sources":"NG","type":"Power plant","is_nuclear":false}},{"type":"Feature","geometry":{"type":"Point","coordinates":[-117.0,44.151]},"properties":{"key":"60331-2f7f39aa","layer":"power","name":"Hyline Solar Center, LLC","state":"OR","detail_file":"data/details/power-plants-49.json","plant_id":"60331","capacity_mw":9.0,"status_group":"Operating","energy_sources":"SUN","type":"Power plant","is_nuclear":false}},{"type":"Feature","geometry":{"type":"Point","coordinates":[-117.274,44.425]},"properties":{"key":"59490-c79becb8","layer":"power","name":"Jett Creek Windfarm (Burnt River)","state":"OR","detail_file":"data/details/power-plants-13.json","plant_id":"59490","capacity_mw":10.0,"status_group":"Operating","energy_sources":"WND","type":"Power plant","is_nuclear":false}},{"type":"Feature","geometry":{"type":"Point","coordinates":[-117.272,44.397]},"properties":{"key":"57803-7d4db6c8","layer":"power","name":"Lime Wind","state":"OR","detail_file":"data/details/power-plants-37.json","plant_id":"57803","capacity_mw":3.0,"status_group":"Operating","energy_sources":"WND","type":"Power plant","is_nuclear":false}},{"type":"Feature","geometry":{"type":"Point","coordinates":[-119.299,45.94]},"properties":{"key":"3084-bbfe5abc","layer":"power","name":"McNary","state":"OR","detail_file":"data/details/power-plants-39.json","plant_id":"3084","capacity_mw":990.5,"status_group":"Operating","energy_sources":"WAT","type":"Power plant","is_nuclear":false}},{"type":"Feature","geometry":{"type":"Point","coordinates":[-117.468,44.023]},"properties":{"key":"58022-f76a6198","layer":"power","name":"Neal Hot Springs Geothermal Project","state":"OR","detail_file":"data/details/power-plants-31.json","plant_id":"58022","capacity_mw":33.0,"status_group":"Operating","energy_sources":"GEO","type":"Power plant","is_nuclear":false}},{"type":"Feature","geometry":{"type":"Point","coordinates":[-119.114,45.555]},"properties":{"key":"60070-8b37007f","layer":"power","name":"Nolin Hills","state":"OR","detail_file":"data/details/power-plants-63.json","plant_id":"60070","capacity_mw":600.0,"status_group":"Planned","energy_sources":"SUN; WND","type":"Power plant","is_nuclear":false}},{"type":"Feature","geometry":{"type":"Point","coordinates":[-119.343,45.917]},"properties":{"key":"62241-2d3918cd","layer":"power","name":"NorWest Energy 9 LLC","state":"OR","detail_file":"data/details/power-plants-42.json","plant_id":"62241","capacity_mw":6.0,"status_group":"Operating","energy_sources":"SUN","type":"Power plant","is_nuclear":false}},{"type":"Feature","geometry":{"type":"Point","coordinates":[-117.028,44.113]},"properties":{"key":"61860-d2247734","layer":"power","name":"Ontario Solar Center","state":"OR","detail_file":"data/details/power-plants-14.json","plant_id":"61860","capacity_mw":3.0,"status_group":"Operating","energy_sources":"SUN","type":"Power plant","is_nuclear":false}},{"type":"Feature","geometry":{"type":"Point","coordinates":[-119.333,45.38]},"properties":{"key":"62935-8404ac76","layer":"power","name":"Orchard Windfarm 1, LLC","state":"OR","detail_file":"data/details/power-plants-36.json","plant_id":"62935","capacity_mw":10.0,"status_group":"Operating","energy_sources":"WND","type":"Power plant","is_nuclear":false}},{"type":"Feature","geometry":{"type":"Point","coordinates":[-119.333,45.38]},"properties":{"key":"64051-4282923d","layer":"power","name":"Orchard Windfarm 2, LLC","state":"OR","detail_file":"data/details/power-plants-08.json","plant_id":"64051","capacity_mw":10.0,"status_group":"Operating","energy_sources":"WND","type":"Power plant","is_nuclear":false}},{"type":"Feature","geometry":{"type":"Point","coordinates":[-119.333,45.38]},"properties":{"key":"64052-7fc334e8","layer":"power","name":"Orchard Windfarm 3, LLC","state":"OR","detail_file":"data/details/power-plants-43.json","plant_id":"64052","capacity_mw":10.0,"status_group":"Operating","energy_sources":"WND","type":"Power plant","is_nuclear":false}},{"type":"Feature","geometry":{"type":"Point","coordinates":[-119.333,45.38]},"properties":{"key":"64053-8739aa78","layer":"power","name":"Orchard Windfarm 4, LLC","state":"OR","detail_file":"data/details/power-plants-32.json","plant_id":"64053","capacity_mw":10.0,"status_group":"Operating","energy_sources":"WND","type":"Power plant","is_nuclear":false}},{"type":"Feature","geometry":{"type":"Point","coordinates":[-119.404,45.712]},"properties":{"key":"56971-72771bca","layer":"power","name":"Oregon Trail Windfarm LLC","state":"OR","detail_file":"data/details/power-plants-50.json","plant_id":"56971","capacity_mw":9.9,"status_group":"Operating","energy_sources":"WND","type":"Power plant","is_nuclear":false}},{"type":"Feature","geometry":{"type":"Point","coordinates":[-116.835,44.972]},"properties":{"key":"3014-af644c8b","layer":"power","name":"Oxbow (OR)","state":"OR","detail_file":"data/details/power-plants-33.json","plant_id":"3014","capacity_mw":190.0,"status_group":"Operating","energy_sources":"WAT","type":"Power plant","is_nuclear":false}},{"type":"Feature","geometry":{"type":"Point","coordinates":[-119.487,45.654]},"properties":{"key":"56972-25b64c22","layer":"power","name":"Pacific Canyon Windfarm LLC","state":"OR","detail_file":"data/details/power-plants-37.json","plant_id":"56972","capacity_mw":8.3,"status_group":"Operating","energy_sources":"WND","type":"Power plant","is_nuclear":false}},{"type":"Feature","geometry":{"type":"Point","coordinates":[-118.831,45.506]},"properties":{"key":"69518-4674f763","layer":"power","name":"Pilot Rock Solar 1","state":"OR","detail_file":"data/details/power-plants-09.json","plant_id":"69518","capacity_mw":2.0,"status_group":"Operating","energy_sources":"SUN","type":"Power plant","is_nuclear":false}},{"type":"Feature","geometry":{"type":"Point","coordinates":[-118.83,45.507]},"properties":{"key":"69519-a7896518","layer":"power","name":"Pilot Rock Solar 2","state":"OR","detail_file":"data/details/power-plants-27.json","plant_id":"69519","capacity_mw":3.0,"status_group":"Operating","energy_sources":"SUN","type":"Power plant","is_nuclear":false}},{"type":"Feature","geometry":{"type":"Point","coordinates":[-117.255,44.418]},"properties":{"key":"59493-1d1b04c7","layer":"power","name":"Prospector Windfarm (Burnt River)","state":"OR","detail_file":"data/details/power-plants-05.json","plant_id":"59493","capacity_mw":10.0,"status_group":"Operating","energy_sources":"WND","type":"Power plant","is_nuclear":false}},{"type":"Feature","geometry":{"type":"Point","coordinates":[-119.477,45.645]},"properties":{"key":"56973-8de9439e","layer":"power","name":"Sand Ranch Windfarm LLC","state":"OR","detail_file":"data/details/power-plants-13.json","plant_id":"56973","capacity_mw":9.9,"status_group":"Operating","energy_sources":"WND","type":"Power plant","is_nuclear":false}},{"type":"Feature","geometry":{"type":"Point","coordinates":[-118.497,45.907]},"properties":{"key":"65737-5186bd4f","layer":"power","name":"Schumann Wind Farm","state":"OR","detail_file":"data/details/power-plants-19.json","plant_id":"65737","capacity_mw":8.0,"status_group":"Operating","energy_sources":"WND","type":"Power plant","is_nuclear":false}},{"type":"Feature","geometry":{"type":"Point","coordinates":[-119.563,45.606]},"properties":{"key":"68396-b90eded3","layer":"power","name":"Sunstone Solar","state":"OR","detail_file":"data/details/power-plants-26.json","plant_id":"68396","capacity_mw":2400.0,"status_group":"Under construction","energy_sources":"MWH; SUN","type":"Power plant","is_nuclear":false}},{"type":"Feature","geometry":{"type":"Point","coordinates":[-119.938,45.676]},"properties":{"key":"56933-b4cf980e","layer":"power","name":"Threemile Canyon","state":"OR","detail_file":"data/details/power-plants-48.json","plant_id":"56933","capacity_mw":9.9,"status_group":"Operating","energy_sources":"WND","type":"Power plant","is_nuclear":false}},{"type":"Feature","geometry":{"type":"Point","coordinates":[-119.799,45.821]},"properties":{"key":"68329-ce3af616","layer":"power","name":"Tower Solar, LLC","state":"OR","detail_file":"data/details/power-plants-29.json","plant_id":"68329","capacity_mw":120.0,"status_group":"Operating","energy_sources":"SUN","type":"Power plant","is_nuclear":false}},{"type":"Feature","geometry":{"type":"Point","coordinates":[-117.444,44.158]},"properties":{"key":"61856-9f23a55d","layer":"power","name":"Vale Solar Center","state":"OR","detail_file":"data/details/power-plants-09.json","plant_id":"61856","capacity_mw":3.0,"status_group":"Operating","energy_sources":"SUN","type":"Power plant","is_nuclear":false}},{"type":"Feature","geometry":{"type":"Point","coordinates":[-118.66,45.936]},"properties":{"key":"55125-1ce77b25","layer":"power","name":"Vansycle","state":"OR","detail_file":"data/details/power-plants-24.json","plant_id":"55125","capacity_mw":25.0,"status_group":"Operating","energy_sources":"WND","type":"Power plant","is_nuclear":false}},{"type":"Feature","geometry":{"type":"Point","coordinates":[-118.591,45.899]},"properties":{"key":"58324-0fce2b84","layer":"power","name":"Vansycle II Wind Energy Center","state":"OR","detail_file":"data/details/power-plants-62.json","plant_id":"58324","capacity_mw":102.3,"status_group":"Operating","energy_sources":"WND","type":"Power plant","is_nuclear":false}},{"type":"Feature","geometry":{"type":"Point","coordinates":[-117.004,44.036]},"properties":{"key":"68338-48ce629d","layer":"power","name":"Verde Light Community Solar","state":"OR","detail_file":"data/details/power-plants-27.json","plant_id":"68338","capacity_mw":3.0,"status_group":"Operating","energy_sources":"SUN","type":"Power plant","is_nuclear":false}},{"type":"Feature","geometry":{"type":"Point","coordinates":[-119.463,45.653]},"properties":{"key":"56974-160b6881","layer":"power","name":"Wagon Trail LLC","state":"OR","detail_file":"data/details/power-plants-45.json","plant_id":"56974","capacity_mw":3.3,"status_group":"Operating","energy_sources":"WND","type":"Power plant","is_nuclear":false}},{"type":"Feature","geometry":{"type":"Point","coordinates":[-117.213,45.267]},"properties":{"key":"3041-a603f4a2","layer":"power","name":"Wallowa Falls","state":"OR","detail_file":"data/details/power-plants-23.json","plant_id":"3041","capacity_mw":1.1,"status_group":"Operating","energy_sources":"WAT","type":"Power plant","is_nuclear":false}},{"type":"Feature","geometry":{"type":"Point","coordinates":[-119.41,45.697]},"properties":{"key":"56975-da9a4293","layer":"power","name":"Ward Butte Windfarm LLC","state":"OR","detail_file":"data/details/power-plants-51.json","plant_id":"56975","capacity_mw":6.6,"status_group":"Operating","energy_sources":"WND","type":"Power plant","is_nuclear":false}},{"type":"Feature","geometry":{"type":"Point","coordinates":[-119.634,45.56]},"properties":{"key":"64057-5a7260a5","layer":"power","name":"Wheatridge 1","state":"OR","detail_file":"data/details/power-plants-60.json","plant_id":"64057","capacity_mw":100.0,"status_group":"Operating","energy_sources":"WND","type":"Power plant","is_nuclear":false}},{"type":"Feature","geometry":{"type":"Point","coordinates":[-119.382,45.543]},"properties":{"key":"66560-248d90d3","layer":"power","name":"Wheatridge East Wind","state":"OR","detail_file":"data/details/power-plants-12.json","plant_id":"66560","capacity_mw":200.0,"status_group":"Operating","energy_sources":"WND","type":"Power plant","is_nuclear":false}},{"type":"Feature","geometry":{"type":"Point","coordinates":[-119.634,45.56]},"properties":{"key":"62745-14e0af71","layer":"power","name":"Wheatridge Hybrid","state":"OR","detail_file":"data/details/power-plants-33.json","plant_id":"62745","capacity_mw":280.0,"status_group":"Operating","energy_sources":"MWH; SUN; WND","type":"Power plant","is_nuclear":false}},{"type":"Feature","geometry":{"type":"Point","coordinates":[-119.991,45.653]},"properties":{"key":"56952-9798baf8","layer":"power","name":"Willow Creek Energy Center","state":"OR","detail_file":"data/details/power-plants-55.json","plant_id":"56952","capacity_mw":72.0,"status_group":"Operating","energy_sources":"WND","type":"Power plant","is_nuclear":false}},{"type":"Feature","geometry":{"type":"Point","coordinates":[-117.273,44.382]},"properties":{"key":"59494-a0d6c68d","layer":"power","name":"Willow Spring Windfarm (Burnt River)","state":"OR","detail_file":"data/details/power-plants-23.json","plant_id":"59494","capacity_mw":10.0,"status_group":"Operating","energy_sources":"WND","type":"Power plant","is_nuclear":false}},{"type":"Feature","geometry":{"type":"Point","coordinates":[-118.621,46.955]},"properties":{"key":"61933-34f84c11","layer":"power","name":"Adams Nielson Solar","state":"WA","detail_file":"data/details/power-plants-32.json","plant_id":"61933","capacity_mw":19.2,"status_group":"Operating","energy_sources":"SUN","type":"Power plant","is_nuclear":false}},{"type":"Feature","geometry":{"type":"Point","coordinates":[-117.158,46.733]},"properties":{"key":"56932-f059fa5d","layer":"power","name":"Biotech LS 0836","state":"WA","detail_file":"data/details/power-plants-22.json","plant_id":"56932","capacity_mw":1.0,"status_group":"Operating","energy_sources":"DFO","type":"Power plant","is_nuclear":false}},{"type":"Feature","geometry":{"type":"Point","coordinates":[-117.147,47.697]},"properties":{"key":"8022-d0033dd2","layer":"power","name":"Boulder Park","state":"WA","detail_file":"data/details/power-plants-21.json","plant_id":"8022","capacity_mw":24.6,"status_group":"Operating","energy_sources":"NG","type":"Power plant","is_nuclear":false}},{"type":"Feature","geometry":{"type":"Point","coordinates":[-119.334,46.471]},"properties":{"key":"cascade-advanced-energy-facility-wa-3539c055","layer":"power","name":"Cascade Advanced Energy Facility","state":"WA","detail_file":"data/details/power-plants-17.json","plant_id":"cascade-advanced-energy-facility-wa","capacity_mw":320.0,"status_group":"Proposed","energy_sources":"nuclear_smr","type":"Nuclear power plant","is_nuclear":true}},{"type":"Feature","geometry":{"type":"Point","coordinates":[-119.59,46.267]},"properties":{"key":"6406-5159b600","layer":"power","name":"Chandler","state":"WA","detail_file":"data/details/power-plants-12.json","plant_id":"6406","capacity_mw":12.0,"status_group":"Operating","energy_sources":"WAT","type":"Power plant","is_nuclear":false}},{"type":"Feature","geometry":{"type":"Point","coordinates":[-119.64,47.995]},"properties":{"key":"3921-199ce283","layer":"power","name":"Chief Joseph","state":"WA","detail_file":"data/details/power-plants-57.json","plant_id":"3921","capacity_mw":2456.2,"status_group":"Operating","energy_sources":"WAT","type":"Power plant","is_nuclear":false}},{"type":"Feature","geometry":{"type":"Point","coordinates":[-119.334,46.471]},"properties":{"key":"371-eb460f33","layer":"power","name":"Columbia Generating Station","state":"WA","detail_file":"data/details/power-plants-57.json","plant_id":"371","capacity_mw":1200.0,"status_group":"Operating","energy_sources":"NUC","type":"Nuclear power plant","is_nuclear":true}},{"type":"Feature","geometry":{"type":"Point","coordinates":[-119.254,46.378]},"properties":{"key":"56696-e8e0a2bc","layer":"power","name":"Eltopia Branch Canal 4.6","state":"WA","detail_file":"data/details/power-plants-13.json","plant_id":"56696","capacity_mw":2.2,"status_group":"Operating","energy_sources":"WAT","type":"Power plant","is_nuclear":false}},{"type":"Feature","geometry":{"type":"Point","coordinates":[-118.917,46.06]},"properties":{"key":"55560-eca0a78f","layer":"power","name":"FPL Energy Vansycle LLC (WA)","state":"WA","detail_file":"data/details/power-plants-44.json","plant_id":"55560","capacity_mw":176.9,"status_group":"Operating","energy_sources":"WND","type":"Power plant","is_nuclear":false}},{"type":"Feature","geometry":{"type":"Point","coordinates":[-118.977,47.958]},"properties":{"key":"6163-7dba127e","layer":"power","name":"Grand Coulee","state":"WA","detail_file":"data/details/power-plants-04.json","plant_id":"6163","capacity_mw":6809.0,"status_group":"Operating","energy_sources":"WAT","type":"Power plant","is_nuclear":false}},{"type":"Feature","geometry":{"type":"Point","coordinates":[-117.151,46.729]},"properties":{"key":"56016-e12d71da","layer":"power","name":"Grimes Way","state":"WA","detail_file":"data/details/power-plants-27.json","plant_id":"56016","capacity_mw":4.0,"status_group":"Operating","energy_sources":"DFO; NG","type":"Power plant","is_nuclear":false}},{"type":"Feature","geometry":{"type":"Point","coordinates":[-119.959,46.523]},"properties":{"key":"65325-8b044a2a","layer":"power","name":"High Top Solar","state":"WA","detail_file":"data/details/power-plants-20.json","plant_id":"65325","capacity_mw":80.0,"status_group":"Under construction","energy_sources":"SUN","type":"Power plant","is_nuclear":false}},{"type":"Feature","geometry":{"type":"Point","coordinates":[-119.822,46.324]},"properties":{"key":"68342-3d3d20db","layer":"power","name":"Hop Hill Solar Generation and BESS","state":"WA","detail_file":"data/details/power-plants-36.json","plant_id":"68342","capacity_mw":1200.0,"status_group":"Under construction","energy_sources":"MWH; SUN; WND","type":"Power plant","is_nuclear":false}},{"type":"Feature","geometry":{"type":"Point","coordinates":[-117.833,46.421]},"properties":{"key":"56255-4de65260","layer":"power","name":"Hopkins Ridge Wind","state":"WA","detail_file":"data/details/power-plants-35.json","plant_id":"56255","capacity_mw":156.6,"status_group":"Operating","energy_sources":"WND","type":"Power plant","is_nuclear":false}},{"type":"Feature","geometry":{"type":"Point","coordinates":[-119.322,46.353]},"properties":{"key":"64198-baa966cf","layer":"power","name":"Horn Rapids Solar, Storage and Training","state":"WA","detail_file":"data/details/power-plants-36.json","plant_id":"64198","capacity_mw":4.2,"status_group":"Operating","energy_sources":"MWH; SUN","type":"Power plant","is_nuclear":false}},{"type":"Feature","geometry":{"type":"Point","coordinates":[-118.88,46.25]},"properties":{"key":"3925-5f2e24e6","layer":"power","name":"Ice Harbor","state":"WA","detail_file":"data/details/power-plants-06.json","plant_id":"3925","capacity_mw":603.0,"status_group":"Operating","energy_sources":"WAT","type":"Power plant","is_nuclear":false}},{"type":"Feature","geometry":{"type":"Point","coordinates":[-117.917,47.822]},"properties":{"key":"3866-c507c4a8","layer":"power","name":"Little Falls (WA)","state":"WA","detail_file":"data/details/power-plants-38.json","plant_id":"3866","capacity_mw":43.2,"status_group":"Operating","energy_sources":"WAT","type":"Power plant","is_nuclear":false}},{"type":"Feature","geometry":{"type":"Point","coordinates":[-118.027,46.584]},"properties":{"key":"3926-b8e4f97e","layer":"power","name":"Little Goose","state":"WA","detail_file":"data/details/power-plants-35.json","plant_id":"3926","capacity_mw":810.0,"status_group":"Operating","energy_sources":"WAT","type":"Power plant","is_nuclear":false}},{"type":"Feature","geometry":{"type":"Point","coordinates":[-117.836,47.834]},"properties":{"key":"3867-16e0ebe1","layer":"power","name":"Long Lake","state":"WA","detail_file":"data/details/power-plants-50.json","plant_id":"3867","capacity_mw":70.0,"status_group":"Operating","energy_sources":"WAT","type":"Power plant","is_nuclear":false}},{"type":"Feature","geometry":{"type":"Point","coordinates":[-117.429,46.66]},"properties":{"key":"6175-9a35dcb5","layer":"power","name":"Lower Granite","state":"WA","detail_file":"data/details/power-plants-05.json","plant_id":"6175","capacity_mw":810.0,"status_group":"Operating","energy_sources":"WAT","type":"Power plant","is_nuclear":false}},{"type":"Feature","geometry":{"type":"Point","coordinates":[-118.54,46.563]},"properties":{"key":"3927-fcbf96b2","layer":"power","name":"Lower Monumental","state":"WA","detail_file":"data/details/power-plants-27.json","plant_id":"3927","capacity_mw":810.0,"status_group":"Operating","energy_sources":"WAT","type":"Power plant","is_nuclear":false}},{"type":"Feature","geometry":{"type":"Point","coordinates":[-117.822,46.524]},"properties":{"key":"57195-669b593c","layer":"power","name":"Lower Snake River Wind Energy Project","state":"WA","detail_file":"data/details/power-plants-20.json","plant_id":"57195","capacity_mw":342.7,"status_group":"Operating","energy_sources":"WND","type":"Power plant","is_nuclear":false}},{"type":"Feature","geometry":{"type":"Point","coordinates":[-117.826,46.502]},"properties":{"key":"68344-8ce5736b","layer":"power","name":"Lower Snake Solar Generation BESS","state":"WA","detail_file":"data/details/power-plants-17.json","plant_id":"68344","capacity_mw":600.0,"status_group":"Under construction","energy_sources":"MWH; SUN","type":"Power plant","is_nuclear":false}},{"type":"Feature","geometry":{"type":"Point","coordinates":[-119.299,47.616]},"properties":{"key":"56698-bd378d5a","layer":"power","name":"Main Canal Headworks","state":"WA","detail_file":"data/details/power-plants-25.json","plant_id":"56698","capacity_mw":26.8,"status_group":"Operating","energy_sources":"WAT","type":"Power plant","is_nuclear":false}},{"type":"Feature","geometry":{"type":"Point","coordinates":[-117.777,46.375]},"properties":{"key":"56466-34456077","layer":"power","name":"Marengo Wind Plant","state":"WA","detail_file":"data/details/power-plants-19.json","plant_id":"56466","capacity_mw":234.0,"status_group":"Operating","energy_sources":"WND","type":"Power plant","is_nuclear":false}},{"type":"Feature","geometry":{"type":"Point","coordinates":[-119.299,45.94]},"properties":{"key":"7511-e2f2178c","layer":"power","name":"McNary Dam Fish Attraction Project","state":"WA","detail_file":"data/details/power-plants-19.json","plant_id":"7511","capacity_mw":10.0,"status_group":"Operating","energy_sources":"WAT","type":"Power plant","is_nuclear":false}},{"type":"Feature","geometry":{"type":"Point","coordinates":[-117.421,47.654]},"properties":{"key":"9095-ff906080","layer":"power","name":"Monroe Street","state":"WA","detail_file":"data/details/power-plants-07.json","plant_id":"9095","capacity_mw":14.8,"status_group":"Operating","energy_sources":"WAT","type":"Power plant","is_nuclear":false}},{"type":"Feature","geometry":{"type":"Point","coordinates":[-119.096,46.096]},"properties":{"key":"7936-e83580a3","layer":"power","name":"Nine Canyon","state":"WA","detail_file":"data/details/power-plants-22.json","plant_id":"7936","capacity_mw":95.9,"status_group":"Operating","energy_sources":"WND","type":"Power plant","is_nuclear":false}},{"type":"Feature","geometry":{"type":"Point","coordinates":[-117.537,47.77]},"properties":{"key":"3869-2de4ab5c","layer":"power","name":"Nine Mile","state":"WA","detail_file":"data/details/power-plants-61.json","plant_id":"3869","capacity_mw":37.6,"status_group":"Operating","energy_sources":"WAT","type":"Power plant","is_nuclear":false}},{"type":"Feature","geometry":{"type":"Point","coordinates":[-117.371,47.735]},"properties":{"key":"6210-c0b4d137","layer":"power","name":"Northeast (WA)","state":"WA","detail_file":"data/details/power-plants-17.json","plant_id":"6210","capacity_mw":61.8,"status_group":"Operating","energy_sources":"NG","type":"Power plant","is_nuclear":false}},{"type":"Feature","geometry":{"type":"Point","coordinates":[-119.979,46.529]},"properties":{"key":"66384-2d7e76bf","layer":"power","name":"Ostrea Solar, LLC","state":"WA","detail_file":"data/details/power-plants-04.json","plant_id":"66384","capacity_mw":80.0,"status_group":"Operating","energy_sources":"SUN","type":"Power plant","is_nuclear":false}},{"type":"Feature","geometry":{"type":"Point","coordinates":[-117.364,47.156]},"properties":{"key":"57530-b5649821","layer":"power","name":"Palouse","state":"WA","detail_file":"data/details/power-plants-15.json","plant_id":"57530","capacity_mw":105.3,"status_group":"Operating","energy_sources":"WND","type":"Power plant","is_nuclear":false}},{"type":"Feature","geometry":{"type":"Point","coordinates":[-119.254,46.378]},"properties":{"key":"56697-a84a1fe2","layer":"power","name":"Potholes East Canal 66.0","state":"WA","detail_file":"data/details/power-plants-05.json","plant_id":"56697","capacity_mw":2.3,"status_group":"Operating","energy_sources":"WAT","type":"Power plant","is_nuclear":false}},{"type":"Feature","geometry":{"type":"Point","coordinates":[-119.908,46.645]},"properties":{"key":"3887-63c120c0","layer":"power","name":"Priest Rapids","state":"WA","detail_file":"data/details/power-plants-61.json","plant_id":"3887","capacity_mw":950.0,"status_group":"Operating","energy_sources":"WAT","type":"Power plant","is_nuclear":false}},{"type":"Feature","geometry":{"type":"Point","coordinates":[-118.567,46.941]},"properties":{"key":"62936-90460e9b","layer":"power","name":"Rattlesnake Flat","state":"WA","detail_file":"data/details/power-plants-51.json","plant_id":"62936","capacity_mw":144.0,"status_group":"Operating","energy_sources":"WND","type":"Power plant","is_nuclear":false}},{"type":"Feature","geometry":{"type":"Point","coordinates":[-119.112,46.739]},"properties":{"key":"56694-bbd6c178","layer":"power","name":"Russell D Smith","state":"WA","detail_file":"data/details/power-plants-61.json","plant_id":"56694","capacity_mw":6.1,"status_group":"Operating","energy_sources":"WAT","type":"Power plant","is_nuclear":false}},{"type":"Feature","geometry":{"type":"Point","coordinates":[-119.705,47.28]},"properties":{"key":"68252-a3fd2272","layer":"power","name":"SR Quincy Valley","state":"WA","detail_file":"data/details/power-plants-51.json","plant_id":"68252","capacity_mw":130.0,"status_group":"Under construction","energy_sources":"SUN","type":"Power plant","is_nuclear":false}},{"type":"Feature","geometry":{"type":"Point","coordinates":[-119.346,46.789]},"properties":{"key":"62263-a47312ba","layer":"power","name":"Saddle Mountain East Wind Farm","state":"WA","detail_file":"data/details/power-plants-09.json","plant_id":"62263","capacity_mw":126.0,"status_group":"Planned","energy_sources":"WND","type":"Power plant","is_nuclear":false}},{"type":"Feature","geometry":{"type":"Point","coordinates":[-117.504,47.626]},"properties":{"key":"50886-446edb06","layer":"power","name":"Spokane Waste to Energy","state":"WA","detail_file":"data/details/power-plants-42.json","plant_id":"50886","capacity_mw":26.0,"status_group":"Operating","energy_sources":"MSW","type":"Power plant","is_nuclear":false}},{"type":"Feature","geometry":{"type":"Point","coordinates":[-119.292,47.502]},"properties":{"key":"56695-9cb81eb7","layer":"power","name":"Summer Falls Power Plant","state":"WA","detail_file":"data/details/power-plants-51.json","plant_id":"56695","capacity_mw":92.0,"status_group":"Operating","energy_sources":"WAT","type":"Power plant","is_nuclear":false}},{"type":"Feature","geometry":{"type":"Point","coordinates":[-118.027,46.421]},"properties":{"key":"58571-7abbd2cf","layer":"power","name":"Tucannon River Wind Farm","state":"WA","detail_file":"data/details/power-plants-27.json","plant_id":"58571","capacity_mw":266.8,"status_group":"Operating","energy_sources":"WND","type":"Power plant","is_nuclear":false}},{"type":"Feature","geometry":{"type":"Point","coordinates":[-118.255,46.088]},"properties":{"key":"50382-6bcd0633","layer":"power","name":"Twin Reservoirs","state":"WA","detail_file":"data/details/power-plants-26.json","plant_id":"50382","capacity_mw":2.2,"status_group":"Operating","energy_sources":"WAT","type":"Power plant","is_nuclear":false}},{"type":"Feature","geometry":{"type":"Point","coordinates":[-117.419,47.654]},"properties":{"key":"9096-ef68a2c2","layer":"power","name":"Upper Falls","state":"WA","detail_file":"data/details/power-plants-22.json","plant_id":"9096","capacity_mw":10.0,"status_group":"Operating","energy_sources":"WAT","type":"Power plant","is_nuclear":false}},{"type":"Feature","geometry":{"type":"Point","coordinates":[-117.332,47.682]},"properties":{"key":"50380-8b86acf2","layer":"power","name":"Upriver Dam Hydro Plant","state":"WA","detail_file":"data/details/power-plants-52.json","plant_id":"50380","capacity_mw":17.6,"status_group":"Operating","energy_sources":"WAT","type":"Power plant","is_nuclear":false}},{"type":"Feature","geometry":{"type":"Point","coordinates":[-119.97,46.873]},"properties":{"key":"3888-b3384eb6","layer":"power","name":"Wanapum","state":"WA","detail_file":"data/details/power-plants-42.json","plant_id":"3888","capacity_mw":1220.0,"status_group":"Operating","energy_sources":"WAT","type":"Power plant","is_nuclear":false}},{"type":"Feature","geometry":{"type":"Point","coordinates":[-119.865,47.947]},"properties":{"key":"3886-9ae748ad","layer":"power","name":"Wells","state":"WA","detail_file":"data/details/power-plants-00.json","plant_id":"3886","capacity_mw":866.8,"status_group":"Operating","energy_sources":"WAT","type":"Power plant","is_nuclear":false}}]}