{"type":"FeatureCollection","features":[{"type":"Feature","geometry":{"type":"Point","coordinates":[-121.153,44.528]},"properties":{"key":"58455-300728c2","layer":"power","name":"45 Mile Hydroelectric Project","state":"OR","detail_file":"data/details/power-plants-25.json","plant_id":"58455","capacity_mw":3.0,"status_group":"Operating","energy_sources":"WAT","type":"Power plant","is_nuclear":false}},{"type":"Feature","geometry":{"type":"Point","coordinates":[-121.122,44.675]},"properties":{"key":"61496-d4a4cf46","layer":"power","name":"Adams Solar Center","state":"OR","detail_file":"data/details/power-plants-37.json","plant_id":"61496","capacity_mw":10.0,"status_group":"Operating","energy_sources":"SUN","type":"Power plant","is_nuclear":false}},{"type":"Feature","geometry":{"type":"Point","coordinates":[-120.201,45.717]},"properties":{"key":"56855-69c8b215","layer":"power","name":"Arlington Wind Power Project","state":"OR","detail_file":"data/details/power-plants-36.json","plant_id":"56855","capacity_mw":102.9,"status_group":"Operating","energy_sources":"WND","type":"Power plant","is_nuclear":false}},{"type":"Feature","geometry":{"type":"Point","coordinates":[-122.343,45.393]},"properties":{"key":"66378-e1a39d91","layer":"power","name":"Auburn Solar LLC (CSG)","state":"OR","detail_file":"data/details/power-plants-47.json","plant_id":"66378","capacity_mw":2.9,"status_group":"Operating","energy_sources":"SUN","type":"Power plant","is_nuclear":false}},{"type":"Feature","geometry":{"type":"Point","coordinates":[-120.881,45.132]},"properties":{"key":"63507-78e27576","layer":"power","name":"Bakeoven Solar","state":"OR","detail_file":"data/details/power-plants-30.json","plant_id":"63507","capacity_mw":60.0,"status_group":"Operating","energy_sources":"SUN","type":"Power plant","is_nuclear":false}},{"type":"Feature","geometry":{"type":"Point","coordinates":[-122.772,45.269]},"properties":{"key":"57882-14c75a8d","layer":"power","name":"Baldock Solar Highway","state":"OR","detail_file":"data/details/power-plants-55.json","plant_id":"57882","capacity_mw":1.4,"status_group":"Operating","energy_sources":"SUN","type":"Power plant","is_nuclear":false}},{"type":"Feature","geometry":{"type":"Point","coordinates":[-123.395,45.077]},"properties":{"key":"62170-f48ea9b6","layer":"power","name":"Ballston Solar LLC","state":"OR","detail_file":"data/details/power-plants-14.json","plant_id":"62170","capacity_mw":2.2,"status_group":"Operating","energy_sources":"SUN","type":"Power plant","is_nuclear":false}},{"type":"Feature","geometry":{"type":"Point","coordinates":[-121.237,44.061]},"properties":{"key":"61281-0ccf500d","layer":"power","name":"Bear Creek Solar Center","state":"OR","detail_file":"data/details/power-plants-34.json","plant_id":"61281","capacity_mw":10.0,"status_group":"Operating","energy_sources":"SUN","type":"Power plant","is_nuclear":false}},{"type":"Feature","geometry":{"type":"Point","coordinates":[-123.174,46.172]},"properties":{"key":"8073-08b61953","layer":"power","name":"Beaver","state":"OR","detail_file":"data/details/power-plants-57.json","plant_id":"8073","capacity_mw":610.7,"status_group":"Operating","energy_sources":"NG","type":"Power plant","is_nuclear":false}},{"type":"Feature","geometry":{"type":"Point","coordinates":[-123.235,45.112]},"properties":{"key":"57372-31ef59e2","layer":"power","name":"Bellevue Solar Project","state":"OR","detail_file":"data/details/power-plants-14.json","plant_id":"57372","capacity_mw":1.6,"status_group":"Operating","energy_sources":"SUN","type":"Power plant","is_nuclear":false}},{"type":"Feature","geometry":{"type":"Point","coordinates":[-121.313,44.062]},"properties":{"key":"6484-ddfce14d","layer":"power","name":"Bend","state":"OR","detail_file":"data/details/power-plants-55.json","plant_id":"6484","capacity_mw":1.1,"status_group":"Operating","energy_sources":"WAT","type":"Power plant","is_nuclear":false}},{"type":"Feature","geometry":{"type":"Point","coordinates":[-122.283,44.751]},"properties":{"key":"3074-8286cca7","layer":"power","name":"Big Cliff","state":"OR","detail_file":"data/details/power-plants-24.json","plant_id":"3074","capacity_mw":18.0,"status_group":"Operating","energy_sources":"WAT","type":"Power plant","is_nuclear":false}},{"type":"Feature","geometry":{"type":"Point","coordinates":[-122.954,44.966]},"properties":{"key":"63467-4130ee9d","layer":"power","name":"Bighorn Solar","state":"OR","detail_file":"data/details/power-plants-02.json","plant_id":"63467","capacity_mw":2.2,"status_group":"Operating","energy_sources":"SUN","type":"Power plant","is_nuclear":false}},{"type":"Feature","geometry":{"type":"Point","coordinates":[-120.603,45.654]},"properties":{"key":"56485-d3bb8a15","layer":"power","name":"Biglow Canyon Wind Farm","state":"OR","detail_file":"data/details/power-plants-17.json","plant_id":"56485","capacity_mw":449.7,"status_group":"Operating","energy_sources":"WND","type":"Power plant","is_nuclear":false}},{"type":"Feature","geometry":{"type":"Point","coordinates":[-120.625,45.606]},"properties":{"key":"68316-0a086559","layer":"power","name":"Biglow Solar Generation and BESS","state":"OR","detail_file":"data/details/power-plants-48.json","plant_id":"68316","capacity_mw":250.0,"status_group":"Under construction","energy_sources":"MWH; SUN","type":"Power plant","is_nuclear":false}},{"type":"Feature","geometry":{"type":"Point","coordinates":[-121.941,45.644]},"properties":{"key":"3075-dab1d10b","layer":"power","name":"Bonneville","state":"OR","detail_file":"data/details/power-plants-62.json","plant_id":"3075","capacity_mw":1162.0,"status_group":"Operating","energy_sources":"WAT","type":"Power plant","is_nuclear":false}},{"type":"Feature","geometry":{"type":"Point","coordinates":[-122.285,45.431]},"properties":{"key":"62169-96ccb08a","layer":"power","name":"Boring Solar LLC","state":"OR","detail_file":"data/details/power-plants-14.json","plant_id":"62169","capacity_mw":2.2,"status_group":"Operating","energy_sources":"SUN","type":"Power plant","is_nuclear":false}},{"type":"Feature","geometry":{"type":"Point","coordinates":[-122.084,45.385]},"properties":{"key":"64830-cba40c1e","layer":"power","name":"Brightwood Solar, LLC","state":"OR","detail_file":"data/details/power-plants-07.json","plant_id":"64830","capacity_mw":10.0,"status_group":"Operating","energy_sources":"SUN","type":"Power plant","is_nuclear":false}},{"type":"Feature","geometry":{"type":"Point","coordinates":[-122.79,45.15]},"properties":{"key":"64009-8eeed4b1","layer":"power","name":"BristolSolar","state":"OR","detail_file":"data/details/power-plants-57.json","plant_id":"64009","capacity_mw":3.0,"status_group":"Operating","energy_sources":"SUN","type":"Power plant","is_nuclear":false}},{"type":"Feature","geometry":{"type":"Point","coordinates":[-122.813,44.984]},"properties":{"key":"63464-7d22ef9c","layer":"power","name":"Brush Creek Solar","state":"OR","detail_file":"data/details/power-plants-35.json","plant_id":"63464","capacity_mw":2.2,"status_group":"Operating","energy_sources":"SUN","type":"Power plant","is_nuclear":false}},{"type":"Feature","geometry":{"type":"Point","coordinates":[-123.013,44.388]},"properties":{"key":"69408-e3c07820","layer":"power","name":"Burlingame Solar Community Solar","state":"OR","detail_file":"data/details/power-plants-02.json","plant_id":"69408","capacity_mw":2.1,"status_group":"Operating","energy_sources":"SUN","type":"Power plant","is_nuclear":false}},{"type":"Feature","geometry":{"type":"Point","coordinates":[-123.41,45.102]},"properties":{"key":"63694-deb89108","layer":"power","name":"Butler Solar, LLC","state":"OR","detail_file":"data/details/power-plants-63.json","plant_id":"63694","capacity_mw":4.0,"status_group":"Operating","energy_sources":"SUN","type":"Power plant","is_nuclear":false}},{"type":"Feature","geometry":{"type":"Point","coordinates":[-122.041,44.286]},"properties":{"key":"3067-8b659173","layer":"power","name":"Carmen Smith","state":"OR","detail_file":"data/details/power-plants-32.json","plant_id":"3067","capacity_mw":114.3,"status_group":"Operating","energy_sources":"WAT","type":"Power plant","is_nuclear":false}},{"type":"Feature","geometry":{"type":"Point","coordinates":[-122.928,45.075]},"properties":{"key":"65745-bae32ad0","layer":"power","name":"Carnes Creek Solar (CSG)","state":"OR","detail_file":"data/details/power-plants-11.json","plant_id":"65745","capacity_mw":2.5,"status_group":"Operating","energy_sources":"SUN","type":"Power plant","is_nuclear":false}},{"type":"Feature","geometry":{"type":"Point","coordinates":[-120.947,44.247]},"properties":{"key":"69781-ac5c2977","layer":"power","name":"Cartwright Solar I","state":"OR","detail_file":"data/details/power-plants-58.json","plant_id":"69781","capacity_mw":44.0,"status_group":"Operating","energy_sources":"SUN","type":"Power plant","is_nuclear":false}},{"type":"Feature","geometry":{"type":"Point","coordinates":[-120.938,44.244]},"properties":{"key":"69782-5bd98434","layer":"power","name":"Cartwright Solar II","state":"OR","detail_file":"data/details/power-plants-42.json","plant_id":"69782","capacity_mw":17.6,"status_group":"Under construction","energy_sources":"SUN","type":"Power plant","is_nuclear":false}},{"type":"Feature","geometry":{"type":"Point","coordinates":[-122.912,45.172]},"properties":{"key":"63207-8bc485c6","layer":"power","name":"Case Creek Solar","state":"OR","detail_file":"data/details/power-plants-06.json","plant_id":"63207","capacity_mw":2.2,"status_group":"Operating","energy_sources":"SUN","type":"Power plant","is_nuclear":false}},{"type":"Feature","geometry":{"type":"Point","coordinates":[-120.898,45.234]},"properties":{"key":"66011-3e39df9b","layer":"power","name":"Cedar Island Solar LLC","state":"OR","detail_file":"data/details/power-plants-12.json","plant_id":"66011","capacity_mw":800.0,"status_group":"Under construction","energy_sources":"SUN","type":"Power plant","is_nuclear":false}},{"type":"Feature","geometry":{"type":"Point","coordinates":[-122.781,45.342]},"properties":{"key":"67698-924177b8","layer":"power","name":"Coffee Creek BESS","state":"OR","detail_file":"data/details/power-plants-26.json","plant_id":"67698","capacity_mw":17.0,"status_group":"Operating","energy_sources":"MWH","type":"Power plant","is_nuclear":false}},{"type":"Feature","geometry":{"type":"Point","coordinates":[-123.223,44.697]},"properties":{"key":"7725-3d2f6a90","layer":"power","name":"Coffin Butte","state":"OR","detail_file":"data/details/power-plants-62.json","plant_id":"7725","capacity_mw":5.6,"status_group":"Operating","energy_sources":"LFG","type":"Power plant","is_nuclear":false}},{"type":"Feature","geometry":{"type":"Point","coordinates":[-122.473,45.17]},"properties":{"key":"61831-41e31c3c","layer":"power","name":"Colton Solar","state":"OR","detail_file":"data/details/power-plants-41.json","plant_id":"61831","capacity_mw":2.2,"status_group":"Operating","energy_sources":"SUN","type":"Power plant","is_nuclear":false}},{"type":"Feature","geometry":{"type":"Point","coordinates":[-120.279,45.277]},"properties":{"key":"55739-e10903a4","layer":"power","name":"Condon Windpower LLC","state":"OR","detail_file":"data/details/power-plants-28.json","plant_id":"55739","capacity_mw":49.8,"status_group":"Operating","energy_sources":"WND","type":"Power plant","is_nuclear":false}},{"type":"Feature","geometry":{"type":"Point","coordinates":[-122.944,45.559]},"properties":{"key":"67712-976db8a4","layer":"power","name":"Constable BESS","state":"OR","detail_file":"data/details/power-plants-38.json","plant_id":"67712","capacity_mw":75.0,"status_group":"Operating","energy_sources":"MWH","type":"Power plant","is_nuclear":false}},{"type":"Feature","geometry":{"type":"Point","coordinates":[-121.524,45.665]},"properties":{"key":"10323-35b5b6e2","layer":"power","name":"Copper Dam Plant","state":"OR","detail_file":"data/details/power-plants-00.json","plant_id":"10323","capacity_mw":2.6,"status_group":"Operating","energy_sources":"WAT","type":"Power plant","is_nuclear":false}},{"type":"Feature","geometry":{"type":"Point","coordinates":[-123.499,45.058]},"properties":{"key":"65746-743ad628","layer":"power","name":"Cosper Creek Solar (CSG)","state":"OR","detail_file":"data/details/power-plants-00.json","plant_id":"65746","capacity_mw":2.5,"status_group":"Operating","energy_sources":"SUN","type":"Power plant","is_nuclear":false}},{"type":"Feature","geometry":{"type":"Point","coordinates":[-122.244,44.131]},"properties":{"key":"3076-f58dbb37","layer":"power","name":"Cougar","state":"OR","detail_file":"data/details/power-plants-26.json","plant_id":"3076","capacity_mw":26.0,"status_group":"Operating","energy_sources":"WAT","type":"Power plant","is_nuclear":false}},{"type":"Feature","geometry":{"type":"Point","coordinates":[-121.137,45.614]},"properties":{"key":"7431-7a27c4d4","layer":"power","name":"Dalles Dam North Fishway Project","state":"OR","detail_file":"data/details/power-plants-28.json","plant_id":"7431","capacity_mw":6.5,"status_group":"Operating","energy_sources":"WAT","type":"Power plant","is_nuclear":false}},{"type":"Feature","geometry":{"type":"Point","coordinates":[-122.329,45.269]},"properties":{"key":"63957-b6637bf2","layer":"power","name":"Day Hill Solar, LLC","state":"OR","detail_file":"data/details/power-plants-59.json","plant_id":"63957","capacity_mw":2.3,"status_group":"Operating","energy_sources":"SUN","type":"Power plant","is_nuclear":false}},{"type":"Feature","geometry":{"type":"Point","coordinates":[-120.881,45.132]},"properties":{"key":"64974-fd554be8","layer":"power","name":"Daybreak Solar","state":"OR","detail_file":"data/details/power-plants-35.json","plant_id":"64974","capacity_mw":151.7,"status_group":"Operating","energy_sources":"SUN","type":"Power plant","is_nuclear":false}},{"type":"Feature","geometry":{"type":"Point","coordinates":[-123.135,45.17]},"properties":{"key":"61827-3348f0dc","layer":"power","name":"Dayton Cutoff Solar","state":"OR","detail_file":"data/details/power-plants-09.json","plant_id":"61827","capacity_mw":2.2,"status_group":"Operating","energy_sources":"SUN","type":"Power plant","is_nuclear":false}},{"type":"Feature","geometry":{"type":"Point","coordinates":[-121.136,45.157]},"properties":{"key":"68763-fe6ec513","layer":"power","name":"Deschutes Solar and BESS","state":"OR","detail_file":"data/details/power-plants-18.json","plant_id":"68763","capacity_mw":2000.0,"status_group":"Under construction","energy_sources":"MWH; SUN","type":"Power plant","is_nuclear":false}},{"type":"Feature","geometry":{"type":"Point","coordinates":[-122.251,44.722]},"properties":{"key":"3077-261b2e3d","layer":"power","name":"Detroit","state":"OR","detail_file":"data/details/power-plants-43.json","plant_id":"3077","capacity_mw":100.0,"status_group":"Operating","energy_sources":"WAT","type":"Power plant","is_nuclear":false}},{"type":"Feature","geometry":{"type":"Point","coordinates":[-122.803,44.971]},"properties":{"key":"63466-dbb42378","layer":"power","name":"Drift Creek Solar","state":"OR","detail_file":"data/details/power-plants-36.json","plant_id":"63466","capacity_mw":2.2,"status_group":"Operating","energy_sources":"SUN","type":"Power plant","is_nuclear":false}},{"type":"Feature","geometry":{"type":"Point","coordinates":[-122.286,45.431]},"properties":{"key":"63642-5121000d","layer":"power","name":"Dunn Road Solar","state":"OR","detail_file":"data/details/power-plants-35.json","plant_id":"63642","capacity_mw":1.8,"status_group":"Operating","energy_sources":"SUN","type":"Power plant","is_nuclear":false}},{"type":"Feature","geometry":{"type":"Point","coordinates":[-122.766,45.401]},"properties":{"key":"60263-50baf284","layer":"power","name":"Durham AWTF","state":"OR","detail_file":"data/details/power-plants-25.json","plant_id":"60263","capacity_mw":1.6,"status_group":"Operating","energy_sources":"OBG","type":"Power plant","is_nuclear":false}},{"type":"Feature","geometry":{"type":"Point","coordinates":[-122.331,45.318]},"properties":{"key":"63330-2e3e9aab","layer":"power","name":"Duus Solar, LLC","state":"OR","detail_file":"data/details/power-plants-22.json","plant_id":"63330","capacity_mw":10.0,"status_group":"Operating","energy_sources":"SUN","type":"Power plant","is_nuclear":false}},{"type":"Feature","geometry":{"type":"Point","coordinates":[-121.205,44.618]},"properties":{"key":"61497-3062c45b","layer":"power","name":"Elbe Solar Center","state":"OR","detail_file":"data/details/power-plants-34.json","plant_id":"61497","capacity_mw":10.0,"status_group":"Operating","energy_sources":"SUN","type":"Power plant","is_nuclear":false}},{"type":"Feature","geometry":{"type":"Point","coordinates":[-122.612,44.771]},"properties":{"key":"56781-b663f6e4","layer":"power","name":"Evergreen BioPower LLC","state":"OR","detail_file":"data/details/power-plants-20.json","plant_id":"56781","capacity_mw":21.0,"status_group":"Operating","energy_sources":"WDS","type":"Power plant","is_nuclear":false}},{"type":"Feature","geometry":{"type":"Point","coordinates":[-122.35,44.397]},"properties":{"key":"52187-fdf1ec2d","layer":"power","name":"Falls Creek","state":"OR","detail_file":"data/details/power-plants-12.json","plant_id":"52187","capacity_mw":4.1,"status_group":"Operating","energy_sources":"WAT","type":"Power plant","is_nuclear":false}},{"type":"Feature","geometry":{"type":"Point","coordinates":[-122.32,45.268]},"properties":{"key":"3045-46b0a630","layer":"power","name":"Faraday","state":"OR","detail_file":"data/details/power-plants-63.json","plant_id":"3045","capacity_mw":37.2,"status_group":"Operating","energy_sources":"WAT","type":"Power plant","is_nuclear":false}},{"type":"Feature","geometry":{"type":"Point","coordinates":[-122.25,45.35]},"properties":{"key":"63331-5f9a51ba","layer":"power","name":"Firwood Solar, LLC","state":"OR","detail_file":"data/details/power-plants-43.json","plant_id":"63331","capacity_mw":10.0,"status_group":"Operating","energy_sources":"SUN","type":"Power plant","is_nuclear":false}},{"type":"Feature","geometry":{"type":"Point","coordinates":[-122.671,44.415]},"properties":{"key":"6552-aa01b6b1","layer":"power","name":"Foster","state":"OR","detail_file":"data/details/power-plants-03.json","plant_id":"6552","capacity_mw":20.0,"status_group":"Operating","energy_sources":"WAT","type":"Power plant","is_nuclear":false}},{"type":"Feature","geometry":{"type":"Point","coordinates":[-122.938,44.93]},"properties":{"key":"65747-e4bc4a7d","layer":"power","name":"Fruitland Creek Solar (CSG)","state":"OR","detail_file":"data/details/power-plants-43.json","plant_id":"65747","capacity_mw":1.8,"status_group":"Operating","energy_sources":"SUN","type":"Power plant","is_nuclear":false}},{"type":"Feature","geometry":{"type":"Point","coordinates":[-123.932,44.612]},"properties":{"key":"58109-53e94f1d","layer":"power","name":"Georgia-Pacific Toledo Mill","state":"OR","detail_file":"data/details/power-plants-54.json","plant_id":"58109","capacity_mw":18.8,"status_group":"Operating","energy_sources":"BLQ","type":"Power plant","is_nuclear":false}},{"type":"Feature","geometry":{"type":"Point","coordinates":[-123.407,46.154]},"properties":{"key":"56192-5cf6f932","layer":"power","name":"Georgia-Pacific Wauna Mill","state":"OR","detail_file":"data/details/power-plants-41.json","plant_id":"56192","capacity_mw":30.0,"status_group":"Operating","energy_sources":"BLQ","type":"Power plant","is_nuclear":false}},{"type":"Feature","geometry":{"type":"Point","coordinates":[-120.709,45.563]},"properties":{"key":"63710-b681c6df","layer":"power","name":"Golden Hill Wind","state":"OR","detail_file":"data/details/power-plants-35.json","plant_id":"63710","capacity_mw":201.3,"status_group":"Operating","energy_sources":"WND","type":"Power plant","is_nuclear":false}},{"type":"Feature","geometry":{"type":"Point","coordinates":[-122.635,45.59]},"properties":{"key":"69682-8ed98ce9","layer":"power","name":"Goodling Community Solar","state":"OR","detail_file":"data/details/power-plants-49.json","plant_id":"69682","capacity_mw":1.0,"status_group":"Operating","energy_sources":"SUN","type":"Power plant","is_nuclear":false}},{"type":"Feature","geometry":{"type":"Point","coordinates":[-123.61,45.054]},"properties":{"key":"61835-cbee5c46","layer":"power","name":"Grand Ronde Solar","state":"OR","detail_file":"data/details/power-plants-05.json","plant_id":"61835","capacity_mw":2.2,"status_group":"Operating","energy_sources":"SUN","type":"Power plant","is_nuclear":false}},{"type":"Feature","geometry":{"type":"Point","coordinates":[-122.549,44.449]},"properties":{"key":"3080-a70a219e","layer":"power","name":"Green Peter","state":"OR","detail_file":"data/details/power-plants-49.json","plant_id":"3080","capacity_mw":80.0,"status_group":"Operating","energy_sources":"WAT","type":"Power plant","is_nuclear":false}},{"type":"Feature","geometry":{"type":"Point","coordinates":[-121.25,44.487]},"properties":{"key":"66349-2dacf9e0","layer":"power","name":"Green Solar LLC (CSG)","state":"OR","detail_file":"data/details/power-plants-31.json","plant_id":"66349","capacity_mw":2.9,"status_group":"Operating","energy_sources":"SUN","type":"Power plant","is_nuclear":false}},{"type":"Feature","geometry":{"type":"Point","coordinates":[-122.938,44.879]},"properties":{"key":"64033-23841f5b","layer":"power","name":"GreenparkSolar","state":"OR","detail_file":"data/details/power-plants-27.json","plant_id":"64033","capacity_mw":1.3,"status_group":"Operating","energy_sources":"SUN","type":"Power plant","is_nuclear":false}},{"type":"Feature","geometry":{"type":"Point","coordinates":[-120.574,45.52]},"properties":{"key":"56790-fdb01c83","layer":"power","name":"Hay Canyon Wind Power LLC","state":"OR","detail_file":"data/details/power-plants-41.json","plant_id":"56790","capacity_mw":100.8,"status_group":"Operating","energy_sources":"WND","type":"Power plant","is_nuclear":false}},{"type":"Feature","geometry":{"type":"Point","coordinates":[-120.008,45.586]},"properties":{"key":"57550-e4dc9f37","layer":"power","name":"Horseshoe Bend Wind LLC","state":"OR","detail_file":"data/details/power-plants-53.json","plant_id":"57550","capacity_mw":290.0,"status_group":"Operating","energy_sources":"WND","type":"Power plant","is_nuclear":false}},{"type":"Feature","geometry":{"type":"Point","coordinates":[-122.956,44.057]},"properties":{"key":"50191-0380d8e6","layer":"power","name":"IP Springfield Oregon","state":"OR","detail_file":"data/details/power-plants-34.json","plant_id":"50191","capacity_mw":32.7,"status_group":"Operating","energy_sources":"BLQ","type":"Power plant","is_nuclear":false}},{"type":"Feature","geometry":{"type":"Point","coordinates":[-122.899,45.129]},"properties":{"key":"61832-22f3795f","layer":"power","name":"Interstate Solar","state":"OR","detail_file":"data/details/power-plants-53.json","plant_id":"61832","capacity_mw":2.2,"status_group":"Operating","energy_sources":"SUN","type":"Power plant","is_nuclear":false}},{"type":"Feature","geometry":{"type":"Point","coordinates":[-120.694,45.716]},"properties":{"key":"3082-28aed319","layer":"power","name":"John Day","state":"OR","detail_file":"data/details/power-plants-61.json","plant_id":"3082","capacity_mw":2160.0,"status_group":"Operating","energy_sources":"WAT","type":"Power plant","is_nuclear":false}},{"type":"Feature","geometry":{"type":"Point","coordinates":[-121.27,44.143]},"properties":{"key":"57437-bed8d3f4","layer":"power","name":"Juniper Ridge Hydroelectric Project","state":"OR","detail_file":"data/details/power-plants-30.json","plant_id":"57437","capacity_mw":5.0,"status_group":"Operating","energy_sources":"WAT","type":"Power plant","is_nuclear":false}},{"type":"Feature","geometry":{"type":"Point","coordinates":[-122.609,45.143]},"properties":{"key":"65748-b6fad681","layer":"power","name":"Kaiser Creek Solar (CSG)","state":"OR","detail_file":"data/details/power-plants-42.json","plant_id":"65748","capacity_mw":2.0,"status_group":"Operating","energy_sources":"SUN","type":"Power plant","is_nuclear":false}},{"type":"Feature","geometry":{"type":"Point","coordinates":[-122.904,45.083]},"properties":{"key":"63208-6e145953","layer":"power","name":"Kale Patch Solar","state":"OR","detail_file":"data/details/power-plants-20.json","plant_id":"63208","capacity_mw":2.2,"status_group":"Operating","energy_sources":"SUN","type":"Power plant","is_nuclear":false}},{"type":"Feature","geometry":{"type":"Point","coordinates":[-120.551,45.556]},"properties":{"key":"55871-d30ecaf7","layer":"power","name":"Klondike Wind Power","state":"OR","detail_file":"data/details/power-plants-50.json","plant_id":"55871","capacity_mw":24.5,"status_group":"Operating","energy_sources":"WND","type":"Power plant","is_nuclear":false}},{"type":"Feature","geometry":{"type":"Point","coordinates":[-120.593,45.571]},"properties":{"key":"56359-0e16079e","layer":"power","name":"Klondike Windpower II","state":"OR","detail_file":"data/details/power-plants-23.json","plant_id":"56359","capacity_mw":75.0,"status_group":"Operating","energy_sources":"WND","type":"Power plant","is_nuclear":false}},{"type":"Feature","geometry":{"type":"Point","coordinates":[-120.504,45.584]},"properties":{"key":"56468-140c92f8","layer":"power","name":"Klondike Windpower III","state":"OR","detail_file":"data/details/power-plants-34.json","plant_id":"56468","capacity_mw":297.5,"status_group":"Operating","energy_sources":"WND","type":"Power plant","is_nuclear":false}},{"type":"Feature","geometry":{"type":"Point","coordinates":[-122.922,45.023]},"properties":{"key":"62171-a4920540","layer":"power","name":"Labish Solar LLC","state":"OR","detail_file":"data/details/power-plants-45.json","plant_id":"62171","capacity_mw":2.2,"status_group":"Operating","energy_sources":"SUN","type":"Power plant","is_nuclear":false}},{"type":"Feature","geometry":{"type":"Point","coordinates":[-122.685,44.598]},"properties":{"key":"52155-900aff34","layer":"power","name":"Lacomb Irrigation District","state":"OR","detail_file":"data/details/power-plants-09.json","plant_id":"52155","capacity_mw":1.0,"status_group":"Operating","energy_sources":"WAT","type":"Power plant","is_nuclear":false}},{"type":"Feature","geometry":{"type":"Point","coordinates":[-120.21,45.652]},"properties":{"key":"56360-01ea1f57","layer":"power","name":"Leaning Juniper","state":"OR","detail_file":"data/details/power-plants-30.json","plant_id":"56360","capacity_mw":110.4,"status_group":"Operating","energy_sources":"WND","type":"Power plant","is_nuclear":false}},{"type":"Feature","geometry":{"type":"Point","coordinates":[-120.26,45.651]},"properties":{"key":"57333-b5ea3fe1","layer":"power","name":"Leaning Juniper Wind Power II","state":"OR","detail_file":"data/details/power-plants-30.json","plant_id":"57333","capacity_mw":199.2,"status_group":"Operating","energy_sources":"WND","type":"Power plant","is_nuclear":false}},{"type":"Feature","geometry":{"type":"Point","coordinates":[-123.021,44.63]},"properties":{"key":"66351-0c9a990b","layer":"power","name":"Marble Solar LLC (CSG)","state":"OR","detail_file":"data/details/power-plants-21.json","plant_id":"66351","capacity_mw":2.9,"status_group":"Operating","energy_sources":"SUN","type":"Power plant","is_nuclear":false}},{"type":"Feature","geometry":{"type":"Point","coordinates":[-121.6,45.481]},"properties":{"key":"50917-7911a429","layer":"power","name":"Middle Fork Irrigation District","state":"OR","detail_file":"data/details/power-plants-26.json","plant_id":"50917","capacity_mw":3.3,"status_group":"Operating","energy_sources":"WAT","type":"Power plant","is_nuclear":false}},{"type":"Feature","geometry":{"type":"Point","coordinates":[-123.05,45.57]},"properties":{"key":"64008-75d69a9c","layer":"power","name":"MilfordSolar OR","state":"OR","detail_file":"data/details/power-plants-44.json","plant_id":"64008","capacity_mw":3.0,"status_group":"Operating","energy_sources":"SUN","type":"Power plant","is_nuclear":false}},{"type":"Feature","geometry":{"type":"Point","coordinates":[-123.136,45.17]},"properties":{"key":"61338-d6feb517","layer":"power","name":"Mill Creek Solar (OR)","state":"OR","detail_file":"data/details/power-plants-12.json","plant_id":"61338","capacity_mw":2.2,"status_group":"Operating","energy_sources":"SUN","type":"Power plant","is_nuclear":false}},{"type":"Feature","geometry":{"type":"Point","coordinates":[-120.534,44.154]},"properties":{"key":"63050-7f117dac","layer":"power","name":"Millican Solar Energy LLC","state":"OR","detail_file":"data/details/power-plants-60.json","plant_id":"63050","capacity_mw":70.0,"status_group":"Operating","energy_sources":"SUN","type":"Power plant","is_nuclear":false}},{"type":"Feature","geometry":{"type":"Point","coordinates":[-122.623,45.172]},"properties":{"key":"63465-7aee3a54","layer":"power","name":"Minke Solar","state":"OR","detail_file":"data/details/power-plants-14.json","plant_id":"63465","capacity_mw":2.2,"status_group":"Operating","energy_sources":"SUN","type":"Power plant","is_nuclear":false}},{"type":"Feature","geometry":{"type":"Point","coordinates":[-122.511,45.296]},"properties":{"key":"67980-a9313bcf","layer":"power","name":"Mompano","state":"OR","detail_file":"data/details/power-plants-32.json","plant_id":"67980","capacity_mw":2.0,"status_group":"Operating","energy_sources":"SUN","type":"Power plant","is_nuclear":false}},{"type":"Feature","geometry":{"type":"Point","coordinates":[-120.18,45.54]},"properties":{"key":"63441-c04e9c66","layer":"power","name":"Montague Solar","state":"OR","detail_file":"data/details/power-plants-17.json","plant_id":"63441","capacity_mw":162.0,"status_group":"Operating","energy_sources":"SUN","type":"Power plant","is_nuclear":false}},{"type":"Feature","geometry":{"type":"Point","coordinates":[-120.09,45.586]},"properties":{"key":"58099-e2b02fc4","layer":"power","name":"Montague Wind Power Facility LLC","state":"OR","detail_file":"data/details/power-plants-56.json","plant_id":"58099","capacity_mw":200.0,"status_group":"Operating","energy_sources":"WND","type":"Power plant","is_nuclear":false}},{"type":"Feature","geometry":{"type":"Point","coordinates":[-122.614,45.128]},"properties":{"key":"63663-d50c4547","layer":"power","name":"Mt Hope Solar","state":"OR","detail_file":"data/details/power-plants-05.json","plant_id":"63663","capacity_mw":2.5,"status_group":"Operating","energy_sources":"SUN","type":"Power plant","is_nuclear":false}},{"type":"Feature","geometry":{"type":"Point","coordinates":[-122.278,45.419]},"properties":{"key":"66368-852181dd","layer":"power","name":"NSE Astoria - Skyward","state":"OR","detail_file":"data/details/power-plants-18.json","plant_id":"66368","capacity_mw":2.5,"status_group":"Operating","energy_sources":"SUN","type":"Power plant","is_nuclear":false}},{"type":"Feature","geometry":{"type":"Point","coordinates":[-121.228,44.068]},"properties":{"key":"60548-564446ac","layer":"power","name":"NorWest Energy 2, LLC","state":"OR","detail_file":"data/details/power-plants-61.json","plant_id":"60548","capacity_mw":9.9,"status_group":"Operating","energy_sources":"SUN","type":"Power plant","is_nuclear":false}},{"type":"Feature","geometry":{"type":"Point","coordinates":[-122.28,45.243]},"properties":{"key":"3047-9c93aa16","layer":"power","name":"North Fork","state":"OR","detail_file":"data/details/power-plants-24.json","plant_id":"3047","capacity_mw":40.8,"status_group":"Operating","energy_sources":"WAT","type":"Power plant","is_nuclear":false}},{"type":"Feature","geometry":{"type":"Point","coordinates":[-120.084,45.732]},"properties":{"key":"57526-591e4b00","layer":"power","name":"North Hurlburt Wind LLC","state":"OR","detail_file":"data/details/power-plants-06.json","plant_id":"57526","capacity_mw":265.0,"status_group":"Operating","energy_sources":"WND","type":"Power plant","is_nuclear":false}},{"type":"Feature","geometry":{"type":"Point","coordinates":[-123.129,45.472]},"properties":{"key":"63235-9f82ff98","layer":"power","name":"O'Neill Creek Solar","state":"OR","detail_file":"data/details/power-plants-03.json","plant_id":"63235","capacity_mw":2.2,"status_group":"Operating","energy_sources":"SUN","type":"Power plant","is_nuclear":false}},{"type":"Feature","geometry":{"type":"Point","coordinates":[-122.557,45.249]},"properties":{"key":"68904-eace2c93","layer":"power","name":"OR - Green Key - Buckner CSG","state":"OR","detail_file":"data/details/power-plants-40.json","plant_id":"68904","capacity_mw":2.5,"status_group":"Operating","energy_sources":"SUN","type":"Power plant","is_nuclear":false}},{"type":"Feature","geometry":{"type":"Point","coordinates":[-123.014,45.267]},"properties":{"key":"68445-308f27e3","layer":"power","name":"OR - Green Key - Gun Club","state":"OR","detail_file":"data/details/power-plants-60.json","plant_id":"68445","capacity_mw":2.5,"status_group":"Operating","energy_sources":"SUN","type":"Power plant","is_nuclear":false}},{"type":"Feature","geometry":{"type":"Point","coordinates":[-122.667,45.083]},"properties":{"key":"68446-3fe5dc0c","layer":"power","name":"OR - Green Key - Marquam","state":"OR","detail_file":"data/details/power-plants-55.json","plant_id":"68446","capacity_mw":1.9,"status_group":"Operating","energy_sources":"SUN","type":"Power plant","is_nuclear":false}},{"type":"Feature","geometry":{"type":"Point","coordinates":[-122.803,45.056]},"properties":{"key":"68451-2b38955e","layer":"power","name":"OR - Solops - SPI 18 - Belvedere","state":"OR","detail_file":"data/details/power-plants-53.json","plant_id":"68451","capacity_mw":3.0,"status_group":"Operating","energy_sources":"SUN","type":"Power plant","is_nuclear":false}},{"type":"Feature","geometry":{"type":"Point","coordinates":[-122.347,45.262]},"properties":{"key":"68448-a01221de","layer":"power","name":"OR - Solops - SPI 18 - Clayfield","state":"OR","detail_file":"data/details/power-plants-25.json","plant_id":"68448","capacity_mw":2.6,"status_group":"Operating","energy_sources":"SUN","type":"Power plant","is_nuclear":false}},{"type":"Feature","geometry":{"type":"Point","coordinates":[-122.676,45.209]},"properties":{"key":"68450-aa4ade2a","layer":"power","name":"OR - Solops - SPI 18 - Dover","state":"OR","detail_file":"data/details/power-plants-05.json","plant_id":"68450","capacity_mw":2.0,"status_group":"Operating","energy_sources":"SUN","type":"Power plant","is_nuclear":false}},{"type":"Feature","geometry":{"type":"Point","coordinates":[-122.557,45.128]},"properties":{"key":"68449-9f1c2080","layer":"power","name":"OR -Solops - SPI 18 - Cork","state":"OR","detail_file":"data/details/power-plants-22.json","plant_id":"68449","capacity_mw":1.3,"status_group":"Operating","energy_sources":"SUN","type":"Power plant","is_nuclear":false}},{"type":"Feature","geometry":{"type":"Point","coordinates":[-121.228,44.061]},"properties":{"key":"60976-ac55b28b","layer":"power","name":"OSLH, LLC","state":"OR","detail_file":"data/details/power-plants-02.json","plant_id":"60976","capacity_mw":9.9,"status_group":"Operating","energy_sources":"SUN","type":"Power plant","is_nuclear":false}},{"type":"Feature","geometry":{"type":"Point","coordinates":[-122.07,45.122]},"properties":{"key":"6505-9195adb7","layer":"power","name":"Oak Grove","state":"OR","detail_file":"data/details/power-plants-30.json","plant_id":"6505","capacity_mw":51.0,"status_group":"Operating","energy_sources":"WAT","type":"Power plant","is_nuclear":false}},{"type":"Feature","geometry":{"type":"Point","coordinates":[-121.299,44.49]},"properties":{"key":"54251-9e164209","layer":"power","name":"Opal Springs Hydro","state":"OR","detail_file":"data/details/power-plants-39.json","plant_id":"54251","capacity_mw":4.3,"status_group":"Operating","energy_sources":"WAT","type":"Power plant","is_nuclear":false}},{"type":"Feature","geometry":{"type":"Point","coordinates":[-123.31,44.947]},"properties":{"key":"68463-269cb8b1","layer":"power","name":"Orchard Knob","state":"OR","detail_file":"data/details/power-plants-07.json","plant_id":"68463","capacity_mw":2.3,"status_group":"Operating","energy_sources":"SUN","type":"Power plant","is_nuclear":false}},{"type":"Feature","geometry":{"type":"Point","coordinates":[-122.663,45.528]},"properties":{"key":"60112-4f33cc56","layer":"power","name":"Oregon Convention Center","state":"OR","detail_file":"data/details/power-plants-38.json","plant_id":"60112","capacity_mw":1.4,"status_group":"Operating","energy_sources":"SUN","type":"Power plant","is_nuclear":false}},{"type":"Feature","geometry":{"type":"Point","coordinates":[-123.289,44.564]},"properties":{"key":"57653-ba45b07b","layer":"power","name":"Oregon State University Energy Center","state":"OR","detail_file":"data/details/power-plants-25.json","plant_id":"57653","capacity_mw":5.5,"status_group":"Operating","energy_sources":"NG","type":"Power plant","is_nuclear":false}},{"type":"Feature","geometry":{"type":"Point","coordinates":[-120.186,45.553]},"properties":{"key":"69294-b15cf584","layer":"power","name":"Oregon Trail Solar","state":"OR","detail_file":"data/details/power-plants-06.json","plant_id":"69294","capacity_mw":41.0,"status_group":"Under construction","energy_sources":"SUN","type":"Power plant","is_nuclear":false}},{"type":"Feature","geometry":{"type":"Point","coordinates":[-123.317,44.573]},"properties":{"key":"59790-716a3a12","layer":"power","name":"Oregon University System Rabbit Field","state":"OR","detail_file":"data/details/power-plants-13.json","plant_id":"59790","capacity_mw":1.2,"status_group":"Operating","energy_sources":"SUN","type":"Power plant","is_nuclear":false}},{"type":"Feature","geometry":{"type":"Point","coordinates":[-122.083,45.482]},"properties":{"key":"4213-a7b1b475","layer":"power","name":"PHP 1","state":"OR","detail_file":"data/details/power-plants-36.json","plant_id":"4213","capacity_mw":23.7,"status_group":"Operating","energy_sources":"WAT","type":"Power plant","is_nuclear":false}},{"type":"Feature","geometry":{"type":"Point","coordinates":[-122.151,45.449]},"properties":{"key":"4214-836c5534","layer":"power","name":"PHP 2","state":"OR","detail_file":"data/details/power-plants-16.json","plant_id":"4214","capacity_mw":11.8,"status_group":"Operating","energy_sources":"WAT","type":"Power plant","is_nuclear":false}},{"type":"Feature","geometry":{"type":"Point","coordinates":[-123.804,45.414]},"properties":{"key":"58591-dc152737","layer":"power","name":"POTB Digester","state":"OR","detail_file":"data/details/power-plants-22.json","plant_id":"58591","capacity_mw":1.0,"status_group":"Operating","energy_sources":"OBG","type":"Power plant","is_nuclear":false}},{"type":"Feature","geometry":{"type":"Point","coordinates":[-120.617,45.613]},"properties":{"key":"57578-d8635a28","layer":"power","name":"PaTu Wind Farm LLC","state":"OR","detail_file":"data/details/power-plants-42.json","plant_id":"57578","capacity_mw":9.0,"status_group":"Operating","energy_sources":"WND","type":"Power plant","is_nuclear":false}},{"type":"Feature","geometry":{"type":"Point","coordinates":[-123.102,45.185]},"properties":{"key":"63956-204c00c2","layer":"power","name":"Palmer Creek Solar, LLC","state":"OR","detail_file":"data/details/power-plants-31.json","plant_id":"63956","capacity_mw":2.3,"status_group":"Operating","energy_sources":"SUN","type":"Power plant","is_nuclear":false}},{"type":"Feature","geometry":{"type":"Point","coordinates":[-120.125,45.712]},"properties":{"key":"56789-4b3a22b7","layer":"power","name":"Pebble Springs Wind LLC","state":"OR","detail_file":"data/details/power-plants-57.json","plant_id":"56789","capacity_mw":98.7,"status_group":"Operating","energy_sources":"WND","type":"Power plant","is_nuclear":false}},{"type":"Feature","geometry":{"type":"Point","coordinates":[-121.231,44.694]},"properties":{"key":"3048-9acd11fe","layer":"power","name":"Pelton","state":"OR","detail_file":"data/details/power-plants-46.json","plant_id":"3048","capacity_mw":109.8,"status_group":"Operating","energy_sources":"WAT","type":"Power plant","is_nuclear":false}},{"type":"Feature","geometry":{"type":"Point","coordinates":[-121.549,45.668]},"properties":{"key":"10324-d31bab25","layer":"power","name":"Peters Drive Plant","state":"OR","detail_file":"data/details/power-plants-23.json","plant_id":"10324","capacity_mw":1.8,"status_group":"Operating","energy_sources":"WAT","type":"Power plant","is_nuclear":false}},{"type":"Feature","geometry":{"type":"Point","coordinates":[-122.77,45.089]},"properties":{"key":"63462-448e883a","layer":"power","name":"Pika Solar","state":"OR","detail_file":"data/details/power-plants-63.json","plant_id":"63462","capacity_mw":2.2,"status_group":"Operating","energy_sources":"SUN","type":"Power plant","is_nuclear":false}},{"type":"Feature","geometry":{"type":"Point","coordinates":[-123.172,46.179]},"properties":{"key":"56227-59cde032","layer":"power","name":"Port Westward","state":"OR","detail_file":"data/details/power-plants-20.json","plant_id":"56227","capacity_mw":483.0,"status_group":"Operating","energy_sources":"NG","type":"Power plant","is_nuclear":false}},{"type":"Feature","geometry":{"type":"Point","coordinates":[-123.172,46.179]},"properties":{"key":"58266-61f16138","layer":"power","name":"Port Westward Unit 2","state":"OR","detail_file":"data/details/power-plants-06.json","plant_id":"58266","capacity_mw":225.6,"status_group":"Operating","energy_sources":"NG","type":"Power plant","is_nuclear":false}},{"type":"Feature","geometry":{"type":"Point","coordinates":[-120.889,44.258]},"properties":{"key":"67157-8d761d2b","layer":"power","name":"Powell Solar","state":"OR","detail_file":"data/details/power-plants-55.json","plant_id":"67157","capacity_mw":55.9,"status_group":"Under construction","energy_sources":"SUN","type":"Power plant","is_nuclear":false}},{"type":"Feature","geometry":{"type":"Point","coordinates":[-120.524,44.163]},"properties":{"key":"63049-7d955b7c","layer":"power","name":"Prineville Solar Energy LLC","state":"OR","detail_file":"data/details/power-plants-09.json","plant_id":"63049","capacity_mw":40.0,"status_group":"Operating","energy_sources":"SUN","type":"Power plant","is_nuclear":false}},{"type":"Feature","geometry":{"type":"Point","coordinates":[-123.008,44.86]},"properties":{"key":"63206-135d5859","layer":"power","name":"Rafael Solar","state":"OR","detail_file":"data/details/power-plants-40.json","plant_id":"63206","capacity_mw":2.2,"status_group":"Operating","energy_sources":"SUN","type":"Power plant","is_nuclear":false}},{"type":"Feature","geometry":{"type":"Point","coordinates":[-123.417,45.087]},"properties":{"key":"65228-d561249c","layer":"power","name":"Red Prairie Solar","state":"OR","detail_file":"data/details/power-plants-04.json","plant_id":"65228","capacity_mw":2.2,"status_group":"Operating","energy_sources":"SUN","type":"Power plant","is_nuclear":false}},{"type":"Feature","geometry":{"type":"Point","coordinates":[-122.35,45.3]},"properties":{"key":"3049-5d699095","layer":"power","name":"River Mill","state":"OR","detail_file":"data/details/power-plants-26.json","plant_id":"3049","capacity_mw":18.8,"status_group":"Operating","energy_sources":"WAT","type":"Power plant","is_nuclear":false}},{"type":"Feature","geometry":{"type":"Point","coordinates":[-122.828,45.128]},"properties":{"key":"63665-ea26ed60","layer":"power","name":"River Valley Solar","state":"OR","detail_file":"data/details/power-plants-30.json","plant_id":"63665","capacity_mw":1.9,"status_group":"Operating","energy_sources":"SUN","type":"Power plant","is_nuclear":false}},{"type":"Feature","geometry":{"type":"Point","coordinates":[-123.251,45.167]},"properties":{"key":"57019-2a7bc473","layer":"power","name":"Riverbend Landfill","state":"OR","detail_file":"data/details/power-plants-29.json","plant_id":"57019","capacity_mw":4.8,"status_group":"Operating","energy_sources":"LFG","type":"Power plant","is_nuclear":false}},{"type":"Feature","geometry":{"type":"Point","coordinates":[-121.277,44.606]},"properties":{"key":"3050-68fccbbf","layer":"power","name":"Round Butte","state":"OR","detail_file":"data/details/power-plants-31.json","plant_id":"3050","capacity_mw":372.5,"status_group":"Operating","energy_sources":"WAT","type":"Power plant","is_nuclear":false}},{"type":"Feature","geometry":{"type":"Point","coordinates":[-122.333,45.42]},"properties":{"key":"63961-cf6c19ab","layer":"power","name":"SSD Clackamas 1, LLC","state":"OR","detail_file":"data/details/power-plants-57.json","plant_id":"63961","capacity_mw":4.0,"status_group":"Operating","energy_sources":"SUN","type":"Power plant","is_nuclear":false}},{"type":"Feature","geometry":{"type":"Point","coordinates":[-122.662,45.102]},"properties":{"key":"63962-50da4638","layer":"power","name":"SSD Clackamas 4, LLC","state":"OR","detail_file":"data/details/power-plants-41.json","plant_id":"63962","capacity_mw":2.0,"status_group":"Operating","energy_sources":"SUN","type":"Power plant","is_nuclear":false}},{"type":"Feature","geometry":{"type":"Point","coordinates":[-122.591,45.182]},"properties":{"key":"63963-01db54ae","layer":"power","name":"SSD Clackamas 7, LLC","state":"OR","detail_file":"data/details/power-plants-42.json","plant_id":"63963","capacity_mw":2.0,"status_group":"Operating","energy_sources":"SUN","type":"Power plant","is_nuclear":false}},{"type":"Feature","geometry":{"type":"Point","coordinates":[-122.904,45.14]},"properties":{"key":"63964-b955ad32","layer":"power","name":"SSD Marion 1, LLC","state":"OR","detail_file":"data/details/power-plants-32.json","plant_id":"63964","capacity_mw":2.0,"status_group":"Operating","energy_sources":"SUN","type":"Power plant","is_nuclear":false}},{"type":"Feature","geometry":{"type":"Point","coordinates":[-122.938,44.985]},"properties":{"key":"63958-fad0f607","layer":"power","name":"SSD Marion 3, LLC","state":"OR","detail_file":"data/details/power-plants-46.json","plant_id":"63958","capacity_mw":2.0,"status_group":"Operating","energy_sources":"SUN","type":"Power plant","is_nuclear":false}},{"type":"Feature","geometry":{"type":"Point","coordinates":[-122.794,45.116]},"properties":{"key":"63959-796fb233","layer":"power","name":"SSD Marion 5, LLC","state":"OR","detail_file":"data/details/power-plants-42.json","plant_id":"63959","capacity_mw":2.0,"status_group":"Operating","energy_sources":"SUN","type":"Power plant","is_nuclear":false}},{"type":"Feature","geometry":{"type":"Point","coordinates":[-122.806,45.254]},"properties":{"key":"63960-6784aad4","layer":"power","name":"SSD Marion 6, LLC","state":"OR","detail_file":"data/details/power-plants-22.json","plant_id":"63960","capacity_mw":2.0,"status_group":"Operating","energy_sources":"SUN","type":"Power plant","is_nuclear":false}},{"type":"Feature","geometry":{"type":"Point","coordinates":[-122.972,44.891]},"properties":{"key":"69210-9cd19d6f","layer":"power","name":"Salem Henningsen","state":"OR","detail_file":"data/details/power-plants-31.json","plant_id":"69210","capacity_mw":2.1,"status_group":"Operating","energy_sources":"MWH; SUN","type":"Power plant","is_nuclear":false}},{"type":"Feature","geometry":{"type":"Point","coordinates":[-121.344,44.616]},"properties":{"key":"68370-c7e077f3","layer":"power","name":"Salmonfly Solar and Storage","state":"OR","detail_file":"data/details/power-plants-15.json","plant_id":"68370","capacity_mw":494.0,"status_group":"Under construction","energy_sources":"MWH; SUN","type":"Power plant","is_nuclear":false}},{"type":"Feature","geometry":{"type":"Point","coordinates":[-122.295,45.431]},"properties":{"key":"65750-086f74b7","layer":"power","name":"Sandy River Solar (CSG)","state":"OR","detail_file":"data/details/power-plants-53.json","plant_id":"65750","capacity_mw":1.9,"status_group":"Operating","energy_sources":"SUN","type":"Power plant","is_nuclear":false}},{"type":"Feature","geometry":{"type":"Point","coordinates":[-122.781,45.615]},"properties":{"key":"67711-c9ca7c48","layer":"power","name":"Seaside BESS","state":"OR","detail_file":"data/details/power-plants-31.json","plant_id":"67711","capacity_mw":200.0,"status_group":"Operating","energy_sources":"MWH","type":"Power plant","is_nuclear":false}},{"type":"Feature","geometry":{"type":"Point","coordinates":[-123.179,44.116]},"properties":{"key":"57457-c97beb04","layer":"power","name":"Seneca Sustainable Energy LLC","state":"OR","detail_file":"data/details/power-plants-62.json","plant_id":"57457","capacity_mw":19.8,"status_group":"Operating","energy_sources":"WDS","type":"Power plant","is_nuclear":false}},{"type":"Feature","geometry":{"type":"Point","coordinates":[-123.177,45.325]},"properties":{"key":"65751-cdfaa1a1","layer":"power","name":"Sesqui-C Solar (CSG)","state":"OR","detail_file":"data/details/power-plants-63.json","plant_id":"65751","capacity_mw":2.5,"status_group":"Operating","energy_sources":"SUN","type":"Power plant","is_nuclear":false}},{"type":"Feature","geometry":{"type":"Point","coordinates":[-122.949,44.826]},"properties":{"key":"61830-a68276c7","layer":"power","name":"Sheep Solar","state":"OR","detail_file":"data/details/power-plants-09.json","plant_id":"61830","capacity_mw":2.2,"status_group":"Operating","energy_sources":"SUN","type":"Power plant","is_nuclear":false}},{"type":"Feature","geometry":{"type":"Point","coordinates":[-123.201,44.184]},"properties":{"key":"59704-740768e5","layer":"power","name":"Shell New Energies, Junction City","state":"OR","detail_file":"data/details/power-plants-33.json","plant_id":"59704","capacity_mw":1.6,"status_group":"Operating","energy_sources":"OBG","type":"Power plant","is_nuclear":false}},{"type":"Feature","geometry":{"type":"Point","coordinates":[-123.409,45.102]},"properties":{"key":"66354-b208d37b","layer":"power","name":"Sheridan Solar LLC (CSG)","state":"OR","detail_file":"data/details/power-plants-15.json","plant_id":"66354","capacity_mw":3.0,"status_group":"Operating","energy_sources":"SUN","type":"Power plant","is_nuclear":false}},{"type":"Feature","geometry":{"type":"Point","coordinates":[-122.807,45.014]},"properties":{"key":"61829-0ec5dee7","layer":"power","name":"Silverton Solar","state":"OR","detail_file":"data/details/power-plants-26.json","plant_id":"61829","capacity_mw":2.2,"status_group":"Operating","energy_sources":"SUN","type":"Power plant","is_nuclear":false}},{"type":"Feature","geometry":{"type":"Point","coordinates":[-121.33,44.033]},"properties":{"key":"50980-94462605","layer":"power","name":"Siphon Power Project","state":"OR","detail_file":"data/details/power-plants-21.json","plant_id":"50980","capacity_mw":5.4,"status_group":"Operating","energy_sources":"WAT","type":"Power plant","is_nuclear":false}},{"type":"Feature","geometry":{"type":"Point","coordinates":[-120.918,44.184]},"properties":{"key":"61048-7ba7c3ae","layer":"power","name":"Solar Star Oregon II","state":"OR","detail_file":"data/details/power-plants-52.json","plant_id":"61048","capacity_mw":56.3,"status_group":"Operating","energy_sources":"SUN","type":"Power plant","is_nuclear":false}},{"type":"Feature","geometry":{"type":"Point","coordinates":[-120.08,45.706]},"properties":{"key":"57549-fdfa3619","layer":"power","name":"South Hurlburt Wind LLC","state":"OR","detail_file":"data/details/power-plants-55.json","plant_id":"57549","capacity_mw":290.0,"status_group":"Operating","energy_sources":"WND","type":"Power plant","is_nuclear":false}},{"type":"Feature","geometry":{"type":"Point","coordinates":[-122.936,45.12]},"properties":{"key":"63456-dd68911b","layer":"power","name":"St Louis Solar","state":"OR","detail_file":"data/details/power-plants-57.json","plant_id":"63456","capacity_mw":2.2,"status_group":"Operating","energy_sources":"SUN","type":"Power plant","is_nuclear":false}},{"type":"Feature","geometry":{"type":"Point","coordinates":[-120.48,45.51]},"properties":{"key":"57096-80f9f300","layer":"power","name":"Star Point Wind Project LLC","state":"OR","detail_file":"data/details/power-plants-04.json","plant_id":"57096","capacity_mw":98.7,"status_group":"Operating","energy_sources":"WND","type":"Power plant","is_nuclear":false}},{"type":"Feature","geometry":{"type":"Point","coordinates":[-123.47,45.068]},"properties":{"key":"60057-f68dd87c","layer":"power","name":"Steel Bridge Solar, LLC","state":"OR","detail_file":"data/details/power-plants-43.json","plant_id":"60057","capacity_mw":2.3,"status_group":"Operating","energy_sources":"SUN","type":"Power plant","is_nuclear":false}},{"type":"Feature","geometry":{"type":"Point","coordinates":[-121.887,45.081]},"properties":{"key":"7508-9fcadabe","layer":"power","name":"Stone Creek","state":"OR","detail_file":"data/details/power-plants-05.json","plant_id":"7508","capacity_mw":12.0,"status_group":"Operating","energy_sources":"WAT","type":"Power plant","is_nuclear":false}},{"type":"Feature","geometry":{"type":"Point","coordinates":[-122.619,45.354]},"properties":{"key":"3053-06a0d714","layer":"power","name":"Sullivan","state":"OR","detail_file":"data/details/power-plants-43.json","plant_id":"3053","capacity_mw":15.4,"status_group":"Operating","energy_sources":"WAT","type":"Power plant","is_nuclear":false}},{"type":"Feature","geometry":{"type":"Point","coordinates":[-122.433,45.349]},"properties":{"key":"63908-c8173651","layer":"power","name":"SulusSolar17","state":"OR","detail_file":"data/details/power-plants-00.json","plant_id":"63908","capacity_mw":3.1,"status_group":"Operating","energy_sources":"SUN","type":"Power plant","is_nuclear":false}},{"type":"Feature","geometry":{"type":"Point","coordinates":[-122.78,44.97]},"properties":{"key":"64022-414349ea","layer":"power","name":"SulusSolar22","state":"OR","detail_file":"data/details/power-plants-35.json","plant_id":"64022","capacity_mw":3.0,"status_group":"Operating","energy_sources":"SUN","type":"Power plant","is_nuclear":false}},{"type":"Feature","geometry":{"type":"Point","coordinates":[-122.82,45.27]},"properties":{"key":"64034-eaa9e4e5","layer":"power","name":"SulusSolar25","state":"OR","detail_file":"data/details/power-plants-04.json","plant_id":"64034","capacity_mw":2.2,"status_group":"Operating","energy_sources":"SUN","type":"Power plant","is_nuclear":false}},{"type":"Feature","geometry":{"type":"Point","coordinates":[-123.52,45.1]},"properties":{"key":"64007-fe62770c","layer":"power","name":"SulusSolar28","state":"OR","detail_file":"data/details/power-plants-08.json","plant_id":"64007","capacity_mw":3.0,"status_group":"Operating","energy_sources":"SUN","type":"Power plant","is_nuclear":false}},{"type":"Feature","geometry":{"type":"Point","coordinates":[-122.29,45.46]},"properties":{"key":"64048-68313cfa","layer":"power","name":"SulusSolar29","state":"OR","detail_file":"data/details/power-plants-35.json","plant_id":"64048","capacity_mw":2.6,"status_group":"Operating","energy_sources":"SUN","type":"Power plant","is_nuclear":false}},{"type":"Feature","geometry":{"type":"Point","coordinates":[-123.4,45.08]},"properties":{"key":"64006-62e403cc","layer":"power","name":"SulusSolar33","state":"OR","detail_file":"data/details/power-plants-05.json","plant_id":"64006","capacity_mw":3.0,"status_group":"Operating","energy_sources":"SUN","type":"Power plant","is_nuclear":false}},{"type":"Feature","geometry":{"type":"Point","coordinates":[-122.65,45.141]},"properties":{"key":"63969-5997104f","layer":"power","name":"SulusSolar35","state":"OR","detail_file":"data/details/power-plants-02.json","plant_id":"63969","capacity_mw":3.0,"status_group":"Operating","energy_sources":"SUN","type":"Power plant","is_nuclear":false}},{"type":"Feature","geometry":{"type":"Point","coordinates":[-122.42,45.56]},"properties":{"key":"67869-014e5c49","layer":"power","name":"Sundial (Troutdale) BESS","state":"OR","detail_file":"data/details/power-plants-49.json","plant_id":"67869","capacity_mw":200.0,"status_group":"Operating","energy_sources":"MWH","type":"Power plant","is_nuclear":false}},{"type":"Feature","geometry":{"type":"Point","coordinates":[-120.88,45.165]},"properties":{"key":"65326-c5651b13","layer":"power","name":"Sunset Solar","state":"OR","detail_file":"data/details/power-plants-08.json","plant_id":"65326","capacity_mw":103.0,"status_group":"Under construction","energy_sources":"SUN","type":"Power plant","is_nuclear":false}},{"type":"Feature","geometry":{"type":"Point","coordinates":[-121.135,45.614]},"properties":{"key":"3895-31114535","layer":"power","name":"The Dalles","state":"OR","detail_file":"data/details/power-plants-55.json","plant_id":"3895","capacity_mw":1819.7,"status_group":"Operating","energy_sources":"WAT","type":"Power plant","is_nuclear":false}},{"type":"Feature","geometry":{"type":"Point","coordinates":[-122.62,45.131]},"properties":{"key":"63443-360f543e","layer":"power","name":"Thomas Creek Solar","state":"OR","detail_file":"data/details/power-plants-40.json","plant_id":"63443","capacity_mw":2.2,"status_group":"Operating","energy_sources":"SUN","type":"Power plant","is_nuclear":false}},{"type":"Feature","geometry":{"type":"Point","coordinates":[-122.265,45.375]},"properties":{"key":"63442-2498af73","layer":"power","name":"Tickle Creek Solar","state":"OR","detail_file":"data/details/power-plants-62.json","plant_id":"63442","capacity_mw":1.9,"status_group":"Operating","energy_sources":"SUN","type":"Power plant","is_nuclear":false}},{"type":"Feature","geometry":{"type":"Point","coordinates":[-121.757,45.371]},"properties":{"key":"60868-2eb09b9a","layer":"power","name":"Timothy Lake Powerhouse","state":"OR","detail_file":"data/details/power-plants-45.json","plant_id":"60868","capacity_mw":1.2,"status_group":"Operating","energy_sources":"WAT","type":"Power plant","is_nuclear":false}},{"type":"Feature","geometry":{"type":"Point","coordinates":[-122.0,45.0]},"properties":{"key":"68299-b417a132","layer":"power","name":"Tualatin Battery Energy Storage System","state":"OR","detail_file":"data/details/power-plants-44.json","plant_id":"68299","capacity_mw":200.0,"status_group":"Under construction","energy_sources":"MWH","type":"Power plant","is_nuclear":false}},{"type":"Feature","geometry":{"type":"Point","coordinates":[-121.233,44.193]},"properties":{"key":"61580-e875eae5","layer":"power","name":"Tumbleweed Solar, LLC","state":"OR","detail_file":"data/details/power-plants-06.json","plant_id":"61580","capacity_mw":9.9,"status_group":"Operating","energy_sources":"SUN","type":"Power plant","is_nuclear":false}},{"type":"Feature","geometry":{"type":"Point","coordinates":[-123.074,44.048]},"properties":{"key":"54950-7f69c232","layer":"power","name":"Univ of Oregon Central Power Station","state":"OR","detail_file":"data/details/power-plants-38.json","plant_id":"54950","capacity_mw":17.6,"status_group":"Operating","energy_sources":"DFO; NG","type":"Power plant","is_nuclear":false}},{"type":"Feature","geometry":{"type":"Point","coordinates":[-123.074,44.048]},"properties":{"key":"54950-2a562768","layer":"power","name":"Univ of Oregon Central Power Station","state":"OR","detail_file":"data/details/power-plants-59.json","plant_id":"54950","capacity_mw":3.0,"status_group":"Under construction","energy_sources":"DFO","type":"Power plant","is_nuclear":false}},{"type":"Feature","geometry":{"type":"Point","coordinates":[-123.094,45.033]},"properties":{"key":"61828-d662b601","layer":"power","name":"Valley Creek Solar","state":"OR","detail_file":"data/details/power-plants-55.json","plant_id":"61828","capacity_mw":2.2,"status_group":"Operating","energy_sources":"SUN","type":"Power plant","is_nuclear":false}},{"type":"Feature","geometry":{"type":"Point","coordinates":[-123.053,45.008]},"properties":{"key":"64663-58647eb6","layer":"power","name":"WLWPCF Cogeneration Facility","state":"OR","detail_file":"data/details/power-plants-20.json","plant_id":"64663","capacity_mw":1.2,"status_group":"Operating","energy_sources":"OBG","type":"Power plant","is_nuclear":false}},{"type":"Feature","geometry":{"type":"Point","coordinates":[-123.097,45.028]},"properties":{"key":"66355-8cf141e2","layer":"power","name":"Wallace Solar LLC (CSG)","state":"OR","detail_file":"data/details/power-plants-22.json","plant_id":"66355","capacity_mw":3.0,"status_group":"Operating","energy_sources":"SUN","type":"Power plant","is_nuclear":false}},{"type":"Feature","geometry":{"type":"Point","coordinates":[-122.835,44.07]},"properties":{"key":"3071-2106fad6","layer":"power","name":"Walterville","state":"OR","detail_file":"data/details/power-plants-20.json","plant_id":"3071","capacity_mw":8.0,"status_group":"Operating","energy_sources":"WAT","type":"Power plant","is_nuclear":false}},{"type":"Feature","geometry":{"type":"Point","coordinates":[-121.248,44.724]},"properties":{"key":"54721-87a24611","layer":"power","name":"Warm Springs Power Enterprises","state":"OR","detail_file":"data/details/power-plants-00.json","plant_id":"54721","capacity_mw":19.6,"status_group":"Operating","energy_sources":"WAT","type":"Power plant","is_nuclear":false}},{"type":"Feature","geometry":{"type":"Point","coordinates":[-120.297,45.574]},"properties":{"key":"57015-627ed363","layer":"power","name":"Waste Management Columbia Ridge LFGTE","state":"OR","detail_file":"data/details/power-plants-44.json","plant_id":"57015","capacity_mw":12.8,"status_group":"Operating","energy_sources":"LFG","type":"Power plant","is_nuclear":false}},{"type":"Feature","geometry":{"type":"Point","coordinates":[-123.554,45.061]},"properties":{"key":"69020-c53ac86f","layer":"power","name":"Waterford Solar, LLC CSG","state":"OR","detail_file":"data/details/power-plants-59.json","plant_id":"69020","capacity_mw":2.6,"status_group":"Operating","energy_sources":"SUN","type":"Power plant","is_nuclear":false}},{"type":"Feature","geometry":{"type":"Point","coordinates":[-120.318,45.676]},"properties":{"key":"56854-26500b8e","layer":"power","name":"Wheat Field Wind Power Project","state":"OR","detail_file":"data/details/power-plants-20.json","plant_id":"56854","capacity_mw":102.9,"status_group":"Operating","energy_sources":"WND","type":"Power plant","is_nuclear":false}},{"type":"Feature","geometry":{"type":"Point","coordinates":[-122.799,45.137]},"properties":{"key":"63664-edb4533d","layer":"power","name":"Williams Acres Solar","state":"OR","detail_file":"data/details/power-plants-52.json","plant_id":"63664","capacity_mw":2.5,"status_group":"Operating","energy_sources":"SUN","type":"Power plant","is_nuclear":false}},{"type":"Feature","geometry":{"type":"Point","coordinates":[-120.6,45.585]},"properties":{"key":"61345-48d9a0ee","layer":"power","name":"WyEast Solar","state":"OR","detail_file":"data/details/power-plants-15.json","plant_id":"61345","capacity_mw":10.0,"status_group":"Operating","energy_sources":"SUN","type":"Power plant","is_nuclear":false}},{"type":"Feature","geometry":{"type":"Point","coordinates":[-123.279,45.109]},"properties":{"key":"57652-15c9f064","layer":"power","name":"Yamhill Solar LLC","state":"OR","detail_file":"data/details/power-plants-38.json","plant_id":"57652","capacity_mw":1.0,"status_group":"Operating","energy_sources":"SUN","type":"Power plant","is_nuclear":false}},{"type":"Feature","geometry":{"type":"Point","coordinates":[-123.099,45.02]},"properties":{"key":"68508-97432d13","layer":"power","name":"Zena Solar","state":"OR","detail_file":"data/details/power-plants-18.json","plant_id":"68508","capacity_mw":2.5,"status_group":"Operating","energy_sources":"SUN","type":"Power plant","is_nuclear":false}},{"type":"Feature","geometry":{"type":"Point","coordinates":[-122.608,47.769]},"properties":{"key":"68366-774b350c","layer":"power","name":"AGATE BESS","state":"WA","detail_file":"data/details/power-plants-19.json","plant_id":"68366","capacity_mw":170.0,"status_group":"Under construction","energy_sources":"MWH","type":"Power plant","is_nuclear":false}},{"type":"Feature","geometry":{"type":"Point","coordinates":[-122.31,46.802]},"properties":{"key":"3913-010078e1","layer":"power","name":"Alder","state":"WA","detail_file":"data/details/power-plants-53.json","plant_id":"3913","capacity_mw":51.0,"status_group":"Operating","energy_sources":"WAT","type":"Power plant","is_nuclear":false}},{"type":"Feature","geometry":{"type":"Point","coordinates":[-120.304,45.919]},"properties":{"key":"57319-e0e4d77b","layer":"power","name":"Big Horn Wind II","state":"WA","detail_file":"data/details/power-plants-51.json","plant_id":"57319","capacity_mw":50.0,"status_group":"Operating","energy_sources":"WND","type":"Power plant","is_nuclear":false}},{"type":"Feature","geometry":{"type":"Point","coordinates":[-120.29,45.888]},"properties":{"key":"56361-4db602ef","layer":"power","name":"Big Horn Wind Project","state":"WA","detail_file":"data/details/power-plants-35.json","plant_id":"56361","capacity_mw":199.0,"status_group":"Operating","energy_sources":"WND","type":"Power plant","is_nuclear":false}},{"type":"Feature","geometry":{"type":"Point","coordinates":[-121.71,47.55]},"properties":{"key":"54860-d86189bc","layer":"power","name":"Black Creek","state":"WA","detail_file":"data/details/power-plants-38.json","plant_id":"54860","capacity_mw":3.7,"status_group":"Operating","energy_sources":"WAT","type":"Power plant","is_nuclear":false}},{"type":"Feature","geometry":{"type":"Point","coordinates":[-120.303,45.896]},"properties":{"key":"69482-6e26c9a5","layer":"power","name":"Bluebird Solar","state":"WA","detail_file":"data/details/power-plants-12.json","plant_id":"69482","capacity_mw":140.0,"status_group":"Under construction","energy_sources":"SUN","type":"Power plant","is_nuclear":false}},{"type":"Feature","geometry":{"type":"Point","coordinates":[-121.689,47.601]},"properties":{"key":"60418-cc03732f","layer":"power","name":"Calligan Creek Hydroelectric Project","state":"WA","detail_file":"data/details/power-plants-49.json","plant_id":"60418","capacity_mw":6.0,"status_group":"Operating","energy_sources":"WAT","type":"Power plant","is_nuclear":false}},{"type":"Feature","geometry":{"type":"Point","coordinates":[-120.509,46.959]},"properties":{"key":"62071-d4c01941","layer":"power","name":"Camas Solar Project","state":"WA","detail_file":"data/details/power-plants-39.json","plant_id":"62071","capacity_mw":5.0,"status_group":"Operating","energy_sources":"SUN","type":"Power plant","is_nuclear":false}},{"type":"Feature","geometry":{"type":"Point","coordinates":[-120.886,45.878]},"properties":{"key":"67653-82f2fdaa","layer":"power","name":"Carriger","state":"WA","detail_file":"data/details/power-plants-43.json","plant_id":"67653","capacity_mw":160.0,"status_group":"Under construction","energy_sources":"SUN","type":"Power plant","is_nuclear":false}},{"type":"Feature","geometry":{"type":"Point","coordinates":[-121.782,47.419]},"properties":{"key":"6430-1eaf5fc1","layer":"power","name":"Cedar Falls (WA)","state":"WA","detail_file":"data/details/power-plants-45.json","plant_id":"6430","capacity_mw":30.0,"status_group":"Operating","energy_sources":"WAT","type":"Power plant","is_nuclear":false}},{"type":"Feature","geometry":{"type":"Point","coordinates":[-122.043,47.456]},"properties":{"key":"57298-2e7b8718","layer":"power","name":"Cedar Hills","state":"WA","detail_file":"data/details/power-plants-28.json","plant_id":"57298","capacity_mw":5.4,"status_group":"Operating","energy_sources":"LFG","type":"Power plant","is_nuclear":false}},{"type":"Feature","geometry":{"type":"Point","coordinates":[-122.885,46.78]},"properties":{"key":"68282-1a27d567","layer":"power","name":"Centralia Battery Energy Storage System","state":"WA","detail_file":"data/details/power-plants-31.json","plant_id":"68282","capacity_mw":200.0,"status_group":"Under construction","energy_sources":"MWH","type":"Power plant","is_nuclear":false}},{"type":"Feature","geometry":{"type":"Point","coordinates":[-122.913,46.623]},"properties":{"key":"55662-139cf3cd","layer":"power","name":"Chehalis Generating Facility","state":"WA","detail_file":"data/details/power-plants-04.json","plant_id":"55662","capacity_mw":593.3,"status_group":"Operating","energy_sources":"NG","type":"Power plant","is_nuclear":false}},{"type":"Feature","geometry":{"type":"Point","coordinates":[-120.013,47.835]},"properties":{"key":"6424-a254debe","layer":"power","name":"Chelan","state":"WA","detail_file":"data/details/power-plants-59.json","plant_id":"6424","capacity_mw":59.2,"status_group":"Operating","energy_sources":"WAT","type":"Power plant","is_nuclear":false}},{"type":"Feature","geometry":{"type":"Point","coordinates":[-123.761,46.954]},"properties":{"key":"50185-ad1e57c8","layer":"power","name":"Cosmo Specialty Fibers Plant","state":"WA","detail_file":"data/details/power-plants-53.json","plant_id":"50185","capacity_mw":15.0,"status_group":"Operating","energy_sources":"WDL","type":"Power plant","is_nuclear":false}},{"type":"Feature","geometry":{"type":"Point","coordinates":[-120.737,46.693]},"properties":{"key":"50423-34a02feb","layer":"power","name":"Cowiche","state":"WA","detail_file":"data/details/power-plants-18.json","plant_id":"50423","capacity_mw":1.7,"status_group":"Operating","energy_sources":"WAT","type":"Power plant","is_nuclear":false}},{"type":"Feature","geometry":{"type":"Point","coordinates":[-122.11,46.466]},"properties":{"key":"7427-e03b5ac1","layer":"power","name":"Cowlitz Falls","state":"WA","detail_file":"data/details/power-plants-32.json","plant_id":"7427","capacity_mw":70.0,"status_group":"Operating","energy_sources":"WAT","type":"Power plant","is_nuclear":false}},{"type":"Feature","geometry":{"type":"Point","coordinates":[-121.475,46.953]},"properties":{"key":"3853-a753c2e6","layer":"power","name":"Crystal Mountain","state":"WA","detail_file":"data/details/power-plants-21.json","plant_id":"3853","capacity_mw":2.7,"status_group":"Operating","energy_sources":"DFO","type":"Power plant","is_nuclear":false}},{"type":"Feature","geometry":{"type":"Point","coordinates":[-123.225,47.418]},"properties":{"key":"3914-0bcd4e19","layer":"power","name":"Cushman 1","state":"WA","detail_file":"data/details/power-plants-55.json","plant_id":"3914","capacity_mw":50.4,"status_group":"Operating","energy_sources":"WAT","type":"Power plant","is_nuclear":false}},{"type":"Feature","geometry":{"type":"Point","coordinates":[-123.16,47.37]},"properties":{"key":"3915-efe8370e","layer":"power","name":"Cushman 2","state":"WA","detail_file":"data/details/power-plants-49.json","plant_id":"3915","capacity_mw":84.6,"status_group":"Operating","energy_sources":"WAT","type":"Power plant","is_nuclear":false}},{"type":"Feature","geometry":{"type":"Point","coordinates":[-120.534,46.449]},"properties":{"key":"6507-3e5716b3","layer":"power","name":"Drop 2 (WA)","state":"WA","detail_file":"data/details/power-plants-06.json","plant_id":"6507","capacity_mw":2.5,"status_group":"Operating","energy_sources":"WAT","type":"Power plant","is_nuclear":false}},{"type":"Feature","geometry":{"type":"Point","coordinates":[-120.56,46.423]},"properties":{"key":"6508-68c5fc01","layer":"power","name":"Drop 3 (WA)","state":"WA","detail_file":"data/details/power-plants-39.json","plant_id":"6508","capacity_mw":1.6,"status_group":"Operating","energy_sources":"WAT","type":"Power plant","is_nuclear":false}},{"type":"Feature","geometry":{"type":"Point","coordinates":[-122.175,46.991]},"properties":{"key":"3854-e98a12b8","layer":"power","name":"Electron","state":"WA","detail_file":"data/details/power-plants-27.json","plant_id":"3854","capacity_mw":22.8,"status_group":"Operating","energy_sources":"WAT","type":"Power plant","is_nuclear":false}},{"type":"Feature","geometry":{"type":"Point","coordinates":[-122.365,47.08]},"properties":{"key":"99-b06182a6","layer":"power","name":"Frederickson","state":"WA","detail_file":"data/details/power-plants-01.json","plant_id":"99","capacity_mw":177.8,"status_group":"Operating","energy_sources":"NG","type":"Power plant","is_nuclear":false}},{"type":"Feature","geometry":{"type":"Point","coordinates":[-122.366,47.086]},"properties":{"key":"55818-9237b207","layer":"power","name":"Frederickson Power LP","state":"WA","detail_file":"data/details/power-plants-19.json","plant_id":"55818","capacity_mw":318.3,"status_group":"Operating","energy_sources":"NG","type":"Power plant","is_nuclear":false}},{"type":"Feature","geometry":{"type":"Point","coordinates":[-120.833,45.811]},"properties":{"key":"55482-100fe9c9","layer":"power","name":"Goldendale Generating Station","state":"WA","detail_file":"data/details/power-plants-33.json","plant_id":"55482","capacity_mw":302.8,"status_group":"Operating","energy_sources":"NG","type":"Power plant","is_nuclear":false}},{"type":"Feature","geometry":{"type":"Point","coordinates":[-120.521,45.782]},"properties":{"key":"56666-ab91c6f7","layer":"power","name":"Goodnoe Hills","state":"WA","detail_file":"data/details/power-plants-41.json","plant_id":"56666","capacity_mw":103.4,"status_group":"Operating","energy_sources":"WND","type":"Power plant","is_nuclear":false}},{"type":"Feature","geometry":{"type":"Point","coordinates":[-120.24,46.529]},"properties":{"key":"67261-34e74cf7","layer":"power","name":"Goose Prairie Solar","state":"WA","detail_file":"data/details/power-plants-63.json","plant_id":"67261","capacity_mw":80.0,"status_group":"Operating","energy_sources":"SUN","type":"Power plant","is_nuclear":false}},{"type":"Feature","geometry":{"type":"Point","coordinates":[-123.48,46.969]},"properties":{"key":"7999-39f658d1","layer":"power","name":"Grays Harbor Energy Facility","state":"WA","detail_file":"data/details/power-plants-08.json","plant_id":"7999","capacity_mw":714.9,"status_group":"Operating","energy_sources":"NG","type":"Power plant","is_nuclear":false}},{"type":"Feature","geometry":{"type":"Point","coordinates":[-122.227,47.236]},"properties":{"key":"68341-69ce286f","layer":"power","name":"Greenwater BESS","state":"WA","detail_file":"data/details/power-plants-53.json","plant_id":"68341","capacity_mw":200.0,"status_group":"Under construction","energy_sources":"MWH","type":"Power plant","is_nuclear":false}},{"type":"Feature","geometry":{"type":"Point","coordinates":[-121.814,47.908]},"properties":{"key":"7588-d954e3fe","layer":"power","name":"H M Jackson","state":"WA","detail_file":"data/details/power-plants-23.json","plant_id":"7588","capacity_mw":111.8,"status_group":"Operating","energy_sources":"WAT","type":"Power plant","is_nuclear":false}},{"type":"Feature","geometry":{"type":"Point","coordinates":[-121.69,47.572]},"properties":{"key":"60517-f1628596","layer":"power","name":"Hancock Creek Hydroelectric Project","state":"WA","detail_file":"data/details/power-plants-10.json","plant_id":"60517","capacity_mw":6.0,"status_group":"Operating","energy_sources":"WAT","type":"Power plant","is_nuclear":false}},{"type":"Feature","geometry":{"type":"Point","coordinates":[-120.347,45.813]},"properties":{"key":"57152-88ca00fb","layer":"power","name":"Harvest Wind Project","state":"WA","detail_file":"data/details/power-plants-38.json","plant_id":"57152","capacity_mw":98.9,"status_group":"Operating","energy_sources":"WND","type":"Power plant","is_nuclear":false}},{"type":"Feature","geometry":{"type":"Point","coordinates":[-120.236,45.922]},"properties":{"key":"57320-b4644824","layer":"power","name":"Juniper Canyon I Wind Project","state":"WA","detail_file":"data/details/power-plants-27.json","plant_id":"57320","capacity_mw":151.2,"status_group":"Operating","energy_sources":"WND","type":"Power plant","is_nuclear":false}},{"type":"Feature","geometry":{"type":"Point","coordinates":[-122.291,46.976]},"properties":{"key":"58688-4561f04c","layer":"power","name":"LRI LFGTE Facility","state":"WA","detail_file":"data/details/power-plants-00.json","plant_id":"58688","capacity_mw":4.5,"status_group":"Operating","energy_sources":"LFG","type":"Power plant","is_nuclear":false}},{"type":"Feature","geometry":{"type":"Point","coordinates":[-122.32,46.833]},"properties":{"key":"3916-18a429f1","layer":"power","name":"LaGrande","state":"WA","detail_file":"data/details/power-plants-14.json","plant_id":"3916","capacity_mw":64.0,"status_group":"Operating","energy_sources":"WAT","type":"Power plant","is_nuclear":false}},{"type":"Feature","geometry":{"type":"Point","coordinates":[-123.115,47.471]},"properties":{"key":"50700-240ae939","layer":"power","name":"Lilliwaup Falls Generating","state":"WA","detail_file":"data/details/power-plants-42.json","plant_id":"50700","capacity_mw":1.4,"status_group":"Operating","energy_sources":"WAT","type":"Power plant","is_nuclear":false}},{"type":"Feature","geometry":{"type":"Point","coordinates":[-120.784,45.744]},"properties":{"key":"57635-ea910b49","layer":"power","name":"Linden Wind Energy Project","state":"WA","detail_file":"data/details/power-plants-30.json","plant_id":"57635","capacity_mw":50.0,"status_group":"Operating","energy_sources":"WND","type":"Power plant","is_nuclear":false}},{"type":"Feature","geometry":{"type":"Point","coordinates":[-122.918,46.104]},"properties":{"key":"54562-9a95a0d4","layer":"power","name":"Longview Fibre","state":"WA","detail_file":"data/details/power-plants-07.json","plant_id":"54562","capacity_mw":45.0,"status_group":"Operating","energy_sources":"BLQ","type":"Power plant","is_nuclear":false}},{"type":"Feature","geometry":{"type":"Point","coordinates":[-120.355,45.888]},"properties":{"key":"63509-3be7996d","layer":"power","name":"Lund Hill Solar","state":"WA","detail_file":"data/details/power-plants-51.json","plant_id":"63509","capacity_mw":150.0,"status_group":"Operating","energy_sources":"SUN","type":"Power plant","is_nuclear":false}},{"type":"Feature","geometry":{"type":"Point","coordinates":[-122.588,46.504]},"properties":{"key":"3917-3d102ba4","layer":"power","name":"Mayfield","state":"WA","detail_file":"data/details/power-plants-30.json","plant_id":"3917","capacity_mw":162.0,"status_group":"Operating","energy_sources":"WAT","type":"Power plant","is_nuclear":false}},{"type":"Feature","geometry":{"type":"Point","coordinates":[-122.554,45.957]},"properties":{"key":"3847-47b8cc81","layer":"power","name":"Merwin","state":"WA","detail_file":"data/details/power-plants-24.json","plant_id":"3847","capacity_mw":136.0,"status_group":"Operating","energy_sources":"WAT","type":"Power plant","is_nuclear":false}},{"type":"Feature","geometry":{"type":"Point","coordinates":[-122.986,46.139]},"properties":{"key":"55700-c984d28f","layer":"power","name":"Mint Farm Generating Station","state":"WA","detail_file":"data/details/power-plants-30.json","plant_id":"55700","capacity_mw":319.0,"status_group":"Operating","energy_sources":"NG","type":"Power plant","is_nuclear":false}},{"type":"Feature","geometry":{"type":"Point","coordinates":[-122.425,46.535]},"properties":{"key":"3918-6c40cb2e","layer":"power","name":"Mossyrock","state":"WA","detail_file":"data/details/power-plants-41.json","plant_id":"3918","capacity_mw":300.0,"status_group":"Operating","energy_sources":"WAT","type":"Power plant","is_nuclear":false}},{"type":"Feature","geometry":{"type":"Point","coordinates":[-122.973,46.124]},"properties":{"key":"50187-286af54e","layer":"power","name":"Nippon Dynawave Packaging Longview WA","state":"WA","detail_file":"data/details/power-plants-48.json","plant_id":"50187","capacity_mw":62.4,"status_group":"Operating","energy_sources":"BLQ; WDS","type":"Power plant","is_nuclear":false}},{"type":"Feature","geometry":{"type":"Point","coordinates":[-120.677,46.596]},"properties":{"key":"50421-a7cb235b","layer":"power","name":"Orchard Avenue 1","state":"WA","detail_file":"data/details/power-plants-13.json","plant_id":"50421","capacity_mw":1.6,"status_group":"Operating","energy_sources":"WAT","type":"Power plant","is_nuclear":false}},{"type":"Feature","geometry":{"type":"Point","coordinates":[-120.104,47.337]},"properties":{"key":"69099-3cf71dbb","layer":"power","name":"Orion - Helion","state":"WA","detail_file":"data/details/power-plants-43.json","plant_id":"69099","capacity_mw":50.0,"status_group":"Under construction","energy_sources":"H2","type":"Power plant","is_nuclear":false}},{"type":"Feature","geometry":{"type":"Point","coordinates":[-121.569,46.596]},"properties":{"key":"3929-84f7699f","layer":"power","name":"Packwood","state":"WA","detail_file":"data/details/power-plants-29.json","plant_id":"3929","capacity_mw":27.5,"status_group":"Operating","energy_sources":"WAT","type":"Power plant","is_nuclear":false}},{"type":"Feature","geometry":{"type":"Point","coordinates":[-120.509,46.959]},"properties":{"key":"62069-8004ccac","layer":"power","name":"Penstemon Solar Project","state":"WA","detail_file":"data/details/power-plants-59.json","plant_id":"62069","capacity_mw":5.0,"status_group":"Operating","energy_sources":"SUN","type":"Power plant","is_nuclear":false}},{"type":"Feature","geometry":{"type":"Point","coordinates":[-122.726,45.65]},"properties":{"key":"7605-20f462ee","layer":"power","name":"River Road Gen Plant","state":"WA","detail_file":"data/details/power-plants-02.json","plant_id":"7605","capacity_mw":248.0,"status_group":"Operating","energy_sources":"NG","type":"Power plant","is_nuclear":false}},{"type":"Feature","geometry":{"type":"Point","coordinates":[-120.092,47.346]},"properties":{"key":"6200-356204ca","layer":"power","name":"Rock Island","state":"WA","detail_file":"data/details/power-plants-10.json","plant_id":"6200","capacity_mw":629.4,"status_group":"Operating","energy_sources":"WAT","type":"Power plant","is_nuclear":false}},{"type":"Feature","geometry":{"type":"Point","coordinates":[-122.943,47.72]},"properties":{"key":"50228-00e63083","layer":"power","name":"Rocky Brook Hydroelectric","state":"WA","detail_file":"data/details/power-plants-28.json","plant_id":"50228","capacity_mw":1.6,"status_group":"Operating","energy_sources":"WAT","type":"Power plant","is_nuclear":false}},{"type":"Feature","geometry":{"type":"Point","coordinates":[-120.295,47.534]},"properties":{"key":"3883-e3746183","layer":"power","name":"Rocky Reach","state":"WA","detail_file":"data/details/power-plants-36.json","plant_id":"3883","capacity_mw":1349.2,"status_group":"Operating","energy_sources":"WAT","type":"Power plant","is_nuclear":false}},{"type":"Feature","geometry":{"type":"Point","coordinates":[-120.478,46.618]},"properties":{"key":"6407-fe0ea9aa","layer":"power","name":"Roza","state":"WA","detail_file":"data/details/power-plants-52.json","plant_id":"6407","capacity_mw":12.9,"status_group":"Operating","energy_sources":"WAT","type":"Power plant","is_nuclear":false}},{"type":"Feature","geometry":{"type":"Point","coordinates":[-120.687,47.136]},"properties":{"key":"56858-f93b7e95","layer":"power","name":"Sagebrush Power Partners","state":"WA","detail_file":"data/details/power-plants-55.json","plant_id":"56858","capacity_mw":100.7,"status_group":"Operating","energy_sources":"WND","type":"Power plant","is_nuclear":false}},{"type":"Feature","geometry":{"type":"Point","coordinates":[-123.774,46.973]},"properties":{"key":"55882-fbfe6c9e","layer":"power","name":"Sierra Pacific Aberdeen","state":"WA","detail_file":"data/details/power-plants-59.json","plant_id":"55882","capacity_mw":18.0,"status_group":"Operating","energy_sources":"WDS","type":"Power plant","is_nuclear":false}},{"type":"Feature","geometry":{"type":"Point","coordinates":[-122.72,46.784]},"properties":{"key":"7259-0d4d5b78","layer":"power","name":"Skookumchuck","state":"WA","detail_file":"data/details/power-plants-17.json","plant_id":"7259","capacity_mw":1.0,"status_group":"Operating","energy_sources":"WAT","type":"Power plant","is_nuclear":false}},{"type":"Feature","geometry":{"type":"Point","coordinates":[-122.664,46.851]},"properties":{"key":"63205-19191199","layer":"power","name":"Skookumchuck Wind Facility","state":"WA","detail_file":"data/details/power-plants-16.json","plant_id":"63205","capacity_mw":136.0,"status_group":"Operating","energy_sources":"WND","type":"Power plant","is_nuclear":false}},{"type":"Feature","geometry":{"type":"Point","coordinates":[-121.837,47.54]},"properties":{"key":"3860-aee497d5","layer":"power","name":"Snoqualmie","state":"WA","detail_file":"data/details/power-plants-21.json","plant_id":"3860","capacity_mw":12.8,"status_group":"Operating","energy_sources":"WAT","type":"Power plant","is_nuclear":false}},{"type":"Feature","geometry":{"type":"Point","coordinates":[-121.841,47.544]},"properties":{"key":"7867-d7c8f2bd","layer":"power","name":"Snoqualmie 2","state":"WA","detail_file":"data/details/power-plants-53.json","plant_id":"7867","capacity_mw":38.7,"status_group":"Operating","energy_sources":"WAT","type":"Power plant","is_nuclear":false}},{"type":"Feature","geometry":{"type":"Point","coordinates":[-121.783,47.699]},"properties":{"key":"622-7c8f05cd","layer":"power","name":"South Fork Tolt","state":"WA","detail_file":"data/details/power-plants-59.json","plant_id":"622","capacity_mw":16.8,"status_group":"Operating","energy_sources":"WAT","type":"Power plant","is_nuclear":false}},{"type":"Feature","geometry":{"type":"Point","coordinates":[-120.753,47.139]},"properties":{"key":"58441-55127512","layer":"power","name":"Swauk Wind LLC","state":"WA","detail_file":"data/details/power-plants-30.json","plant_id":"58441","capacity_mw":4.3,"status_group":"Operating","energy_sources":"WND","type":"Power plant","is_nuclear":false}},{"type":"Feature","geometry":{"type":"Point","coordinates":[-122.202,46.061]},"properties":{"key":"3850-1c508b85","layer":"power","name":"Swift 1","state":"WA","detail_file":"data/details/power-plants-63.json","plant_id":"3850","capacity_mw":240.0,"status_group":"Operating","energy_sources":"WAT","type":"Power plant","is_nuclear":false}},{"type":"Feature","geometry":{"type":"Point","coordinates":[-122.259,46.059]},"properties":{"key":"6265-97b93ac0","layer":"power","name":"Swift 2","state":"WA","detail_file":"data/details/power-plants-08.json","plant_id":"6265","capacity_mw":72.0,"status_group":"Operating","energy_sources":"WAT","type":"Power plant","is_nuclear":false}},{"type":"Feature","geometry":{"type":"Point","coordinates":[-121.129,46.658]},"properties":{"key":"57496-b11d9e35","layer":"power","name":"Tieton Dam Hydro Electric Project","state":"WA","detail_file":"data/details/power-plants-05.json","plant_id":"57496","capacity_mw":13.8,"status_group":"Operating","energy_sources":"WAT","type":"Power plant","is_nuclear":false}},{"type":"Feature","geometry":{"type":"Point","coordinates":[-122.86,46.756]},"properties":{"key":"3845-932e5997","layer":"power","name":"Transalta Centralia Generation","state":"WA","detail_file":"data/details/power-plants-24.json","plant_id":"3845","capacity_mw":729.9,"status_group":"Operating","energy_sources":"SUB","type":"Power plant","is_nuclear":false}},{"type":"Feature","geometry":{"type":"Point","coordinates":[-121.688,47.445]},"properties":{"key":"50827-fabd0f68","layer":"power","name":"Twin Falls Hydro","state":"WA","detail_file":"data/details/power-plants-49.json","plant_id":"50827","capacity_mw":24.0,"status_group":"Operating","energy_sources":"WAT","type":"Power plant","is_nuclear":false}},{"type":"Feature","geometry":{"type":"Point","coordinates":[-122.304,47.654]},"properties":{"key":"54809-a99101a9","layer":"power","name":"University of Washington Power Plant","state":"WA","detail_file":"data/details/power-plants-37.json","plant_id":"54809","capacity_mw":15.0,"status_group":"Operating","energy_sources":"DFO; NG","type":"Power plant","is_nuclear":false}},{"type":"Feature","geometry":{"type":"Point","coordinates":[-120.69,47.108]},"properties":{"key":"62067-c4acb7d6","layer":"power","name":"Urtica Solar Project","state":"WA","detail_file":"data/details/power-plants-44.json","plant_id":"62067","capacity_mw":5.0,"status_group":"Operating","energy_sources":"SUN","type":"Power plant","is_nuclear":false}},{"type":"Feature","geometry":{"type":"Point","coordinates":[-120.182,46.955]},"properties":{"key":"57188-b6f76092","layer":"power","name":"Vantage Wind Energy LLC","state":"WA","detail_file":"data/details/power-plants-45.json","plant_id":"57188","capacity_mw":90.0,"status_group":"Operating","energy_sources":"WND","type":"Power plant","is_nuclear":false}},{"type":"Feature","geometry":{"type":"Point","coordinates":[-120.807,45.88]},"properties":{"key":"56702-34af752e","layer":"power","name":"Washington Wind","state":"WA","detail_file":"data/details/power-plants-31.json","plant_id":"56702","capacity_mw":136.3,"status_group":"Operating","energy_sources":"WND","type":"Power plant","is_nuclear":false}},{"type":"Feature","geometry":{"type":"Point","coordinates":[-121.648,47.433]},"properties":{"key":"54387-21818058","layer":"power","name":"Weeks Falls","state":"WA","detail_file":"data/details/power-plants-32.json","plant_id":"54387","capacity_mw":4.3,"status_group":"Operating","energy_sources":"WAT","type":"Power plant","is_nuclear":false}},{"type":"Feature","geometry":{"type":"Point","coordinates":[-122.446,47.661]},"properties":{"key":"50329-8124afbb","layer":"power","name":"West Point Treatment Plant","state":"WA","detail_file":"data/details/power-plants-62.json","plant_id":"50329","capacity_mw":4.6,"status_group":"Operating","energy_sources":"OBG","type":"Power plant","is_nuclear":false}},{"type":"Feature","geometry":{"type":"Point","coordinates":[-120.342,45.815]},"properties":{"key":"56487-b27d187b","layer":"power","name":"White Creek Wind Farm","state":"WA","detail_file":"data/details/power-plants-07.json","plant_id":"56487","capacity_mw":204.0,"status_group":"Operating","energy_sources":"WND","type":"Power plant","is_nuclear":false}},{"type":"Feature","geometry":{"type":"Point","coordinates":[-120.207,47.036]},"properties":{"key":"56322-7cb824eb","layer":"power","name":"Wild Horse","state":"WA","detail_file":"data/details/power-plants-38.json","plant_id":"56322","capacity_mw":273.1,"status_group":"Operating","energy_sources":"SUN; WND","type":"Power plant","is_nuclear":false}},{"type":"Feature","geometry":{"type":"Point","coordinates":[-120.834,45.727]},"properties":{"key":"57159-39f92931","layer":"power","name":"Windy Flats Wind Project","state":"WA","detail_file":"data/details/power-plants-04.json","plant_id":"57159","capacity_mw":262.2,"status_group":"Operating","energy_sources":"WND","type":"Power plant","is_nuclear":false}},{"type":"Feature","geometry":{"type":"Point","coordinates":[-123.605,47.385]},"properties":{"key":"7127-009d68db","layer":"power","name":"Wynoochee","state":"WA","detail_file":"data/details/power-plants-59.json","plant_id":"7127","capacity_mw":12.8,"status_group":"Operating","energy_sources":"WAT","type":"Power plant","is_nuclear":false}},{"type":"Feature","geometry":{"type":"Point","coordinates":[-122.335,45.963]},"properties":{"key":"3852-d682d0c7","layer":"power","name":"Yale","state":"WA","detail_file":"data/details/power-plants-08.json","plant_id":"3852","capacity_mw":134.0,"status_group":"Operating","energy_sources":"WAT","type":"Power plant","is_nuclear":false}},{"type":"Feature","geometry":{"type":"Point","coordinates":[-122.636,46.975]},"properties":{"key":"3878-1dd0d0f8","layer":"power","name":"Yelm","state":"WA","detail_file":"data/details/power-plants-39.json","plant_id":"3878","capacity_mw":12.0,"status_group":"Operating","energy_sources":"WAT","type":"Power plant","is_nuclear":false}},{"type":"Feature","geometry":{"type":"Point","coordinates":[-121.8,47.792]},"properties":{"key":"57763-680f7bb5","layer":"power","name":"Youngs Creek Hydroelectric Project","state":"WA","detail_file":"data/details/power-plants-18.json","plant_id":"57763","capacity_mw":7.5,"status_group":"Operating","energy_sources":"WAT","type":"Power plant","is_nuclear":false}}]}