{"type":"FeatureCollection","features":[{"type":"Feature","geometry":{"type":"Point","coordinates":[-116.575,43.606]},"properties":{"key":"54690-693be961","layer":"power","name":"Amalgamated Sugar LLC Nampa","state":"ID","detail_file":"data/details/power-plants-51.json","plant_id":"54690","capacity_mw":8.2,"status_group":"Operating","energy_sources":"NG","type":"Power plant","is_nuclear":false}},{"type":"Feature","geometry":{"type":"Point","coordinates":[-116.121,43.561]},"properties":{"key":"10735-f09cde5b","layer":"power","name":"Barber Dam","state":"ID","detail_file":"data/details/power-plants-14.json","plant_id":"10735","capacity_mw":4.1,"status_group":"Operating","energy_sources":"WAT","type":"Power plant","is_nuclear":false}},{"type":"Feature","geometry":{"type":"Point","coordinates":[-116.437,43.93]},"properties":{"key":"6396-830b15bd","layer":"power","name":"Black Canyon","state":"ID","detail_file":"data/details/power-plants-20.json","plant_id":"6396","capacity_mw":10.2,"status_group":"Operating","energy_sources":"WAT","type":"Power plant","is_nuclear":false}},{"type":"Feature","geometry":{"type":"Point","coordinates":[-116.192,43.499]},"properties":{"key":"69553-7dd0b5c2","layer":"power","name":"Blacks Creek Solar","state":"ID","detail_file":"data/details/power-plants-13.json","plant_id":"69553","capacity_mw":400.0,"status_group":"Under construction","energy_sources":"SUN","type":"Power plant","is_nuclear":false}},{"type":"Feature","geometry":{"type":"Point","coordinates":[-116.155,43.558]},"properties":{"key":"68799-be7a7e27","layer":"power","name":"Boise Bench BESS","state":"ID","detail_file":"data/details/power-plants-05.json","plant_id":"68799","capacity_mw":150.0,"status_group":"Under construction","energy_sources":"MWH","type":"Power plant","is_nuclear":false}},{"type":"Feature","geometry":{"type":"Point","coordinates":[-116.094,43.538]},"properties":{"key":"6397-58830e44","layer":"power","name":"Boise R Diversion","state":"ID","detail_file":"data/details/power-plants-47.json","plant_id":"6397","capacity_mw":3.3,"status_group":"Operating","energy_sources":"WAT","type":"Power plant","is_nuclear":false}},{"type":"Feature","geometry":{"type":"Point","coordinates":[-116.9,43.625]},"properties":{"key":"58384-1ebcfa4a","layer":"power","name":"Fargo Drop","state":"ID","detail_file":"data/details/power-plants-34.json","plant_id":"58384","capacity_mw":1.1,"status_group":"Operating","energy_sources":"WAT","type":"Power plant","is_nuclear":false}},{"type":"Feature","geometry":{"type":"Point","coordinates":[-116.093,42.99]},"properties":{"key":"60068-31cbbfff","layer":"power","name":"Grand View Solar Two","state":"ID","detail_file":"data/details/power-plants-17.json","plant_id":"60068","capacity_mw":80.0,"status_group":"Operating","energy_sources":"SUN","type":"Power plant","is_nuclear":false}},{"type":"Feature","geometry":{"type":"Point","coordinates":[-116.512,43.551]},"properties":{"key":"67573-0cc8bc15","layer":"power","name":"Happy Valley Battery Storage","state":"ID","detail_file":"data/details/power-plants-19.json","plant_id":"67573","capacity_mw":82.0,"status_group":"Operating","energy_sources":"MWH","type":"Power plant","is_nuclear":false}},{"type":"Feature","geometry":{"type":"Point","coordinates":[-116.662,43.352]},"properties":{"key":"66325-53a61482","layer":"power","name":"Hemmingway BESS","state":"ID","detail_file":"data/details/power-plants-07.json","plant_id":"66325","capacity_mw":116.0,"status_group":"Operating","energy_sources":"MWH","type":"Power plant","is_nuclear":false}},{"type":"Feature","geometry":{"type":"Point","coordinates":[-116.662,43.352]},"properties":{"key":"66325-a6c47289","layer":"power","name":"Hemmingway BESS","state":"ID","detail_file":"data/details/power-plants-02.json","plant_id":"66325","capacity_mw":50.0,"status_group":"Under construction","energy_sources":"MWH","type":"Power plant","is_nuclear":false}},{"type":"Feature","geometry":{"type":"Point","coordinates":[-116.271,43.697]},"properties":{"key":"57861-bcb93144","layer":"power","name":"Hidden Hollow Energy","state":"ID","detail_file":"data/details/power-plants-30.json","plant_id":"57861","capacity_mw":3.2,"status_group":"Operating","energy_sources":"LFG","type":"Power plant","is_nuclear":false}},{"type":"Feature","geometry":{"type":"Point","coordinates":[-116.244,43.904]},"properties":{"key":"54524-bd330138","layer":"power","name":"Horseshoe Bend Hydroelectric Co","state":"ID","detail_file":"data/details/power-plants-35.json","plant_id":"54524","capacity_mw":9.4,"status_group":"Operating","energy_sources":"WAT","type":"Power plant","is_nuclear":false}},{"type":"Feature","geometry":{"type":"Point","coordinates":[-116.333,43.444]},"properties":{"key":"60445-bc3bf65e","layer":"power","name":"ID Solar","state":"ID","detail_file":"data/details/power-plants-03.json","plant_id":"60445","capacity_mw":40.0,"status_group":"Operating","energy_sources":"SUN","type":"Power plant","is_nuclear":false}},{"type":"Feature","geometry":{"type":"Point","coordinates":[-116.42,43.49]},"properties":{"key":"67549-438e1a5a","layer":"power","name":"Kuna BESS","state":"ID","detail_file":"data/details/power-plants-43.json","plant_id":"67549","capacity_mw":150.0,"status_group":"Operating","energy_sources":"MWH","type":"Power plant","is_nuclear":false}},{"type":"Feature","geometry":{"type":"Point","coordinates":[-116.82,43.904]},"properties":{"key":"57028-69d5561b","layer":"power","name":"Langley Gulch Power Plant","state":"ID","detail_file":"data/details/power-plants-03.json","plant_id":"57028","capacity_mw":318.5,"status_group":"Operating","energy_sources":"NG","type":"Power plant","is_nuclear":false}},{"type":"Feature","geometry":{"type":"Point","coordinates":[-116.058,43.528]},"properties":{"key":"10014-219a8f60","layer":"power","name":"Lucky Peak Power Plant Project","state":"ID","detail_file":"data/details/power-plants-37.json","plant_id":"10014","capacity_mw":101.2,"status_group":"Operating","energy_sources":"WAT","type":"Power plant","is_nuclear":false}},{"type":"Feature","geometry":{"type":"Point","coordinates":[-116.355,43.486]},"properties":{"key":"64607-a2173f30","layer":"power","name":"MC6 Hydro Facility","state":"ID","detail_file":"data/details/power-plants-20.json","plant_id":"64607","capacity_mw":2.3,"status_group":"Operating","energy_sources":"WAT","type":"Power plant","is_nuclear":false}},{"type":"Feature","geometry":{"type":"Point","coordinates":[-116.561,43.372]},"properties":{"key":"66329-76d8c9d7","layer":"power","name":"Melba BESS","state":"ID","detail_file":"data/details/power-plants-57.json","plant_id":"66329","capacity_mw":2.0,"status_group":"Operating","energy_sources":"MWH","type":"Power plant","is_nuclear":false}},{"type":"Feature","geometry":{"type":"Point","coordinates":[-116.472,43.46]},"properties":{"key":"56498-47b5ee85","layer":"power","name":"Mora Drop Hydroelectric Project","state":"ID","detail_file":"data/details/power-plants-49.json","plant_id":"56498","capacity_mw":1.7,"status_group":"Operating","energy_sources":"WAT","type":"Power plant","is_nuclear":false}},{"type":"Feature","geometry":{"type":"Point","coordinates":[-116.439,43.211]},"properties":{"key":"60009-18ea88b7","layer":"power","name":"Murphy Flat Solar","state":"ID","detail_file":"data/details/power-plants-33.json","plant_id":"60009","capacity_mw":20.0,"status_group":"Operating","energy_sources":"SUN","type":"Power plant","is_nuclear":false}},{"type":"Feature","geometry":{"type":"Point","coordinates":[-116.29,43.468]},"properties":{"key":"60010-e605b453","layer":"power","name":"Orchard Ranch Solar","state":"ID","detail_file":"data/details/power-plants-01.json","plant_id":"60010","capacity_mw":20.0,"status_group":"Operating","energy_sources":"SUN","type":"Power plant","is_nuclear":false}},{"type":"Feature","geometry":{"type":"Point","coordinates":[-116.379,43.243]},"properties":{"key":"819-80815e62","layer":"power","name":"Swan Falls","state":"ID","detail_file":"data/details/power-plants-51.json","plant_id":"819","capacity_mw":27.2,"status_group":"Operating","energy_sources":"WAT","type":"Power plant","is_nuclear":false}},{"type":"Feature","geometry":{"type":"Point","coordinates":[-117.061,40.718]},"properties":{"key":"61098-a124e012","layer":"power","name":"Battle Mountain Solar Project","state":"NV","detail_file":"data/details/power-plants-17.json","plant_id":"61098","capacity_mw":126.0,"status_group":"Operating","energy_sources":"MWH; SUN","type":"Power plant","is_nuclear":false}},{"type":"Feature","geometry":{"type":"Point","coordinates":[-116.618,40.555]},"properties":{"key":"10287-6b58db3c","layer":"power","name":"Beowawe","state":"NV","detail_file":"data/details/power-plants-29.json","plant_id":"10287","capacity_mw":35.0,"status_group":"Operating","energy_sources":"GEO; SUN","type":"Power plant","is_nuclear":false}},{"type":"Feature","geometry":{"type":"Point","coordinates":[-119.467,40.713]},"properties":{"key":"63913-c1b6d9be","layer":"power","name":"Dodge Flat","state":"NV","detail_file":"data/details/power-plants-62.json","plant_id":"63913","capacity_mw":250.0,"status_group":"Operating","energy_sources":"MWH; SUN","type":"Power plant","is_nuclear":false}},{"type":"Feature","geometry":{"type":"Point","coordinates":[-119.974,40.075]},"properties":{"key":"64148-bb57ce96","layer":"power","name":"Fish Springs","state":"NV","detail_file":"data/details/power-plants-56.json","plant_id":"64148","capacity_mw":125.0,"status_group":"Operating","energy_sources":"MWH; SUN","type":"Power plant","is_nuclear":false}},{"type":"Feature","geometry":{"type":"Point","coordinates":[-117.474,40.181]},"properties":{"key":"57376-ca33c922","layer":"power","name":"Jersey Valley Geothermal Power Plant","state":"NV","detail_file":"data/details/power-plants-31.json","plant_id":"57376","capacity_mw":23.5,"status_group":"Operating","energy_sources":"GEO","type":"Power plant","is_nuclear":false}},{"type":"Feature","geometry":{"type":"Point","coordinates":[-118.141,40.996]},"properties":{"key":"56982-55235131","layer":"power","name":"NGP Blue Mountain I LLC","state":"NV","detail_file":"data/details/power-plants-36.json","plant_id":"56982","capacity_mw":63.9,"status_group":"Operating","energy_sources":"GEO","type":"Power plant","is_nuclear":false}},{"type":"Feature","geometry":{"type":"Point","coordinates":[-119.463,40.373]},"properties":{"key":"63491-b1fc5912","layer":"power","name":"North Valley","state":"NV","detail_file":"data/details/power-plants-34.json","plant_id":"63491","capacity_mw":37.0,"status_group":"Operating","energy_sources":"GEO; SUN","type":"Power plant","is_nuclear":false}},{"type":"Feature","geometry":{"type":"Point","coordinates":[-117.152,40.881]},"properties":{"key":"8224-cad79d25","layer":"power","name":"North Valmy","state":"NV","detail_file":"data/details/power-plants-28.json","plant_id":"8224","capacity_mw":567.0,"status_group":"Operating","energy_sources":"NG","type":"Power plant","is_nuclear":false}},{"type":"Feature","geometry":{"type":"Point","coordinates":[-119.4,40.381]},"properties":{"key":"57456-53439392","layer":"power","name":"San Emidio","state":"NV","detail_file":"data/details/power-plants-37.json","plant_id":"57456","capacity_mw":11.8,"status_group":"Operating","energy_sources":"GEO","type":"Power plant","is_nuclear":false}},{"type":"Feature","geometry":{"type":"Point","coordinates":[-118.272,40.532]},"properties":{"key":"65773-ff944019","layer":"power","name":"Star Peak Geothermal Plant","state":"NV","detail_file":"data/details/power-plants-05.json","plant_id":"65773","capacity_mw":21.9,"status_group":"Operating","energy_sources":"GEO","type":"Power plant","is_nuclear":false}},{"type":"Feature","geometry":{"type":"Point","coordinates":[-116.53,40.746]},"properties":{"key":"56224-0dd95e00","layer":"power","name":"TS Power Plant","state":"NV","detail_file":"data/details/power-plants-28.json","plant_id":"56224","capacity_mw":442.0,"status_group":"Operating","energy_sources":"SUB; SUN","type":"Power plant","is_nuclear":false}},{"type":"Feature","geometry":{"type":"Point","coordinates":[-116.151,41.483]},"properties":{"key":"57451-4a6f363b","layer":"power","name":"Tuscarora Geothermal Power Plant","state":"NV","detail_file":"data/details/power-plants-49.json","plant_id":"57451","capacity_mw":32.0,"status_group":"Operating","energy_sources":"GEO","type":"Power plant","is_nuclear":false}},{"type":"Feature","geometry":{"type":"Point","coordinates":[-117.381,43.937]},"properties":{"key":"60330-c335e524","layer":"power","name":"Grove Solar Center, LLC","state":"OR","detail_file":"data/details/power-plants-12.json","plant_id":"60330","capacity_mw":6.0,"status_group":"Operating","energy_sources":"SUN","type":"Power plant","is_nuclear":false}},{"type":"Feature","geometry":{"type":"Point","coordinates":[-117.155,43.772]},"properties":{"key":"50360-e66017f2","layer":"power","name":"Michell Butte Power Project","state":"OR","detail_file":"data/details/power-plants-17.json","plant_id":"50360","capacity_mw":2.0,"status_group":"Operating","energy_sources":"WAT","type":"Power plant","is_nuclear":false}},{"type":"Feature","geometry":{"type":"Point","coordinates":[-117.075,43.951]},"properties":{"key":"61855-f3b18019","layer":"power","name":"Morgan Solar Center","state":"OR","detail_file":"data/details/power-plants-45.json","plant_id":"61855","capacity_mw":3.0,"status_group":"Operating","energy_sources":"SUN","type":"Power plant","is_nuclear":false}},{"type":"Feature","geometry":{"type":"Point","coordinates":[-117.065,43.797]},"properties":{"key":"60332-0bbab98a","layer":"power","name":"Open Range Solar Center, LLC","state":"OR","detail_file":"data/details/power-plants-05.json","plant_id":"60332","capacity_mw":10.0,"status_group":"Operating","energy_sources":"SUN","type":"Power plant","is_nuclear":false}},{"type":"Feature","geometry":{"type":"Point","coordinates":[-117.244,43.642]},"properties":{"key":"50361-50b37f02","layer":"power","name":"Owyhee Dam Power Project","state":"OR","detail_file":"data/details/power-plants-22.json","plant_id":"50361","capacity_mw":5.0,"status_group":"Operating","energy_sources":"WAT","type":"Power plant","is_nuclear":false}},{"type":"Feature","geometry":{"type":"Point","coordinates":[-117.101,43.998]},"properties":{"key":"60333-18d891c7","layer":"power","name":"Railroad Solar Center, LLC","state":"OR","detail_file":"data/details/power-plants-46.json","plant_id":"60333","capacity_mw":4.5,"status_group":"Operating","energy_sources":"SUN","type":"Power plant","is_nuclear":false}},{"type":"Feature","geometry":{"type":"Point","coordinates":[-119.685,43.556]},"properties":{"key":"63925-63eff5a7","layer":"power","name":"Riley","state":"OR","detail_file":"data/details/power-plants-48.json","plant_id":"63925","capacity_mw":10.0,"status_group":"Operating","energy_sources":"SUN","type":"Power plant","is_nuclear":false}},{"type":"Feature","geometry":{"type":"Point","coordinates":[-119.148,43.502]},"properties":{"key":"63344-5bc4b2c9","layer":"power","name":"Starvation","state":"OR","detail_file":"data/details/power-plants-29.json","plant_id":"63344","capacity_mw":9.9,"status_group":"Operating","energy_sources":"SUN","type":"Power plant","is_nuclear":false}},{"type":"Feature","geometry":{"type":"Point","coordinates":[-119.686,43.561]},"properties":{"key":"63778-7fa91f58","layer":"power","name":"Suntex Solar, LLC","state":"OR","detail_file":"data/details/power-plants-40.json","plant_id":"63778","capacity_mw":10.0,"status_group":"Operating","energy_sources":"SUN","type":"Power plant","is_nuclear":false}},{"type":"Feature","geometry":{"type":"Point","coordinates":[-116.988,43.931]},"properties":{"key":"60334-033d020f","layer":"power","name":"Thunderegg Solar Center, LLC","state":"OR","detail_file":"data/details/power-plants-28.json","plant_id":"60334","capacity_mw":10.0,"status_group":"Operating","energy_sources":"SUN","type":"Power plant","is_nuclear":false}},{"type":"Feature","geometry":{"type":"Point","coordinates":[-117.233,43.642]},"properties":{"key":"50362-0a1470d4","layer":"power","name":"Tunnel 1 Power Project","state":"OR","detail_file":"data/details/power-plants-25.json","plant_id":"50362","capacity_mw":8.5,"status_group":"Operating","energy_sources":"WAT","type":"Power plant","is_nuclear":false}},{"type":"Feature","geometry":{"type":"Point","coordinates":[-117.258,43.965]},"properties":{"key":"60335-8152c2bb","layer":"power","name":"Vale Air Solar Center, LLC","state":"OR","detail_file":"data/details/power-plants-43.json","plant_id":"60335","capacity_mw":10.0,"status_group":"Operating","energy_sources":"SUN","type":"Power plant","is_nuclear":false}},{"type":"Feature","geometry":{"type":"Point","coordinates":[-119.147,43.503]},"properties":{"key":"63796-679cfec3","layer":"power","name":"West Hines Solar I, LLC","state":"OR","detail_file":"data/details/power-plants-41.json","plant_id":"63796","capacity_mw":10.0,"status_group":"Operating","energy_sources":"SUN","type":"Power plant","is_nuclear":false}}]}