{"type":"FeatureCollection","features":[{"type":"Feature","geometry":{"type":"Point","coordinates":[-104.807,38.958]},"properties":{"key":"57554-21691e1c","layer":"power","name":"AFA Solar Farm","state":"CO","detail_file":"data/details/power-plants-39.json","plant_id":"57554","capacity_mw":5.5,"status_group":"Operating","energy_sources":"SUN","type":"Power plant","is_nuclear":false}},{"type":"Feature","geometry":{"type":"Point","coordinates":[-104.588,39.787]},"properties":{"key":"59850-18505d43","layer":"power","name":"Adams Community Solar Garden III LLC","state":"CO","detail_file":"data/details/power-plants-03.json","plant_id":"59850","capacity_mw":1.2,"status_group":"Operating","energy_sources":"SUN","type":"Power plant","is_nuclear":false}},{"type":"Feature","geometry":{"type":"Point","coordinates":[-104.586,39.788]},"properties":{"key":"59849-b30b2c62","layer":"power","name":"Adams Community Solar Garden LLC","state":"CO","detail_file":"data/details/power-plants-60.json","plant_id":"59849","capacity_mw":1.2,"status_group":"Operating","energy_sources":"SUN","type":"Power plant","is_nuclear":false}},{"type":"Feature","geometry":{"type":"Point","coordinates":[-104.675,39.899]},"properties":{"key":"59807-4e167810","layer":"power","name":"Airport 1 Solar (DIA)","state":"CO","detail_file":"data/details/power-plants-13.json","plant_id":"59807","capacity_mw":1.5,"status_group":"Operating","energy_sources":"SUN","type":"Power plant","is_nuclear":false}},{"type":"Feature","geometry":{"type":"Point","coordinates":[-104.531,38.284]},"properties":{"key":"7995-5375eedd","layer":"power","name":"Airport Industrial","state":"CO","detail_file":"data/details/power-plants-01.json","plant_id":"7995","capacity_mw":10.0,"status_group":"Operating","energy_sources":"DFO","type":"Power plant","is_nuclear":false}},{"type":"Feature","geometry":{"type":"Point","coordinates":[-105.895,37.459]},"properties":{"key":"464-c866c941","layer":"power","name":"Alamosa","state":"CO","detail_file":"data/details/power-plants-35.json","plant_id":"464","capacity_mw":53.2,"status_group":"Operating","energy_sources":"NG","type":"Power plant","is_nuclear":false}},{"type":"Feature","geometry":{"type":"Point","coordinates":[-105.956,37.599]},"properties":{"key":"57368-f3077478","layer":"power","name":"Alamosa Solar","state":"CO","detail_file":"data/details/power-plants-15.json","plant_id":"57368","capacity_mw":30.0,"status_group":"Operating","energy_sources":"SUN","type":"Power plant","is_nuclear":false}},{"type":"Feature","geometry":{"type":"Point","coordinates":[-105.859,37.451]},"properties":{"key":"64266-79d31c3a","layer":"power","name":"Alamosa Solar South CSG","state":"CO","detail_file":"data/details/power-plants-05.json","plant_id":"64266","capacity_mw":1.6,"status_group":"Operating","energy_sources":"SUN","type":"Power plant","is_nuclear":false}},{"type":"Feature","geometry":{"type":"Point","coordinates":[-104.75,39.75]},"properties":{"key":"63536-f3b236ee","layer":"power","name":"Amazon DEN2 Solar Project","state":"CO","detail_file":"data/details/power-plants-03.json","plant_id":"63536","capacity_mw":1.2,"status_group":"Operating","energy_sources":"SUN","type":"Power plant","is_nuclear":false}},{"type":"Feature","geometry":{"type":"Point","coordinates":[-104.982,39.885]},"properties":{"key":"62877-fe60d6e3","layer":"power","name":"Amazon Denver DEN3","state":"CO","detail_file":"data/details/power-plants-50.json","plant_id":"62877","capacity_mw":4.6,"status_group":"Operating","energy_sources":"SUN","type":"Power plant","is_nuclear":false}},{"type":"Feature","geometry":{"type":"Point","coordinates":[-107.235,39.466]},"properties":{"key":"66271-a7757848","layer":"power","name":"Ameresco HCE Solar LLC","state":"CO","detail_file":"data/details/power-plants-16.json","plant_id":"66271","capacity_mw":4.5,"status_group":"Operating","energy_sources":"SUN","type":"Power plant","is_nuclear":false}},{"type":"Feature","geometry":{"type":"Point","coordinates":[-106.949,39.649]},"properties":{"key":"54630-2ec9dcf1","layer":"power","name":"American Gypsum Cogeneration","state":"CO","detail_file":"data/details/power-plants-24.json","plant_id":"54630","capacity_mw":9.6,"status_group":"Operating","energy_sources":"DFO; NG","type":"Power plant","is_nuclear":false}},{"type":"Feature","geometry":{"type":"Point","coordinates":[-107.883,37.866]},"properties":{"key":"6207-e91020a6","layer":"power","name":"Ames Hydro","state":"CO","detail_file":"data/details/power-plants-22.json","plant_id":"6207","capacity_mw":3.6,"status_group":"Operating","energy_sources":"WAT","type":"Power plant","is_nuclear":false}},{"type":"Feature","geometry":{"type":"Point","coordinates":[-104.674,39.638]},"properties":{"key":"60724-66502db9","layer":"power","name":"Arapahoe 3 Community Solar Array","state":"CO","detail_file":"data/details/power-plants-46.json","plant_id":"60724","capacity_mw":1.8,"status_group":"Operating","energy_sources":"SUN","type":"Power plant","is_nuclear":false}},{"type":"Feature","geometry":{"type":"Point","coordinates":[-105.002,39.669]},"properties":{"key":"55200-9bb80dbb","layer":"power","name":"Arapahoe Combustion Turbine Project","state":"CO","detail_file":"data/details/power-plants-57.json","plant_id":"55200","capacity_mw":194.0,"status_group":"Operating","energy_sources":"NG","type":"Power plant","is_nuclear":false}},{"type":"Feature","geometry":{"type":"Point","coordinates":[-104.549,38.162]},"properties":{"key":"69040-3a8632f2","layer":"power","name":"Arroyo Solar","state":"CO","detail_file":"data/details/power-plants-16.json","plant_id":"69040","capacity_mw":335.0,"status_group":"Under construction","energy_sources":"SUN","type":"Power plant","is_nuclear":false}},{"type":"Feature","geometry":{"type":"Point","coordinates":[-107.997,38.663]},"properties":{"key":"66247-fea5e5e2","layer":"power","name":"Ash Mesa Solar, LLC","state":"CO","detail_file":"data/details/power-plants-59.json","plant_id":"66247","capacity_mw":7.8,"status_group":"Operating","energy_sources":"SUN","type":"Power plant","is_nuclear":false}},{"type":"Feature","geometry":{"type":"Point","coordinates":[-106.822,39.363]},"properties":{"key":"7458-801660ea","layer":"power","name":"Basalt","state":"CO","detail_file":"data/details/power-plants-22.json","plant_id":"7458","capacity_mw":5.0,"status_group":"Operating","energy_sources":"WAT","type":"Power plant","is_nuclear":false}},{"type":"Feature","geometry":{"type":"Point","coordinates":[-104.597,38.208]},"properties":{"key":"63770-bf66a021","layer":"power","name":"Bighorn Solar 1","state":"CO","detail_file":"data/details/power-plants-08.json","plant_id":"63770","capacity_mw":240.0,"status_group":"Operating","energy_sources":"SUN","type":"Power plant","is_nuclear":false}},{"type":"Feature","geometry":{"type":"Point","coordinates":[-107.338,38.453]},"properties":{"key":"512-be71b671","layer":"power","name":"Blue Mesa","state":"CO","detail_file":"data/details/power-plants-16.json","plant_id":"512","capacity_mw":86.4,"status_group":"Operating","energy_sources":"WAT","type":"Power plant","is_nuclear":false}},{"type":"Feature","geometry":{"type":"Point","coordinates":[-104.681,39.748]},"properties":{"key":"55645-7102ca28","layer":"power","name":"Blue Spruce Energy Center","state":"CO","detail_file":"data/details/power-plants-38.json","plant_id":"55645","capacity_mw":397.8,"status_group":"Operating","energy_sources":"NG","type":"Power plant","is_nuclear":false}},{"type":"Feature","geometry":{"type":"Point","coordinates":[-105.5,39.991]},"properties":{"key":"55931-8d5da7a2","layer":"power","name":"Boulder City Silver Lake Hydro","state":"CO","detail_file":"data/details/power-plants-40.json","plant_id":"55931","capacity_mw":3.3,"status_group":"Operating","energy_sources":"WAT","type":"Power plant","is_nuclear":false}},{"type":"Feature","geometry":{"type":"Point","coordinates":[-104.941,39.983]},"properties":{"key":"59144-f8768800","layer":"power","name":"Brighton PV Solar Plant","state":"CO","detail_file":"data/details/power-plants-54.json","plant_id":"59144","capacity_mw":1.8,"status_group":"Operating","energy_sources":"SUN","type":"Power plant","is_nuclear":false}},{"type":"Feature","geometry":{"type":"Point","coordinates":[-104.769,39.979]},"properties":{"key":"67305-b11c8898","layer":"power","name":"Bromley Battery Storage","state":"CO","detail_file":"data/details/power-plants-31.json","plant_id":"67305","capacity_mw":11.8,"status_group":"Operating","energy_sources":"MWH","type":"Power plant","is_nuclear":false}},{"type":"Feature","geometry":{"type":"Point","coordinates":[-104.43,37.766]},"properties":{"key":"62445-570eb1f5","layer":"power","name":"Busch Ranch II Wind Farm","state":"CO","detail_file":"data/details/power-plants-19.json","plant_id":"62445","capacity_mw":59.4,"status_group":"Operating","energy_sources":"WND","type":"Power plant","is_nuclear":false}},{"type":"Feature","geometry":{"type":"Point","coordinates":[-104.492,37.801]},"properties":{"key":"57980-d6439611","layer":"power","name":"Busch Ranch Wind Energy","state":"CO","detail_file":"data/details/power-plants-55.json","plant_id":"57980","capacity_mw":29.0,"status_group":"Operating","energy_sources":"WND","type":"Power plant","is_nuclear":false}},{"type":"Feature","geometry":{"type":"Point","coordinates":[-104.524,38.284]},"properties":{"key":"60801-d660d2fd","layer":"power","name":"CEC Solar #1117, LLC","state":"CO","detail_file":"data/details/power-plants-00.json","plant_id":"60801","capacity_mw":1.5,"status_group":"Operating","energy_sources":"SUN","type":"Power plant","is_nuclear":false}},{"type":"Feature","geometry":{"type":"Point","coordinates":[-104.583,39.785]},"properties":{"key":"63278-f29e5343","layer":"power","name":"CO LI CSG 1 - Kamerra","state":"CO","detail_file":"data/details/power-plants-32.json","plant_id":"63278","capacity_mw":1.5,"status_group":"Operating","energy_sources":"SUN","type":"Power plant","is_nuclear":false}},{"type":"Feature","geometry":{"type":"Point","coordinates":[-104.58,38.306]},"properties":{"key":"58481-136f0663","layer":"power","name":"CSU Pueblo","state":"CO","detail_file":"data/details/power-plants-46.json","plant_id":"58481","capacity_mw":1.0,"status_group":"Operating","energy_sources":"SUN","type":"Power plant","is_nuclear":false}},{"type":"Feature","geometry":{"type":"Point","coordinates":[-104.619,38.169]},"properties":{"key":"67419-d0895026","layer":"power","name":"CSWIND America Inc.","state":"CO","detail_file":"data/details/power-plants-62.json","plant_id":"67419","capacity_mw":12.3,"status_group":"Operating","energy_sources":"SUN","type":"Power plant","is_nuclear":false}},{"type":"Feature","geometry":{"type":"Point","coordinates":[-105.709,39.655]},"properties":{"key":"467-42208451","layer":"power","name":"Cabin Creek","state":"CO","detail_file":"data/details/power-plants-12.json","plant_id":"467","capacity_mw":300.0,"status_group":"Operating","energy_sources":"WAT","type":"Power plant","is_nuclear":false}},{"type":"Feature","geometry":{"type":"Point","coordinates":[-104.451,39.623]},"properties":{"key":"68741-fb3bad7d","layer":"power","name":"Canyon Peak Power Station","state":"CO","detail_file":"data/details/power-plants-12.json","plant_id":"68741","capacity_mw":156.6,"status_group":"Under construction","energy_sources":"NG","type":"Power plant","is_nuclear":false}},{"type":"Feature","geometry":{"type":"Point","coordinates":[-104.782,38.723]},"properties":{"key":"57509-cb37986f","layer":"power","name":"Carson Solar I","state":"CO","detail_file":"data/details/power-plants-59.json","plant_id":"57509","capacity_mw":2.0,"status_group":"Operating","energy_sources":"SUN","type":"Power plant","is_nuclear":false}},{"type":"Feature","geometry":{"type":"Point","coordinates":[-104.965,39.807]},"properties":{"key":"469-16716326","layer":"power","name":"Cherokee","state":"CO","detail_file":"data/details/power-plants-49.json","plant_id":"469","capacity_mw":1006.4,"status_group":"Operating","energy_sources":"NG","type":"Power plant","is_nuclear":false}},{"type":"Feature","geometry":{"type":"Point","coordinates":[-104.654,39.904]},"properties":{"key":"57645-279156bc","layer":"power","name":"City & County of Denver at Denver Int'l","state":"CO","detail_file":"data/details/power-plants-62.json","plant_id":"57645","capacity_mw":3.4,"status_group":"Operating","energy_sources":"SUN","type":"Power plant","is_nuclear":false}},{"type":"Feature","geometry":{"type":"Point","coordinates":[-104.695,38.602]},"properties":{"key":"60511-d7a256c2","layer":"power","name":"Clear Spring Ranch PV Project","state":"CO","detail_file":"data/details/power-plants-15.json","plant_id":"60511","capacity_mw":10.0,"status_group":"Operating","energy_sources":"SUN","type":"Power plant","is_nuclear":false}},{"type":"Feature","geometry":{"type":"Point","coordinates":[-105.215,39.761]},"properties":{"key":"10003-b39f36d6","layer":"power","name":"Colorado Energy Nations Company","state":"CO","detail_file":"data/details/power-plants-10.json","plant_id":"10003","capacity_mw":35.0,"status_group":"Operating","energy_sources":"NG","type":"Power plant","is_nuclear":false}},{"type":"Feature","geometry":{"type":"Point","coordinates":[-104.575,38.208]},"properties":{"key":"470-31579f96","layer":"power","name":"Comanche (CO)","state":"CO","detail_file":"data/details/power-plants-41.json","plant_id":"470","capacity_mw":1252.8,"status_group":"Operating","energy_sources":"SUB","type":"Power plant","is_nuclear":false}},{"type":"Feature","geometry":{"type":"Point","coordinates":[-104.567,38.205]},"properties":{"key":"59656-314d78f5","layer":"power","name":"Comanche Solar","state":"CO","detail_file":"data/details/power-plants-44.json","plant_id":"59656","capacity_mw":120.0,"status_group":"Operating","energy_sources":"SUN","type":"Power plant","is_nuclear":false}},{"type":"Feature","geometry":{"type":"Point","coordinates":[-105.982,37.196]},"properties":{"key":"60723-0fdb99c8","layer":"power","name":"Conejos 1 Community Solar Array","state":"CO","detail_file":"data/details/power-plants-41.json","plant_id":"60723","capacity_mw":1.5,"status_group":"Operating","energy_sources":"SUN","type":"Power plant","is_nuclear":false}},{"type":"Feature","geometry":{"type":"Point","coordinates":[-107.625,38.511]},"properties":{"key":"6159-45238a32","layer":"power","name":"Crystal","state":"CO","detail_file":"data/details/power-plants-24.json","plant_id":"6159","capacity_mw":28.0,"status_group":"Operating","energy_sources":"WAT","type":"Power plant","is_nuclear":false}},{"type":"Feature","geometry":{"type":"Point","coordinates":[-104.716,39.652]},"properties":{"key":"56530-d3df8ace","layer":"power","name":"DADS Gas Recovery","state":"CO","detail_file":"data/details/power-plants-50.json","plant_id":"56530","capacity_mw":3.2,"status_group":"Operating","energy_sources":"LFG","type":"Power plant","is_nuclear":false}},{"type":"Feature","geometry":{"type":"Point","coordinates":[-104.663,39.904]},"properties":{"key":"65806-86471a90","layer":"power","name":"DIA 8","state":"CO","detail_file":"data/details/power-plants-42.json","plant_id":"65806","capacity_mw":4.5,"status_group":"Operating","energy_sources":"SUN","type":"Power plant","is_nuclear":false}},{"type":"Feature","geometry":{"type":"Point","coordinates":[-104.664,39.847]},"properties":{"key":"67201-e8e2bdf1","layer":"power","name":"DIA 9","state":"CO","detail_file":"data/details/power-plants-61.json","plant_id":"67201","capacity_mw":9.8,"status_group":"Operating","energy_sources":"SUN","type":"Power plant","is_nuclear":false}},{"type":"Feature","geometry":{"type":"Point","coordinates":[-104.659,39.903]},"properties":{"key":"56815-ceeb2fb4","layer":"power","name":"Denver Int Airport","state":"CO","detail_file":"data/details/power-plants-16.json","plant_id":"56815","capacity_mw":1.9,"status_group":"Operating","energy_sources":"SUN","type":"Power plant","is_nuclear":false}},{"type":"Feature","geometry":{"type":"Point","coordinates":[-104.674,39.903]},"properties":{"key":"59462-15780e98","layer":"power","name":"Denver Intl Airport IV Solar","state":"CO","detail_file":"data/details/power-plants-16.json","plant_id":"59462","capacity_mw":1.5,"status_group":"Operating","energy_sources":"SUN","type":"Power plant","is_nuclear":false}},{"type":"Feature","geometry":{"type":"Point","coordinates":[-104.621,39.759]},"properties":{"key":"61563-6e568374","layer":"power","name":"Denver Metro Solar","state":"CO","detail_file":"data/details/power-plants-01.json","plant_id":"61563","capacity_mw":1.6,"status_group":"Operating","energy_sources":"SUN","type":"Power plant","is_nuclear":false}},{"type":"Feature","geometry":{"type":"Point","coordinates":[-106.066,39.621]},"properties":{"key":"10421-2d94c509","layer":"power","name":"Dillon Hydro Plant","state":"CO","detail_file":"data/details/power-plants-18.json","plant_id":"10421","capacity_mw":1.8,"status_group":"Operating","energy_sources":"WAT","type":"Power plant","is_nuclear":false}},{"type":"Feature","geometry":{"type":"Point","coordinates":[-104.667,38.773]},"properties":{"key":"70050-0ca2cad8","layer":"power","name":"Drennan Energy Storage","state":"CO","detail_file":"data/details/power-plants-28.json","plant_id":"70050","capacity_mw":100.0,"status_group":"Under construction","energy_sources":"MWH","type":"Power plant","is_nuclear":false}},{"type":"Feature","geometry":{"type":"Point","coordinates":[-107.81,38.404]},"properties":{"key":"61191-753211a0","layer":"power","name":"Drop 5 (CO)","state":"CO","detail_file":"data/details/power-plants-09.json","plant_id":"61191","capacity_mw":2.4,"status_group":"Operating","energy_sources":"WAT","type":"Power plant","is_nuclear":false}},{"type":"Feature","geometry":{"type":"Point","coordinates":[-107.696,39.526]},"properties":{"key":"59239-e8e71ca5","layer":"power","name":"Eagle Springs Solar LLC","state":"CO","detail_file":"data/details/power-plants-07.json","plant_id":"59239","capacity_mw":1.0,"status_group":"Operating","energy_sources":"SUN","type":"Power plant","is_nuclear":false}},{"type":"Feature","geometry":{"type":"Point","coordinates":[-104.489,37.455]},"properties":{"key":"67655-2ac733bc","layer":"power","name":"Elk Run","state":"CO","detail_file":"data/details/power-plants-63.json","plant_id":"67655","capacity_mw":200.0,"status_group":"Under construction","energy_sources":"SUN","type":"Power plant","is_nuclear":false}},{"type":"Feature","geometry":{"type":"Point","coordinates":[-105.066,39.459]},"properties":{"key":"10070-eaf15ce6","layer":"power","name":"Foothills Hydro Plant","state":"CO","detail_file":"data/details/power-plants-63.json","plant_id":"10070","capacity_mw":3.1,"status_group":"Operating","energy_sources":"WAT","type":"Power plant","is_nuclear":false}},{"type":"Feature","geometry":{"type":"Point","coordinates":[-104.778,38.745]},"properties":{"key":"63022-f23990e7","layer":"power","name":"Fort Carson Battery Energy Storage Syste","state":"CO","detail_file":"data/details/power-plants-09.json","plant_id":"63022","capacity_mw":4.2,"status_group":"Operating","energy_sources":"MWH","type":"Power plant","is_nuclear":false}},{"type":"Feature","geometry":{"type":"Point","coordinates":[-104.688,38.557]},"properties":{"key":"55453-c445e393","layer":"power","name":"Fountain Valley Power Facility","state":"CO","detail_file":"data/details/power-plants-04.json","plant_id":"55453","capacity_mw":228.0,"status_group":"Operating","energy_sources":"NG","type":"Power plant","is_nuclear":false}},{"type":"Feature","geometry":{"type":"Point","coordinates":[-104.682,39.941]},"properties":{"key":"55505-e3bac474","layer":"power","name":"Frank Knutson","state":"CO","detail_file":"data/details/power-plants-46.json","plant_id":"55505","capacity_mw":154.2,"status_group":"Operating","energy_sources":"NG","type":"Power plant","is_nuclear":false}},{"type":"Feature","geometry":{"type":"Point","coordinates":[-105.213,38.464]},"properties":{"key":"64031-0c2993bd","layer":"power","name":"Fremont CO 1, LLC","state":"CO","detail_file":"data/details/power-plants-57.json","plant_id":"64031","capacity_mw":1.8,"status_group":"Operating","energy_sources":"SUN","type":"Power plant","is_nuclear":false}},{"type":"Feature","geometry":{"type":"Point","coordinates":[-104.707,38.628]},"properties":{"key":"55283-e5821f45","layer":"power","name":"Front Range Power Plant","state":"CO","detail_file":"data/details/power-plants-63.json","plant_id":"55283","capacity_mw":554.3,"status_group":"Operating","energy_sources":"NG","type":"Power plant","is_nuclear":false}},{"type":"Feature","geometry":{"type":"Point","coordinates":[-107.983,38.741]},"properties":{"key":"68488-55757789","layer":"power","name":"Garnet Mesa Solar","state":"CO","detail_file":"data/details/power-plants-50.json","plant_id":"68488","capacity_mw":80.0,"status_group":"Operating","energy_sources":"SUN","type":"Power plant","is_nuclear":false}},{"type":"Feature","geometry":{"type":"Point","coordinates":[-104.75,39.82]},"properties":{"key":"65898-901067c2","layer":"power","name":"Gaylord Rockies CHP","state":"CO","detail_file":"data/details/power-plants-34.json","plant_id":"65898","capacity_mw":4.0,"status_group":"Operating","energy_sources":"NG","type":"Power plant","is_nuclear":false}},{"type":"Feature","geometry":{"type":"Point","coordinates":[-105.698,39.692]},"properties":{"key":"472-87056ed9","layer":"power","name":"Georgetown Hydro","state":"CO","detail_file":"data/details/power-plants-53.json","plant_id":"472","capacity_mw":1.2,"status_group":"Operating","energy_sources":"WAT","type":"Power plant","is_nuclear":false}},{"type":"Feature","geometry":{"type":"Point","coordinates":[-104.212,38.935]},"properties":{"key":"59974-750a6f09","layer":"power","name":"Golden West Power Partners LLC","state":"CO","detail_file":"data/details/power-plants-07.json","plant_id":"59974","capacity_mw":250.0,"status_group":"Operating","energy_sources":"WND","type":"Power plant","is_nuclear":false}},{"type":"Feature","geometry":{"type":"Point","coordinates":[-104.253,38.978]},"properties":{"key":"62376-fd6f8bf5","layer":"power","name":"Grazing Yak Solar","state":"CO","detail_file":"data/details/power-plants-07.json","plant_id":"62376","capacity_mw":35.0,"status_group":"Operating","energy_sources":"SUN","type":"Power plant","is_nuclear":false}},{"type":"Feature","geometry":{"type":"Point","coordinates":[-105.891,37.685]},"properties":{"key":"57377-bf55eee8","layer":"power","name":"Greater Sandhill I","state":"CO","detail_file":"data/details/power-plants-50.json","plant_id":"57377","capacity_mw":19.0,"status_group":"Operating","energy_sources":"SUN","type":"Power plant","is_nuclear":false}},{"type":"Feature","geometry":{"type":"Point","coordinates":[-106.333,39.879]},"properties":{"key":"516-377345ab","layer":"power","name":"Green Mountain","state":"CO","detail_file":"data/details/power-plants-46.json","plant_id":"516","capacity_mw":26.0,"status_group":"Operating","energy_sources":"WAT","type":"Power plant","is_nuclear":false}},{"type":"Feature","geometry":{"type":"Point","coordinates":[-105.356,39.946]},"properties":{"key":"10424-d0a13150","layer":"power","name":"Gross Hydro Plant","state":"CO","detail_file":"data/details/power-plants-06.json","plant_id":"10424","capacity_mw":8.0,"status_group":"Operating","energy_sources":"WAT","type":"Power plant","is_nuclear":false}},{"type":"Feature","geometry":{"type":"Point","coordinates":[-104.914,39.642]},"properties":{"key":"54142-8068842c","layer":"power","name":"Hillcrest Pump Station","state":"CO","detail_file":"data/details/power-plants-51.json","plant_id":"54142","capacity_mw":2.0,"status_group":"Operating","energy_sources":"WAT","type":"Power plant","is_nuclear":false}},{"type":"Feature","geometry":{"type":"Point","coordinates":[-105.991,37.692]},"properties":{"key":"60008-5ef6d00d","layer":"power","name":"Hooper Solar","state":"CO","detail_file":"data/details/power-plants-09.json","plant_id":"60008","capacity_mw":52.0,"status_group":"Operating","energy_sources":"SUN","type":"Power plant","is_nuclear":false}},{"type":"Feature","geometry":{"type":"Point","coordinates":[-104.667,38.775]},"properties":{"key":"68705-3d02ed87","layer":"power","name":"Horizon","state":"CO","detail_file":"data/details/power-plants-44.json","plant_id":"68705","capacity_mw":480.0,"status_group":"Planned","energy_sources":"NG","type":"Power plant","is_nuclear":false}},{"type":"Feature","geometry":{"type":"Point","coordinates":[-104.832,37.772]},"properties":{"key":"58548-8eb3223d","layer":"power","name":"Huerfano River Wind","state":"CO","detail_file":"data/details/power-plants-61.json","plant_id":"58548","capacity_mw":8.0,"status_group":"Operating","energy_sources":"WND","type":"Power plant","is_nuclear":false}},{"type":"Feature","geometry":{"type":"Point","coordinates":[-104.465,39.627]},"properties":{"key":"65231-b1256088","layer":"power","name":"Hunter Solar, LLC (CO)","state":"CO","detail_file":"data/details/power-plants-12.json","plant_id":"65231","capacity_mw":75.0,"status_group":"Operating","energy_sources":"SUN","type":"Power plant","is_nuclear":false}},{"type":"Feature","geometry":{"type":"Point","coordinates":[-104.584,39.787]},"properties":{"key":"61753-7042d548","layer":"power","name":"Imboden Solar Garden","state":"CO","detail_file":"data/details/power-plants-49.json","plant_id":"61753","capacity_mw":3.0,"status_group":"Operating","energy_sources":"SUN","type":"Power plant","is_nuclear":false}},{"type":"Feature","geometry":{"type":"Point","coordinates":[-104.629,38.938]},"properties":{"key":"69122-080be1e2","layer":"power","name":"Jackson Fuller Energy Storage","state":"CO","detail_file":"data/details/power-plants-31.json","plant_id":"69122","capacity_mw":100.0,"status_group":"Operating","energy_sources":"MWH","type":"Power plant","is_nuclear":false}},{"type":"Feature","geometry":{"type":"Point","coordinates":[-104.72,38.27]},"properties":{"key":"64123-2047d936","layer":"power","name":"James W. Broderick Hydropower Plant","state":"CO","detail_file":"data/details/power-plants-42.json","plant_id":"64123","capacity_mw":7.5,"status_group":"Operating","energy_sources":"WAT","type":"Power plant","is_nuclear":false}},{"type":"Feature","geometry":{"type":"Point","coordinates":[-105.15,39.86]},"properties":{"key":"60320-fa82599d","layer":"power","name":"Jeffco Community Solar Gardens LLC","state":"CO","detail_file":"data/details/power-plants-57.json","plant_id":"60320","capacity_mw":1.2,"status_group":"Operating","energy_sources":"SUN","type":"Power plant","is_nuclear":false}},{"type":"Feature","geometry":{"type":"Point","coordinates":[-107.86,37.124]},"properties":{"key":"67952-3cea3891","layer":"power","name":"LPEA Sunnyside Solar 1 Facility","state":"CO","detail_file":"data/details/power-plants-09.json","plant_id":"67952","capacity_mw":1.7,"status_group":"Operating","energy_sources":"SUN","type":"Power plant","is_nuclear":false}},{"type":"Feature","geometry":{"type":"Point","coordinates":[-105.064,39.982]},"properties":{"key":"62667-ae294bed","layer":"power","name":"Lafayette Horizon Solar CSG LLC","state":"CO","detail_file":"data/details/power-plants-60.json","plant_id":"62667","capacity_mw":1.6,"status_group":"Operating","energy_sources":"SUN","type":"Power plant","is_nuclear":false}},{"type":"Feature","geometry":{"type":"Point","coordinates":[-107.698,39.527]},"properties":{"key":"67322-96cc02ab","layer":"power","name":"Mamm Creek","state":"CO","detail_file":"data/details/power-plants-32.json","plant_id":"67322","capacity_mw":22.4,"status_group":"Operating","energy_sources":"MWH; SUN","type":"Power plant","is_nuclear":false}},{"type":"Feature","geometry":{"type":"Point","coordinates":[-104.933,38.856]},"properties":{"key":"494-fa55d674","layer":"power","name":"Manitou Springs","state":"CO","detail_file":"data/details/power-plants-16.json","plant_id":"494","capacity_mw":5.6,"status_group":"Operating","energy_sources":"WAT","type":"Power plant","is_nuclear":false}},{"type":"Feature","geometry":{"type":"Point","coordinates":[-104.954,39.808]},"properties":{"key":"10180-3945e261","layer":"power","name":"Metro Wastewater Reclamation District","state":"CO","detail_file":"data/details/power-plants-38.json","plant_id":"10180","capacity_mw":15.0,"status_group":"Operating","energy_sources":"OBG","type":"Power plant","is_nuclear":false}},{"type":"Feature","geometry":{"type":"Point","coordinates":[-106.1,37.572]},"properties":{"key":"64024-ae4a7244","layer":"power","name":"Monte Vista Solar 2 CSG, LLC","state":"CO","detail_file":"data/details/power-plants-20.json","plant_id":"64024","capacity_mw":1.6,"status_group":"Operating","energy_sources":"SUN","type":"Power plant","is_nuclear":false}},{"type":"Feature","geometry":{"type":"Point","coordinates":[-107.539,38.452]},"properties":{"key":"514-21d54813","layer":"power","name":"Morrow Point","state":"CO","detail_file":"data/details/power-plants-18.json","plant_id":"514","capacity_mw":173.2,"status_group":"Operating","energy_sources":"WAT","type":"Power plant","is_nuclear":false}},{"type":"Feature","geometry":{"type":"Point","coordinates":[-106.352,39.094]},"properties":{"key":"6208-7ea2b4ca","layer":"power","name":"Mount Elbert","state":"CO","detail_file":"data/details/power-plants-56.json","plant_id":"6208","capacity_mw":200.0,"status_group":"Operating","energy_sources":"WAT","type":"Power plant","is_nuclear":false}},{"type":"Feature","geometry":{"type":"Point","coordinates":[-104.586,39.778]},"properties":{"key":"63276-f0916fb0","layer":"power","name":"Mtn. Solar 1","state":"CO","detail_file":"data/details/power-plants-08.json","plant_id":"63276","capacity_mw":1.5,"status_group":"Operating","energy_sources":"SUN","type":"Power plant","is_nuclear":false}},{"type":"Feature","geometry":{"type":"Point","coordinates":[-104.591,39.767]},"properties":{"key":"63277-f7e960af","layer":"power","name":"Mtn. Solar 2","state":"CO","detail_file":"data/details/power-plants-16.json","plant_id":"63277","capacity_mw":1.5,"status_group":"Operating","energy_sources":"SUN","type":"Power plant","is_nuclear":false}},{"type":"Feature","geometry":{"type":"Point","coordinates":[-105.113,39.728]},"properties":{"key":"65178-0bd983fb","layer":"power","name":"Mtn. Solar 4 (CSG)","state":"CO","detail_file":"data/details/power-plants-03.json","plant_id":"65178","capacity_mw":1.5,"status_group":"Operating","energy_sources":"SUN","type":"Power plant","is_nuclear":false}},{"type":"Feature","geometry":{"type":"Point","coordinates":[-104.414,38.33]},"properties":{"key":"63731-c87f2b52","layer":"power","name":"Neptune Energy Center Hybrid","state":"CO","detail_file":"data/details/power-plants-16.json","plant_id":"63731","capacity_mw":450.0,"status_group":"Operating","energy_sources":"MWH; SUN","type":"Power plant","is_nuclear":false}},{"type":"Feature","geometry":{"type":"Point","coordinates":[-105.677,39.462]},"properties":{"key":"10423-71da9ed4","layer":"power","name":"North Fork Hydro Plant","state":"CO","detail_file":"data/details/power-plants-35.json","plant_id":"10423","capacity_mw":5.5,"status_group":"Operating","energy_sources":"WAT","type":"Power plant","is_nuclear":false}},{"type":"Feature","geometry":{"type":"Point","coordinates":[-104.531,39.652]},"properties":{"key":"66736-766af188","layer":"power","name":"Oak Leaf - CSG Portfolio (OL 36)","state":"CO","detail_file":"data/details/power-plants-15.json","plant_id":"66736","capacity_mw":1.5,"status_group":"Operating","energy_sources":"SUN","type":"Power plant","is_nuclear":false}},{"type":"Feature","geometry":{"type":"Point","coordinates":[-104.591,39.785]},"properties":{"key":"66737-cab2cfed","layer":"power","name":"Oak Leaf - CSG Portfolio (OL 37)","state":"CO","detail_file":"data/details/power-plants-05.json","plant_id":"66737","capacity_mw":1.5,"status_group":"Operating","energy_sources":"SUN","type":"Power plant","is_nuclear":false}},{"type":"Feature","geometry":{"type":"Point","coordinates":[-104.591,39.785]},"properties":{"key":"66738-9b245de6","layer":"power","name":"Oak Leaf - CSG Portfolio (OL 38)","state":"CO","detail_file":"data/details/power-plants-33.json","plant_id":"66738","capacity_mw":1.5,"status_group":"Operating","energy_sources":"SUN","type":"Power plant","is_nuclear":false}},{"type":"Feature","geometry":{"type":"Point","coordinates":[-104.528,39.655]},"properties":{"key":"66739-2337372e","layer":"power","name":"Oak Leaf - CSG Portfolio (OL 39)","state":"CO","detail_file":"data/details/power-plants-06.json","plant_id":"66739","capacity_mw":1.5,"status_group":"Operating","energy_sources":"SUN","type":"Power plant","is_nuclear":false}},{"type":"Feature","geometry":{"type":"Point","coordinates":[-104.584,39.783]},"properties":{"key":"66740-dc420157","layer":"power","name":"Oak Leaf - CSG Portfolio (OL 44)","state":"CO","detail_file":"data/details/power-plants-53.json","plant_id":"66740","capacity_mw":1.5,"status_group":"Operating","energy_sources":"SUN","type":"Power plant","is_nuclear":false}},{"type":"Feature","geometry":{"type":"Point","coordinates":[-104.668,39.893]},"properties":{"key":"64831-1cdaa260","layer":"power","name":"Oak Leaf Solar XVIII LLC","state":"CO","detail_file":"data/details/power-plants-57.json","plant_id":"64831","capacity_mw":9.0,"status_group":"Operating","energy_sources":"SUN","type":"Power plant","is_nuclear":false}},{"type":"Feature","geometry":{"type":"Point","coordinates":[-104.604,39.638]},"properties":{"key":"62243-bbf65f79","layer":"power","name":"Oak Leaf Solar XXI (CSG)","state":"CO","detail_file":"data/details/power-plants-56.json","plant_id":"62243","capacity_mw":1.5,"status_group":"Operating","energy_sources":"SUN","type":"Power plant","is_nuclear":false}},{"type":"Feature","geometry":{"type":"Point","coordinates":[-104.668,39.904]},"properties":{"key":"62252-2cbe82a3","layer":"power","name":"Oak Leaf Solar XXII LLC (CSG)","state":"CO","detail_file":"data/details/power-plants-26.json","plant_id":"62252","capacity_mw":1.5,"status_group":"Operating","energy_sources":"SUN","type":"Power plant","is_nuclear":false}},{"type":"Feature","geometry":{"type":"Point","coordinates":[-104.621,39.802]},"properties":{"key":"62256-94ac0af4","layer":"power","name":"Oak Leaf Solar XXIII LLC (CSG)","state":"CO","detail_file":"data/details/power-plants-40.json","plant_id":"62256","capacity_mw":1.5,"status_group":"Operating","energy_sources":"SUN","type":"Power plant","is_nuclear":false}},{"type":"Feature","geometry":{"type":"Point","coordinates":[-104.561,39.637]},"properties":{"key":"62253-d919f92b","layer":"power","name":"Oak Leaf Solar XXIV LLC (CSG)","state":"CO","detail_file":"data/details/power-plants-18.json","plant_id":"62253","capacity_mw":1.5,"status_group":"Operating","energy_sources":"SUN","type":"Power plant","is_nuclear":false}},{"type":"Feature","geometry":{"type":"Point","coordinates":[-104.529,39.637]},"properties":{"key":"62245-498c96a4","layer":"power","name":"Oak Leaf Solar XXV LLC (CSG)","state":"CO","detail_file":"data/details/power-plants-58.json","plant_id":"62245","capacity_mw":1.5,"status_group":"Operating","energy_sources":"SUN","type":"Power plant","is_nuclear":false}},{"type":"Feature","geometry":{"type":"Point","coordinates":[-104.734,39.9]},"properties":{"key":"62254-dc720a56","layer":"power","name":"Oak Leaf Solar XXVI LLC","state":"CO","detail_file":"data/details/power-plants-27.json","plant_id":"62254","capacity_mw":1.5,"status_group":"Operating","energy_sources":"SUN","type":"Power plant","is_nuclear":false}},{"type":"Feature","geometry":{"type":"Point","coordinates":[-105.878,37.453]},"properties":{"key":"62239-021dc64c","layer":"power","name":"Oak Leaf Solar XXX LLC (CSG)","state":"CO","detail_file":"data/details/power-plants-07.json","plant_id":"62239","capacity_mw":1.5,"status_group":"Operating","energy_sources":"SUN","type":"Power plant","is_nuclear":false}},{"type":"Feature","geometry":{"type":"Point","coordinates":[-107.815,39.523]},"properties":{"key":"62251-bcc44d8e","layer":"power","name":"Oak Leaf Solar XXXII (CSG)","state":"CO","detail_file":"data/details/power-plants-27.json","plant_id":"62251","capacity_mw":1.5,"status_group":"Operating","energy_sources":"SUN","type":"Power plant","is_nuclear":false}},{"type":"Feature","geometry":{"type":"Point","coordinates":[-106.075,38.536]},"properties":{"key":"63681-023839a2","layer":"power","name":"Oak Leaf Solar XXXIII LLC (Lantz)","state":"CO","detail_file":"data/details/power-plants-57.json","plant_id":"63681","capacity_mw":3.0,"status_group":"Operating","energy_sources":"SUN","type":"Power plant","is_nuclear":false}},{"type":"Feature","geometry":{"type":"Point","coordinates":[-104.653,38.63]},"properties":{"key":"62495-e1c261f7","layer":"power","name":"Palmer Solar","state":"CO","detail_file":"data/details/power-plants-52.json","plant_id":"62495","capacity_mw":60.0,"status_group":"Operating","energy_sources":"SUN","type":"Power plant","is_nuclear":false}},{"type":"Feature","geometry":{"type":"Point","coordinates":[-104.781,39.809]},"properties":{"key":"61439-34559907","layer":"power","name":"Panasonic Carport Solar Hybrid","state":"CO","detail_file":"data/details/power-plants-49.json","plant_id":"61439","capacity_mw":1.3,"status_group":"Operating","energy_sources":"SUN","type":"Power plant","is_nuclear":false}},{"type":"Feature","geometry":{"type":"Point","coordinates":[-105.01,39.986]},"properties":{"key":"67301-3835b6d6","layer":"power","name":"Parkway Battery Storage","state":"CO","detail_file":"data/details/power-plants-13.json","plant_id":"67301","capacity_mw":7.8,"status_group":"Operating","energy_sources":"MWH","type":"Power plant","is_nuclear":false}},{"type":"Feature","geometry":{"type":"Point","coordinates":[-104.505,37.71]},"properties":{"key":"60143-707549ba","layer":"power","name":"Peak View Wind Farm","state":"CO","detail_file":"data/details/power-plants-41.json","plant_id":"60143","capacity_mw":60.8,"status_group":"Operating","energy_sources":"WND","type":"Power plant","is_nuclear":false}},{"type":"Feature","geometry":{"type":"Point","coordinates":[-104.581,38.622]},"properties":{"key":"64212-a45de697","layer":"power","name":"Pike Solar Hybrid","state":"CO","detail_file":"data/details/power-plants-29.json","plant_id":"64212","capacity_mw":175.0,"status_group":"Operating","energy_sources":"SUN","type":"Power plant","is_nuclear":false}},{"type":"Feature","geometry":{"type":"Point","coordinates":[-104.746,38.775]},"properties":{"key":"59848-d52b4ae7","layer":"power","name":"Pikes Peak Solar Garden 1 LLC CSG","state":"CO","detail_file":"data/details/power-plants-50.json","plant_id":"59848","capacity_mw":2.0,"status_group":"Operating","energy_sources":"SUN","type":"Power plant","is_nuclear":false}},{"type":"Feature","geometry":{"type":"Point","coordinates":[-104.459,39.762]},"properties":{"key":"61991-faa626d3","layer":"power","name":"Pioneer Solar (CO), LLC","state":"CO","detail_file":"data/details/power-plants-07.json","plant_id":"61991","capacity_mw":80.0,"status_group":"Operating","energy_sources":"SUN","type":"Power plant","is_nuclear":false}},{"type":"Feature","geometry":{"type":"Point","coordinates":[-106.877,39.248]},"properties":{"key":"65084-13383bd9","layer":"power","name":"Pitkin County Solar","state":"CO","detail_file":"data/details/power-plants-33.json","plant_id":"65084","capacity_mw":5.0,"status_group":"Operating","energy_sources":"SUN","type":"Power plant","is_nuclear":false}},{"type":"Feature","geometry":{"type":"Point","coordinates":[-104.771,39.729]},"properties":{"key":"67446-1d48db32","layer":"power","name":"Pivot Solar 10","state":"CO","detail_file":"data/details/power-plants-25.json","plant_id":"67446","capacity_mw":1.7,"status_group":"Operating","energy_sources":"SUN","type":"Power plant","is_nuclear":false}},{"type":"Feature","geometry":{"type":"Point","coordinates":[-104.769,39.728]},"properties":{"key":"68944-151d5354","layer":"power","name":"Pivot Solar 21","state":"CO","detail_file":"data/details/power-plants-47.json","plant_id":"68944","capacity_mw":5.0,"status_group":"Operating","energy_sources":"SUN","type":"Power plant","is_nuclear":false}},{"type":"Feature","geometry":{"type":"Point","coordinates":[-104.667,39.749]},"properties":{"key":"70103-94733704","layer":"power","name":"Pivot Solar 43 LLC","state":"CO","detail_file":"data/details/power-plants-39.json","plant_id":"70103","capacity_mw":3.5,"status_group":"Under construction","energy_sources":"SUN","type":"Power plant","is_nuclear":false}},{"type":"Feature","geometry":{"type":"Point","coordinates":[-104.667,39.749]},"properties":{"key":"70104-db99c263","layer":"power","name":"Pivot Solar 53 LLC","state":"CO","detail_file":"data/details/power-plants-33.json","plant_id":"70104","capacity_mw":4.0,"status_group":"Under construction","energy_sources":"SUN","type":"Power plant","is_nuclear":false}},{"type":"Feature","geometry":{"type":"Point","coordinates":[-107.815,39.523]},"properties":{"key":"64653-033bd553","layer":"power","name":"Pivot Solar 7 LLC (CSG)","state":"CO","detail_file":"data/details/power-plants-36.json","plant_id":"64653","capacity_mw":2.0,"status_group":"Operating","energy_sources":"SUN","type":"Power plant","is_nuclear":false}},{"type":"Feature","geometry":{"type":"Point","coordinates":[-104.769,39.727]},"properties":{"key":"67441-37270141","layer":"power","name":"Pivot Solar 9","state":"CO","detail_file":"data/details/power-plants-02.json","plant_id":"67441","capacity_mw":1.7,"status_group":"Operating","energy_sources":"SUN","type":"Power plant","is_nuclear":false}},{"type":"Feature","geometry":{"type":"Point","coordinates":[-105.226,39.857]},"properties":{"key":"55650-ab6f1e15","layer":"power","name":"Plains End","state":"CO","detail_file":"data/details/power-plants-36.json","plant_id":"55650","capacity_mw":114.0,"status_group":"Operating","energy_sources":"NG","type":"Power plant","is_nuclear":false}},{"type":"Feature","geometry":{"type":"Point","coordinates":[-105.226,39.859]},"properties":{"key":"56516-c44f8ccf","layer":"power","name":"Plains End II LLC","state":"CO","detail_file":"data/details/power-plants-41.json","plant_id":"56516","capacity_mw":117.6,"status_group":"Operating","energy_sources":"NG","type":"Power plant","is_nuclear":false}},{"type":"Feature","geometry":{"type":"Point","coordinates":[-104.845,39.988]},"properties":{"key":"67307-8b527a55","layer":"power","name":"Platte Valley Battery Storage","state":"CO","detail_file":"data/details/power-plants-01.json","plant_id":"67307","capacity_mw":7.8,"status_group":"Operating","energy_sources":"MWH","type":"Power plant","is_nuclear":false}},{"type":"Feature","geometry":{"type":"Point","coordinates":[-104.794,39.93]},"properties":{"key":"68058-d82696f5","layer":"power","name":"Prairie Center Energy LLC","state":"CO","detail_file":"data/details/power-plants-11.json","plant_id":"68058","capacity_mw":35.4,"status_group":"Operating","energy_sources":"MWH","type":"Power plant","is_nuclear":false}},{"type":"Feature","geometry":{"type":"Point","coordinates":[-104.526,38.321]},"properties":{"key":"56998-fbae6a33","layer":"power","name":"Pueblo Airport Generating Station","state":"CO","detail_file":"data/details/power-plants-27.json","plant_id":"56998","capacity_mw":440.0,"status_group":"Operating","energy_sources":"NG","type":"Power plant","is_nuclear":false}},{"type":"Feature","geometry":{"type":"Point","coordinates":[-104.526,38.321]},"properties":{"key":"56998-1e37dc35","layer":"power","name":"Pueblo Airport Generating Station","state":"CO","detail_file":"data/details/power-plants-34.json","plant_id":"56998","capacity_mw":50.0,"status_group":"Under construction","energy_sources":"MWH","type":"Power plant","is_nuclear":false}},{"type":"Feature","geometry":{"type":"Point","coordinates":[-104.662,39.638]},"properties":{"key":"61752-52ab8b27","layer":"power","name":"Quincy II Solar Garden","state":"CO","detail_file":"data/details/power-plants-08.json","plant_id":"61752","capacity_mw":1.5,"status_group":"Operating","energy_sources":"SUN","type":"Power plant","is_nuclear":false}},{"type":"Feature","geometry":{"type":"Point","coordinates":[-104.563,39.638]},"properties":{"key":"62664-4ddd53c3","layer":"power","name":"Quincy Solar (CO)","state":"CO","detail_file":"data/details/power-plants-44.json","plant_id":"62664","capacity_mw":1.5,"status_group":"Operating","energy_sources":"SUN","type":"Power plant","is_nuclear":false}},{"type":"Feature","geometry":{"type":"Point","coordinates":[-104.706,38.633]},"properties":{"key":"8219-e027fa72","layer":"power","name":"Ray D Nixon","state":"CO","detail_file":"data/details/power-plants-58.json","plant_id":"8219","capacity_mw":282.6,"status_group":"Operating","energy_sources":"NG; SUB","type":"Power plant","is_nuclear":false}},{"type":"Feature","geometry":{"type":"Point","coordinates":[-105.903,37.4]},"properties":{"key":"64265-5baff000","layer":"power","name":"Rock Creek 2 CSG","state":"CO","detail_file":"data/details/power-plants-50.json","plant_id":"64265","capacity_mw":1.6,"status_group":"Operating","energy_sources":"SUN","type":"Power plant","is_nuclear":false}},{"type":"Feature","geometry":{"type":"Point","coordinates":[-104.576,38.153]},"properties":{"key":"69100-7977fea7","layer":"power","name":"Rocky Mountain Solar","state":"CO","detail_file":"data/details/power-plants-15.json","plant_id":"69100","capacity_mw":525.0,"status_group":"Operating","energy_sources":"MWH; SUN","type":"Power plant","is_nuclear":false}},{"type":"Feature","geometry":{"type":"Point","coordinates":[-104.974,38.841]},"properties":{"key":"495-7a109b1f","layer":"power","name":"Ruxton Park","state":"CO","detail_file":"data/details/power-plants-21.json","plant_id":"495","capacity_mw":1.0,"status_group":"Operating","energy_sources":"WAT","type":"Power plant","is_nuclear":false}},{"type":"Feature","geometry":{"type":"Point","coordinates":[-106.182,38.534]},"properties":{"key":"474-22e2566b","layer":"power","name":"Salida","state":"CO","detail_file":"data/details/power-plants-13.json","plant_id":"474","capacity_mw":0.6,"status_group":"Operating","energy_sources":"WAT","type":"Power plant","is_nuclear":false}},{"type":"Feature","geometry":{"type":"Point","coordinates":[-104.843,37.372]},"properties":{"key":"60304-d447c98a","layer":"power","name":"San Isabel Solar, LLC","state":"CO","detail_file":"data/details/power-plants-50.json","plant_id":"60304","capacity_mw":30.0,"status_group":"Operating","energy_sources":"SUN","type":"Power plant","is_nuclear":false}},{"type":"Feature","geometry":{"type":"Point","coordinates":[-106.019,37.068]},"properties":{"key":"61472-310a079b","layer":"power","name":"San Luis Solar Garden","state":"CO","detail_file":"data/details/power-plants-01.json","plant_id":"61472","capacity_mw":1.2,"status_group":"Operating","energy_sources":"SUN","type":"Power plant","is_nuclear":false}},{"type":"Feature","geometry":{"type":"Point","coordinates":[-106.22,37.777]},"properties":{"key":"61605-2b2c2740","layer":"power","name":"San Luis Valley Solar Array","state":"CO","detail_file":"data/details/power-plants-09.json","plant_id":"61605","capacity_mw":2.7,"status_group":"Operating","energy_sources":"SUN","type":"Power plant","is_nuclear":false}},{"type":"Feature","geometry":{"type":"Point","coordinates":[-105.928,37.695]},"properties":{"key":"57317-f267e2cd","layer":"power","name":"San Luis Valley Solar Ranch","state":"CO","detail_file":"data/details/power-plants-56.json","plant_id":"57317","capacity_mw":35.0,"status_group":"Operating","energy_sources":"SUN","type":"Power plant","is_nuclear":false}},{"type":"Feature","geometry":{"type":"Point","coordinates":[-107.777,38.45]},"properties":{"key":"61190-99926877","layer":"power","name":"Shavano Falls Hydro Drop 4","state":"CO","detail_file":"data/details/power-plants-59.json","plant_id":"61190","capacity_mw":4.8,"status_group":"Operating","energy_sources":"WAT","type":"Power plant","is_nuclear":false}},{"type":"Feature","geometry":{"type":"Point","coordinates":[-107.227,39.57]},"properties":{"key":"476-04c92857","layer":"power","name":"Shoshone (CO)","state":"CO","detail_file":"data/details/power-plants-35.json","plant_id":"476","capacity_mw":14.4,"status_group":"Operating","energy_sources":"WAT","type":"Power plant","is_nuclear":false}},{"type":"Feature","geometry":{"type":"Point","coordinates":[-107.755,38.483]},"properties":{"key":"58783-18ea40a3","layer":"power","name":"South Canal Hydro-1","state":"CO","detail_file":"data/details/power-plants-30.json","plant_id":"58783","capacity_mw":4.0,"status_group":"Operating","energy_sources":"WAT","type":"Power plant","is_nuclear":false}},{"type":"Feature","geometry":{"type":"Point","coordinates":[-107.771,38.47]},"properties":{"key":"58784-00073022","layer":"power","name":"South Canal Hydro-3","state":"CO","detail_file":"data/details/power-plants-60.json","plant_id":"58784","capacity_mw":3.5,"status_group":"Operating","energy_sources":"WAT","type":"Power plant","is_nuclear":false}},{"type":"Feature","geometry":{"type":"Point","coordinates":[-104.833,38.824]},"properties":{"key":"492-b0e6d97d","layer":"power","name":"South Plant (CO)","state":"CO","detail_file":"data/details/power-plants-32.json","plant_id":"492","capacity_mw":245.1,"status_group":"Operating","energy_sources":"NG","type":"Power plant","is_nuclear":false}},{"type":"Feature","geometry":{"type":"Point","coordinates":[-104.475,37.378]},"properties":{"key":"62379-85bdd529","layer":"power","name":"Spanish Peaks Solar","state":"CO","detail_file":"data/details/power-plants-29.json","plant_id":"62379","capacity_mw":140.0,"status_group":"Operating","energy_sources":"SUN","type":"Power plant","is_nuclear":false}},{"type":"Feature","geometry":{"type":"Point","coordinates":[-104.501,38.177]},"properties":{"key":"68079-6e70965e","layer":"power","name":"Stagecoach LRE","state":"CO","detail_file":"data/details/power-plants-27.json","plant_id":"68079","capacity_mw":230.0,"status_group":"Under construction","energy_sources":"SUN","type":"Power plant","is_nuclear":false}},{"type":"Feature","geometry":{"type":"Point","coordinates":[-105.126,39.433]},"properties":{"key":"10081-980842f3","layer":"power","name":"Strontia Springs Hydro Plant","state":"CO","detail_file":"data/details/power-plants-54.json","plant_id":"10081","capacity_mw":1.0,"status_group":"Operating","energy_sources":"WAT","type":"Power plant","is_nuclear":false}},{"type":"Feature","geometry":{"type":"Point","coordinates":[-106.375,39.253]},"properties":{"key":"50435-3f0254f9","layer":"power","name":"Sugarloaf Hydro Plant","state":"CO","detail_file":"data/details/power-plants-05.json","plant_id":"50435","capacity_mw":2.5,"status_group":"Operating","energy_sources":"WAT","type":"Power plant","is_nuclear":false}},{"type":"Feature","geometry":{"type":"Point","coordinates":[-104.519,38.18]},"properties":{"key":"65032-6331077e","layer":"power","name":"Sun Mountain Solar 1","state":"CO","detail_file":"data/details/power-plants-04.json","plant_id":"65032","capacity_mw":200.0,"status_group":"Operating","energy_sources":"SUN","type":"Power plant","is_nuclear":false}},{"type":"Feature","geometry":{"type":"Point","coordinates":[-105.88,37.69]},"properties":{"key":"56481-622e97dd","layer":"power","name":"SunE Alamosa","state":"CO","detail_file":"data/details/power-plants-33.json","plant_id":"56481","capacity_mw":8.2,"status_group":"Operating","energy_sources":"SUN","type":"Power plant","is_nuclear":false}},{"type":"Feature","geometry":{"type":"Point","coordinates":[-104.448,39.415]},"properties":{"key":"67666-5583511a","layer":"power","name":"Sundance (CO)","state":"CO","detail_file":"data/details/power-plants-58.json","plant_id":"67666","capacity_mw":124.9,"status_group":"Under construction","energy_sources":"MWH; SUN","type":"Power plant","is_nuclear":false}},{"type":"Feature","geometry":{"type":"Point","coordinates":[-107.157,39.415]},"properties":{"key":"59742-4be24983","layer":"power","name":"Sunnyside Ranch Community Solar Array","state":"CO","detail_file":"data/details/power-plants-09.json","plant_id":"59742","capacity_mw":1.5,"status_group":"Operating","energy_sources":"SUN","type":"Power plant","is_nuclear":false}},{"type":"Feature","geometry":{"type":"Point","coordinates":[-107.783,37.524]},"properties":{"key":"6206-6084a4e2","layer":"power","name":"Tacoma","state":"CO","detail_file":"data/details/power-plants-30.json","plant_id":"6206","capacity_mw":4.6,"status_group":"Operating","energy_sources":"WAT","type":"Power plant","is_nuclear":false}},{"type":"Feature","geometry":{"type":"Point","coordinates":[-104.901,38.974]},"properties":{"key":"7233-cac92236","layer":"power","name":"Tesla","state":"CO","detail_file":"data/details/power-plants-53.json","plant_id":"7233","capacity_mw":26.6,"status_group":"Operating","energy_sources":"WAT","type":"Power plant","is_nuclear":false}},{"type":"Feature","geometry":{"type":"Point","coordinates":[-104.398,38.19]},"properties":{"key":"63776-4433a84e","layer":"power","name":"Thunder Wolf Energy Center Hybrid","state":"CO","detail_file":"data/details/power-plants-58.json","plant_id":"63776","capacity_mw":348.0,"status_group":"Operating","energy_sources":"MWH; SUN","type":"Power plant","is_nuclear":false}},{"type":"Feature","geometry":{"type":"Point","coordinates":[-104.014,39.686]},"properties":{"key":"61811-b221cd5e","layer":"power","name":"Titan Solar","state":"CO","detail_file":"data/details/power-plants-08.json","plant_id":"61811","capacity_mw":50.0,"status_group":"Operating","energy_sources":"SUN","type":"Power plant","is_nuclear":false}},{"type":"Feature","geometry":{"type":"Point","coordinates":[-105.846,39.959]},"properties":{"key":"63163-e67d5d66","layer":"power","name":"Tom Sifers Solar","state":"CO","detail_file":"data/details/power-plants-09.json","plant_id":"63163","capacity_mw":1.0,"status_group":"Operating","energy_sources":"SUN","type":"Power plant","is_nuclear":false}},{"type":"Feature","geometry":{"type":"Point","coordinates":[-104.517,38.282]},"properties":{"key":"69926-67752914","layer":"power","name":"Trane Pueblo","state":"CO","detail_file":"data/details/power-plants-24.json","plant_id":"69926","capacity_mw":1.4,"status_group":"Operating","energy_sources":"SUN","type":"Power plant","is_nuclear":false}},{"type":"Feature","geometry":{"type":"Point","coordinates":[-107.758,38.239]},"properties":{"key":"58901-030c3a34","layer":"power","name":"Tri-County Water Hydropower Project","state":"CO","detail_file":"data/details/power-plants-28.json","plant_id":"58901","capacity_mw":8.0,"status_group":"Operating","energy_sources":"WAT","type":"Power plant","is_nuclear":false}},{"type":"Feature","geometry":{"type":"Point","coordinates":[-104.487,37.179]},"properties":{"key":"511-b75ec0ed","layer":"power","name":"Trinidad (CO)","state":"CO","detail_file":"data/details/power-plants-07.json","plant_id":"511","capacity_mw":9.2,"status_group":"Operating","energy_sources":"DFO; NG","type":"Power plant","is_nuclear":false}},{"type":"Feature","geometry":{"type":"Point","coordinates":[-106.11,38.815]},"properties":{"key":"62260-093982b1","layer":"power","name":"Trout Creek Solar","state":"CO","detail_file":"data/details/power-plants-39.json","plant_id":"62260","capacity_mw":2.0,"status_group":"Operating","energy_sources":"SUN","type":"Power plant","is_nuclear":false}},{"type":"Feature","geometry":{"type":"Point","coordinates":[-104.973,39.826]},"properties":{"key":"64388-a87868e2","layer":"power","name":"TruStile Doors - Denver","state":"CO","detail_file":"data/details/power-plants-50.json","plant_id":"64388","capacity_mw":1.2,"status_group":"Operating","energy_sources":"SUN","type":"Power plant","is_nuclear":false}},{"type":"Feature","geometry":{"type":"Point","coordinates":[-104.914,38.382]},"properties":{"key":"64744-f9c0b249","layer":"power","name":"Turkey Creek Solar Project","state":"CO","detail_file":"data/details/power-plants-44.json","plant_id":"64744","capacity_mw":200.0,"status_group":"Planned","energy_sources":"SUN","type":"Power plant","is_nuclear":false}},{"type":"Feature","geometry":{"type":"Point","coordinates":[-104.716,39.658]},"properties":{"key":"69611-c6bf39d6","layer":"power","name":"USS Calico Solar LLC","state":"CO","detail_file":"data/details/power-plants-01.json","plant_id":"69611","capacity_mw":5.0,"status_group":"Operating","energy_sources":"SUN","type":"Power plant","is_nuclear":false}},{"type":"Feature","geometry":{"type":"Point","coordinates":[-104.253,38.143]},"properties":{"key":"65990-b9243980","layer":"power","name":"USS Giveback Solar LLC (CSG)","state":"CO","detail_file":"data/details/power-plants-34.json","plant_id":"65990","capacity_mw":2.0,"status_group":"Operating","energy_sources":"SUN","type":"Power plant","is_nuclear":false}},{"type":"Feature","geometry":{"type":"Point","coordinates":[-104.725,39.653]},"properties":{"key":"69612-8711ad25","layer":"power","name":"USS Great Plains Solar LLC","state":"CO","detail_file":"data/details/power-plants-31.json","plant_id":"69612","capacity_mw":5.0,"status_group":"Operating","energy_sources":"SUN","type":"Power plant","is_nuclear":false}},{"type":"Feature","geometry":{"type":"Point","coordinates":[-104.716,39.665]},"properties":{"key":"69613-3fa7b2d2","layer":"power","name":"USS Hampden Solar LLC","state":"CO","detail_file":"data/details/power-plants-04.json","plant_id":"69613","capacity_mw":5.0,"status_group":"Operating","energy_sources":"SUN","type":"Power plant","is_nuclear":false}},{"type":"Feature","geometry":{"type":"Point","coordinates":[-104.725,39.653]},"properties":{"key":"69614-fd00d073","layer":"power","name":"USS High Plains Solar LLC","state":"CO","detail_file":"data/details/power-plants-18.json","plant_id":"69614","capacity_mw":5.0,"status_group":"Operating","energy_sources":"SUN","type":"Power plant","is_nuclear":false}},{"type":"Feature","geometry":{"type":"Point","coordinates":[-104.716,39.658]},"properties":{"key":"69615-8eb31e88","layer":"power","name":"USS Raptor Solar LLC","state":"CO","detail_file":"data/details/power-plants-29.json","plant_id":"69615","capacity_mw":5.0,"status_group":"Operating","energy_sources":"SUN","type":"Power plant","is_nuclear":false}},{"type":"Feature","geometry":{"type":"Point","coordinates":[-104.716,39.665]},"properties":{"key":"69610-1e1efda1","layer":"power","name":"USS Tall Grass Solar LLC","state":"CO","detail_file":"data/details/power-plants-63.json","plant_id":"69610","capacity_mw":5.0,"status_group":"Operating","energy_sources":"SUN","type":"Power plant","is_nuclear":false}},{"type":"Feature","geometry":{"type":"Point","coordinates":[-107.579,37.378]},"properties":{"key":"50206-65a27702","layer":"power","name":"Vallecito Hydroelectric","state":"CO","detail_file":"data/details/power-plants-49.json","plant_id":"50206","capacity_mw":5.8,"status_group":"Operating","energy_sources":"WAT","type":"Power plant","is_nuclear":false}},{"type":"Feature","geometry":{"type":"Point","coordinates":[-104.667,39.752]},"properties":{"key":"64880-ba81fe2e","layer":"power","name":"Venture 1 - 1A CSG","state":"CO","detail_file":"data/details/power-plants-30.json","plant_id":"64880","capacity_mw":1.5,"status_group":"Operating","energy_sources":"SUN","type":"Power plant","is_nuclear":false}},{"type":"Feature","geometry":{"type":"Point","coordinates":[-104.665,39.752]},"properties":{"key":"65235-dc207985","layer":"power","name":"Venture 2 - 1B","state":"CO","detail_file":"data/details/power-plants-06.json","plant_id":"65235","capacity_mw":1.5,"status_group":"Operating","energy_sources":"SUN","type":"Power plant","is_nuclear":false}},{"type":"Feature","geometry":{"type":"Point","coordinates":[-104.667,39.75]},"properties":{"key":"65236-db6ab00d","layer":"power","name":"Venture 3 - 1C","state":"CO","detail_file":"data/details/power-plants-40.json","plant_id":"65236","capacity_mw":1.5,"status_group":"Operating","energy_sources":"SUN","type":"Power plant","is_nuclear":false}},{"type":"Feature","geometry":{"type":"Point","coordinates":[-104.667,39.752]},"properties":{"key":"65237-746c9b01","layer":"power","name":"Venture 4 - 1D","state":"CO","detail_file":"data/details/power-plants-03.json","plant_id":"65237","capacity_mw":1.5,"status_group":"Operating","energy_sources":"SUN","type":"Power plant","is_nuclear":false}},{"type":"Feature","geometry":{"type":"Point","coordinates":[-104.62,38.173]},"properties":{"key":"57643-f27cdfda","layer":"power","name":"Vestas Towers America, Inc.","state":"CO","detail_file":"data/details/power-plants-14.json","plant_id":"57643","capacity_mw":1.8,"status_group":"Operating","energy_sources":"WND","type":"Power plant","is_nuclear":false}},{"type":"Feature","geometry":{"type":"Point","coordinates":[-104.433,39.795]},"properties":{"key":"60764-8ce6d7f9","layer":"power","name":"Victory Solar LLC","state":"CO","detail_file":"data/details/power-plants-49.json","plant_id":"60764","capacity_mw":12.8,"status_group":"Operating","energy_sources":"SUN","type":"Power plant","is_nuclear":false}},{"type":"Feature","geometry":{"type":"Point","coordinates":[-107.813,39.523]},"properties":{"key":"56922-12d68b37","layer":"power","name":"WWRF Solar Plant","state":"CO","detail_file":"data/details/power-plants-15.json","plant_id":"56922","capacity_mw":1.5,"status_group":"Operating","energy_sources":"SUN","type":"Power plant","is_nuclear":false}},{"type":"Feature","geometry":{"type":"Point","coordinates":[-105.07,39.5]},"properties":{"key":"69293-eee06d7e","layer":"power","name":"Waterton Solar I","state":"CO","detail_file":"data/details/power-plants-05.json","plant_id":"69293","capacity_mw":4.0,"status_group":"Under construction","energy_sources":"SUN","type":"Power plant","is_nuclear":false}},{"type":"Feature","geometry":{"type":"Point","coordinates":[-105.07,39.5]},"properties":{"key":"69620-b4f27c59","layer":"power","name":"Waterton Solar II","state":"CO","detail_file":"data/details/power-plants-15.json","plant_id":"69620","capacity_mw":4.0,"status_group":"Under construction","energy_sources":"SUN","type":"Power plant","is_nuclear":false}},{"type":"Feature","geometry":{"type":"Point","coordinates":[-104.552,38.296]},"properties":{"key":"69427-ab01669d","layer":"power","name":"Waxwing Solar CSG","state":"CO","detail_file":"data/details/power-plants-30.json","plant_id":"69427","capacity_mw":3.0,"status_group":"Under construction","energy_sources":"SUN","type":"Power plant","is_nuclear":false}},{"type":"Feature","geometry":{"type":"Point","coordinates":[-107.785,37.146]},"properties":{"key":"50205-4a9c27ff","layer":"power","name":"Williams Ignacio Natural Gas Plant","state":"CO","detail_file":"data/details/power-plants-43.json","plant_id":"50205","capacity_mw":6.1,"status_group":"Operating","energy_sources":"WH","type":"Power plant","is_nuclear":false}},{"type":"Feature","geometry":{"type":"Point","coordinates":[-104.589,39.765]},"properties":{"key":"60726-7bcdecf6","layer":"power","name":"Xcel Adams 1 Community Solar Array","state":"CO","detail_file":"data/details/power-plants-09.json","plant_id":"60726","capacity_mw":1.8,"status_group":"Operating","energy_sources":"SUN","type":"Power plant","is_nuclear":false}},{"type":"Feature","geometry":{"type":"Point","coordinates":[-104.583,39.785]},"properties":{"key":"60725-fbc71fad","layer":"power","name":"Xcel Adams 2 Community Solar Array","state":"CO","detail_file":"data/details/power-plants-56.json","plant_id":"60725","capacity_mw":1.5,"status_group":"Operating","energy_sources":"SUN","type":"Power plant","is_nuclear":false}},{"type":"Feature","geometry":{"type":"Point","coordinates":[-106.423,36.24]},"properties":{"key":"7789-2014f4d3","layer":"power","name":"Abiquiu Dam","state":"NM","detail_file":"data/details/power-plants-36.json","plant_id":"7789","capacity_mw":15.6,"status_group":"Operating","energy_sources":"WAT","type":"Power plant","is_nuclear":false}},{"type":"Feature","geometry":{"type":"Point","coordinates":[-106.041,36.091]},"properties":{"key":"63477-28a6f40a","layer":"power","name":"Alcalde Solar Array","state":"NM","detail_file":"data/details/power-plants-49.json","plant_id":"63477","capacity_mw":2.4,"status_group":"Operating","energy_sources":"SUN","type":"Power plant","is_nuclear":false}},{"type":"Feature","geometry":{"type":"Point","coordinates":[-105.281,36.417]},"properties":{"key":"64695-0143298f","layer":"power","name":"Angel Fire Energy Facility","state":"NM","detail_file":"data/details/power-plants-10.json","plant_id":"64695","capacity_mw":11.2,"status_group":"Operating","energy_sources":"MWH; SUN","type":"Power plant","is_nuclear":false}},{"type":"Feature","geometry":{"type":"Point","coordinates":[-105.985,36.908]},"properties":{"key":"58689-b498b9af","layer":"power","name":"Blue Sky One","state":"NM","detail_file":"data/details/power-plants-17.json","plant_id":"58689","capacity_mw":1.3,"status_group":"Operating","energy_sources":"SUN","type":"Power plant","is_nuclear":false}},{"type":"Feature","geometry":{"type":"Point","coordinates":[-104.636,36.468]},"properties":{"key":"57243-907c3ad1","layer":"power","name":"Cimarron Solar Facility","state":"NM","detail_file":"data/details/power-plants-60.json","plant_id":"57243","capacity_mw":30.6,"status_group":"Operating","energy_sources":"SUN","type":"Power plant","is_nuclear":false}},{"type":"Feature","geometry":{"type":"Point","coordinates":[-106.946,36.017]},"properties":{"key":"64903-0e5bdb70","layer":"power","name":"Cuba 2.5ac, LLC","state":"NM","detail_file":"data/details/power-plants-55.json","plant_id":"64903","capacity_mw":2.5,"status_group":"Operating","energy_sources":"SUN","type":"Power plant","is_nuclear":false}},{"type":"Feature","geometry":{"type":"Point","coordinates":[-106.732,36.593]},"properties":{"key":"7593-9c36ebe3","layer":"power","name":"El Vado Dam","state":"NM","detail_file":"data/details/power-plants-34.json","plant_id":"7593","capacity_mw":8.0,"status_group":"Operating","energy_sources":"WAT","type":"Power plant","is_nuclear":false}},{"type":"Feature","geometry":{"type":"Point","coordinates":[-107.278,36.317]},"properties":{"key":"66163-40c81a33","layer":"power","name":"Jicarilla Solar 1 LLC","state":"NM","detail_file":"data/details/power-plants-12.json","plant_id":"66163","capacity_mw":70.0,"status_group":"Operating","energy_sources":"MWH; SUN","type":"Power plant","is_nuclear":false}},{"type":"Feature","geometry":{"type":"Point","coordinates":[-107.171,36.141]},"properties":{"key":"65103-30de9fd2","layer":"power","name":"Jicarilla Solar 2","state":"NM","detail_file":"data/details/power-plants-41.json","plant_id":"65103","capacity_mw":50.0,"status_group":"Operating","energy_sources":"SUN","type":"Power plant","is_nuclear":false}},{"type":"Feature","geometry":{"type":"Point","coordinates":[-105.438,36.967]},"properties":{"key":"58240-e2c9ae68","layer":"power","name":"Kit Carson","state":"NM","detail_file":"data/details/power-plants-58.json","plant_id":"58240","capacity_mw":1.3,"status_group":"Operating","energy_sources":"SUN","type":"Power plant","is_nuclear":false}},{"type":"Feature","geometry":{"type":"Point","coordinates":[-105.437,36.97]},"properties":{"key":"69042-6cc3323c","layer":"power","name":"Kit Carson Co-Op","state":"NM","detail_file":"data/details/power-plants-12.json","plant_id":"69042","capacity_mw":23.7,"status_group":"Operating","energy_sources":"MWH; SUN","type":"Power plant","is_nuclear":false}},{"type":"Feature","geometry":{"type":"Point","coordinates":[-107.613,36.806]},"properties":{"key":"584-896f5083","layer":"power","name":"Navajo Dam","state":"NM","detail_file":"data/details/power-plants-57.json","plant_id":"584","capacity_mw":30.0,"status_group":"Operating","energy_sources":"WAT","type":"Power plant","is_nuclear":false}},{"type":"Feature","geometry":{"type":"Point","coordinates":[-105.609,36.717]},"properties":{"key":"57369-019cd0ee","layer":"power","name":"Questa Solar Facility","state":"NM","detail_file":"data/details/power-plants-41.json","plant_id":"57369","capacity_mw":1.0,"status_group":"Operating","energy_sources":"SUN","type":"Power plant","is_nuclear":false}},{"type":"Feature","geometry":{"type":"Point","coordinates":[-107.311,36.252]},"properties":{"key":"68868-6b8aedb2","layer":"power","name":"Shallow Basket","state":"NM","detail_file":"data/details/power-plants-21.json","plant_id":"68868","capacity_mw":190.0,"status_group":"Operating","energy_sources":"MWH; SUN","type":"Power plant","is_nuclear":false}},{"type":"Feature","geometry":{"type":"Point","coordinates":[-104.594,36.398]},"properties":{"key":"59560-d021aad7","layer":"power","name":"Springer Solar 1","state":"NM","detail_file":"data/details/power-plants-35.json","plant_id":"59560","capacity_mw":1.0,"status_group":"Operating","energy_sources":"SUN","type":"Power plant","is_nuclear":false}},{"type":"Feature","geometry":{"type":"Point","coordinates":[-105.277,36.544]},"properties":{"key":"62149-9c0c2ca8","layer":"power","name":"Syncarpha Eagle Nest","state":"NM","detail_file":"data/details/power-plants-61.json","plant_id":"62149","capacity_mw":1.0,"status_group":"Operating","energy_sources":"SUN","type":"Power plant","is_nuclear":false}},{"type":"Feature","geometry":{"type":"Point","coordinates":[-106.19,36.332]},"properties":{"key":"63124-9cd3c045","layer":"power","name":"Syncarpha El Rito","state":"NM","detail_file":"data/details/power-plants-01.json","plant_id":"63124","capacity_mw":1.6,"status_group":"Operating","energy_sources":"SUN","type":"Power plant","is_nuclear":false}},{"type":"Feature","geometry":{"type":"Point","coordinates":[-105.588,36.811]},"properties":{"key":"63125-cea61c3f","layer":"power","name":"Syncarpha Questa","state":"NM","detail_file":"data/details/power-plants-45.json","plant_id":"63125","capacity_mw":1.6,"status_group":"Operating","energy_sources":"SUN","type":"Power plant","is_nuclear":false}},{"type":"Feature","geometry":{"type":"Point","coordinates":[-105.66,36.371]},"properties":{"key":"63123-a2de7d5d","layer":"power","name":"Syncarpha Taos","state":"NM","detail_file":"data/details/power-plants-61.json","plant_id":"63123","capacity_mw":3.1,"status_group":"Operating","energy_sources":"SUN","type":"Power plant","is_nuclear":false}},{"type":"Feature","geometry":{"type":"Point","coordinates":[-105.62,36.44]},"properties":{"key":"63728-b198c291","layer":"power","name":"Taos Mesa Energy Facility Hybrid","state":"NM","detail_file":"data/details/power-plants-48.json","plant_id":"63728","capacity_mw":27.5,"status_group":"Operating","energy_sources":"MWH; SUN","type":"Power plant","is_nuclear":false}}]}