{"type":"FeatureCollection","features":[{"type":"Feature","geometry":{"type":"Point","coordinates":[-81.174,28.485]},"properties":{"key":"61247-c4748c0c","layer":"power","name":"ACE-Stanton A PV","state":"FL","detail_file":"data/details/power-plants-31.json","plant_id":"61247","capacity_mw":4.1,"status_group":"Operating","energy_sources":"SUN","type":"Power plant","is_nuclear":false}},{"type":"Feature","geometry":{"type":"Point","coordinates":[-81.18,28.477]},"properties":{"key":"61246-eb4289a1","layer":"power","name":"ACE-Stanton PV","state":"FL","detail_file":"data/details/power-plants-59.json","plant_id":"61246","capacity_mw":4.8,"status_group":"Operating","energy_sources":"SUN","type":"Power plant","is_nuclear":false}},{"type":"Feature","geometry":{"type":"Point","coordinates":[-81.686,30.524]},"properties":{"key":"61388-b1b74d52","layer":"power","name":"AEP Jacksonville Solar Project","state":"FL","detail_file":"data/details/power-plants-41.json","plant_id":"61388","capacity_mw":7.1,"status_group":"Operating","energy_sources":"SUN","type":"Power plant","is_nuclear":false}},{"type":"Feature","geometry":{"type":"Point","coordinates":[-81.378,28.666]},"properties":{"key":"63254-fbaae458","layer":"power","name":"Altamonte Mall","state":"FL","detail_file":"data/details/power-plants-04.json","plant_id":"63254","capacity_mw":1.5,"status_group":"Operating","energy_sources":"SUN","type":"Power plant","is_nuclear":false}},{"type":"Feature","geometry":{"type":"Point","coordinates":[-82.789,28.184]},"properties":{"key":"8048-0135f5b8","layer":"power","name":"Anclote","state":"FL","detail_file":"data/details/power-plants-47.json","plant_id":"8048","capacity_mw":1112.4,"status_group":"Operating","energy_sources":"NG","type":"Power plant","is_nuclear":false}},{"type":"Feature","geometry":{"type":"Point","coordinates":[-81.645,30.434]},"properties":{"key":"10431-b90e5459","layer":"power","name":"Anheuser-Busch Jacksonville","state":"FL","detail_file":"data/details/power-plants-22.json","plant_id":"10431","capacity_mw":8.7,"status_group":"Operating","energy_sources":"NG","type":"Power plant","is_nuclear":false}},{"type":"Feature","geometry":{"type":"Point","coordinates":[-81.676,29.882]},"properties":{"key":"65431-c80da3bb","layer":"power","name":"Anhinga Solar Energy Center","state":"FL","detail_file":"data/details/power-plants-15.json","plant_id":"65431","capacity_mw":74.5,"status_group":"Operating","energy_sources":"SUN","type":"Power plant","is_nuclear":false}},{"type":"Feature","geometry":{"type":"Point","coordinates":[-83.933,30.409]},"properties":{"key":"68052-e8a2d4c4","layer":"power","name":"Bailey Mill Solar","state":"FL","detail_file":"data/details/power-plants-59.json","plant_id":"68052","capacity_mw":74.9,"status_group":"Under construction","energy_sources":"SUN","type":"Power plant","is_nuclear":false}},{"type":"Feature","geometry":{"type":"Point","coordinates":[-81.663,30.314]},"properties":{"key":"10008-3ef2cc97","layer":"power","name":"Baptist Medical Center","state":"FL","detail_file":"data/details/power-plants-17.json","plant_id":"10008","capacity_mw":9.0,"status_group":"Operating","energy_sources":"NG","type":"Power plant","is_nuclear":false}},{"type":"Feature","geometry":{"type":"Point","coordinates":[-82.672,29.0]},"properties":{"key":"64145-b8d25a21","layer":"power","name":"Bay Trail Solar Power Plant","state":"FL","detail_file":"data/details/power-plants-46.json","plant_id":"64145","capacity_mw":74.9,"status_group":"Operating","energy_sources":"SUN","type":"Power plant","is_nuclear":false}},{"type":"Feature","geometry":{"type":"Point","coordinates":[-82.711,29.719]},"properties":{"key":"65519-dc9afb76","layer":"power","name":"Bell Ridge Solar","state":"FL","detail_file":"data/details/power-plants-23.json","plant_id":"65519","capacity_mw":74.5,"status_group":"Operating","energy_sources":"SUN","type":"Power plant","is_nuclear":false}},{"type":"Feature","geometry":{"type":"Point","coordinates":[-81.947,30.321]},"properties":{"key":"7846-303191cd","layer":"power","name":"Brandy Branch","state":"FL","detail_file":"data/details/power-plants-50.json","plant_id":"7846","capacity_mw":783.1,"status_group":"Operating","energy_sources":"NG","type":"Power plant","is_nuclear":false}},{"type":"Feature","geometry":{"type":"Point","coordinates":[-80.829,28.393]},"properties":{"key":"61777-256d1b22","layer":"power","name":"Brevard","state":"FL","detail_file":"data/details/power-plants-28.json","plant_id":"61777","capacity_mw":6.4,"status_group":"Operating","energy_sources":"LFG","type":"Power plant","is_nuclear":false}},{"type":"Feature","geometry":{"type":"Point","coordinates":[-82.624,29.465]},"properties":{"key":"68372-c2ac7a1b","layer":"power","name":"Bronson Solar","state":"FL","detail_file":"data/details/power-plants-62.json","plant_id":"68372","capacity_mw":74.5,"status_group":"Operating","energy_sources":"SUN","type":"Power plant","is_nuclear":false}},{"type":"Feature","geometry":{"type":"Point","coordinates":[-82.38,29.623]},"properties":{"key":"58618-2e0c27d3","layer":"power","name":"Butler Plaza","state":"FL","detail_file":"data/details/power-plants-60.json","plant_id":"58618","capacity_mw":1.2,"status_group":"Operating","energy_sources":"SUN","type":"Power plant","is_nuclear":false}},{"type":"Feature","geometry":{"type":"Point","coordinates":[-81.923,28.08]},"properties":{"key":"676-ae24077e","layer":"power","name":"C D McIntosh Jr","state":"FL","detail_file":"data/details/power-plants-49.json","plant_id":"676","capacity_mw":666.5,"status_group":"Operating","energy_sources":"DFO; NG","type":"Power plant","is_nuclear":false}},{"type":"Feature","geometry":{"type":"Point","coordinates":[-81.533,28.276]},"properties":{"key":"7238-c658c903","layer":"power","name":"Cane Island","state":"FL","detail_file":"data/details/power-plants-11.json","plant_id":"7238","capacity_mw":706.0,"status_group":"Operating","energy_sources":"NG","type":"Power plant","is_nuclear":false}},{"type":"Feature","geometry":{"type":"Point","coordinates":[-80.764,28.47]},"properties":{"key":"609-618f9bff","layer":"power","name":"Cape Canaveral","state":"FL","detail_file":"data/details/power-plants-06.json","plant_id":"609","capacity_mw":1295.0,"status_group":"Operating","energy_sources":"NG","type":"Power plant","is_nuclear":false}},{"type":"Feature","geometry":{"type":"Point","coordinates":[-82.193,30.339]},"properties":{"key":"67672-56cc4abe","layer":"power","name":"Cedar Trail","state":"FL","detail_file":"data/details/power-plants-55.json","plant_id":"67672","capacity_mw":74.5,"status_group":"Operating","energy_sources":"SUN","type":"Power plant","is_nuclear":false}},{"type":"Feature","geometry":{"type":"Point","coordinates":[-81.616,28.401]},"properties":{"key":"61988-c711e883","layer":"power","name":"Citrus Ridge Solar","state":"FL","detail_file":"data/details/power-plants-61.json","plant_id":"61988","capacity_mw":52.0,"status_group":"Operating","energy_sources":"SUN","type":"Power plant","is_nuclear":false}},{"type":"Feature","geometry":{"type":"Point","coordinates":[-82.734,29.882]},"properties":{"key":"67206-09355cc4","layer":"power","name":"Columbia County Solar","state":"FL","detail_file":"data/details/power-plants-42.json","plant_id":"67206","capacity_mw":74.5,"status_group":"Operating","energy_sources":"SUN","type":"Power plant","is_nuclear":false}},{"type":"Feature","geometry":{"type":"Point","coordinates":[-82.696,29.883]},"properties":{"key":"61982-1d8cd27e","layer":"power","name":"Columbia Solar Power Plant","state":"FL","detail_file":"data/details/power-plants-05.json","plant_id":"61982","capacity_mw":74.9,"status_group":"Operating","energy_sources":"SUN","type":"Power plant","is_nuclear":false}},{"type":"Feature","geometry":{"type":"Point","coordinates":[-81.897,29.757]},"properties":{"key":"61022-bdea91af","layer":"power","name":"Coral Farms Solar Energy Center","state":"FL","detail_file":"data/details/power-plants-44.json","plant_id":"61022","capacity_mw":74.5,"status_group":"Operating","energy_sources":"SUN","type":"Power plant","is_nuclear":false}},{"type":"Feature","geometry":{"type":"Point","coordinates":[-82.676,29.812]},"properties":{"key":"67049-2d701b1d","layer":"power","name":"County Line Renewable Energy Center","state":"FL","detail_file":"data/details/power-plants-29.json","plant_id":"67049","capacity_mw":74.9,"status_group":"Operating","energy_sources":"SUN","type":"Power plant","is_nuclear":false}},{"type":"Feature","geometry":{"type":"Point","coordinates":[-81.889,28.74]},"properties":{"key":"50629-f77d6016","layer":"power","name":"Covanta Lake County Energy","state":"FL","detail_file":"data/details/power-plants-58.json","plant_id":"50629","capacity_mw":15.5,"status_group":"Operating","energy_sources":"MSW","type":"Power plant","is_nuclear":false}},{"type":"Feature","geometry":{"type":"Point","coordinates":[-82.698,28.966]},"properties":{"key":"628-5a77bf7c","layer":"power","name":"Crystal River","state":"FL","detail_file":"data/details/power-plants-42.json","plant_id":"628","capacity_mw":3449.0,"status_group":"Operating","energy_sources":"BIT; NG","type":"Power plant","is_nuclear":false}},{"type":"Feature","geometry":{"type":"Point","coordinates":[-81.167,28.488]},"properties":{"key":"55821-0fe96e6f","layer":"power","name":"Curtis H Stanton Energy Center","state":"FL","detail_file":"data/details/power-plants-21.json","plant_id":"55821","capacity_mw":688.3,"status_group":"Operating","energy_sources":"NG","type":"Power plant","is_nuclear":false}},{"type":"Feature","geometry":{"type":"Point","coordinates":[-81.865,28.812]},"properties":{"key":"10020-71dc7477","layer":"power","name":"Cutrale Citrus Juices USA I","state":"FL","detail_file":"data/details/power-plants-46.json","plant_id":"10020","capacity_mw":4.1,"status_group":"Operating","energy_sources":"NG","type":"Power plant","is_nuclear":false}},{"type":"Feature","geometry":{"type":"Point","coordinates":[-81.798,28.055]},"properties":{"key":"10188-ef146815","layer":"power","name":"Cutrale Citrus Juices USA II","state":"FL","detail_file":"data/details/power-plants-19.json","plant_id":"10188","capacity_mw":8.2,"status_group":"Operating","energy_sources":"NG","type":"Power plant","is_nuclear":false}},{"type":"Feature","geometry":{"type":"Point","coordinates":[-81.064,29.17]},"properties":{"key":"60005-f2f52177","layer":"power","name":"Daytona International Speedway Solar","state":"FL","detail_file":"data/details/power-plants-08.json","plant_id":"60005","capacity_mw":1.6,"status_group":"Operating","energy_sources":"SUN","type":"Power plant","is_nuclear":false}},{"type":"Feature","geometry":{"type":"Point","coordinates":[-81.332,28.904]},"properties":{"key":"6046-805adc3d","layer":"power","name":"DeBary","state":"FL","detail_file":"data/details/power-plants-47.json","plant_id":"6046","capacity_mw":748.0,"status_group":"Operating","energy_sources":"DFO; NG","type":"Power plant","is_nuclear":false}},{"type":"Feature","geometry":{"type":"Point","coordinates":[-81.331,28.9]},"properties":{"key":"62542-822ceab2","layer":"power","name":"Debary Solar Power Plant","state":"FL","detail_file":"data/details/power-plants-55.json","plant_id":"62542","capacity_mw":74.5,"status_group":"Operating","energy_sources":"SUN","type":"Power plant","is_nuclear":false}},{"type":"Feature","geometry":{"type":"Point","coordinates":[-82.388,29.759]},"properties":{"key":"663-ee1fe23f","layer":"power","name":"Deerhaven Generating Station","state":"FL","detail_file":"data/details/power-plants-43.json","plant_id":"663","capacity_mw":471.0,"status_group":"Operating","energy_sources":"NG","type":"Power plant","is_nuclear":false}},{"type":"Feature","geometry":{"type":"Point","coordinates":[-82.396,29.767]},"properties":{"key":"57241-205bb3ef","layer":"power","name":"Deerhaven Renewable","state":"FL","detail_file":"data/details/power-plants-50.json","plant_id":"57241","capacity_mw":116.1,"status_group":"Operating","energy_sources":"WDS","type":"Power plant","is_nuclear":false}},{"type":"Feature","geometry":{"type":"Point","coordinates":[-80.679,28.529]},"properties":{"key":"63109-6bd49166","layer":"power","name":"Discovery Solar Center","state":"FL","detail_file":"data/details/power-plants-49.json","plant_id":"63109","capacity_mw":74.5,"status_group":"Operating","energy_sources":"SUN","type":"Power plant","is_nuclear":false}},{"type":"Feature","geometry":{"type":"Point","coordinates":[-82.864,30.296]},"properties":{"key":"62490-7a914d96","layer":"power","name":"Echo River Solar","state":"FL","detail_file":"data/details/power-plants-12.json","plant_id":"62490","capacity_mw":104.5,"status_group":"Operating","energy_sources":"MWH; SUN","type":"Power plant","is_nuclear":false}},{"type":"Feature","geometry":{"type":"Point","coordinates":[-82.184,30.283]},"properties":{"key":"62925-e9aa5274","layer":"power","name":"Egret Solar Center","state":"FL","detail_file":"data/details/power-plants-40.json","plant_id":"62925","capacity_mw":74.5,"status_group":"Operating","energy_sources":"SUN","type":"Power plant","is_nuclear":false}},{"type":"Feature","geometry":{"type":"Point","coordinates":[-81.471,30.661]},"properties":{"key":"60025-375ed991","layer":"power","name":"Eight Flags Energy","state":"FL","detail_file":"data/details/power-plants-12.json","plant_id":"60025","capacity_mw":21.6,"status_group":"Operating","energy_sources":"NG","type":"Power plant","is_nuclear":false}},{"type":"Feature","geometry":{"type":"Point","coordinates":[-81.777,29.767]},"properties":{"key":"65594-a72c4e3c","layer":"power","name":"FPL Etonia Creek","state":"FL","detail_file":"data/details/power-plants-41.json","plant_id":"65594","capacity_mw":74.5,"status_group":"Operating","energy_sources":"SUN","type":"Power plant","is_nuclear":false}},{"type":"Feature","geometry":{"type":"Point","coordinates":[-81.834,30.441]},"properties":{"key":"69548-8a98c886","layer":"power","name":"FRP Forest Trail Solar","state":"FL","detail_file":"data/details/power-plants-01.json","plant_id":"69548","capacity_mw":50.0,"status_group":"Under construction","energy_sources":"SUN","type":"Power plant","is_nuclear":false}},{"type":"Feature","geometry":{"type":"Point","coordinates":[-81.913,30.321]},"properties":{"key":"69626-0f3b86c3","layer":"power","name":"FRP Miller Solar","state":"FL","detail_file":"data/details/power-plants-40.json","plant_id":"69626","capacity_mw":124.5,"status_group":"Under construction","energy_sources":"MWH; SUN","type":"Power plant","is_nuclear":false}},{"type":"Feature","geometry":{"type":"Point","coordinates":[-83.156,30.344]},"properties":{"key":"66639-71c98527","layer":"power","name":"Falmouth Renewable Energy Center","state":"FL","detail_file":"data/details/power-plants-46.json","plant_id":"66639","capacity_mw":74.9,"status_group":"Operating","energy_sources":"SUN","type":"Power plant","is_nuclear":false}},{"type":"Feature","geometry":{"type":"Point","coordinates":[-81.455,30.682]},"properties":{"key":"10202-7441e580","layer":"power","name":"Fernandina Beach Mill","state":"FL","detail_file":"data/details/power-plants-56.json","plant_id":"10202","capacity_mw":96.9,"status_group":"Operating","energy_sources":"BLQ","type":"Power plant","is_nuclear":false}},{"type":"Feature","geometry":{"type":"Point","coordinates":[-81.473,30.661]},"properties":{"key":"10562-5eb6336f","layer":"power","name":"Fernandina Plant","state":"FL","detail_file":"data/details/power-plants-21.json","plant_id":"10562","capacity_mw":42.0,"status_group":"Operating","energy_sources":"WDL","type":"Power plant","is_nuclear":false}},{"type":"Feature","geometry":{"type":"Point","coordinates":[-80.995,29.021]},"properties":{"key":"7954-4a743c4b","layer":"power","name":"Field Street","state":"FL","detail_file":"data/details/power-plants-01.json","plant_id":"7954","capacity_mw":48.0,"status_group":"Operating","energy_sources":"DFO","type":"Power plant","is_nuclear":false}},{"type":"Feature","geometry":{"type":"Point","coordinates":[-82.055,29.123]},"properties":{"key":"57128-f77a897b","layer":"power","name":"G2 Energy Marion LLC","state":"FL","detail_file":"data/details/power-plants-63.json","plant_id":"57128","capacity_mw":0.8,"status_group":"Operating","energy_sources":"LFG","type":"Power plant","is_nuclear":false}},{"type":"Feature","geometry":{"type":"Point","coordinates":[-81.759,29.757]},"properties":{"key":"65907-c85e2c2d","layer":"power","name":"Georges Lake","state":"FL","detail_file":"data/details/power-plants-16.json","plant_id":"65907","capacity_mw":74.5,"status_group":"Operating","energy_sources":"SUN","type":"Power plant","is_nuclear":false}},{"type":"Feature","geometry":{"type":"Point","coordinates":[-81.681,29.681]},"properties":{"key":"10611-d3027d25","layer":"power","name":"Georgia-Pacific Palatka Operations","state":"FL","detail_file":"data/details/power-plants-49.json","plant_id":"10611","capacity_mw":79.8,"status_group":"Operating","energy_sources":"BLQ","type":"Power plant","is_nuclear":false}},{"type":"Feature","geometry":{"type":"Point","coordinates":[-82.67,29.618]},"properties":{"key":"67207-b077e582","layer":"power","name":"Gilchrist County Solar","state":"FL","detail_file":"data/details/power-plants-62.json","plant_id":"67207","capacity_mw":74.5,"status_group":"Operating","energy_sources":"SUN","type":"Power plant","is_nuclear":false}},{"type":"Feature","geometry":{"type":"Point","coordinates":[-81.518,30.159]},"properties":{"key":"56799-02abd94d","layer":"power","name":"Greenland Energy Center","state":"FL","detail_file":"data/details/power-plants-38.json","plant_id":"56799","capacity_mw":380.8,"status_group":"Operating","energy_sources":"NG","type":"Power plant","is_nuclear":false}},{"type":"Feature","geometry":{"type":"Point","coordinates":[-82.16,28.956]},"properties":{"key":"69355-cad80e26","layer":"power","name":"Half Moon Solar Plant","state":"FL","detail_file":"data/details/power-plants-00.json","plant_id":"69355","capacity_mw":74.9,"status_group":"Operating","energy_sources":"SUN","type":"Power plant","is_nuclear":false}},{"type":"Feature","geometry":{"type":"Point","coordinates":[-83.187,30.444]},"properties":{"key":"61807-e52c3140","layer":"power","name":"Hamilton Solar Power Plant","state":"FL","detail_file":"data/details/power-plants-39.json","plant_id":"61807","capacity_mw":74.9,"status_group":"Operating","energy_sources":"SUN","type":"Power plant","is_nuclear":false}},{"type":"Feature","geometry":{"type":"Point","coordinates":[-82.843,29.486]},"properties":{"key":"65173-20b371e1","layer":"power","name":"Hardeetown Solar Power Plant","state":"FL","detail_file":"data/details/power-plants-41.json","plant_id":"65173","capacity_mw":74.9,"status_group":"Operating","energy_sources":"SUN","type":"Power plant","is_nuclear":false}},{"type":"Feature","geometry":{"type":"Point","coordinates":[-81.084,28.167]},"properties":{"key":"67208-7ad5108e","layer":"power","name":"Harmony Florida Solar II","state":"FL","detail_file":"data/details/power-plants-35.json","plant_id":"67208","capacity_mw":74.5,"status_group":"Operating","energy_sources":"SUN","type":"Power plant","is_nuclear":false}},{"type":"Feature","geometry":{"type":"Point","coordinates":[-81.108,28.155]},"properties":{"key":"63582-965215ff","layer":"power","name":"Harmony Solar (FL)","state":"FL","detail_file":"data/details/power-plants-29.json","plant_id":"63582","capacity_mw":74.5,"status_group":"Operating","energy_sources":"SUN","type":"Power plant","is_nuclear":false}},{"type":"Feature","geometry":{"type":"Point","coordinates":[-81.834,30.286]},"properties":{"key":"62778-71e5c04b","layer":"power","name":"Hecate Energy Blair Road LLC","state":"FL","detail_file":"data/details/power-plants-16.json","plant_id":"62778","capacity_mw":4.0,"status_group":"Operating","energy_sources":"SUN","type":"Power plant","is_nuclear":false}},{"type":"Feature","geometry":{"type":"Point","coordinates":[-82.64,29.81]},"properties":{"key":"65172-2acad133","layer":"power","name":"High Springs Solar Power Plant","state":"FL","detail_file":"data/details/power-plants-31.json","plant_id":"65172","capacity_mw":74.9,"status_group":"Operating","energy_sources":"SUN","type":"Power plant","is_nuclear":false}},{"type":"Feature","geometry":{"type":"Point","coordinates":[-82.823,29.965]},"properties":{"key":"65170-87a2a1ac","layer":"power","name":"Hildreth Solar Power Plant","state":"FL","detail_file":"data/details/power-plants-04.json","plant_id":"65170","capacity_mw":74.9,"status_group":"Operating","energy_sources":"SUN","type":"Power plant","is_nuclear":false}},{"type":"Feature","geometry":{"type":"Point","coordinates":[-82.058,29.666]},"properties":{"key":"61021-3963f06d","layer":"power","name":"Horizon Solar Energy Center","state":"FL","detail_file":"data/details/power-plants-33.json","plant_id":"61021","capacity_mw":74.5,"status_group":"Operating","energy_sources":"SUN","type":"Power plant","is_nuclear":false}},{"type":"Feature","geometry":{"type":"Point","coordinates":[-81.51,30.23]},"properties":{"key":"61821-de60cb4b","layer":"power","name":"IKEA Jacksonville Rooftop PV System","state":"FL","detail_file":"data/details/power-plants-46.json","plant_id":"61821","capacity_mw":1.4,"status_group":"Operating","energy_sources":"SUN","type":"Power plant","is_nuclear":false}},{"type":"Feature","geometry":{"type":"Point","coordinates":[-81.715,30.457]},"properties":{"key":"63186-a7d58cb8","layer":"power","name":"Imeson Solar","state":"FL","detail_file":"data/details/power-plants-39.json","plant_id":"63186","capacity_mw":10.0,"status_group":"Operating","energy_sources":"MWH; SUN","type":"Power plant","is_nuclear":false}},{"type":"Feature","geometry":{"type":"Point","coordinates":[-80.78,28.493]},"properties":{"key":"55318-bf6843af","layer":"power","name":"Indian River","state":"FL","detail_file":"data/details/power-plants-47.json","plant_id":"55318","capacity_mw":609.0,"status_group":"Operating","energy_sources":"NG","type":"Power plant","is_nuclear":false}},{"type":"Feature","geometry":{"type":"Point","coordinates":[-80.78,28.493]},"properties":{"key":"683-f1b32619","layer":"power","name":"Indian River Plant","state":"FL","detail_file":"data/details/power-plants-36.json","plant_id":"683","capacity_mw":342.8,"status_group":"Operating","energy_sources":"NG","type":"Power plant","is_nuclear":false}},{"type":"Feature","geometry":{"type":"Point","coordinates":[-81.549,28.263]},"properties":{"key":"8049-9908257b","layer":"power","name":"Intercession City","state":"FL","detail_file":"data/details/power-plants-33.json","plant_id":"8049","capacity_mw":1197.3,"status_group":"Operating","energy_sources":"DFO; NG","type":"Power plant","is_nuclear":false}},{"type":"Feature","geometry":{"type":"Point","coordinates":[-81.626,30.365]},"properties":{"key":"666-92fd93bd","layer":"power","name":"J D Kennedy","state":"FL","detail_file":"data/details/power-plants-09.json","plant_id":"666","capacity_mw":370.0,"status_group":"Operating","energy_sources":"NG","type":"Power plant","is_nuclear":false}},{"type":"Feature","geometry":{"type":"Point","coordinates":[-81.097,28.064]},"properties":{"key":"60701-214c7030","layer":"power","name":"JED Solid Waste Mgmt Renewable Energy","state":"FL","detail_file":"data/details/power-plants-50.json","plant_id":"60701","capacity_mw":9.6,"status_group":"Operating","energy_sources":"LFG","type":"Power plant","is_nuclear":false}},{"type":"Feature","geometry":{"type":"Point","coordinates":[-81.956,30.321]},"properties":{"key":"57202-4a1b10e4","layer":"power","name":"Jacksonville Solar","state":"FL","detail_file":"data/details/power-plants-36.json","plant_id":"57202","capacity_mw":12.6,"status_group":"Operating","energy_sources":"SUN","type":"Power plant","is_nuclear":false}},{"type":"Feature","geometry":{"type":"Point","coordinates":[-81.557,30.394]},"properties":{"key":"66392-d6052fcb","layer":"power","name":"Jax LNG","state":"FL","detail_file":"data/details/power-plants-06.json","plant_id":"66392","capacity_mw":12.6,"status_group":"Operating","energy_sources":"NG","type":"Power plant","is_nuclear":false}},{"type":"Feature","geometry":{"type":"Point","coordinates":[-83.098,30.604]},"properties":{"key":"63998-904f9d65","layer":"power","name":"Jennings Energy Storage Facility","state":"FL","detail_file":"data/details/power-plants-58.json","plant_id":"63998","capacity_mw":5.5,"status_group":"Operating","energy_sources":"MWH","type":"Power plant","is_nuclear":false}},{"type":"Feature","geometry":{"type":"Point","coordinates":[-82.321,29.646]},"properties":{"key":"664-1c001514","layer":"power","name":"John R Kelly","state":"FL","detail_file":"data/details/power-plants-52.json","plant_id":"664","capacity_mw":141.6,"status_group":"Operating","energy_sources":"NG","type":"Power plant","is_nuclear":false}},{"type":"Feature","geometry":{"type":"Point","coordinates":[-82.177,28.955]},"properties":{"key":"69627-266cc9d6","layer":"power","name":"Jumper Creek Solar Plant","state":"FL","detail_file":"data/details/power-plants-45.json","plant_id":"69627","capacity_mw":74.9,"status_group":"Operating","energy_sources":"SUN","type":"Power plant","is_nuclear":false}},{"type":"Feature","geometry":{"type":"Point","coordinates":[-82.155,28.182]},"properties":{"key":"65683-5b31917a","layer":"power","name":"Juniper Solar (FL)","state":"FL","detail_file":"data/details/power-plants-13.json","plant_id":"65683","capacity_mw":70.0,"status_group":"Operating","energy_sources":"SUN","type":"Power plant","is_nuclear":false}},{"type":"Feature","geometry":{"type":"Point","coordinates":[-82.017,28.066]},"properties":{"key":"59611-4a71fb9f","layer":"power","name":"LKL BLBD, LLC","state":"FL","detail_file":"data/details/power-plants-08.json","plant_id":"59611","capacity_mw":6.0,"status_group":"Operating","energy_sources":"SUN","type":"Power plant","is_nuclear":false}},{"type":"Feature","geometry":{"type":"Point","coordinates":[-81.924,28.049]},"properties":{"key":"675-0b812ec8","layer":"power","name":"Larsen Memorial","state":"FL","detail_file":"data/details/power-plants-09.json","plant_id":"675","capacity_mw":133.6,"status_group":"Operating","energy_sources":"NG","type":"Power plant","is_nuclear":false}},{"type":"Feature","geometry":{"type":"Point","coordinates":[-81.216,28.539]},"properties":{"key":"61694-048312e8","layer":"power","name":"Lockheed Martin Solar","state":"FL","detail_file":"data/details/power-plants-06.json","plant_id":"61694","capacity_mw":4.9,"status_group":"Operating","energy_sources":"DFO; SUN","type":"Power plant","is_nuclear":false}},{"type":"Feature","geometry":{"type":"Point","coordinates":[-82.685,28.048]},"properties":{"key":"59867-40dbaa91","layer":"power","name":"Lockheed Martin Solar System","state":"FL","detail_file":"data/details/power-plants-53.json","plant_id":"59867","capacity_mw":1.9,"status_group":"Operating","energy_sources":"SUN","type":"Power plant","is_nuclear":false}},{"type":"Feature","geometry":{"type":"Point","coordinates":[-81.24,28.079]},"properties":{"key":"70222-ecf9c131","layer":"power","name":"Lonesome Camp Solar Plant","state":"FL","detail_file":"data/details/power-plants-22.json","plant_id":"70222","capacity_mw":74.9,"status_group":"Under construction","energy_sources":"SUN","type":"Power plant","is_nuclear":false}},{"type":"Feature","geometry":{"type":"Point","coordinates":[-82.292,29.704]},"properties":{"key":"69000-714a6f38","layer":"power","name":"MLH 2","state":"FL","detail_file":"data/details/power-plants-48.json","plant_id":"69000","capacity_mw":1.0,"status_group":"Operating","energy_sources":"SUN","type":"Power plant","is_nuclear":false}},{"type":"Feature","geometry":{"type":"Point","coordinates":[-82.292,29.704]},"properties":{"key":"69001-64551e97","layer":"power","name":"MLH 3","state":"FL","detail_file":"data/details/power-plants-55.json","plant_id":"69001","capacity_mw":1.0,"status_group":"Operating","energy_sources":"SUN","type":"Power plant","is_nuclear":false}},{"type":"Feature","geometry":{"type":"Point","coordinates":[-81.693,29.899]},"properties":{"key":"62915-aedaa78d","layer":"power","name":"Magnolia Springs Solar Center","state":"FL","detail_file":"data/details/power-plants-42.json","plant_id":"62915","capacity_mw":74.5,"status_group":"Operating","energy_sources":"SUN","type":"Power plant","is_nuclear":false}},{"type":"Feature","geometry":{"type":"Point","coordinates":[-82.185,30.314]},"properties":{"key":"68836-dbfad3ba","layer":"power","name":"Maple Trail","state":"FL","detail_file":"data/details/power-plants-46.json","plant_id":"68836","capacity_mw":74.5,"status_group":"Under construction","energy_sources":"SUN","type":"Power plant","is_nuclear":false}},{"type":"Feature","geometry":{"type":"Point","coordinates":[-82.275,29.511]},"properties":{"key":"63999-f9ac9df0","layer":"power","name":"Micanopy Energy Storage Facility","state":"FL","detail_file":"data/details/power-plants-50.json","plant_id":"63999","capacity_mw":8.3,"status_group":"Operating","energy_sources":"MWH","type":"Power plant","is_nuclear":false}},{"type":"Feature","geometry":{"type":"Point","coordinates":[-83.341,30.381]},"properties":{"key":"68824-2f9bb9d6","layer":"power","name":"Middle Lake","state":"FL","detail_file":"data/details/power-plants-16.json","plant_id":"68824","capacity_mw":74.5,"status_group":"Under construction","energy_sources":"SUN","type":"Power plant","is_nuclear":false}},{"type":"Feature","geometry":{"type":"Point","coordinates":[-81.682,28.815]},"properties":{"key":"67491-56a9b6c1","layer":"power","name":"Mount Dora Solar Farm F","state":"FL","detail_file":"data/details/power-plants-39.json","plant_id":"67491","capacity_mw":2.1,"status_group":"Operating","energy_sources":"SUN","type":"Power plant","is_nuclear":false}},{"type":"Feature","geometry":{"type":"Point","coordinates":[-81.623,28.794]},"properties":{"key":"67492-f2105dfc","layer":"power","name":"Mount Dora Solar Farm W","state":"FL","detail_file":"data/details/power-plants-24.json","plant_id":"67492","capacity_mw":1.9,"status_group":"Operating","energy_sources":"SUN","type":"Power plant","is_nuclear":false}},{"type":"Feature","geometry":{"type":"Point","coordinates":[-82.22,28.398]},"properties":{"key":"61664-7117fdab","layer":"power","name":"Mountain View Solar (FL)","state":"FL","detail_file":"data/details/power-plants-37.json","plant_id":"61664","capacity_mw":54.6,"status_group":"Operating","energy_sources":"SUN","type":"Power plant","is_nuclear":false}},{"type":"Feature","geometry":{"type":"Point","coordinates":[-81.884,30.504]},"properties":{"key":"62914-fce3a6a9","layer":"power","name":"Nassau Solar Center","state":"FL","detail_file":"data/details/power-plants-06.json","plant_id":"62914","capacity_mw":74.5,"status_group":"Operating","energy_sources":"SUN","type":"Power plant","is_nuclear":false}},{"type":"Feature","geometry":{"type":"Point","coordinates":[-82.157,30.272]},"properties":{"key":"65924-a09f8358","layer":"power","name":"Nature Trail","state":"FL","detail_file":"data/details/power-plants-07.json","plant_id":"65924","capacity_mw":74.5,"status_group":"Operating","energy_sources":"SUN","type":"Power plant","is_nuclear":false}},{"type":"Feature","geometry":{"type":"Point","coordinates":[-82.227,30.247]},"properties":{"key":"62645-9dab5c7c","layer":"power","name":"Northern Preserve Solar","state":"FL","detail_file":"data/details/power-plants-39.json","plant_id":"62645","capacity_mw":74.5,"status_group":"Operating","energy_sources":"SUN","type":"Power plant","is_nuclear":false}},{"type":"Feature","geometry":{"type":"Point","coordinates":[-81.552,30.417]},"properties":{"key":"667-d3b40aab","layer":"power","name":"Northside Generating Station","state":"FL","detail_file":"data/details/power-plants-40.json","plant_id":"667","capacity_mw":1407.1,"status_group":"Operating","energy_sources":"BIT; DFO; NG","type":"Power plant","is_nuclear":false}},{"type":"Feature","geometry":{"type":"Point","coordinates":[-83.344,30.39]},"properties":{"key":"65908-fd2dd6b7","layer":"power","name":"Norton Creek","state":"FL","detail_file":"data/details/power-plants-08.json","plant_id":"65908","capacity_mw":74.5,"status_group":"Operating","energy_sources":"SUN","type":"Power plant","is_nuclear":false}},{"type":"Feature","geometry":{"type":"Point","coordinates":[-81.888,30.319]},"properties":{"key":"66202-b28a37b0","layer":"power","name":"Old Plank Road Solar Farm, LLC","state":"FL","detail_file":"data/details/power-plants-21.json","plant_id":"66202","capacity_mw":3.0,"status_group":"Operating","energy_sources":"SUN","type":"Power plant","is_nuclear":false}},{"type":"Feature","geometry":{"type":"Point","coordinates":[-80.795,28.366]},"properties":{"key":"55286-ffa7e9bf","layer":"power","name":"Oleander Power Project LP","state":"FL","detail_file":"data/details/power-plants-53.json","plant_id":"55286","capacity_mw":994.4,"status_group":"Operating","energy_sources":"NG","type":"Power plant","is_nuclear":false}},{"type":"Feature","geometry":{"type":"Point","coordinates":[-81.412,28.443]},"properties":{"key":"54466-fd261b85","layer":"power","name":"Orlando Cogen LP","state":"FL","detail_file":"data/details/power-plants-42.json","plant_id":"54466","capacity_mw":122.4,"status_group":"Operating","energy_sources":"NG","type":"Power plant","is_nuclear":false}},{"type":"Feature","geometry":{"type":"Point","coordinates":[-81.098,28.129]},"properties":{"key":"55192-240a5560","layer":"power","name":"Osceola Generating Station (FL)","state":"FL","detail_file":"data/details/power-plants-47.json","plant_id":"55192","capacity_mw":580.0,"status_group":"Operating","energy_sources":"NG","type":"Power plant","is_nuclear":false}},{"type":"Feature","geometry":{"type":"Point","coordinates":[-81.242,28.058]},"properties":{"key":"59954-5188afd7","layer":"power","name":"Osceola Solar Facility","state":"FL","detail_file":"data/details/power-plants-63.json","plant_id":"59954","capacity_mw":3.8,"status_group":"Operating","energy_sources":"SUN","type":"Power plant","is_nuclear":false}},{"type":"Feature","geometry":{"type":"Point","coordinates":[-81.808,28.052]},"properties":{"key":"55412-1ff116b2","layer":"power","name":"Osprey Energy Center Power Plant","state":"FL","detail_file":"data/details/power-plants-51.json","plant_id":"55412","capacity_mw":644.2,"status_group":"Operating","energy_sources":"NG","type":"Power plant","is_nuclear":false}},{"type":"Feature","geometry":{"type":"Point","coordinates":[-82.558,28.368]},"properties":{"key":"50666-7bdc3283","layer":"power","name":"Pasco Cnty Solid Waste Resource Recovery","state":"FL","detail_file":"data/details/power-plants-52.json","plant_id":"50666","capacity_mw":31.2,"status_group":"Operating","energy_sources":"MSW","type":"Power plant","is_nuclear":false}},{"type":"Feature","geometry":{"type":"Point","coordinates":[-82.558,28.368]},"properties":{"key":"50666-e7b6d43f","layer":"power","name":"Pasco Cnty Solid Waste Resource Recovery","state":"FL","detail_file":"data/details/power-plants-21.json","plant_id":"50666","capacity_mw":17.0,"status_group":"Under construction","energy_sources":"MSW","type":"Power plant","is_nuclear":false}},{"type":"Feature","geometry":{"type":"Point","coordinates":[-83.56,30.119]},"properties":{"key":"60071-0fb55c48","layer":"power","name":"Perry Solar Facility","state":"FL","detail_file":"data/details/power-plants-45.json","plant_id":"60071","capacity_mw":5.1,"status_group":"Operating","energy_sources":"SUN","type":"Power plant","is_nuclear":false}},{"type":"Feature","geometry":{"type":"Point","coordinates":[-81.1,29.08]},"properties":{"key":"61767-171cbe0f","layer":"power","name":"Pioneer Trail Solar Energy Center","state":"FL","detail_file":"data/details/power-plants-05.json","plant_id":"61767","capacity_mw":74.5,"status_group":"Operating","energy_sources":"SUN","type":"Power plant","is_nuclear":false}},{"type":"Feature","geometry":{"type":"Point","coordinates":[-82.618,28.967]},"properties":{"key":"69356-2647b165","layer":"power","name":"Powerline Energy Storage","state":"FL","detail_file":"data/details/power-plants-56.json","plant_id":"69356","capacity_mw":100.0,"status_group":"Planned","energy_sources":"MWH","type":"Power plant","is_nuclear":false}},{"type":"Feature","geometry":{"type":"Point","coordinates":[-82.558,30.161]},"properties":{"key":"65887-1998e501","layer":"power","name":"Price Creek","state":"FL","detail_file":"data/details/power-plants-13.json","plant_id":"65887","capacity_mw":74.5,"status_group":"Operating","energy_sources":"SUN","type":"Power plant","is_nuclear":false}},{"type":"Feature","geometry":{"type":"Point","coordinates":[-81.182,28.489]},"properties":{"key":"57565-b471fc4d","layer":"power","name":"RP-Orlando, LLC","state":"FL","detail_file":"data/details/power-plants-24.json","plant_id":"57565","capacity_mw":5.1,"status_group":"Operating","energy_sources":"SUN","type":"Power plant","is_nuclear":false}},{"type":"Feature","geometry":{"type":"Point","coordinates":[-82.289,28.634]},"properties":{"key":"69354-d3a39d3e","layer":"power","name":"Rattler Solar Plant","state":"FL","detail_file":"data/details/power-plants-63.json","plant_id":"69354","capacity_mw":74.9,"status_group":"Operating","energy_sources":"SUN","type":"Power plant","is_nuclear":false}},{"type":"Feature","geometry":{"type":"Point","coordinates":[-81.699,29.741]},"properties":{"key":"65292-ae44e1dd","layer":"power","name":"Rice Creek","state":"FL","detail_file":"data/details/power-plants-41.json","plant_id":"65292","capacity_mw":74.9,"status_group":"Operating","energy_sources":"SUN","type":"Power plant","is_nuclear":false}},{"type":"Feature","geometry":{"type":"Point","coordinates":[-81.326,28.842]},"properties":{"key":"620-a45f4eb1","layer":"power","name":"Sanford","state":"FL","detail_file":"data/details/power-plants-27.json","plant_id":"620","capacity_mw":2377.8,"status_group":"Operating","energy_sources":"NG","type":"Power plant","is_nuclear":false}},{"type":"Feature","geometry":{"type":"Point","coordinates":[-82.733,29.88]},"properties":{"key":"63517-8046c733","layer":"power","name":"Santa Fe Solar Power Plant","state":"FL","detail_file":"data/details/power-plants-05.json","plant_id":"63517","capacity_mw":74.9,"status_group":"Operating","energy_sources":"SUN","type":"Power plant","is_nuclear":false}},{"type":"Feature","geometry":{"type":"Point","coordinates":[-81.633,29.733]},"properties":{"key":"136-851fd5bf","layer":"power","name":"Seminole (FL)","state":"FL","detail_file":"data/details/power-plants-05.json","plant_id":"136","capacity_mw":1897.8,"status_group":"Operating","energy_sources":"BIT; NG","type":"Power plant","is_nuclear":false}},{"type":"Feature","geometry":{"type":"Point","coordinates":[-81.089,28.79]},"properties":{"key":"61780-82a1e70b","layer":"power","name":"Seminole Energy","state":"FL","detail_file":"data/details/power-plants-08.json","plant_id":"61780","capacity_mw":4.8,"status_group":"Operating","energy_sources":"LFG","type":"Power plant","is_nuclear":false}},{"type":"Feature","geometry":{"type":"Point","coordinates":[-81.598,30.418]},"properties":{"key":"50803-84116dd6","layer":"power","name":"Seminole Mill","state":"FL","detail_file":"data/details/power-plants-31.json","plant_id":"50803","capacity_mw":30.0,"status_group":"Operating","energy_sources":"NG","type":"Power plant","is_nuclear":false}},{"type":"Feature","geometry":{"type":"Point","coordinates":[-82.558,28.367]},"properties":{"key":"63802-73d98a7a","layer":"power","name":"Shady Hills Combined Cycle Facility","state":"FL","detail_file":"data/details/power-plants-10.json","plant_id":"63802","capacity_mw":612.0,"status_group":"Under construction","energy_sources":"NG","type":"Power plant","is_nuclear":false}},{"type":"Feature","geometry":{"type":"Point","coordinates":[-82.559,28.366]},"properties":{"key":"55414-49131abb","layer":"power","name":"Shady Hills Generating Station","state":"FL","detail_file":"data/details/power-plants-19.json","plant_id":"55414","capacity_mw":541.2,"status_group":"Operating","energy_sources":"NG","type":"Power plant","is_nuclear":false}},{"type":"Feature","geometry":{"type":"Point","coordinates":[-82.338,29.7]},"properties":{"key":"57438-28ad6d96","layer":"power","name":"Solar Park Gainesville, LLC","state":"FL","detail_file":"data/details/power-plants-35.json","plant_id":"57438","capacity_mw":1.6,"status_group":"Operating","energy_sources":"SUN","type":"Power plant","is_nuclear":false}},{"type":"Feature","geometry":{"type":"Point","coordinates":[-82.34,29.638]},"properties":{"key":"56518-853d1cd5","layer":"power","name":"South Energy Center","state":"FL","detail_file":"data/details/power-plants-42.json","plant_id":"56518","capacity_mw":11.5,"status_group":"Operating","energy_sources":"NG","type":"Power plant","is_nuclear":false}},{"type":"Feature","geometry":{"type":"Point","coordinates":[-80.681,28.459]},"properties":{"key":"56930-e40be0be","layer":"power","name":"Space Coast Next Gen Solar Energy","state":"FL","detail_file":"data/details/power-plants-11.json","plant_id":"56930","capacity_mw":10.0,"status_group":"Operating","energy_sources":"SUN","type":"Power plant","is_nuclear":false}},{"type":"Feature","geometry":{"type":"Point","coordinates":[-81.168,28.482]},"properties":{"key":"564-fbb079c8","layer":"power","name":"Stanton Energy Center","state":"FL","detail_file":"data/details/power-plants-17.json","plant_id":"564","capacity_mw":1262.0,"status_group":"Operating","energy_sources":"BIT; NG","type":"Power plant","is_nuclear":false}},{"type":"Feature","geometry":{"type":"Point","coordinates":[-81.601,30.494]},"properties":{"key":"62940-774c57cc","layer":"power","name":"Starratt Solar","state":"FL","detail_file":"data/details/power-plants-42.json","plant_id":"62940","capacity_mw":5.0,"status_group":"Operating","energy_sources":"SUN","type":"Power plant","is_nuclear":false}},{"type":"Feature","geometry":{"type":"Point","coordinates":[-81.081,28.283]},"properties":{"key":"67209-9e445994","layer":"power","name":"Storey Bend Solar","state":"FL","detail_file":"data/details/power-plants-42.json","plant_id":"67209","capacity_mw":74.5,"status_group":"Operating","energy_sources":"SUN","type":"Power plant","is_nuclear":false}},{"type":"Feature","geometry":{"type":"Point","coordinates":[-83.296,30.267]},"properties":{"key":"67692-c722bb76","layer":"power","name":"Sundance Renewable Energy Center","state":"FL","detail_file":"data/details/power-plants-39.json","plant_id":"67692","capacity_mw":74.9,"status_group":"Operating","energy_sources":"SUN","type":"Power plant","is_nuclear":false}},{"type":"Feature","geometry":{"type":"Point","coordinates":[-82.75,30.29]},"properties":{"key":"61763-41f0694d","layer":"power","name":"Sunshine Gateway Solar Energy Center","state":"FL","detail_file":"data/details/power-plants-03.json","plant_id":"61763","capacity_mw":104.5,"status_group":"Operating","energy_sources":"MWH; SUN","type":"Power plant","is_nuclear":false}},{"type":"Feature","geometry":{"type":"Point","coordinates":[-83.181,30.377]},"properties":{"key":"69250-f01573f6","layer":"power","name":"Suwannee","state":"FL","detail_file":"data/details/power-plants-48.json","plant_id":"69250","capacity_mw":5.0,"status_group":"Operating","energy_sources":"MWH","type":"Power plant","is_nuclear":false}},{"type":"Feature","geometry":{"type":"Point","coordinates":[-83.181,30.376]},"properties":{"key":"638-a19080d7","layer":"power","name":"Suwannee River","state":"FL","detail_file":"data/details/power-plants-51.json","plant_id":"638","capacity_mw":197.7,"status_group":"Operating","energy_sources":"DFO; NG","type":"Power plant","is_nuclear":false}},{"type":"Feature","geometry":{"type":"Point","coordinates":[-83.174,30.376]},"properties":{"key":"60788-5fe91ad8","layer":"power","name":"Suwannee Solar Facility","state":"FL","detail_file":"data/details/power-plants-47.json","plant_id":"60788","capacity_mw":8.8,"status_group":"Operating","energy_sources":"SUN","type":"Power plant","is_nuclear":false}},{"type":"Feature","geometry":{"type":"Point","coordinates":[-82.864,30.452]},"properties":{"key":"50474-ee8c0161","layer":"power","name":"Swift Creek Chemical Complex","state":"FL","detail_file":"data/details/power-plants-04.json","plant_id":"50474","capacity_mw":18.8,"status_group":"Operating","energy_sources":"OTH","type":"Power plant","is_nuclear":false}},{"type":"Feature","geometry":{"type":"Point","coordinates":[-81.048,28.503]},"properties":{"key":"63583-43bf7e28","layer":"power","name":"Taylor Creek Solar","state":"FL","detail_file":"data/details/power-plants-41.json","plant_id":"63583","capacity_mw":74.5,"status_group":"Operating","energy_sources":"SUN","type":"Power plant","is_nuclear":false}},{"type":"Feature","geometry":{"type":"Point","coordinates":[-81.763,29.881]},"properties":{"key":"65882-db0cb2ab","layer":"power","name":"Terrill Creek","state":"FL","detail_file":"data/details/power-plants-37.json","plant_id":"65882","capacity_mw":74.5,"status_group":"Operating","energy_sources":"SUN","type":"Power plant","is_nuclear":false}},{"type":"Feature","geometry":{"type":"Point","coordinates":[-81.887,30.52]},"properties":{"key":"65917-f403fca7","layer":"power","name":"Thomas Creek","state":"FL","detail_file":"data/details/power-plants-53.json","plant_id":"65917","capacity_mw":74.5,"status_group":"Operating","energy_sources":"SUN","type":"Power plant","is_nuclear":false}},{"type":"Feature","geometry":{"type":"Point","coordinates":[-82.041,30.228]},"properties":{"key":"57123-fc744b1a","layer":"power","name":"Trail Ridge Landfill Gas Recovery","state":"FL","detail_file":"data/details/power-plants-58.json","plant_id":"57123","capacity_mw":9.6,"status_group":"Operating","energy_sources":"LFG","type":"Power plant","is_nuclear":false}},{"type":"Feature","geometry":{"type":"Point","coordinates":[-81.428,29.775]},"properties":{"key":"62916-9b818bec","layer":"power","name":"Trailside Solar Center","state":"FL","detail_file":"data/details/power-plants-29.json","plant_id":"62916","capacity_mw":74.5,"status_group":"Operating","energy_sources":"SUN","type":"Power plant","is_nuclear":false}},{"type":"Feature","geometry":{"type":"Point","coordinates":[-82.807,29.614]},"properties":{"key":"63995-5136c229","layer":"power","name":"Trenton","state":"FL","detail_file":"data/details/power-plants-47.json","plant_id":"63995","capacity_mw":11.0,"status_group":"Operating","energy_sources":"MWH","type":"Power plant","is_nuclear":false}},{"type":"Feature","geometry":{"type":"Point","coordinates":[-82.843,29.635]},"properties":{"key":"62543-cfa73ca5","layer":"power","name":"Trenton Solar Power Plant","state":"FL","detail_file":"data/details/power-plants-36.json","plant_id":"62543","capacity_mw":74.9,"status_group":"Operating","energy_sources":"SUN","type":"Power plant","is_nuclear":false}},{"type":"Feature","geometry":{"type":"Point","coordinates":[-81.527,29.604]},"properties":{"key":"67182-5a4e7adc","layer":"power","name":"Tupelo Solar","state":"FL","detail_file":"data/details/power-plants-30.json","plant_id":"67182","capacity_mw":74.5,"status_group":"Operating","energy_sources":"SUN","type":"Power plant","is_nuclear":false}},{"type":"Feature","geometry":{"type":"Point","coordinates":[-81.223,28.063]},"properties":{"key":"70223-6525bf3a","layer":"power","name":"Turnpike Solar Plant","state":"FL","detail_file":"data/details/power-plants-35.json","plant_id":"70223","capacity_mw":74.9,"status_group":"Under construction","energy_sources":"SUN","type":"Power plant","is_nuclear":false}},{"type":"Feature","geometry":{"type":"Point","coordinates":[-81.845,29.612]},"properties":{"key":"62633-97aa937f","layer":"power","name":"Twin Lakes","state":"FL","detail_file":"data/details/power-plants-08.json","plant_id":"62633","capacity_mw":74.5,"status_group":"Operating","energy_sources":"SUN","type":"Power plant","is_nuclear":false}},{"type":"Feature","geometry":{"type":"Point","coordinates":[-82.969,30.466]},"properties":{"key":"63518-9efc2d98","layer":"power","name":"Twin Rivers Solar Power Plant","state":"FL","detail_file":"data/details/power-plants-50.json","plant_id":"63518","capacity_mw":74.9,"status_group":"Operating","energy_sources":"SUN","type":"Power plant","is_nuclear":false}},{"type":"Feature","geometry":{"type":"Point","coordinates":[-82.301,29.974]},"properties":{"key":"62923-936d8c1c","layer":"power","name":"Union Springs Solar Center","state":"FL","detail_file":"data/details/power-plants-01.json","plant_id":"62923","capacity_mw":74.5,"status_group":"Operating","energy_sources":"SUN","type":"Power plant","is_nuclear":false}},{"type":"Feature","geometry":{"type":"Point","coordinates":[-82.349,29.64]},"properties":{"key":"7345-f64ae20b","layer":"power","name":"University of Florida","state":"FL","detail_file":"data/details/power-plants-52.json","plant_id":"7345","capacity_mw":54.2,"status_group":"Operating","energy_sources":"NG","type":"Power plant","is_nuclear":false}},{"type":"Feature","geometry":{"type":"Point","coordinates":[-81.563,28.374]},"properties":{"key":"59973-24b4e272","layer":"power","name":"Walt Disney World Solar Facility","state":"FL","detail_file":"data/details/power-plants-16.json","plant_id":"59973","capacity_mw":4.9,"status_group":"Operating","energy_sources":"SUN","type":"Power plant","is_nuclear":false}},{"type":"Feature","geometry":{"type":"Point","coordinates":[-82.431,29.472]},"properties":{"key":"68595-37999a04","layer":"power","name":"Whistling Duck I","state":"FL","detail_file":"data/details/power-plants-15.json","plant_id":"68595","capacity_mw":75.0,"status_group":"Operating","energy_sources":"SUN","type":"Power plant","is_nuclear":false}},{"type":"Feature","geometry":{"type":"Point","coordinates":[-83.298,30.282]},"properties":{"key":"66553-08ea1c5a","layer":"power","name":"Winquepin Renewable Energy Center","state":"FL","detail_file":"data/details/power-plants-06.json","plant_id":"66553","capacity_mw":74.9,"status_group":"Operating","energy_sources":"SUN","type":"Power plant","is_nuclear":false}},{"type":"Feature","geometry":{"type":"Point","coordinates":[-82.016,28.027]},"properties":{"key":"7997-dec93ec6","layer":"power","name":"Winston","state":"FL","detail_file":"data/details/power-plants-30.json","plant_id":"7997","capacity_mw":50.0,"status_group":"Operating","energy_sources":"DFO","type":"Power plant","is_nuclear":false}},{"type":"Feature","geometry":{"type":"Point","coordinates":[-82.334,31.878]},"properties":{"key":"64211-15205cbe","layer":"power","name":"Baxley","state":"GA","detail_file":"data/details/power-plants-58.json","plant_id":"64211","capacity_mw":25.0,"status_group":"Operating","energy_sources":"SUN","type":"Power plant","is_nuclear":false}},{"type":"Feature","geometry":{"type":"Point","coordinates":[-82.625,31.394]},"properties":{"key":"66025-ce72c4eb","layer":"power","name":"Blackwater Solar","state":"GA","detail_file":"data/details/power-plants-18.json","plant_id":"66025","capacity_mw":80.0,"status_group":"Operating","energy_sources":"SUN","type":"Power plant","is_nuclear":false}},{"type":"Feature","geometry":{"type":"Point","coordinates":[-81.519,31.173]},"properties":{"key":"10605-32814240","layer":"power","name":"Brunswick Cellulose","state":"GA","detail_file":"data/details/power-plants-35.json","plant_id":"10605","capacity_mw":72.2,"status_group":"Operating","energy_sources":"BLQ","type":"Power plant","is_nuclear":false}},{"type":"Feature","geometry":{"type":"Point","coordinates":[-83.941,31.845]},"properties":{"key":"753-9c7bd172","layer":"power","name":"Crisp Plant","state":"GA","detail_file":"data/details/power-plants-56.json","plant_id":"753","capacity_mw":22.5,"status_group":"Operating","energy_sources":"NG","type":"Power plant","is_nuclear":false}},{"type":"Feature","geometry":{"type":"Point","coordinates":[-81.66,31.71]},"properties":{"key":"68333-9351cb9e","layer":"power","name":"Crossroads Solar - GA","state":"GA","detail_file":"data/details/power-plants-50.json","plant_id":"68333","capacity_mw":150.0,"status_group":"Under construction","energy_sources":"SUN","type":"Power plant","is_nuclear":false}},{"type":"Feature","geometry":{"type":"Point","coordinates":[-83.8,31.3]},"properties":{"key":"61441-1ebb0c8f","layer":"power","name":"Denver Braswell PV","state":"GA","detail_file":"data/details/power-plants-44.json","plant_id":"61441","capacity_mw":1.4,"status_group":"Operating","energy_sources":"SUN","type":"Power plant","is_nuclear":false}},{"type":"Feature","geometry":{"type":"Point","coordinates":[-82.345,31.934]},"properties":{"key":"6051-f7440957","layer":"power","name":"Edwin I Hatch","state":"GA","detail_file":"data/details/power-plants-01.json","plant_id":"6051","capacity_mw":1848.0,"status_group":"Operating","energy_sources":"NUC","type":"Nuclear power plant","is_nuclear":true}},{"type":"Feature","geometry":{"type":"Point","coordinates":[-81.595,31.905]},"properties":{"key":"59865-b91a2927","layer":"power","name":"Fort Stewart Solar Facility","state":"GA","detail_file":"data/details/power-plants-50.json","plant_id":"59865","capacity_mw":30.0,"status_group":"Operating","energy_sources":"SUN","type":"Power plant","is_nuclear":false}},{"type":"Feature","geometry":{"type":"Point","coordinates":[-81.96,30.916]},"properties":{"key":"64584-78248ed7","layer":"power","name":"Fountain Folkston","state":"GA","detail_file":"data/details/power-plants-05.json","plant_id":"64584","capacity_mw":2.1,"status_group":"Operating","energy_sources":"SUN","type":"Power plant","is_nuclear":false}},{"type":"Feature","geometry":{"type":"Point","coordinates":[-82.602,31.819]},"properties":{"key":"60554-f36cbf05","layer":"power","name":"Hazlehurst II","state":"GA","detail_file":"data/details/power-plants-22.json","plant_id":"60554","capacity_mw":52.5,"status_group":"Operating","energy_sources":"SUN","type":"Power plant","is_nuclear":false}},{"type":"Feature","geometry":{"type":"Point","coordinates":[-82.602,31.832]},"properties":{"key":"62057-33a4b9eb","layer":"power","name":"Hazlehurst III","state":"GA","detail_file":"data/details/power-plants-04.json","plant_id":"62057","capacity_mw":40.0,"status_group":"Operating","energy_sources":"SUN","type":"Power plant","is_nuclear":false}},{"type":"Feature","geometry":{"type":"Point","coordinates":[-81.844,31.659]},"properties":{"key":"10560-bb0d44a7","layer":"power","name":"Jesup Plant","state":"GA","detail_file":"data/details/power-plants-30.json","plant_id":"10560","capacity_mw":69.5,"status_group":"Operating","energy_sources":"BLQ","type":"Power plant","is_nuclear":false}},{"type":"Feature","geometry":{"type":"Point","coordinates":[-81.556,30.828]},"properties":{"key":"59864-7121168d","layer":"power","name":"Kings Bay Solar Facility","state":"GA","detail_file":"data/details/power-plants-60.json","plant_id":"59864","capacity_mw":30.0,"status_group":"Operating","energy_sources":"SUN","type":"Power plant","is_nuclear":false}},{"type":"Feature","geometry":{"type":"Point","coordinates":[-83.942,31.848]},"properties":{"key":"752-d4c708fb","layer":"power","name":"Lake Blackshear Project","state":"GA","detail_file":"data/details/power-plants-52.json","plant_id":"752","capacity_mw":17.2,"status_group":"Operating","energy_sources":"WAT","type":"Power plant","is_nuclear":false}},{"type":"Feature","geometry":{"type":"Point","coordinates":[-83.055,31.027]},"properties":{"key":"58572-80363898","layer":"power","name":"Lakeland Solar Energy LLC","state":"GA","detail_file":"data/details/power-plants-53.json","plant_id":"58572","capacity_mw":1.8,"status_group":"Operating","energy_sources":"SUN","type":"Power plant","is_nuclear":false}},{"type":"Feature","geometry":{"type":"Point","coordinates":[-83.26,30.812]},"properties":{"key":"67240-09edabf2","layer":"power","name":"Lowndes Cowart","state":"GA","detail_file":"data/details/power-plants-36.json","plant_id":"67240","capacity_mw":3.0,"status_group":"Operating","energy_sources":"SUN","type":"Power plant","is_nuclear":false}},{"type":"Feature","geometry":{"type":"Point","coordinates":[-83.228,30.835]},"properties":{"key":"64278-e205e898","layer":"power","name":"Lowndes IDA","state":"GA","detail_file":"data/details/power-plants-48.json","plant_id":"64278","capacity_mw":1.5,"status_group":"Operating","energy_sources":"SUN","type":"Power plant","is_nuclear":false}},{"type":"Feature","geometry":{"type":"Point","coordinates":[-83.167,30.688]},"properties":{"key":"64279-2fd877c8","layer":"power","name":"Lowndes Tycor Farms","state":"GA","detail_file":"data/details/power-plants-52.json","plant_id":"64279","capacity_mw":2.3,"status_group":"Operating","energy_sources":"SUN","type":"Power plant","is_nuclear":false}},{"type":"Feature","geometry":{"type":"Point","coordinates":[-81.546,31.214]},"properties":{"key":"715-3271b133","layer":"power","name":"McManus","state":"GA","detail_file":"data/details/power-plants-23.json","plant_id":"715","capacity_mw":560.0,"status_group":"Operating","energy_sources":"DFO","type":"Power plant","is_nuclear":false}},{"type":"Feature","geometry":{"type":"Point","coordinates":[-83.223,30.957]},"properties":{"key":"62377-3f26a6f9","layer":"power","name":"Moody Air Force Base Solar","state":"GA","detail_file":"data/details/power-plants-10.json","plant_id":"62377","capacity_mw":99.0,"status_group":"Operating","energy_sources":"MWH; SUN","type":"Power plant","is_nuclear":false}},{"type":"Feature","geometry":{"type":"Point","coordinates":[-81.533,30.792]},"properties":{"key":"54239-d9387b12","layer":"power","name":"Naval Submarine Base Kings Bay","state":"GA","detail_file":"data/details/power-plants-43.json","plant_id":"54239","capacity_mw":30.0,"status_group":"Operating","energy_sources":"DFO","type":"Power plant","is_nuclear":false}},{"type":"Feature","geometry":{"type":"Point","coordinates":[-83.303,30.694]},"properties":{"key":"60084-0dcf11b3","layer":"power","name":"PCA-Valdosta Mill","state":"GA","detail_file":"data/details/power-plants-40.json","plant_id":"60084","capacity_mw":69.9,"status_group":"Operating","energy_sources":"BLQ; WDS","type":"Power plant","is_nuclear":false}},{"type":"Feature","geometry":{"type":"Point","coordinates":[-83.362,30.815]},"properties":{"key":"59221-e1db21bf","layer":"power","name":"Pecan Row Landfill To Electric Facility","state":"GA","detail_file":"data/details/power-plants-15.json","plant_id":"59221","capacity_mw":6.4,"status_group":"Operating","energy_sources":"LFG","type":"Power plant","is_nuclear":false}},{"type":"Feature","geometry":{"type":"Point","coordinates":[-81.759,31.331]},"properties":{"key":"68367-b0478188","layer":"power","name":"Pepper Hammock Solar and Storage","state":"GA","detail_file":"data/details/power-plants-50.json","plant_id":"68367","capacity_mw":2500.0,"status_group":"Under construction","energy_sources":"MWH; SUN","type":"Power plant","is_nuclear":false}},{"type":"Feature","geometry":{"type":"Point","coordinates":[-82.302,31.253]},"properties":{"key":"68621-2ccae773","layer":"power","name":"Pierce Eunice","state":"GA","detail_file":"data/details/power-plants-05.json","plant_id":"68621","capacity_mw":1.9,"status_group":"Operating","energy_sources":"SUN","type":"Power plant","is_nuclear":false}},{"type":"Feature","geometry":{"type":"Point","coordinates":[-83.544,31.995]},"properties":{"key":"68549-4c637609","layer":"power","name":"Pineview Solar, LLC","state":"GA","detail_file":"data/details/power-plants-03.json","plant_id":"68549","capacity_mw":80.0,"status_group":"Operating","energy_sources":"SUN","type":"Power plant","is_nuclear":false}},{"type":"Feature","geometry":{"type":"Point","coordinates":[-83.652,30.862]},"properties":{"key":"64335-5a2c1145","layer":"power","name":"Quitman II Solar","state":"GA","detail_file":"data/details/power-plants-43.json","plant_id":"64335","capacity_mw":150.0,"status_group":"Operating","energy_sources":"SUN","type":"Power plant","is_nuclear":false}},{"type":"Feature","geometry":{"type":"Point","coordinates":[-83.643,30.849]},"properties":{"key":"62584-a390b6b2","layer":"power","name":"Quitman Solar","state":"GA","detail_file":"data/details/power-plants-09.json","plant_id":"62584","capacity_mw":150.0,"status_group":"Operating","energy_sources":"SUN","type":"Power plant","is_nuclear":false}},{"type":"Feature","geometry":{"type":"Point","coordinates":[-82.337,31.511]},"properties":{"key":"68226-a0ec8171","layer":"power","name":"SR Bacon","state":"GA","detail_file":"data/details/power-plants-40.json","plant_id":"68226","capacity_mw":85.0,"status_group":"Under construction","energy_sources":"SUN","type":"Power plant","is_nuclear":false}},{"type":"Feature","geometry":{"type":"Point","coordinates":[-82.337,31.511]},"properties":{"key":"68553-2ed1423a","layer":"power","name":"SR Bacon II","state":"GA","detail_file":"data/details/power-plants-14.json","plant_id":"68553","capacity_mw":115.0,"status_group":"Under construction","energy_sources":"SUN","type":"Power plant","is_nuclear":false}},{"type":"Feature","geometry":{"type":"Point","coordinates":[-82.337,31.511]},"properties":{"key":"68554-37516a38","layer":"power","name":"SR Bacon III","state":"GA","detail_file":"data/details/power-plants-04.json","plant_id":"68554","capacity_mw":100.0,"status_group":"Under construction","energy_sources":"SUN","type":"Power plant","is_nuclear":false}},{"type":"Feature","geometry":{"type":"Point","coordinates":[-82.575,31.81]},"properties":{"key":"59535-d1a57379","layer":"power","name":"SR Hazlehurst","state":"GA","detail_file":"data/details/power-plants-01.json","plant_id":"59535","capacity_mw":20.0,"status_group":"Operating","energy_sources":"SUN","type":"Power plant","is_nuclear":false}},{"type":"Feature","geometry":{"type":"Point","coordinates":[-83.596,31.07]},"properties":{"key":"63814-b42f3318","layer":"power","name":"SR Odom","state":"GA","detail_file":"data/details/power-plants-43.json","plant_id":"63814","capacity_mw":20.0,"status_group":"Operating","energy_sources":"SUN","type":"Power plant","is_nuclear":false}},{"type":"Feature","geometry":{"type":"Point","coordinates":[-83.454,31.923]},"properties":{"key":"68253-8132e3d7","layer":"power","name":"SR Rochelle I","state":"GA","detail_file":"data/details/power-plants-62.json","plant_id":"68253","capacity_mw":90.0,"status_group":"Under construction","energy_sources":"SUN","type":"Power plant","is_nuclear":false}},{"type":"Feature","geometry":{"type":"Point","coordinates":[-82.716,31.709]},"properties":{"key":"65376-6182158f","layer":"power","name":"SR Snipesville II","state":"GA","detail_file":"data/details/power-plants-34.json","plant_id":"65376","capacity_mw":107.0,"status_group":"Operating","energy_sources":"SUN","type":"Power plant","is_nuclear":false}},{"type":"Feature","geometry":{"type":"Point","coordinates":[-82.765,31.697]},"properties":{"key":"66171-b0279d86","layer":"power","name":"SR Snipesville III","state":"GA","detail_file":"data/details/power-plants-12.json","plant_id":"66171","capacity_mw":107.0,"status_group":"Operating","energy_sources":"SUN","type":"Power plant","is_nuclear":false}},{"type":"Feature","geometry":{"type":"Point","coordinates":[-82.749,31.716]},"properties":{"key":"62165-13401864","layer":"power","name":"Snipesville","state":"GA","detail_file":"data/details/power-plants-10.json","plant_id":"62165","capacity_mw":86.0,"status_group":"Operating","energy_sources":"SUN","type":"Power plant","is_nuclear":false}},{"type":"Feature","geometry":{"type":"Point","coordinates":[-81.433,31.25]},"properties":{"key":"60469-a47780a7","layer":"power","name":"Solar Glynn","state":"GA","detail_file":"data/details/power-plants-10.json","plant_id":"60469","capacity_mw":18.0,"status_group":"Operating","energy_sources":"SUN","type":"Power plant","is_nuclear":false}},{"type":"Feature","geometry":{"type":"Point","coordinates":[-83.289,30.863]},"properties":{"key":"54848-c2c00065","layer":"power","name":"South Georgia Medical Center Inc","state":"GA","detail_file":"data/details/power-plants-49.json","plant_id":"54848","capacity_mw":5.5,"status_group":"Operating","energy_sources":"DFO","type":"Power plant","is_nuclear":false}},{"type":"Feature","geometry":{"type":"Point","coordinates":[-83.559,31.458]},"properties":{"key":"67246-27271fea","layer":"power","name":"Tift Bowen","state":"GA","detail_file":"data/details/power-plants-03.json","plant_id":"67246","capacity_mw":1.9,"status_group":"Operating","energy_sources":"SUN","type":"Power plant","is_nuclear":false}},{"type":"Feature","geometry":{"type":"Point","coordinates":[-83.511,31.506]},"properties":{"key":"68609-55e449b6","layer":"power","name":"Tift Boyd","state":"GA","detail_file":"data/details/power-plants-05.json","plant_id":"68609","capacity_mw":2.9,"status_group":"Operating","energy_sources":"SUN","type":"Power plant","is_nuclear":false}},{"type":"Feature","geometry":{"type":"Point","coordinates":[-83.497,31.494]},"properties":{"key":"67245-5f6cb3d7","layer":"power","name":"Tift Fletcher","state":"GA","detail_file":"data/details/power-plants-61.json","plant_id":"67245","capacity_mw":3.0,"status_group":"Operating","energy_sources":"SUN","type":"Power plant","is_nuclear":false}},{"type":"Feature","geometry":{"type":"Point","coordinates":[-83.226,30.81]},"properties":{"key":"60448-6627d3b0","layer":"power","name":"Valdosta (Terraform)","state":"GA","detail_file":"data/details/power-plants-41.json","plant_id":"60448","capacity_mw":1.0,"status_group":"Operating","energy_sources":"SUN","type":"Power plant","is_nuclear":false}},{"type":"Feature","geometry":{"type":"Point","coordinates":[-83.3,30.9]},"properties":{"key":"61468-7f83caea","layer":"power","name":"Valdosta Prison","state":"GA","detail_file":"data/details/power-plants-51.json","plant_id":"61468","capacity_mw":1.0,"status_group":"Operating","energy_sources":"SUN","type":"Power plant","is_nuclear":false}},{"type":"Feature","geometry":{"type":"Point","coordinates":[-83.253,30.914]},"properties":{"key":"54839-d5af6c4c","layer":"power","name":"Valdosta Water Treatment Plant","state":"GA","detail_file":"data/details/power-plants-59.json","plant_id":"54839","capacity_mw":3.4,"status_group":"Operating","energy_sources":"DFO","type":"Power plant","is_nuclear":false}},{"type":"Feature","geometry":{"type":"Point","coordinates":[-82.322,31.196]},"properties":{"key":"64285-bc5ae1e1","layer":"power","name":"Ware Avra I","state":"GA","detail_file":"data/details/power-plants-11.json","plant_id":"64285","capacity_mw":3.0,"status_group":"Operating","energy_sources":"SUN","type":"Power plant","is_nuclear":false}},{"type":"Feature","geometry":{"type":"Point","coordinates":[-82.322,31.196]},"properties":{"key":"64286-5d0fcfee","layer":"power","name":"Ware Avra II","state":"GA","detail_file":"data/details/power-plants-56.json","plant_id":"64286","capacity_mw":1.9,"status_group":"Operating","energy_sources":"SUN","type":"Power plant","is_nuclear":false}},{"type":"Feature","geometry":{"type":"Point","coordinates":[-81.933,31.603]},"properties":{"key":"64583-e5b97f99","layer":"power","name":"Westberry Jesup","state":"GA","detail_file":"data/details/power-plants-62.json","plant_id":"64583","capacity_mw":2.6,"status_group":"Operating","energy_sources":"SUN","type":"Power plant","is_nuclear":false}}]}