{"type":"FeatureCollection","features":[{"type":"Feature","geometry":{"type":"Point","coordinates":[-151.741,68.138]},"properties":{"key":"7487-12d4181c","layer":"power","name":"NSB Anaktuvuk Pass","state":"AK","detail_file":"data/details/power-plants-20.json","plant_id":"7487","capacity_mw":2.7,"status_group":"Operating","energy_sources":"DFO","type":"Power plant","is_nuclear":false}},{"type":"Feature","geometry":{"type":"Point","coordinates":[-150.994,70.221]},"properties":{"key":"7484-2f22a19c","layer":"power","name":"NSB Nuiqsut Utility","state":"AK","detail_file":"data/details/power-plants-05.json","plant_id":"7484","capacity_mw":4.4,"status_group":"Operating","energy_sources":"DFO; NG","type":"Power plant","is_nuclear":false}},{"type":"Feature","geometry":{"type":"Point","coordinates":[-148.384,70.235]},"properties":{"key":"58278-8236a622","layer":"power","name":"TNSG North Plant","state":"AK","detail_file":"data/details/power-plants-60.json","plant_id":"58278","capacity_mw":25.7,"status_group":"Operating","energy_sources":"DFO; NG","type":"Power plant","is_nuclear":false}},{"type":"Feature","geometry":{"type":"Point","coordinates":[-148.467,70.2]},"properties":{"key":"58117-9ce6852f","layer":"power","name":"TNSG South Plant","state":"AK","detail_file":"data/details/power-plants-50.json","plant_id":"58117","capacity_mw":7.8,"status_group":"Operating","energy_sources":"NG","type":"Power plant","is_nuclear":false}}]}