{"type":"FeatureCollection","features":[{"type":"Feature","geometry":{"type":"Point","coordinates":[-100.821,32.073]},"properties":{"key":"68937-493ae2dc","layer":"power","name":"Roadrunner Reserve Phase 2","state":"AZ","detail_file":"data/details/power-plants-29.json","plant_id":"68937","capacity_mw":200.0,"status_group":"Under construction","energy_sources":"MWH","type":"Power plant","is_nuclear":false}},{"type":"Feature","geometry":{"type":"Point","coordinates":[-103.275,32.732]},"properties":{"key":"68578-fd70beea","layer":"power","name":"AC Ranch I","state":"NM","detail_file":"data/details/power-plants-48.json","plant_id":"68578","capacity_mw":75.0,"status_group":"Under construction","energy_sources":"SUN","type":"Power plant","is_nuclear":false}},{"type":"Feature","geometry":{"type":"Point","coordinates":[-103.275,32.732]},"properties":{"key":"68579-5ae28063","layer":"power","name":"AC Ranch II","state":"NM","detail_file":"data/details/power-plants-29.json","plant_id":"68579","capacity_mw":230.0,"status_group":"Under construction","energy_sources":"SUN","type":"Power plant","is_nuclear":false}},{"type":"Feature","geometry":{"type":"Point","coordinates":[-103.856,33.029]},"properties":{"key":"58939-9a5620b9","layer":"power","name":"Anderson Wind I","state":"NM","detail_file":"data/details/power-plants-08.json","plant_id":"58939","capacity_mw":5.0,"status_group":"Operating","energy_sources":"WND","type":"Power plant","is_nuclear":false}},{"type":"Feature","geometry":{"type":"Point","coordinates":[-103.865,33.014]},"properties":{"key":"58940-dfb6c4da","layer":"power","name":"Anderson Wind II","state":"NM","detail_file":"data/details/power-plants-42.json","plant_id":"58940","capacity_mw":10.0,"status_group":"Operating","energy_sources":"WND","type":"Power plant","is_nuclear":false}},{"type":"Feature","geometry":{"type":"Point","coordinates":[-103.108,34.734]},"properties":{"key":"60145-fa28e4f6","layer":"power","name":"Broadview Energy JN, LLC","state":"NM","detail_file":"data/details/power-plants-38.json","plant_id":"60145","capacity_mw":181.7,"status_group":"Operating","energy_sources":"WND","type":"Power plant","is_nuclear":false}},{"type":"Feature","geometry":{"type":"Point","coordinates":[-103.167,34.727]},"properties":{"key":"60152-07159e3c","layer":"power","name":"Broadview Energy KW, LLC","state":"NM","detail_file":"data/details/power-plants-27.json","plant_id":"60152","capacity_mw":142.6,"status_group":"Operating","energy_sources":"WND","type":"Power plant","is_nuclear":false}},{"type":"Feature","geometry":{"type":"Point","coordinates":[-103.325,34.747]},"properties":{"key":"58464-f1cb160a","layer":"power","name":"Broadview Energy Prime","state":"NM","detail_file":"data/details/power-plants-24.json","plant_id":"58464","capacity_mw":9.9,"status_group":"Operating","energy_sources":"WND","type":"Power plant","is_nuclear":false}},{"type":"Feature","geometry":{"type":"Point","coordinates":[-103.305,34.728]},"properties":{"key":"58465-c975cd33","layer":"power","name":"Broadview Energy Prime 2","state":"NM","detail_file":"data/details/power-plants-01.json","plant_id":"58465","capacity_mw":9.9,"status_group":"Operating","energy_sources":"WND","type":"Power plant","is_nuclear":false}},{"type":"Feature","geometry":{"type":"Point","coordinates":[-103.378,34.983]},"properties":{"key":"59251-596c7bb6","layer":"power","name":"Caprock Solar 1 LLC","state":"NM","detail_file":"data/details/power-plants-31.json","plant_id":"59251","capacity_mw":25.0,"status_group":"Operating","energy_sources":"SUN","type":"Power plant","is_nuclear":false}},{"type":"Feature","geometry":{"type":"Point","coordinates":[-103.354,34.981]},"properties":{"key":"56293-1bbda2e2","layer":"power","name":"Caprock Wind Farm","state":"NM","detail_file":"data/details/power-plants-35.json","plant_id":"56293","capacity_mw":100.0,"status_group":"Operating","energy_sources":"WND","type":"Power plant","is_nuclear":false}},{"type":"Feature","geometry":{"type":"Point","coordinates":[-103.966,34.605]},"properties":{"key":"61925-c30334cf","layer":"power","name":"Casa Mesa Wind Energy Center Hybrid","state":"NM","detail_file":"data/details/power-plants-13.json","plant_id":"61925","capacity_mw":51.9,"status_group":"Operating","energy_sources":"MWH; WND","type":"Power plant","is_nuclear":false}},{"type":"Feature","geometry":{"type":"Point","coordinates":[-103.353,32.713]},"properties":{"key":"2454-93b99524","layer":"power","name":"Cunningham","state":"NM","detail_file":"data/details/power-plants-43.json","plant_id":"2454","capacity_mw":444.2,"status_group":"Operating","energy_sources":"NG","type":"Power plant","is_nuclear":false}},{"type":"Feature","geometry":{"type":"Point","coordinates":[-103.337,32.785]},"properties":{"key":"69258-d2a0f0bd","layer":"power","name":"Cunningham Solar I & BESS","state":"NM","detail_file":"data/details/power-plants-06.json","plant_id":"69258","capacity_mw":108.0,"status_group":"Operating","energy_sources":"MWH; SUN","type":"Power plant","is_nuclear":false}},{"type":"Feature","geometry":{"type":"Point","coordinates":[-103.092,34.734]},"properties":{"key":"60317-55972925","layer":"power","name":"Grady Wind Energy Center, LLC","state":"NM","detail_file":"data/details/power-plants-49.json","plant_id":"60317","capacity_mw":220.5,"status_group":"Operating","energy_sources":"WND","type":"Power plant","is_nuclear":false}},{"type":"Feature","geometry":{"type":"Point","coordinates":[-103.309,32.728]},"properties":{"key":"56458-263ff3d4","layer":"power","name":"Hobbs Generating Station","state":"NM","detail_file":"data/details/power-plants-09.json","plant_id":"56458","capacity_mw":681.5,"status_group":"Operating","energy_sources":"NG","type":"Power plant","is_nuclear":false}},{"type":"Feature","geometry":{"type":"Point","coordinates":[-103.324,32.978]},"properties":{"key":"57872-8131798a","layer":"power","name":"LCEC Generation LLVC","state":"NM","detail_file":"data/details/power-plants-07.json","plant_id":"57872","capacity_mw":46.5,"status_group":"Operating","energy_sources":"NG","type":"Power plant","is_nuclear":false}},{"type":"Feature","geometry":{"type":"Point","coordinates":[-103.302,32.714]},"properties":{"key":"2446-f3d2a159","layer":"power","name":"Maddox","state":"NM","detail_file":"data/details/power-plants-28.json","plant_id":"2446","capacity_mw":212.0,"status_group":"Operating","energy_sources":"NG","type":"Power plant","is_nuclear":false}},{"type":"Feature","geometry":{"type":"Point","coordinates":[-103.74,35.17]},"properties":{"key":"57106-fe07d1d2","layer":"power","name":"Mesalands Comm College Wind Turbine","state":"NM","detail_file":"data/details/power-plants-31.json","plant_id":"57106","capacity_mw":1.5,"status_group":"Operating","energy_sources":"WND","type":"Power plant","is_nuclear":false}},{"type":"Feature","geometry":{"type":"Point","coordinates":[-103.371,32.979]},"properties":{"key":"61681-a508379e","layer":"power","name":"Middle Daisy","state":"NM","detail_file":"data/details/power-plants-12.json","plant_id":"61681","capacity_mw":5.0,"status_group":"Operating","energy_sources":"SUN","type":"Power plant","is_nuclear":false}},{"type":"Feature","geometry":{"type":"Point","coordinates":[-103.347,33.902]},"properties":{"key":"59838-61822d9c","layer":"power","name":"Milo Wind Project LLC","state":"NM","detail_file":"data/details/power-plants-33.json","plant_id":"59838","capacity_mw":50.0,"status_group":"Operating","energy_sources":"WND","type":"Power plant","is_nuclear":false}},{"type":"Feature","geometry":{"type":"Point","coordinates":[-103.666,32.932]},"properties":{"key":"63502-aa4d89c0","layer":"power","name":"Oso Grande Wind Farm","state":"NM","detail_file":"data/details/power-plants-38.json","plant_id":"63502","capacity_mw":249.8,"status_group":"Operating","energy_sources":"WND","type":"Power plant","is_nuclear":false}},{"type":"Feature","geometry":{"type":"Point","coordinates":[-103.197,34.364]},"properties":{"key":"69556-f59c6cb0","layer":"power","name":"Pluma - Clovis Concrete North CSG","state":"NM","detail_file":"data/details/power-plants-11.json","plant_id":"69556","capacity_mw":3.4,"status_group":"Operating","energy_sources":"SUN","type":"Power plant","is_nuclear":false}},{"type":"Feature","geometry":{"type":"Point","coordinates":[-103.232,34.38]},"properties":{"key":"69528-4f0d0c50","layer":"power","name":"Pluma - Curry Road North","state":"NM","detail_file":"data/details/power-plants-10.json","plant_id":"69528","capacity_mw":3.0,"status_group":"Operating","energy_sources":"SUN","type":"Power plant","is_nuclear":false}},{"type":"Feature","geometry":{"type":"Point","coordinates":[-103.731,35.183]},"properties":{"key":"58125-6025a9d7","layer":"power","name":"Quay County","state":"NM","detail_file":"data/details/power-plants-34.json","plant_id":"58125","capacity_mw":27.0,"status_group":"Operating","energy_sources":"DFO","type":"Power plant","is_nuclear":false}},{"type":"Feature","geometry":{"type":"Point","coordinates":[-103.511,33.926]},"properties":{"key":"58771-8ea44f3d","layer":"power","name":"Roosevelt County","state":"NM","detail_file":"data/details/power-plants-31.json","plant_id":"58771","capacity_mw":250.0,"status_group":"Operating","energy_sources":"WND","type":"Power plant","is_nuclear":false}},{"type":"Feature","geometry":{"type":"Point","coordinates":[-103.138,32.127]},"properties":{"key":"57736-4191ec27","layer":"power","name":"SPS1 Dollarhide","state":"NM","detail_file":"data/details/power-plants-07.json","plant_id":"57736","capacity_mw":10.0,"status_group":"Operating","energy_sources":"SUN","type":"Power plant","is_nuclear":false}},{"type":"Feature","geometry":{"type":"Point","coordinates":[-103.183,32.184]},"properties":{"key":"57737-2200292c","layer":"power","name":"SPS2 Jal","state":"NM","detail_file":"data/details/power-plants-09.json","plant_id":"57737","capacity_mw":10.0,"status_group":"Operating","energy_sources":"SUN","type":"Power plant","is_nuclear":false}},{"type":"Feature","geometry":{"type":"Point","coordinates":[-103.323,32.47]},"properties":{"key":"57738-582c462f","layer":"power","name":"SPS3 Lea","state":"NM","detail_file":"data/details/power-plants-63.json","plant_id":"57738","capacity_mw":10.0,"status_group":"Operating","energy_sources":"SUN","type":"Power plant","is_nuclear":false}},{"type":"Feature","geometry":{"type":"Point","coordinates":[-103.304,32.682]},"properties":{"key":"57739-698ccc8d","layer":"power","name":"SPS4 Monument","state":"NM","detail_file":"data/details/power-plants-00.json","plant_id":"57739","capacity_mw":10.1,"status_group":"Operating","energy_sources":"SUN","type":"Power plant","is_nuclear":false}},{"type":"Feature","geometry":{"type":"Point","coordinates":[-103.185,33.938]},"properties":{"key":"63578-f51c539a","layer":"power","name":"Sagamore Wind","state":"NM","detail_file":"data/details/power-plants-39.json","plant_id":"63578","capacity_mw":522.0,"status_group":"Operating","energy_sources":"WND","type":"Power plant","is_nuclear":false}},{"type":"Feature","geometry":{"type":"Point","coordinates":[-103.86,33.972]},"properties":{"key":"56304-0a21ab7f","layer":"power","name":"San Juan Mesa Wind Project LLC","state":"NM","detail_file":"data/details/power-plants-42.json","plant_id":"56304","capacity_mw":120.0,"status_group":"Operating","energy_sources":"WND","type":"Power plant","is_nuclear":false}},{"type":"Feature","geometry":{"type":"Point","coordinates":[-103.254,34.423]},"properties":{"key":"64524-ad502592","layer":"power","name":"SoCore Clovis 1","state":"NM","detail_file":"data/details/power-plants-31.json","plant_id":"64524","capacity_mw":2.0,"status_group":"Operating","energy_sources":"SUN","type":"Power plant","is_nuclear":false}},{"type":"Feature","geometry":{"type":"Point","coordinates":[-103.251,33.36]},"properties":{"key":"60991-41b4be8c","layer":"power","name":"Sterling I Wind Farm","state":"NM","detail_file":"data/details/power-plants-46.json","plant_id":"60991","capacity_mw":29.9,"status_group":"Operating","energy_sources":"WND","type":"Power plant","is_nuclear":false}},{"type":"Feature","geometry":{"type":"Point","coordinates":[-103.323,32.133]},"properties":{"key":"63028-adad3b7a","layer":"power","name":"Tip Top Solar Energy Center LLC","state":"NM","detail_file":"data/details/power-plants-15.json","plant_id":"63028","capacity_mw":220.0,"status_group":"Under construction","energy_sources":"SUN","type":"Power plant","is_nuclear":false}},{"type":"Feature","geometry":{"type":"Point","coordinates":[-103.285,32.953]},"properties":{"key":"57887-94957f38","layer":"power","name":"Wildcat Wind","state":"NM","detail_file":"data/details/power-plants-45.json","plant_id":"57887","capacity_mw":27.3,"status_group":"Operating","energy_sources":"WND","type":"Power plant","is_nuclear":false}},{"type":"Feature","geometry":{"type":"Point","coordinates":[-102.709,33.022]},"properties":{"key":"68847-fa383289","layer":"power","name":"1000 Mile Solar","state":"TX","detail_file":"data/details/power-plants-34.json","plant_id":"68847","capacity_mw":300.0,"status_group":"Under construction","energy_sources":"SUN","type":"Power plant","is_nuclear":false}},{"type":"Feature","geometry":{"type":"Point","coordinates":[-102.528,32.116]},"properties":{"key":"63255-7e4d10b1","layer":"power","name":"2W Permian Solar Project Hybrid","state":"TX","detail_file":"data/details/power-plants-16.json","plant_id":"63255","capacity_mw":460.0,"status_group":"Operating","energy_sources":"MWH; SUN","type":"Power plant","is_nuclear":false}},{"type":"Feature","geometry":{"type":"Point","coordinates":[-101.938,32.717]},"properties":{"key":"67721-22ca6bb1","layer":"power","name":"Al Pastor Battery Storage Plant","state":"TX","detail_file":"data/details/power-plants-42.json","plant_id":"67721","capacity_mw":100.3,"status_group":"Operating","energy_sources":"MWH","type":"Power plant","is_nuclear":false}},{"type":"Feature","geometry":{"type":"Point","coordinates":[-102.968,32.347]},"properties":{"key":"63193-69e27cae","layer":"power","name":"Alira","state":"TX","detail_file":"data/details/power-plants-04.json","plant_id":"63193","capacity_mw":222.8,"status_group":"Under construction","energy_sources":"SUN","type":"Power plant","is_nuclear":false}},{"type":"Feature","geometry":{"type":"Point","coordinates":[-100.564,32.967]},"properties":{"key":"62142-0691d66b","layer":"power","name":"Amadeus Wind Farm","state":"TX","detail_file":"data/details/power-plants-01.json","plant_id":"62142","capacity_mw":250.0,"status_group":"Operating","energy_sources":"WND","type":"Power plant","is_nuclear":false}},{"type":"Feature","geometry":{"type":"Point","coordinates":[-101.843,33.865]},"properties":{"key":"57865-bf83bf56","layer":"power","name":"Antelope Station","state":"TX","detail_file":"data/details/power-plants-22.json","plant_id":"57865","capacity_mw":167.4,"status_group":"Operating","energy_sources":"NG","type":"Power plant","is_nuclear":false}},{"type":"Feature","geometry":{"type":"Point","coordinates":[-102.052,34.77]},"properties":{"key":"60856-c33d99a6","layer":"power","name":"Astra Wind Farm","state":"TX","detail_file":"data/details/power-plants-19.json","plant_id":"60856","capacity_mw":163.0,"status_group":"Operating","energy_sources":"WND","type":"Power plant","is_nuclear":false}},{"type":"Feature","geometry":{"type":"Point","coordinates":[-101.971,33.696]},"properties":{"key":"67077-1511676a","layer":"power","name":"BESSP1, LLC.","state":"TX","detail_file":"data/details/power-plants-05.json","plant_id":"67077","capacity_mw":4.4,"status_group":"Operating","energy_sources":"SUN","type":"Power plant","is_nuclear":false}},{"type":"Feature","geometry":{"type":"Point","coordinates":[-102.54,32.296]},"properties":{"key":"65535-79168c40","layer":"power","name":"Bakke","state":"TX","detail_file":"data/details/power-plants-21.json","plant_id":"65535","capacity_mw":9.0,"status_group":"Operating","energy_sources":"DFO","type":"Power plant","is_nuclear":false}},{"type":"Feature","geometry":{"type":"Point","coordinates":[-102.475,34.575]},"properties":{"key":"60414-18e9d08a","layer":"power","name":"Bethel Wind Farm LLC","state":"TX","detail_file":"data/details/power-plants-04.json","plant_id":"60414","capacity_mw":276.0,"status_group":"Operating","energy_sources":"WND","type":"Power plant","is_nuclear":false}},{"type":"Feature","geometry":{"type":"Point","coordinates":[-101.338,32.312]},"properties":{"key":"67652-aeb9a4da","layer":"power","name":"Bhalu","state":"TX","detail_file":"data/details/power-plants-10.json","plant_id":"67652","capacity_mw":200.0,"status_group":"Under construction","energy_sources":"MWH","type":"Power plant","is_nuclear":false}},{"type":"Feature","geometry":{"type":"Point","coordinates":[-101.388,32.208]},"properties":{"key":"54979-53600bec","layer":"power","name":"Big Spring Wind Power Facility","state":"TX","detail_file":"data/details/power-plants-45.json","plant_id":"54979","capacity_mw":34.3,"status_group":"Operating","energy_sources":"WND","type":"Power plant","is_nuclear":false}},{"type":"Feature","geometry":{"type":"Point","coordinates":[-101.36,35.696]},"properties":{"key":"55064-4c03d183","layer":"power","name":"Black Hawk Station","state":"TX","detail_file":"data/details/power-plants-12.json","plant_id":"55064","capacity_mw":243.9,"status_group":"Operating","energy_sources":"NG","type":"Power plant","is_nuclear":false}},{"type":"Feature","geometry":{"type":"Point","coordinates":[-102.665,34.038]},"properties":{"key":"60270-2997fa96","layer":"power","name":"Blue Cloud Wind Energy LLC","state":"TX","detail_file":"data/details/power-plants-07.json","plant_id":"60270","capacity_mw":148.4,"status_group":"Operating","energy_sources":"WND","type":"Power plant","is_nuclear":false}},{"type":"Feature","geometry":{"type":"Point","coordinates":[-101.638,32.722]},"properties":{"key":"66804-97091928","layer":"power","name":"Borden County BESS","state":"TX","detail_file":"data/details/power-plants-52.json","plant_id":"66804","capacity_mw":150.0,"status_group":"Operating","energy_sources":"MWH","type":"Power plant","is_nuclear":false}},{"type":"Feature","geometry":{"type":"Point","coordinates":[-101.435,35.665]},"properties":{"key":"50067-0ee2124c","layer":"power","name":"Borger Plant","state":"TX","detail_file":"data/details/power-plants-40.json","plant_id":"50067","capacity_mw":30.0,"status_group":"Operating","energy_sources":"BFG","type":"Power plant","is_nuclear":false}},{"type":"Feature","geometry":{"type":"Point","coordinates":[-101.148,32.948]},"properties":{"key":"56111-8462889e","layer":"power","name":"Brazos Wind Farm","state":"TX","detail_file":"data/details/power-plants-23.json","plant_id":"56111","capacity_mw":182.4,"status_group":"Operating","energy_sources":"WND","type":"Power plant","is_nuclear":false}},{"type":"Feature","geometry":{"type":"Point","coordinates":[-101.237,34.432]},"properties":{"key":"59734-e221e5a0","layer":"power","name":"Briscoe Wind Farm","state":"TX","detail_file":"data/details/power-plants-34.json","plant_id":"59734","capacity_mw":150.0,"status_group":"Operating","energy_sources":"WND","type":"Power plant","is_nuclear":false}},{"type":"Feature","geometry":{"type":"Point","coordinates":[-100.177,32.318]},"properties":{"key":"56484-48f06a25","layer":"power","name":"Buffalo Gap 2 Wind Farm","state":"TX","detail_file":"data/details/power-plants-16.json","plant_id":"56484","capacity_mw":232.5,"status_group":"Operating","energy_sources":"WND","type":"Power plant","is_nuclear":false}},{"type":"Feature","geometry":{"type":"Point","coordinates":[-100.1,32.288]},"properties":{"key":"56638-ff0e9e06","layer":"power","name":"Buffalo Gap 3 Wind Farm","state":"TX","detail_file":"data/details/power-plants-13.json","plant_id":"56638","capacity_mw":170.2,"status_group":"Operating","energy_sources":"WND","type":"Power plant","is_nuclear":false}},{"type":"Feature","geometry":{"type":"Point","coordinates":[-100.062,32.312]},"properties":{"key":"56240-4815bde2","layer":"power","name":"Buffalo Gap Wind Farm","state":"TX","detail_file":"data/details/power-plants-60.json","plant_id":"56240","capacity_mw":120.6,"status_group":"Operating","energy_sources":"WND","type":"Power plant","is_nuclear":false}},{"type":"Feature","geometry":{"type":"Point","coordinates":[-101.579,32.929]},"properties":{"key":"56956-213f001f","layer":"power","name":"Bull Creek Wind","state":"TX","detail_file":"data/details/power-plants-12.json","plant_id":"56956","capacity_mw":180.0,"status_group":"Operating","energy_sources":"WND","type":"Power plant","is_nuclear":false}},{"type":"Feature","geometry":{"type":"Point","coordinates":[-100.877,33.782]},"properties":{"key":"67968-c55d0837","layer":"power","name":"Burksol Energy Storage","state":"TX","detail_file":"data/details/power-plants-63.json","plant_id":"67968","capacity_mw":100.0,"status_group":"Operating","energy_sources":"MWH","type":"Power plant","is_nuclear":false}},{"type":"Feature","geometry":{"type":"Point","coordinates":[-101.422,32.273]},"properties":{"key":"52176-7ad41bde","layer":"power","name":"C R Wing Cogen Plant","state":"TX","detail_file":"data/details/power-plants-48.json","plant_id":"52176","capacity_mw":230.0,"status_group":"Operating","energy_sources":"NG","type":"Power plant","is_nuclear":false}},{"type":"Feature","geometry":{"type":"Point","coordinates":[-100.022,32.304]},"properties":{"key":"56270-e3c65478","layer":"power","name":"Callahan Divide Wind Energy Center","state":"TX","detail_file":"data/details/power-plants-37.json","plant_id":"56270","capacity_mw":114.0,"status_group":"Operating","energy_sources":"WND","type":"Power plant","is_nuclear":false}},{"type":"Feature","geometry":{"type":"Point","coordinates":[-102.316,35.2]},"properties":{"key":"63030-5fd0512f","layer":"power","name":"Canadian Breaks, LLC","state":"TX","detail_file":"data/details/power-plants-33.json","plant_id":"63030","capacity_mw":210.1,"status_group":"Operating","energy_sources":"WND","type":"Power plant","is_nuclear":false}},{"type":"Feature","geometry":{"type":"Point","coordinates":[-101.284,32.024]},"properties":{"key":"68738-021a6b41","layer":"power","name":"Cannibal Draw Solar and Storage","state":"TX","detail_file":"data/details/power-plants-60.json","plant_id":"68738","capacity_mw":248.1,"status_group":"Under construction","energy_sources":"MWH; SUN","type":"Power plant","is_nuclear":false}},{"type":"Feature","geometry":{"type":"Point","coordinates":[-101.008,32.631]},"properties":{"key":"60271-db2aad10","layer":"power","name":"Canyon Wind Project, LLC","state":"TX","detail_file":"data/details/power-plants-52.json","plant_id":"60271","capacity_mw":308.8,"status_group":"Operating","energy_sources":"WND","type":"Power plant","is_nuclear":false}},{"type":"Feature","geometry":{"type":"Point","coordinates":[-102.064,35.26]},"properties":{"key":"66976-1de2711f","layer":"power","name":"Carol Wind, LLC","state":"TX","detail_file":"data/details/power-plants-59.json","plant_id":"66976","capacity_mw":167.8,"status_group":"Under construction","energy_sources":"WND","type":"Power plant","is_nuclear":false}},{"type":"Feature","geometry":{"type":"Point","coordinates":[-100.648,32.398]},"properties":{"key":"56592-89a15386","layer":"power","name":"Champion Wind Farm LLC","state":"TX","detail_file":"data/details/power-plants-23.json","plant_id":"56592","capacity_mw":126.5,"status_group":"Operating","energy_sources":"WND","type":"Power plant","is_nuclear":false}},{"type":"Feature","geometry":{"type":"Point","coordinates":[-102.052,34.512]},"properties":{"key":"59243-d7724dc5","layer":"power","name":"Changing Winds","state":"TX","detail_file":"data/details/power-plants-06.json","plant_id":"59243","capacity_mw":288.0,"status_group":"Under construction","energy_sources":"WND","type":"Power plant","is_nuclear":false}},{"type":"Feature","geometry":{"type":"Point","coordinates":[-101.688,33.033]},"properties":{"key":"58162-9c2d2445","layer":"power","name":"Cirrus Wind 1 LLC","state":"TX","detail_file":"data/details/power-plants-57.json","plant_id":"58162","capacity_mw":61.2,"status_group":"Operating","energy_sources":"WND","type":"Power plant","is_nuclear":false}},{"type":"Feature","geometry":{"type":"Point","coordinates":[-100.976,33.372]},"properties":{"key":"68351-302c3904","layer":"power","name":"Clairemont Solar","state":"TX","detail_file":"data/details/power-plants-58.json","plant_id":"68351","capacity_mw":500.0,"status_group":"Planned","energy_sources":"SUN","type":"Power plant","is_nuclear":false}},{"type":"Feature","geometry":{"type":"Point","coordinates":[-101.187,35.254]},"properties":{"key":"59068-4fc82c9a","layer":"power","name":"Colbeck's Corner, LLC","state":"TX","detail_file":"data/details/power-plants-06.json","plant_id":"59068","capacity_mw":200.0,"status_group":"Operating","energy_sources":"WND","type":"Power plant","is_nuclear":false}},{"type":"Feature","geometry":{"type":"Point","coordinates":[-101.342,33.809]},"properties":{"key":"60272-ec8e50b0","layer":"power","name":"Cone Renewable Energy Project, LLC","state":"TX","detail_file":"data/details/power-plants-09.json","plant_id":"60272","capacity_mw":150.0,"status_group":"Under construction","energy_sources":"WND","type":"Power plant","is_nuclear":false}},{"type":"Feature","geometry":{"type":"Point","coordinates":[-101.188,34.06]},"properties":{"key":"60210-afb1be51","layer":"power","name":"Cotton Plains Wind Farm","state":"TX","detail_file":"data/details/power-plants-39.json","plant_id":"60210","capacity_mw":50.4,"status_group":"Operating","energy_sources":"WND","type":"Power plant","is_nuclear":false}},{"type":"Feature","geometry":{"type":"Point","coordinates":[-100.867,32.849]},"properties":{"key":"63655-a6f728fa","layer":"power","name":"Coyote Wind LLC","state":"TX","detail_file":"data/details/power-plants-23.json","plant_id":"63655","capacity_mw":242.5,"status_group":"Operating","energy_sources":"WND","type":"Power plant","is_nuclear":false}},{"type":"Feature","geometry":{"type":"Point","coordinates":[-100.757,32.745]},"properties":{"key":"69244-e36cb5d3","layer":"power","name":"Cross Trails Energy Storage Project","state":"TX","detail_file":"data/details/power-plants-35.json","plant_id":"69244","capacity_mw":58.3,"status_group":"Operating","energy_sources":"MWH","type":"Power plant","is_nuclear":false}},{"type":"Feature","geometry":{"type":"Point","coordinates":[-100.975,32.864]},"properties":{"key":"60902-18e95c88","layer":"power","name":"Dermott Wind","state":"TX","detail_file":"data/details/power-plants-13.json","plant_id":"60902","capacity_mw":253.0,"status_group":"Operating","energy_sources":"WND","type":"Power plant","is_nuclear":false}},{"type":"Feature","geometry":{"type":"Point","coordinates":[-100.883,33.781]},"properties":{"key":"65489-c0c773f2","layer":"power","name":"Dickens","state":"TX","detail_file":"data/details/power-plants-50.json","plant_id":"65489","capacity_mw":200.0,"status_group":"Operating","energy_sources":"MWH","type":"Power plant","is_nuclear":false}},{"type":"Feature","geometry":{"type":"Point","coordinates":[-100.902,32.484]},"properties":{"key":"67919-e8dcc5f6","layer":"power","name":"Dolce BESS, LLC","state":"TX","detail_file":"data/details/power-plants-33.json","plant_id":"67919","capacity_mw":101.4,"status_group":"Planned","energy_sources":"MWH","type":"Power plant","is_nuclear":false}},{"type":"Feature","geometry":{"type":"Point","coordinates":[-100.873,33.796]},"properties":{"key":"67543-5e123f26","layer":"power","name":"Donegal Solar Project","state":"TX","detail_file":"data/details/power-plants-03.json","plant_id":"67543","capacity_mw":204.2,"status_group":"Under construction","energy_sources":"SUN","type":"Power plant","is_nuclear":false}},{"type":"Feature","geometry":{"type":"Point","coordinates":[-100.955,32.747]},"properties":{"key":"56233-acfd2000","layer":"power","name":"EG178 Facility","state":"TX","detail_file":"data/details/power-plants-30.json","plant_id":"56233","capacity_mw":153.9,"status_group":"Operating","energy_sources":"NG","type":"Power plant","is_nuclear":false}},{"type":"Feature","geometry":{"type":"Point","coordinates":[-101.622,32.741]},"properties":{"key":"62845-2b133fbf","layer":"power","name":"ENGIE Long Draw Solar LLC","state":"TX","detail_file":"data/details/power-plants-18.json","plant_id":"62845","capacity_mw":225.0,"status_group":"Operating","energy_sources":"SUN","type":"Power plant","is_nuclear":false}},{"type":"Feature","geometry":{"type":"Point","coordinates":[-102.352,34.669]},"properties":{"key":"59971-3a2c4868","layer":"power","name":"Easter","state":"TX","detail_file":"data/details/power-plants-63.json","plant_id":"59971","capacity_mw":152.0,"status_group":"Under construction","energy_sources":"WND","type":"Power plant","is_nuclear":false}},{"type":"Feature","geometry":{"type":"Point","coordinates":[-102.586,32.069]},"properties":{"key":"58471-4060475c","layer":"power","name":"Ector County Energy Center","state":"TX","detail_file":"data/details/power-plants-55.json","plant_id":"58471","capacity_mw":358.8,"status_group":"Operating","energy_sources":"NG","type":"Power plant","is_nuclear":false}},{"type":"Feature","geometry":{"type":"Point","coordinates":[-101.399,32.141]},"properties":{"key":"56783-14e2985e","layer":"power","name":"Elbow Creek Wind Project LLC","state":"TX","detail_file":"data/details/power-plants-52.json","plant_id":"56783","capacity_mw":121.9,"status_group":"Operating","energy_sources":"WND","type":"Power plant","is_nuclear":false}},{"type":"Feature","geometry":{"type":"Point","coordinates":[-101.843,33.865]},"properties":{"key":"58835-2600c560","layer":"power","name":"Elk Station","state":"TX","detail_file":"data/details/power-plants-11.json","plant_id":"58835","capacity_mw":599.4,"status_group":"Operating","energy_sources":"NG","type":"Power plant","is_nuclear":false}},{"type":"Feature","geometry":{"type":"Point","coordinates":[-101.843,33.865]},"properties":{"key":"58835-1a7337e3","layer":"power","name":"Elk Station","state":"TX","detail_file":"data/details/power-plants-19.json","plant_id":"58835","capacity_mw":199.8,"status_group":"Under construction","energy_sources":"NG","type":"Power plant","is_nuclear":false}},{"type":"Feature","geometry":{"type":"Point","coordinates":[-101.432,35.667]},"properties":{"key":"10072-a7a28c57","layer":"power","name":"Engineered Carbons Borger Cogen","state":"TX","detail_file":"data/details/power-plants-01.json","plant_id":"10072","capacity_mw":20.0,"status_group":"Operating","energy_sources":"OG","type":"Power plant","is_nuclear":false}},{"type":"Feature","geometry":{"type":"Point","coordinates":[-100.049,34.351]},"properties":{"key":"67123-f112247c","layer":"power","name":"Fagus Solar Park","state":"TX","detail_file":"data/details/power-plants-07.json","plant_id":"67123","capacity_mw":331.6,"status_group":"Operating","energy_sources":"SUN","type":"Power plant","is_nuclear":false}},{"type":"Feature","geometry":{"type":"Point","coordinates":[-101.144,32.932]},"properties":{"key":"59245-b8c1fae9","layer":"power","name":"Fluvanna","state":"TX","detail_file":"data/details/power-plants-35.json","plant_id":"59245","capacity_mw":155.4,"status_group":"Operating","energy_sources":"WND","type":"Power plant","is_nuclear":false}},{"type":"Feature","geometry":{"type":"Point","coordinates":[-101.22,32.039]},"properties":{"key":"56394-49b25082","layer":"power","name":"Forest Creek Wind Farm LLC","state":"TX","detail_file":"data/details/power-plants-14.json","plant_id":"56394","capacity_mw":124.2,"status_group":"Operating","energy_sources":"WND","type":"Power plant","is_nuclear":false}},{"type":"Feature","geometry":{"type":"Point","coordinates":[-102.783,32.381]},"properties":{"key":"65540-5aea753d","layer":"power","name":"Frankel","state":"TX","detail_file":"data/details/power-plants-24.json","plant_id":"65540","capacity_mw":9.0,"status_group":"Operating","energy_sources":"DFO","type":"Power plant","is_nuclear":false}},{"type":"Feature","geometry":{"type":"Point","coordinates":[-102.057,33.591]},"properties":{"key":"62642-495b497f","layer":"power","name":"GE-Lubbock","state":"TX","detail_file":"data/details/power-plants-55.json","plant_id":"62642","capacity_mw":8.7,"status_group":"Operating","energy_sources":"WND","type":"Power plant","is_nuclear":false}},{"type":"Feature","geometry":{"type":"Point","coordinates":[-101.527,32.715]},"properties":{"key":"69506-7b03614e","layer":"power","name":"Gail Mountain Solar","state":"TX","detail_file":"data/details/power-plants-10.json","plant_id":"69506","capacity_mw":244.4,"status_group":"Under construction","energy_sources":"SUN","type":"Power plant","is_nuclear":false}},{"type":"Feature","geometry":{"type":"Point","coordinates":[-102.21,35.244]},"properties":{"key":"57866-e0f04eb3","layer":"power","name":"Golden Spread Panhandle Wnd Rch","state":"TX","detail_file":"data/details/power-plants-53.json","plant_id":"57866","capacity_mw":78.2,"status_group":"Operating","energy_sources":"WND","type":"Power plant","is_nuclear":false}},{"type":"Feature","geometry":{"type":"Point","coordinates":[-101.326,35.094]},"properties":{"key":"59246-8d05a806","layer":"power","name":"Goodnight","state":"TX","detail_file":"data/details/power-plants-35.json","plant_id":"59246","capacity_mw":265.5,"status_group":"Operating","energy_sources":"WND","type":"Power plant","is_nuclear":false}},{"type":"Feature","geometry":{"type":"Point","coordinates":[-101.434,34.937]},"properties":{"key":"69403-563c3efd","layer":"power","name":"Goodnight Wind II","state":"TX","detail_file":"data/details/power-plants-53.json","plant_id":"69403","capacity_mw":265.5,"status_group":"Under construction","energy_sources":"WND","type":"Power plant","is_nuclear":false}},{"type":"Feature","geometry":{"type":"Point","coordinates":[-101.209,32.875]},"properties":{"key":"61417-daa9c274","layer":"power","name":"Gopher Creek Wind Farm","state":"TX","detail_file":"data/details/power-plants-26.json","plant_id":"61417","capacity_mw":158.0,"status_group":"Operating","energy_sources":"WND","type":"Power plant","is_nuclear":false}},{"type":"Feature","geometry":{"type":"Point","coordinates":[-101.311,35.238]},"properties":{"key":"58596-8e33cec3","layer":"power","name":"Grandview Wind Farm, LLC","state":"TX","detail_file":"data/details/power-plants-20.json","plant_id":"58596","capacity_mw":211.2,"status_group":"Operating","energy_sources":"WND","type":"Power plant","is_nuclear":false}},{"type":"Feature","geometry":{"type":"Point","coordinates":[-100.04,34.203]},"properties":{"key":"68769-ba5c52fd","layer":"power","name":"Greenalia Solar Power Misae III","state":"TX","detail_file":"data/details/power-plants-30.json","plant_id":"68769","capacity_mw":169.6,"status_group":"Under construction","energy_sources":"SUN","type":"Power plant","is_nuclear":false}},{"type":"Feature","geometry":{"type":"Point","coordinates":[-101.474,32.24]},"properties":{"key":"56776-3ddd6464","layer":"power","name":"Gunsight Mountain Wind Energy LLC","state":"TX","detail_file":"data/details/power-plants-28.json","plant_id":"56776","capacity_mw":120.0,"status_group":"Operating","energy_sources":"WND","type":"Power plant","is_nuclear":false}},{"type":"Feature","geometry":{"type":"Point","coordinates":[-100.87,32.393]},"properties":{"key":"69984-8da23fde","layer":"power","name":"Hackberry Creek Solar","state":"TX","detail_file":"data/details/power-plants-45.json","plant_id":"69984","capacity_mw":175.0,"status_group":"Under construction","energy_sources":"SUN","type":"Power plant","is_nuclear":false}},{"type":"Feature","geometry":{"type":"Point","coordinates":[-101.742,33.928]},"properties":{"key":"59247-c9962b59","layer":"power","name":"Hale Community Wind Farm","state":"TX","detail_file":"data/details/power-plants-54.json","plant_id":"59247","capacity_mw":478.0,"status_group":"Operating","energy_sources":"WND","type":"Power plant","is_nuclear":false}},{"type":"Feature","geometry":{"type":"Point","coordinates":[-101.747,35.298]},"properties":{"key":"6193-fabea76b","layer":"power","name":"Harrington","state":"TX","detail_file":"data/details/power-plants-03.json","plant_id":"6193","capacity_mw":1080.0,"status_group":"Operating","energy_sources":"NG","type":"Power plant","is_nuclear":false}},{"type":"Feature","geometry":{"type":"Point","coordinates":[-102.054,34.379]},"properties":{"key":"67763-631a6862","layer":"power","name":"Hart Wind","state":"TX","detail_file":"data/details/power-plants-61.json","plant_id":"67763","capacity_mw":166.4,"status_group":"Operating","energy_sources":"WND","type":"Power plant","is_nuclear":false}},{"type":"Feature","geometry":{"type":"Point","coordinates":[-100.293,32.023]},"properties":{"key":"67779-1a70cc7c","layer":"power","name":"Hayrick BESS","state":"TX","detail_file":"data/details/power-plants-53.json","plant_id":"67779","capacity_mw":113.9,"status_group":"Under construction","energy_sources":"MWH","type":"Power plant","is_nuclear":false}},{"type":"Feature","geometry":{"type":"Point","coordinates":[-101.597,34.407]},"properties":{"key":"64233-86d67d6a","layer":"power","name":"Hecate Energy Frye Solar LLC","state":"TX","detail_file":"data/details/power-plants-04.json","plant_id":"64233","capacity_mw":500.0,"status_group":"Operating","energy_sources":"SUN","type":"Power plant","is_nuclear":false}},{"type":"Feature","geometry":{"type":"Point","coordinates":[-100.216,32.469]},"properties":{"key":"64234-ba4ed7a7","layer":"power","name":"Hecate Energy Harley Hand Solar LLC","state":"TX","detail_file":"data/details/power-plants-07.json","plant_id":"64234","capacity_mw":514.0,"status_group":"Planned","energy_sources":"SUN","type":"Power plant","is_nuclear":false}},{"type":"Feature","geometry":{"type":"Point","coordinates":[-101.277,32.494]},"properties":{"key":"66572-89075217","layer":"power","name":"Highpeak Solar 1","state":"TX","detail_file":"data/details/power-plants-11.json","plant_id":"66572","capacity_mw":10.0,"status_group":"Operating","energy_sources":"SUN","type":"Power plant","is_nuclear":false}},{"type":"Feature","geometry":{"type":"Point","coordinates":[-100.162,32.104]},"properties":{"key":"61962-551dd1d9","layer":"power","name":"Holstein 1 Solar Farm","state":"TX","detail_file":"data/details/power-plants-51.json","plant_id":"61962","capacity_mw":200.0,"status_group":"Operating","energy_sources":"SUN","type":"Power plant","is_nuclear":false}},{"type":"Feature","geometry":{"type":"Point","coordinates":[-100.159,32.082]},"properties":{"key":"67896-455d8ba1","layer":"power","name":"Holstein 2 Battery Storage","state":"TX","detail_file":"data/details/power-plants-63.json","plant_id":"67896","capacity_mw":100.0,"status_group":"Planned","energy_sources":"MWH","type":"Power plant","is_nuclear":false}},{"type":"Feature","geometry":{"type":"Point","coordinates":[-101.167,32.03]},"properties":{"key":"69579-2ce9c190","layer":"power","name":"Honey Mesquite Wind, LLC","state":"TX","detail_file":"data/details/power-plants-33.json","plant_id":"69579","capacity_mw":180.5,"status_group":"Under construction","energy_sources":"WND","type":"Power plant","is_nuclear":false}},{"type":"Feature","geometry":{"type":"Point","coordinates":[-101.971,34.485]},"properties":{"key":"65463-d53387ed","layer":"power","name":"Hornet Solar (TX)","state":"TX","detail_file":"data/details/power-plants-45.json","plant_id":"65463","capacity_mw":600.0,"status_group":"Operating","energy_sources":"SUN","type":"Power plant","is_nuclear":false}},{"type":"Feature","geometry":{"type":"Point","coordinates":[-101.97,34.483]},"properties":{"key":"67985-aeb345fc","layer":"power","name":"Hornet Solar II (TX) (Hybrid)","state":"TX","detail_file":"data/details/power-plants-58.json","plant_id":"67985","capacity_mw":400.0,"status_group":"Under construction","energy_sources":"MWH; SUN","type":"Power plant","is_nuclear":false}},{"type":"Feature","geometry":{"type":"Point","coordinates":[-100.057,32.214]},"properties":{"key":"56291-621e8188","layer":"power","name":"Horse Hollow Wind Energy Center","state":"TX","detail_file":"data/details/power-plants-52.json","plant_id":"56291","capacity_mw":735.5,"status_group":"Operating","energy_sources":"WND","type":"Power plant","is_nuclear":false}},{"type":"Feature","geometry":{"type":"Point","coordinates":[-100.694,35.562]},"properties":{"key":"68203-c8944ed4","layer":"power","name":"IP Meitner Solar","state":"TX","detail_file":"data/details/power-plants-30.json","plant_id":"68203","capacity_mw":500.0,"status_group":"Under construction","energy_sources":"SUN","type":"Power plant","is_nuclear":false}},{"type":"Feature","geometry":{"type":"Point","coordinates":[-100.821,35.697]},"properties":{"key":"68204-1e1cbe58","layer":"power","name":"IP Meitner Wind","state":"TX","detail_file":"data/details/power-plants-04.json","plant_id":"68204","capacity_mw":500.0,"status_group":"Under construction","energy_sources":"WND","type":"Power plant","is_nuclear":false}},{"type":"Feature","geometry":{"type":"Point","coordinates":[-102.608,34.991]},"properties":{"key":"68201-43973ef6","layer":"power","name":"IP Roman Solar","state":"TX","detail_file":"data/details/power-plants-37.json","plant_id":"68201","capacity_mw":500.0,"status_group":"Under construction","energy_sources":"SUN","type":"Power plant","is_nuclear":false}},{"type":"Feature","geometry":{"type":"Point","coordinates":[-102.608,34.991]},"properties":{"key":"68202-8d3f4482","layer":"power","name":"IP Roman Wind","state":"TX","detail_file":"data/details/power-plants-58.json","plant_id":"68202","capacity_mw":670.5,"status_group":"Under construction","energy_sources":"WND","type":"Power plant","is_nuclear":false}},{"type":"Feature","geometry":{"type":"Point","coordinates":[-100.58,32.497]},"properties":{"key":"56984-0157c285","layer":"power","name":"Inadale Wind Farm LLC Hybrid","state":"TX","detail_file":"data/details/power-plants-51.json","plant_id":"56984","capacity_mw":206.9,"status_group":"Operating","energy_sources":"MWH; WND","type":"Power plant","is_nuclear":false}},{"type":"Feature","geometry":{"type":"Point","coordinates":[-100.236,32.628]},"properties":{"key":"66891-c25593ef","layer":"power","name":"Indigo Solar & Storage","state":"TX","detail_file":"data/details/power-plants-44.json","plant_id":"66891","capacity_mw":330.0,"status_group":"Planned","energy_sources":"MWH; SUN","type":"Power plant","is_nuclear":false}},{"type":"Feature","geometry":{"type":"Point","coordinates":[-101.66,32.556]},"properties":{"key":"67059-23f62296","layer":"power","name":"Iron Belt","state":"TX","detail_file":"data/details/power-plants-47.json","plant_id":"67059","capacity_mw":400.0,"status_group":"Planned","energy_sources":"MWH","type":"Power plant","is_nuclear":false}},{"type":"Feature","geometry":{"type":"Point","coordinates":[-100.692,32.05]},"properties":{"key":"55052-ff6a5d99","layer":"power","name":"Jameson Gas Processing Plant","state":"TX","detail_file":"data/details/power-plants-02.json","plant_id":"55052","capacity_mw":1.8,"status_group":"Operating","energy_sources":"NG","type":"Power plant","is_nuclear":false}},{"type":"Feature","geometry":{"type":"Point","coordinates":[-101.739,33.524]},"properties":{"key":"3482-835c27f5","layer":"power","name":"Jones","state":"TX","detail_file":"data/details/power-plants-37.json","plant_id":"3482","capacity_mw":860.4,"status_group":"Operating","energy_sources":"NG","type":"Power plant","is_nuclear":false}},{"type":"Feature","geometry":{"type":"Point","coordinates":[-100.007,32.781]},"properties":{"key":"66559-0e5d83e0","layer":"power","name":"Jones City 1 Solar","state":"TX","detail_file":"data/details/power-plants-02.json","plant_id":"66559","capacity_mw":215.0,"status_group":"Under construction","energy_sources":"SUN","type":"Power plant","is_nuclear":false}},{"type":"Feature","geometry":{"type":"Point","coordinates":[-102.949,32.386]},"properties":{"key":"62630-53f2890a","layer":"power","name":"Jumbo Hill Wind Project","state":"TX","detail_file":"data/details/power-plants-49.json","plant_id":"62630","capacity_mw":160.7,"status_group":"Operating","energy_sources":"WND","type":"Power plant","is_nuclear":false}},{"type":"Feature","geometry":{"type":"Point","coordinates":[-101.391,32.773]},"properties":{"key":"63328-f3b6c8f3","layer":"power","name":"Juno Solar Project","state":"TX","detail_file":"data/details/power-plants-54.json","plant_id":"63328","capacity_mw":305.6,"status_group":"Operating","energy_sources":"SUN","type":"Power plant","is_nuclear":false}},{"type":"Feature","geometry":{"type":"Point","coordinates":[-101.052,32.691]},"properties":{"key":"69226-64b35d32","layer":"power","name":"Knapp BESS","state":"TX","detail_file":"data/details/power-plants-04.json","plant_id":"69226","capacity_mw":10.0,"status_group":"Under construction","energy_sources":"MWH","type":"Power plant","is_nuclear":false}},{"type":"Feature","geometry":{"type":"Point","coordinates":[-101.885,32.713]},"properties":{"key":"61697-80acde33","layer":"power","name":"Lamesa II","state":"TX","detail_file":"data/details/power-plants-15.json","plant_id":"61697","capacity_mw":50.0,"status_group":"Operating","energy_sources":"SUN","type":"Power plant","is_nuclear":false}},{"type":"Feature","geometry":{"type":"Point","coordinates":[-101.927,32.716]},"properties":{"key":"60372-c431a7f3","layer":"power","name":"Lamesa Solar","state":"TX","detail_file":"data/details/power-plants-59.json","plant_id":"60372","capacity_mw":102.0,"status_group":"Operating","energy_sources":"SUN","type":"Power plant","is_nuclear":false}},{"type":"Feature","geometry":{"type":"Point","coordinates":[-102.673,32.46]},"properties":{"key":"62448-ea42ab04","layer":"power","name":"Lapetus","state":"TX","detail_file":"data/details/power-plants-43.json","plant_id":"62448","capacity_mw":100.0,"status_group":"Operating","energy_sources":"SUN","type":"Power plant","is_nuclear":false}},{"type":"Feature","geometry":{"type":"Point","coordinates":[-102.683,34.559]},"properties":{"key":"69478-62c7c256","layer":"power","name":"Lazbuddie Wind Energy LLC","state":"TX","detail_file":"data/details/power-plants-40.json","plant_id":"69478","capacity_mw":265.0,"status_group":"Under construction","energy_sources":"WND","type":"Power plant","is_nuclear":false}},{"type":"Feature","geometry":{"type":"Point","coordinates":[-100.246,32.493]},"properties":{"key":"67996-5f3a840e","layer":"power","name":"Leuven Solar LLC","state":"TX","detail_file":"data/details/power-plants-22.json","plant_id":"67996","capacity_mw":217.0,"status_group":"Planned","energy_sources":"SUN","type":"Power plant","is_nuclear":false}},{"type":"Feature","geometry":{"type":"Point","coordinates":[-101.54,35.964]},"properties":{"key":"57263-130ce08c","layer":"power","name":"Little Pringle I Wind Farm","state":"TX","detail_file":"data/details/power-plants-15.json","plant_id":"57263","capacity_mw":10.0,"status_group":"Operating","energy_sources":"WND","type":"Power plant","is_nuclear":false}},{"type":"Feature","geometry":{"type":"Point","coordinates":[-101.541,35.925]},"properties":{"key":"57264-23a2762a","layer":"power","name":"Little Pringle II Wind Farm","state":"TX","detail_file":"data/details/power-plants-18.json","plant_id":"57264","capacity_mw":10.0,"status_group":"Operating","energy_sources":"WND","type":"Power plant","is_nuclear":false}},{"type":"Feature","geometry":{"type":"Point","coordinates":[-101.253,35.468]},"properties":{"key":"55579-a1b95cc4","layer":"power","name":"Llano Estacado Wind Ranch","state":"TX","detail_file":"data/details/power-plants-04.json","plant_id":"55579","capacity_mw":80.0,"status_group":"Operating","energy_sources":"WND","type":"Power plant","is_nuclear":false}},{"type":"Feature","geometry":{"type":"Point","coordinates":[-100.724,32.39]},"properties":{"key":"69580-27e855e8","layer":"power","name":"Lone Wolfe Phase One","state":"TX","detail_file":"data/details/power-plants-59.json","plant_id":"69580","capacity_mw":1.1,"status_group":"Operating","energy_sources":"SUN","type":"Power plant","is_nuclear":false}},{"type":"Feature","geometry":{"type":"Point","coordinates":[-101.251,34.311]},"properties":{"key":"58772-b9228cd1","layer":"power","name":"Longhorn Wind","state":"TX","detail_file":"data/details/power-plants-46.json","plant_id":"58772","capacity_mw":200.0,"status_group":"Operating","energy_sources":"WND","type":"Power plant","is_nuclear":false}},{"type":"Feature","geometry":{"type":"Point","coordinates":[-100.744,32.438]},"properties":{"key":"57303-bbfb9c14","layer":"power","name":"Loraine Windpark Project LLC","state":"TX","detail_file":"data/details/power-plants-59.json","plant_id":"57303","capacity_mw":150.0,"status_group":"Operating","energy_sources":"WND","type":"Power plant","is_nuclear":false}},{"type":"Feature","geometry":{"type":"Point","coordinates":[-101.525,33.699]},"properties":{"key":"59244-d0697cda","layer":"power","name":"Lorenzo Wind","state":"TX","detail_file":"data/details/power-plants-52.json","plant_id":"59244","capacity_mw":80.0,"status_group":"Operating","energy_sources":"WND","type":"Power plant","is_nuclear":false}},{"type":"Feature","geometry":{"type":"Point","coordinates":[-100.746,32.884]},"properties":{"key":"65644-55962847","layer":"power","name":"Lumina II Solar Project","state":"TX","detail_file":"data/details/power-plants-52.json","plant_id":"65644","capacity_mw":486.6,"status_group":"Operating","energy_sources":"MWH; SUN","type":"Power plant","is_nuclear":false}},{"type":"Feature","geometry":{"type":"Point","coordinates":[-100.983,32.901]},"properties":{"key":"65645-13373fc5","layer":"power","name":"Lumina Solar Project","state":"TX","detail_file":"data/details/power-plants-34.json","plant_id":"65645","capacity_mw":486.6,"status_group":"Operating","energy_sources":"MWH; SUN","type":"Power plant","is_nuclear":false}},{"type":"Feature","geometry":{"type":"Point","coordinates":[-101.53,35.392]},"properties":{"key":"56648-114376ec","layer":"power","name":"Majestic 1 Wind Farm","state":"TX","detail_file":"data/details/power-plants-37.json","plant_id":"56648","capacity_mw":79.5,"status_group":"Operating","energy_sources":"WND","type":"Power plant","is_nuclear":false}},{"type":"Feature","geometry":{"type":"Point","coordinates":[-101.579,35.386]},"properties":{"key":"58363-d8a903ac","layer":"power","name":"Majestic II Wind","state":"TX","detail_file":"data/details/power-plants-01.json","plant_id":"58363","capacity_mw":79.6,"status_group":"Operating","energy_sources":"WND","type":"Power plant","is_nuclear":false}},{"type":"Feature","geometry":{"type":"Point","coordinates":[-102.578,34.667]},"properties":{"key":"59005-39dcad4c","layer":"power","name":"Mariah del Norte","state":"TX","detail_file":"data/details/power-plants-35.json","plant_id":"59005","capacity_mw":230.4,"status_group":"Operating","energy_sources":"WND","type":"Power plant","is_nuclear":false}},{"type":"Feature","geometry":{"type":"Point","coordinates":[-100.492,32.199]},"properties":{"key":"62836-15cf4636","layer":"power","name":"Maryneal Windpower","state":"TX","detail_file":"data/details/power-plants-27.json","plant_id":"62836","capacity_mw":182.4,"status_group":"Operating","energy_sources":"WND","type":"Power plant","is_nuclear":false}},{"type":"Feature","geometry":{"type":"Point","coordinates":[-100.967,33.752]},"properties":{"key":"56773-6e03d88f","layer":"power","name":"McAdoo Wind Energy LLC","state":"TX","detail_file":"data/details/power-plants-26.json","plant_id":"56773","capacity_mw":150.0,"status_group":"Operating","energy_sources":"WND","type":"Power plant","is_nuclear":false}},{"type":"Feature","geometry":{"type":"Point","coordinates":[-101.741,32.7]},"properties":{"key":"59332-8cc1451d","layer":"power","name":"Mesquite Creek Wind","state":"TX","detail_file":"data/details/power-plants-01.json","plant_id":"59332","capacity_mw":211.2,"status_group":"Operating","energy_sources":"WND","type":"Power plant","is_nuclear":false}},{"type":"Feature","geometry":{"type":"Point","coordinates":[-100.32,32.256]},"properties":{"key":"62587-31667771","layer":"power","name":"Mesquite Star","state":"TX","detail_file":"data/details/power-plants-20.json","plant_id":"62587","capacity_mw":418.9,"status_group":"Operating","energy_sources":"WND","type":"Power plant","is_nuclear":false}},{"type":"Feature","geometry":{"type":"Point","coordinates":[-100.539,35.654]},"properties":{"key":"58765-d5080be2","layer":"power","name":"Miami Wind Energy Center","state":"TX","detail_file":"data/details/power-plants-57.json","plant_id":"58765","capacity_mw":288.6,"status_group":"Operating","energy_sources":"WND","type":"Power plant","is_nuclear":false}},{"type":"Feature","geometry":{"type":"Point","coordinates":[-100.1,34.381]},"properties":{"key":"62249-b8c44de8","layer":"power","name":"Misae Solar","state":"TX","detail_file":"data/details/power-plants-52.json","plant_id":"62249","capacity_mw":240.0,"status_group":"Operating","energy_sources":"SUN","type":"Power plant","is_nuclear":false}},{"type":"Feature","geometry":{"type":"Point","coordinates":[-100.916,32.336]},"properties":{"key":"3492-fdeb5fd2","layer":"power","name":"Morgan Creek","state":"TX","detail_file":"data/details/power-plants-03.json","plant_id":"3492","capacity_mw":536.4,"status_group":"Operating","energy_sources":"DFO","type":"Power plant","is_nuclear":false}},{"type":"Feature","geometry":{"type":"Point","coordinates":[-100.524,32.97]},"properties":{"key":"58048-c9ed58b4","layer":"power","name":"Mozart Wind Farm","state":"TX","detail_file":"data/details/power-plants-26.json","plant_id":"58048","capacity_mw":30.0,"status_group":"Operating","energy_sources":"WND","type":"Power plant","is_nuclear":false}},{"type":"Feature","geometry":{"type":"Point","coordinates":[-102.742,32.973]},"properties":{"key":"55065-9acdf216","layer":"power","name":"Mustang Station","state":"TX","detail_file":"data/details/power-plants-36.json","plant_id":"55065","capacity_mw":521.0,"status_group":"Operating","energy_sources":"NG","type":"Power plant","is_nuclear":false}},{"type":"Feature","geometry":{"type":"Point","coordinates":[-102.744,32.975]},"properties":{"key":"56326-463f631a","layer":"power","name":"Mustang Station Unit 4","state":"TX","detail_file":"data/details/power-plants-36.json","plant_id":"56326","capacity_mw":472.1,"status_group":"Operating","energy_sources":"NG","type":"Power plant","is_nuclear":false}},{"type":"Feature","geometry":{"type":"Point","coordinates":[-101.746,35.283]},"properties":{"key":"3484-95d7eba5","layer":"power","name":"Nichols","state":"TX","detail_file":"data/details/power-plants-40.json","plant_id":"3484","capacity_mw":474.7,"status_group":"Operating","energy_sources":"NG","type":"Power plant","is_nuclear":false}},{"type":"Feature","geometry":{"type":"Point","coordinates":[-101.385,32.122]},"properties":{"key":"56959-833b652e","layer":"power","name":"Ocotillo Windpower","state":"TX","detail_file":"data/details/power-plants-50.json","plant_id":"56959","capacity_mw":58.8,"status_group":"Operating","energy_sources":"WND","type":"Power plant","is_nuclear":false}},{"type":"Feature","geometry":{"type":"Point","coordinates":[-101.188,34.06]},"properties":{"key":"60366-d99cf29f","layer":"power","name":"Old Settler Wind","state":"TX","detail_file":"data/details/power-plants-47.json","plant_id":"60366","capacity_mw":151.2,"status_group":"Operating","energy_sources":"WND","type":"Power plant","is_nuclear":false}},{"type":"Feature","geometry":{"type":"Point","coordinates":[-102.634,32.002]},"properties":{"key":"63388-d1458711","layer":"power","name":"Oxy Renewable Energy - Goldsmith","state":"TX","detail_file":"data/details/power-plants-04.json","plant_id":"63388","capacity_mw":16.8,"status_group":"Operating","energy_sources":"SUN","type":"Power plant","is_nuclear":false}},{"type":"Feature","geometry":{"type":"Point","coordinates":[-101.802,33.889]},"properties":{"key":"65491-501b7d96","layer":"power","name":"Paleo","state":"TX","detail_file":"data/details/power-plants-50.json","plant_id":"65491","capacity_mw":200.0,"status_group":"Operating","energy_sources":"MWH","type":"Power plant","is_nuclear":false}},{"type":"Feature","geometry":{"type":"Point","coordinates":[-101.532,35.323]},"properties":{"key":"58404-425d4d25","layer":"power","name":"Pantex","state":"TX","detail_file":"data/details/power-plants-09.json","plant_id":"58404","capacity_mw":11.5,"status_group":"Operating","energy_sources":"WND","type":"Power plant","is_nuclear":false}},{"type":"Feature","geometry":{"type":"Point","coordinates":[-101.451,32.101]},"properties":{"key":"56920-e19c139c","layer":"power","name":"Panther Creek Wind Farm I","state":"TX","detail_file":"data/details/power-plants-17.json","plant_id":"56920","capacity_mw":142.5,"status_group":"Operating","energy_sources":"WND","type":"Power plant","is_nuclear":false}},{"type":"Feature","geometry":{"type":"Point","coordinates":[-101.373,35.443]},"properties":{"key":"58720-b4ec36d0","layer":"power","name":"Pattern Panhandle Wind 2 LLC","state":"TX","detail_file":"data/details/power-plants-32.json","plant_id":"58720","capacity_mw":181.7,"status_group":"Operating","energy_sources":"WND","type":"Power plant","is_nuclear":false}},{"type":"Feature","geometry":{"type":"Point","coordinates":[-101.253,35.428]},"properties":{"key":"58242-050ed731","layer":"power","name":"Pattern Panhandle Wind LLC","state":"TX","detail_file":"data/details/power-plants-39.json","plant_id":"58242","capacity_mw":218.0,"status_group":"Operating","energy_sources":"WND","type":"Power plant","is_nuclear":false}},{"type":"Feature","geometry":{"type":"Point","coordinates":[-102.411,34.166]},"properties":{"key":"3485-4fd095ac","layer":"power","name":"Plant X","state":"TX","detail_file":"data/details/power-plants-06.json","plant_id":"3485","capacity_mw":190.4,"status_group":"Operating","energy_sources":"NG","type":"Power plant","is_nuclear":false}},{"type":"Feature","geometry":{"type":"Point","coordinates":[-102.405,34.166]},"properties":{"key":"69435-992da29c","layer":"power","name":"Plant X Solar","state":"TX","detail_file":"data/details/power-plants-11.json","plant_id":"69435","capacity_mw":150.0,"status_group":"Operating","energy_sources":"SUN","type":"Power plant","is_nuclear":false}},{"type":"Feature","geometry":{"type":"Point","coordinates":[-101.485,33.739]},"properties":{"key":"59417-ea30bc04","layer":"power","name":"Pleasant Hill Wind Energy Project","state":"TX","detail_file":"data/details/power-plants-62.json","plant_id":"59417","capacity_mw":20.0,"status_group":"Operating","energy_sources":"WND","type":"Power plant","is_nuclear":false}},{"type":"Feature","geometry":{"type":"Point","coordinates":[-101.219,32.925]},"properties":{"key":"56457-fdd267b1","layer":"power","name":"Post Wind Farm LP","state":"TX","detail_file":"data/details/power-plants-55.json","plant_id":"56457","capacity_mw":84.0,"status_group":"Operating","energy_sources":"WND","type":"Power plant","is_nuclear":false}},{"type":"Feature","geometry":{"type":"Point","coordinates":[-101.569,35.284]},"properties":{"key":"69799-d91c94ab","layer":"power","name":"Project Matador Gas Plant (PMG)","state":"TX","detail_file":"data/details/power-plants-01.json","plant_id":"69799","capacity_mw":11679.3,"status_group":"Under construction","energy_sources":"NG","type":"Power plant","is_nuclear":false}},{"type":"Feature","geometry":{"type":"Point","coordinates":[-101.569,35.284]},"properties":{"key":"69798-a501f654","layer":"power","name":"Project Matador Nuclear","state":"TX","detail_file":"data/details/power-plants-20.json","plant_id":"69798","capacity_mw":4468.0,"status_group":"Planned","energy_sources":"NUC","type":"Nuclear power plant","is_nuclear":true}},{"type":"Feature","geometry":{"type":"Point","coordinates":[-102.84,32.288]},"properties":{"key":"62755-eb64796e","layer":"power","name":"Prospero Solar","state":"TX","detail_file":"data/details/power-plants-43.json","plant_id":"62755","capacity_mw":300.0,"status_group":"Operating","energy_sources":"SUN","type":"Power plant","is_nuclear":false}},{"type":"Feature","geometry":{"type":"Point","coordinates":[-102.845,32.276]},"properties":{"key":"64325-de53d88d","layer":"power","name":"Prospero Solar II","state":"TX","detail_file":"data/details/power-plants-57.json","plant_id":"64325","capacity_mw":250.0,"status_group":"Operating","energy_sources":"SUN","type":"Power plant","is_nuclear":false}},{"type":"Feature","geometry":{"type":"Point","coordinates":[-100.673,32.589]},"properties":{"key":"56981-b9512baa","layer":"power","name":"Pyron Wind Farm LLC Hybrid","state":"TX","detail_file":"data/details/power-plants-47.json","plant_id":"56981","capacity_mw":258.9,"status_group":"Operating","energy_sources":"MWH; WND","type":"Power plant","is_nuclear":false}},{"type":"Feature","geometry":{"type":"Point","coordinates":[-101.39,33.661]},"properties":{"key":"57474-8d352a14","layer":"power","name":"Ralls Wind Farm","state":"TX","detail_file":"data/details/power-plants-49.json","plant_id":"57474","capacity_mw":10.0,"status_group":"Operating","energy_sources":"WND","type":"Power plant","is_nuclear":false}},{"type":"Feature","geometry":{"type":"Point","coordinates":[-102.271,34.913]},"properties":{"key":"65310-e9481860","layer":"power","name":"Renegade Solar Project (Dawn)","state":"TX","detail_file":"data/details/power-plants-28.json","plant_id":"65310","capacity_mw":515.0,"status_group":"Under construction","energy_sources":"SUN","type":"Power plant","is_nuclear":false}},{"type":"Feature","geometry":{"type":"Point","coordinates":[-101.979,35.812]},"properties":{"key":"56835-0f514408","layer":"power","name":"Ribeye Wind (11) LLC","state":"TX","detail_file":"data/details/power-plants-02.json","plant_id":"56835","capacity_mw":10.0,"status_group":"Operating","energy_sources":"WND","type":"Power plant","is_nuclear":false}},{"type":"Feature","geometry":{"type":"Point","coordinates":[-100.89,33.878]},"properties":{"key":"68458-05839adc","layer":"power","name":"Roaring Springs, LLC","state":"TX","detail_file":"data/details/power-plants-59.json","plant_id":"68458","capacity_mw":250.0,"status_group":"Operating","energy_sources":"SUN","type":"Power plant","is_nuclear":false}},{"type":"Feature","geometry":{"type":"Point","coordinates":[-100.666,32.469]},"properties":{"key":"56593-9ed725b2","layer":"power","name":"Roscoe Wind Farm LLC","state":"TX","detail_file":"data/details/power-plants-60.json","plant_id":"56593","capacity_mw":209.0,"status_group":"Operating","energy_sources":"WND","type":"Power plant","is_nuclear":false}},{"type":"Feature","geometry":{"type":"Point","coordinates":[-101.434,35.205]},"properties":{"key":"58681-e2e2f17d","layer":"power","name":"Route 66 Wind Plant","state":"TX","detail_file":"data/details/power-plants-56.json","plant_id":"58681","capacity_mw":150.0,"status_group":"Operating","energy_sources":"WND","type":"Power plant","is_nuclear":false}},{"type":"Feature","geometry":{"type":"Point","coordinates":[-101.657,33.303]},"properties":{"key":"62620-fbd5dbe8","layer":"power","name":"Sage Draw Wind","state":"TX","detail_file":"data/details/power-plants-54.json","plant_id":"62620","capacity_mw":338.4,"status_group":"Operating","energy_sources":"WND","type":"Power plant","is_nuclear":false}},{"type":"Feature","geometry":{"type":"Point","coordinates":[-100.934,35.182]},"properties":{"key":"60657-9c258431","layer":"power","name":"Salt Fork Wind Project, LLC","state":"TX","detail_file":"data/details/power-plants-38.json","plant_id":"60657","capacity_mw":174.0,"status_group":"Operating","energy_sources":"WND","type":"Power plant","is_nuclear":false}},{"type":"Feature","geometry":{"type":"Point","coordinates":[-100.793,32.718]},"properties":{"key":"56775-cfc0b8a7","layer":"power","name":"Scurry County Wind II","state":"TX","detail_file":"data/details/power-plants-40.json","plant_id":"56775","capacity_mw":120.0,"status_group":"Operating","energy_sources":"WND","type":"Power plant","is_nuclear":false}},{"type":"Feature","geometry":{"type":"Point","coordinates":[-100.995,32.72]},"properties":{"key":"56506-ab9649fe","layer":"power","name":"Scurry County Wind LP","state":"TX","detail_file":"data/details/power-plants-24.json","plant_id":"56506","capacity_mw":130.5,"status_group":"Operating","energy_sources":"WND","type":"Power plant","is_nuclear":false}},{"type":"Feature","geometry":{"type":"Point","coordinates":[-100.906,32.705]},"properties":{"key":"69411-25fd197a","layer":"power","name":"Snyder BESS","state":"TX","detail_file":"data/details/power-plants-43.json","plant_id":"69411","capacity_mw":10.0,"status_group":"Operating","energy_sources":"MWH","type":"Power plant","is_nuclear":false}},{"type":"Feature","geometry":{"type":"Point","coordinates":[-101.382,34.197]},"properties":{"key":"60087-d35a8479","layer":"power","name":"South Plains II","state":"TX","detail_file":"data/details/power-plants-53.json","plant_id":"60087","capacity_mw":300.0,"status_group":"Operating","energy_sources":"WND","type":"Power plant","is_nuclear":false}},{"type":"Feature","geometry":{"type":"Point","coordinates":[-101.324,34.081]},"properties":{"key":"59384-459e82a7","layer":"power","name":"South Plains Wind Phase I","state":"TX","detail_file":"data/details/power-plants-53.json","plant_id":"59384","capacity_mw":200.0,"status_group":"Operating","energy_sources":"WND","type":"Power plant","is_nuclear":false}},{"type":"Feature","geometry":{"type":"Point","coordinates":[-100.129,32.408]},"properties":{"key":"56649-3860bfc6","layer":"power","name":"South Trent Wind Farm","state":"TX","detail_file":"data/details/power-plants-07.json","plant_id":"56649","capacity_mw":101.2,"status_group":"Operating","energy_sources":"WND","type":"Power plant","is_nuclear":false}},{"type":"Feature","geometry":{"type":"Point","coordinates":[-102.683,35.277]},"properties":{"key":"58774-6c282b48","layer":"power","name":"Spinning Spur Wind II","state":"TX","detail_file":"data/details/power-plants-30.json","plant_id":"58774","capacity_mw":161.0,"status_group":"Operating","energy_sources":"WND","type":"Power plant","is_nuclear":false}},{"type":"Feature","geometry":{"type":"Point","coordinates":[-102.721,35.295]},"properties":{"key":"58775-839c0d57","layer":"power","name":"Spinning Spur Wind III","state":"TX","detail_file":"data/details/power-plants-52.json","plant_id":"58775","capacity_mw":194.0,"status_group":"Operating","energy_sources":"WND","type":"Power plant","is_nuclear":false}},{"type":"Feature","geometry":{"type":"Point","coordinates":[-102.203,35.237]},"properties":{"key":"57973-1d5109aa","layer":"power","name":"Spinning Spur Wind LLC","state":"TX","detail_file":"data/details/power-plants-59.json","plant_id":"57973","capacity_mw":161.0,"status_group":"Operating","energy_sources":"WND","type":"Power plant","is_nuclear":false}},{"type":"Feature","geometry":{"type":"Point","coordinates":[-101.837,32.235]},"properties":{"key":"56644-1101d9b2","layer":"power","name":"Stanton Wind Energy LLC","state":"TX","detail_file":"data/details/power-plants-15.json","plant_id":"56644","capacity_mw":120.0,"status_group":"Operating","energy_sources":"WND","type":"Power plant","is_nuclear":false}},{"type":"Feature","geometry":{"type":"Point","coordinates":[-101.648,32.926]},"properties":{"key":"57983-e87c4269","layer":"power","name":"Stephens Ranch Wind Energy LLC","state":"TX","detail_file":"data/details/power-plants-16.json","plant_id":"57983","capacity_mw":376.0,"status_group":"Operating","energy_sources":"WND","type":"Power plant","is_nuclear":false}},{"type":"Feature","geometry":{"type":"Point","coordinates":[-100.398,33.247]},"properties":{"key":"68666-077fc18d","layer":"power","name":"Stonewall BESS","state":"TX","detail_file":"data/details/power-plants-54.json","plant_id":"68666","capacity_mw":135.0,"status_group":"Planned","energy_sources":"MWH","type":"Power plant","is_nuclear":false}},{"type":"Feature","geometry":{"type":"Point","coordinates":[-100.231,33.174]},"properties":{"key":"67562-3e3a0076","layer":"power","name":"Stonewall Solar","state":"TX","detail_file":"data/details/power-plants-62.json","plant_id":"67562","capacity_mw":60.2,"status_group":"Planned","energy_sources":"SUN","type":"Power plant","is_nuclear":false}},{"type":"Feature","geometry":{"type":"Point","coordinates":[-101.9,35.945]},"properties":{"key":"57326-f6d199e5","layer":"power","name":"Sunray Wind I","state":"TX","detail_file":"data/details/power-plants-31.json","plant_id":"57326","capacity_mw":49.5,"status_group":"Operating","energy_sources":"WND","type":"Power plant","is_nuclear":false}},{"type":"Feature","geometry":{"type":"Point","coordinates":[-100.444,32.458]},"properties":{"key":"69413-1ec0e9ed","layer":"power","name":"Sweetwater BESS","state":"TX","detail_file":"data/details/power-plants-30.json","plant_id":"69413","capacity_mw":10.0,"status_group":"Operating","energy_sources":"MWH","type":"Power plant","is_nuclear":false}},{"type":"Feature","geometry":{"type":"Point","coordinates":[-100.339,32.361]},"properties":{"key":"56211-d0457026","layer":"power","name":"Sweetwater Wind 1 LLC","state":"TX","detail_file":"data/details/power-plants-55.json","plant_id":"56211","capacity_mw":37.5,"status_group":"Operating","energy_sources":"WND","type":"Power plant","is_nuclear":false}},{"type":"Feature","geometry":{"type":"Point","coordinates":[-100.37,32.347]},"properties":{"key":"56212-a1ce476e","layer":"power","name":"Sweetwater Wind 2 LLC","state":"TX","detail_file":"data/details/power-plants-44.json","plant_id":"56212","capacity_mw":98.8,"status_group":"Operating","energy_sources":"WND","type":"Power plant","is_nuclear":false}},{"type":"Feature","geometry":{"type":"Point","coordinates":[-100.422,32.291]},"properties":{"key":"56311-9a670324","layer":"power","name":"Sweetwater Wind 3 LLC","state":"TX","detail_file":"data/details/power-plants-43.json","plant_id":"56311","capacity_mw":135.0,"status_group":"Operating","energy_sources":"WND","type":"Power plant","is_nuclear":false}},{"type":"Feature","geometry":{"type":"Point","coordinates":[-100.53,32.312]},"properties":{"key":"56337-515d0e1b","layer":"power","name":"Sweetwater Wind 4 LLC","state":"TX","detail_file":"data/details/power-plants-44.json","plant_id":"56337","capacity_mw":241.0,"status_group":"Operating","energy_sources":"WND","type":"Power plant","is_nuclear":false}},{"type":"Feature","geometry":{"type":"Point","coordinates":[-100.483,32.237]},"properties":{"key":"56372-abad44be","layer":"power","name":"Sweetwater Wind 5","state":"TX","detail_file":"data/details/power-plants-19.json","plant_id":"56372","capacity_mw":80.5,"status_group":"Operating","energy_sources":"WND","type":"Power plant","is_nuclear":false}},{"type":"Feature","geometry":{"type":"Point","coordinates":[-101.999,35.808]},"properties":{"key":"56836-2755f6da","layer":"power","name":"T-Bone Wind (10) LLC","state":"TX","detail_file":"data/details/power-plants-52.json","plant_id":"56836","capacity_mw":8.8,"status_group":"Operating","energy_sources":"WND","type":"Power plant","is_nuclear":false}},{"type":"Feature","geometry":{"type":"Point","coordinates":[-101.737,32.952]},"properties":{"key":"63202-3e1b4f2f","layer":"power","name":"TREX US Red Holly","state":"TX","detail_file":"data/details/power-plants-63.json","plant_id":"63202","capacity_mw":300.0,"status_group":"Under construction","energy_sources":"MWH; SUN","type":"Power plant","is_nuclear":false}},{"type":"Feature","geometry":{"type":"Point","coordinates":[-102.174,34.748]},"properties":{"key":"58773-eeef117d","layer":"power","name":"TX Hereford Wind","state":"TX","detail_file":"data/details/power-plants-29.json","plant_id":"58773","capacity_mw":200.0,"status_group":"Operating","energy_sources":"WND","type":"Power plant","is_nuclear":false}},{"type":"Feature","geometry":{"type":"Point","coordinates":[-102.253,34.72]},"properties":{"key":"59621-cd8eb07f","layer":"power","name":"TX Jumbo Road Wind","state":"TX","detail_file":"data/details/power-plants-02.json","plant_id":"59621","capacity_mw":299.7,"status_group":"Operating","energy_sources":"WND","type":"Power plant","is_nuclear":false}},{"type":"Feature","geometry":{"type":"Point","coordinates":[-101.97,34.49]},"properties":{"key":"67575-a1e2af4a","layer":"power","name":"TX Nazareth Solar","state":"TX","detail_file":"data/details/power-plants-21.json","plant_id":"67575","capacity_mw":201.0,"status_group":"Under construction","energy_sources":"SUN","type":"Power plant","is_nuclear":false}},{"type":"Feature","geometry":{"type":"Point","coordinates":[-100.992,32.856]},"properties":{"key":"65696-c75ad995","layer":"power","name":"TX13 Endurance Park Storage","state":"TX","detail_file":"data/details/power-plants-34.json","plant_id":"65696","capacity_mw":50.0,"status_group":"Operating","energy_sources":"MWH","type":"Power plant","is_nuclear":false}},{"type":"Feature","geometry":{"type":"Point","coordinates":[-101.679,33.151]},"properties":{"key":"61921-6a70ca5c","layer":"power","name":"Tahoka Wind","state":"TX","detail_file":"data/details/power-plants-23.json","plant_id":"61921","capacity_mw":300.0,"status_group":"Operating","energy_sources":"WND","type":"Power plant","is_nuclear":false}},{"type":"Feature","geometry":{"type":"Point","coordinates":[-100.982,33.321]},"properties":{"key":"65654-369e6ebf","layer":"power","name":"Texas Solar Nova 1","state":"TX","detail_file":"data/details/power-plants-03.json","plant_id":"65654","capacity_mw":252.0,"status_group":"Operating","energy_sources":"SUN","type":"Power plant","is_nuclear":false}},{"type":"Feature","geometry":{"type":"Point","coordinates":[-100.982,33.321]},"properties":{"key":"65660-a507616b","layer":"power","name":"Texas Solar Nova 2","state":"TX","detail_file":"data/details/power-plants-41.json","plant_id":"65660","capacity_mw":200.0,"status_group":"Operating","energy_sources":"SUN","type":"Power plant","is_nuclear":false}},{"type":"Feature","geometry":{"type":"Point","coordinates":[-102.57,34.186]},"properties":{"key":"6194-e5853df4","layer":"power","name":"Tolk","state":"TX","detail_file":"data/details/power-plants-26.json","plant_id":"6194","capacity_mw":1135.8,"status_group":"Operating","energy_sources":"SUB","type":"Power plant","is_nuclear":false}},{"type":"Feature","geometry":{"type":"Point","coordinates":[-100.236,32.43]},"properties":{"key":"55968-8eece884","layer":"power","name":"Trent Wind Farm","state":"TX","detail_file":"data/details/power-plants-23.json","plant_id":"55968","capacity_mw":152.0,"status_group":"Operating","energy_sources":"WND","type":"Power plant","is_nuclear":false}},{"type":"Feature","geometry":{"type":"Point","coordinates":[-101.803,35.961]},"properties":{"key":"56837-98d9235a","layer":"power","name":"Tri-Tip Wind (9) LLC","state":"TX","detail_file":"data/details/power-plants-22.json","plant_id":"56837","capacity_mw":10.0,"status_group":"Operating","energy_sources":"WND","type":"Power plant","is_nuclear":false}},{"type":"Feature","geometry":{"type":"Point","coordinates":[-102.558,32.351]},"properties":{"key":"65578-5f5bba1e","layer":"power","name":"Tumbleweed","state":"TX","detail_file":"data/details/power-plants-39.json","plant_id":"65578","capacity_mw":9.0,"status_group":"Operating","energy_sources":"DFO","type":"Power plant","is_nuclear":false}},{"type":"Feature","geometry":{"type":"Point","coordinates":[-100.269,32.198]},"properties":{"key":"56774-1d2327bd","layer":"power","name":"Turkey Track Wind Energy LLC","state":"TX","detail_file":"data/details/power-plants-03.json","plant_id":"56774","capacity_mw":169.5,"status_group":"Operating","energy_sources":"WND","type":"Power plant","is_nuclear":false}},{"type":"Feature","geometry":{"type":"Point","coordinates":[-101.784,34.966]},"properties":{"key":"61589-ac1cc5b0","layer":"power","name":"UL Advanced Wind Turbine Test Facility","state":"TX","detail_file":"data/details/power-plants-41.json","plant_id":"61589","capacity_mw":3.5,"status_group":"Operating","energy_sources":"WND","type":"Power plant","is_nuclear":false}},{"type":"Feature","geometry":{"type":"Point","coordinates":[-101.504,32.68]},"properties":{"key":"68739-a53e6ac6","layer":"power","name":"Uva Creek Solar","state":"TX","detail_file":"data/details/power-plants-53.json","plant_id":"68739","capacity_mw":301.0,"status_group":"Under construction","energy_sources":"SUN","type":"Power plant","is_nuclear":false}},{"type":"Feature","geometry":{"type":"Point","coordinates":[-100.918,32.691]},"properties":{"key":"64829-58e98efd","layer":"power","name":"WAL1272","state":"TX","detail_file":"data/details/power-plants-52.json","plant_id":"64829","capacity_mw":1.2,"status_group":"Operating","energy_sources":"NG","type":"Power plant","is_nuclear":false}},{"type":"Feature","geometry":{"type":"Point","coordinates":[-101.1,33.825]},"properties":{"key":"58766-cffeb18b","layer":"power","name":"Wake Wind Energy Center","state":"TX","detail_file":"data/details/power-plants-47.json","plant_id":"58766","capacity_mw":257.3,"status_group":"Operating","energy_sources":"WND","type":"Power plant","is_nuclear":false}},{"type":"Feature","geometry":{"type":"Point","coordinates":[-102.757,33.01]},"properties":{"key":"52122-67150108","layer":"power","name":"Wasson CO2 Removal Plant","state":"TX","detail_file":"data/details/power-plants-26.json","plant_id":"52122","capacity_mw":23.4,"status_group":"Operating","energy_sources":"NG","type":"Power plant","is_nuclear":false}},{"type":"Feature","geometry":{"type":"Point","coordinates":[-101.099,34.105]},"properties":{"key":"56673-7381694b","layer":"power","name":"Whirlwind Energy Center","state":"TX","detail_file":"data/details/power-plants-42.json","plant_id":"56673","capacity_mw":59.8,"status_group":"Operating","energy_sources":"WND","type":"Power plant","is_nuclear":false}},{"type":"Feature","geometry":{"type":"Point","coordinates":[-102.877,33.524]},"properties":{"key":"68877-0eaf6c39","layer":"power","name":"Wildcat Ranch Energy Storage","state":"TX","detail_file":"data/details/power-plants-24.json","plant_id":"68877","capacity_mw":120.0,"status_group":"Planned","energy_sources":"MWH","type":"Power plant","is_nuclear":false}},{"type":"Feature","geometry":{"type":"Point","coordinates":[-102.962,33.53]},"properties":{"key":"61674-e6e267fa","layer":"power","name":"Wildcat Ranch Wind Project","state":"TX","detail_file":"data/details/power-plants-02.json","plant_id":"61674","capacity_mw":150.0,"status_group":"Operating","energy_sources":"WND","type":"Power plant","is_nuclear":false}},{"type":"Feature","geometry":{"type":"Point","coordinates":[-102.303,35.292]},"properties":{"key":"56432-75c14d77","layer":"power","name":"Wildorado Wind LLC","state":"TX","detail_file":"data/details/power-plants-40.json","plant_id":"56432","capacity_mw":161.0,"status_group":"Operating","energy_sources":"WND","type":"Power plant","is_nuclear":false}}]}