{"type":"FeatureCollection","features":[{"type":"Feature","geometry":{"type":"Point","coordinates":[-111.956,33.447]},"properties":{"key":"61861-55195a1a","layer":"power","name":"AES ES GILBERT","state":"AZ","detail_file":"data/details/power-plants-26.json","plant_id":"61861","capacity_mw":10.0,"status_group":"Operating","energy_sources":"MWH","type":"Power plant","is_nuclear":false}},{"type":"Feature","geometry":{"type":"Point","coordinates":[-111.928,33.424]},"properties":{"key":"62643-737156e1","layer":"power","name":"AZ State University - Tempe Campus Solar","state":"AZ","detail_file":"data/details/power-plants-15.json","plant_id":"62643","capacity_mw":2.5,"status_group":"Operating","energy_sources":"SUN","type":"Power plant","is_nuclear":false}},{"type":"Feature","geometry":{"type":"Point","coordinates":[-110.863,32.182]},"properties":{"key":"58632-37ef0015","layer":"power","name":"Actus Lend Lease DMAFB","state":"AZ","detail_file":"data/details/power-plants-37.json","plant_id":"58632","capacity_mw":3.0,"status_group":"Operating","energy_sources":"SUN","type":"Power plant","is_nuclear":false}},{"type":"Feature","geometry":{"type":"Point","coordinates":[-110.839,32.129]},"properties":{"key":"64384-6fe4b5fe","layer":"power","name":"Amazon TUS2","state":"AZ","detail_file":"data/details/power-plants-30.json","plant_id":"64384","capacity_mw":2.6,"status_group":"Operating","energy_sources":"SUN","type":"Power plant","is_nuclear":false}},{"type":"Feature","geometry":{"type":"Point","coordinates":[-110.975,32.269]},"properties":{"key":"60684-d1787a61","layer":"power","name":"Amphitheater High School Solar","state":"AZ","detail_file":"data/details/power-plants-32.json","plant_id":"60684","capacity_mw":1.0,"status_group":"Operating","energy_sources":"SUN","type":"Power plant","is_nuclear":false}},{"type":"Feature","geometry":{"type":"Point","coordinates":[-109.89,32.068]},"properties":{"key":"60964-480cb744","layer":"power","name":"Apache Solar I","state":"AZ","detail_file":"data/details/power-plants-02.json","plant_id":"60964","capacity_mw":40.0,"status_group":"Operating","energy_sources":"MWH; SUN","type":"Power plant","is_nuclear":false}},{"type":"Feature","geometry":{"type":"Point","coordinates":[-109.893,32.06]},"properties":{"key":"160-56db9ea8","layer":"power","name":"Apache Station","state":"AZ","detail_file":"data/details/power-plants-15.json","plant_id":"160","capacity_mw":781.7,"status_group":"Operating","energy_sources":"NG; SUB","type":"Power plant","is_nuclear":false}},{"type":"Feature","geometry":{"type":"Point","coordinates":[-109.893,32.06]},"properties":{"key":"160-7da0ec53","layer":"power","name":"Apache Station","state":"AZ","detail_file":"data/details/power-plants-63.json","plant_id":"160","capacity_mw":102.2,"status_group":"Under construction","energy_sources":"NG","type":"Power plant","is_nuclear":false}},{"type":"Feature","geometry":{"type":"Point","coordinates":[-111.928,33.417]},"properties":{"key":"58199-ac24d46b","layer":"power","name":"Arizona State University CHP","state":"AZ","detail_file":"data/details/power-plants-37.json","plant_id":"58199","capacity_mw":17.1,"status_group":"Operating","energy_sources":"NG","type":"Power plant","is_nuclear":false}},{"type":"Feature","geometry":{"type":"Point","coordinates":[-110.961,32.001]},"properties":{"key":"59168-57ad921a","layer":"power","name":"Avalon Solar","state":"AZ","detail_file":"data/details/power-plants-32.json","plant_id":"59168","capacity_mw":29.0,"status_group":"Operating","energy_sources":"SUN","type":"Power plant","is_nuclear":false}},{"type":"Feature","geometry":{"type":"Point","coordinates":[-110.958,32.001]},"properties":{"key":"60062-9eab3ec6","layer":"power","name":"Avalon Solar II","state":"AZ","detail_file":"data/details/power-plants-59.json","plant_id":"60062","capacity_mw":16.0,"status_group":"Operating","energy_sources":"SUN","type":"Power plant","is_nuclear":false}},{"type":"Feature","geometry":{"type":"Point","coordinates":[-111.283,32.372]},"properties":{"key":"57657-b3cd65b5","layer":"power","name":"Avra Valley Solar","state":"AZ","detail_file":"data/details/power-plants-11.json","plant_id":"57657","capacity_mw":25.0,"status_group":"Operating","energy_sources":"SUN","type":"Power plant","is_nuclear":false}},{"type":"Feature","geometry":{"type":"Point","coordinates":[-111.868,35.628]},"properties":{"key":"66110-0a7daab1","layer":"power","name":"Babbitt Ranch Energy Center","state":"AZ","detail_file":"data/details/power-plants-03.json","plant_id":"66110","capacity_mw":163.0,"status_group":"Operating","energy_sources":"WND","type":"Power plant","is_nuclear":false}},{"type":"Feature","geometry":{"type":"Point","coordinates":[-111.567,33.213]},"properties":{"key":"68433-ef18cfb5","layer":"power","name":"Banner Solar Ironwood","state":"AZ","detail_file":"data/details/power-plants-47.json","plant_id":"68433","capacity_mw":1.4,"status_group":"Operating","energy_sources":"SUN","type":"Power plant","is_nuclear":false}},{"type":"Feature","geometry":{"type":"Point","coordinates":[-111.34,33.053]},"properties":{"key":"60413-7f52d6be","layer":"power","name":"Bonnybrooke PV","state":"AZ","detail_file":"data/details/power-plants-18.json","plant_id":"60413","capacity_mw":50.0,"status_group":"Operating","energy_sources":"SUN","type":"Power plant","is_nuclear":false}},{"type":"Feature","geometry":{"type":"Point","coordinates":[-111.369,33.161]},"properties":{"key":"68281-a32bf36a","layer":"power","name":"Box Canyon (AZ)","state":"AZ","detail_file":"data/details/power-plants-54.json","plant_id":"68281","capacity_mw":300.0,"status_group":"Operating","energy_sources":"SUN","type":"Power plant","is_nuclear":false}},{"type":"Feature","geometry":{"type":"Point","coordinates":[-111.49,32.926]},"properties":{"key":"67799-3607abe6","layer":"power","name":"Brittlebush Solar","state":"AZ","detail_file":"data/details/power-plants-32.json","plant_id":"67799","capacity_mw":200.0,"status_group":"Operating","energy_sources":"SUN","type":"Power plant","is_nuclear":false}},{"type":"Feature","geometry":{"type":"Point","coordinates":[-111.261,32.248]},"properties":{"key":"64580-5f103131","layer":"power","name":"Broadway 2 - Tucson Phase II","state":"AZ","detail_file":"data/details/power-plants-19.json","plant_id":"64580","capacity_mw":3.0,"status_group":"Operating","energy_sources":"SUN","type":"Power plant","is_nuclear":false}},{"type":"Feature","geometry":{"type":"Point","coordinates":[-111.261,32.248]},"properties":{"key":"65185-d82e4ae3","layer":"power","name":"Broadway 3 - Tucson Phase I","state":"AZ","detail_file":"data/details/power-plants-25.json","plant_id":"65185","capacity_mw":1.0,"status_group":"Operating","energy_sources":"SUN","type":"Power plant","is_nuclear":false}},{"type":"Feature","geometry":{"type":"Point","coordinates":[-111.883,35.637]},"properties":{"key":"69058-d6e2cd43","layer":"power","name":"CO Bar C Solar and BESS","state":"AZ","detail_file":"data/details/power-plants-61.json","plant_id":"69058","capacity_mw":412.0,"status_group":"Planned","energy_sources":"MWH; SUN","type":"Power plant","is_nuclear":false}},{"type":"Feature","geometry":{"type":"Point","coordinates":[-111.883,35.637]},"properties":{"key":"69057-e54d4e00","layer":"power","name":"CO Bar D Solar and BESS","state":"AZ","detail_file":"data/details/power-plants-24.json","plant_id":"69057","capacity_mw":788.0,"status_group":"Planned","energy_sources":"MWH; SUN","type":"Power plant","is_nuclear":false}},{"type":"Feature","geometry":{"type":"Point","coordinates":[-111.883,35.637]},"properties":{"key":"69056-da2a3d77","layer":"power","name":"CO Bar Solar and BESS","state":"AZ","detail_file":"data/details/power-plants-38.json","plant_id":"69056","capacity_mw":800.0,"status_group":"Planned","energy_sources":"MWH; SUN","type":"Power plant","is_nuclear":false}},{"type":"Feature","geometry":{"type":"Point","coordinates":[-110.974,32.374]},"properties":{"key":"60685-3d9488ee","layer":"power","name":"Canyon Del Oro High School Solar","state":"AZ","detail_file":"data/details/power-plants-56.json","plant_id":"60685","capacity_mw":1.6,"status_group":"Operating","energy_sources":"SUN","type":"Power plant","is_nuclear":false}},{"type":"Feature","geometry":{"type":"Point","coordinates":[-111.568,32.834]},"properties":{"key":"64566-f0112e8c","layer":"power","name":"Central Line Solar, LLC","state":"AZ","detail_file":"data/details/power-plants-26.json","plant_id":"64566","capacity_mw":100.0,"status_group":"Operating","energy_sources":"SUN","type":"Power plant","is_nuclear":false}},{"type":"Feature","geometry":{"type":"Point","coordinates":[-110.803,34.682]},"properties":{"key":"67176-5f1a0489","layer":"power","name":"Chevelon Butte Phase 2","state":"AZ","detail_file":"data/details/power-plants-39.json","plant_id":"67176","capacity_mw":216.0,"status_group":"Operating","energy_sources":"WND","type":"Power plant","is_nuclear":false}},{"type":"Feature","geometry":{"type":"Point","coordinates":[-110.802,34.681]},"properties":{"key":"66001-72f7e9b7","layer":"power","name":"Chevelon Butte Wind Farm","state":"AZ","detail_file":"data/details/power-plants-08.json","plant_id":"66001","capacity_mw":238.2,"status_group":"Operating","energy_sources":"WND","type":"Power plant","is_nuclear":false}},{"type":"Feature","geometry":{"type":"Point","coordinates":[-110.953,32.23]},"properties":{"key":"56229-f82c48fd","layer":"power","name":"Cogeneration 1","state":"AZ","detail_file":"data/details/power-plants-40.json","plant_id":"56229","capacity_mw":9.0,"status_group":"Operating","energy_sources":"NG","type":"Power plant","is_nuclear":false}},{"type":"Feature","geometry":{"type":"Point","coordinates":[-110.948,32.241]},"properties":{"key":"59233-fa4ea416","layer":"power","name":"Cogeneration 2","state":"AZ","detail_file":"data/details/power-plants-54.json","plant_id":"59233","capacity_mw":5.5,"status_group":"Operating","energy_sources":"NG","type":"Power plant","is_nuclear":false}},{"type":"Feature","geometry":{"type":"Point","coordinates":[-110.813,32.102]},"properties":{"key":"58832-82b0c922","layer":"power","name":"Cogenra - TEP","state":"AZ","detail_file":"data/details/power-plants-18.json","plant_id":"58832","capacity_mw":1.0,"status_group":"Operating","energy_sources":"SUN","type":"Power plant","is_nuclear":false}},{"type":"Feature","geometry":{"type":"Point","coordinates":[-111.503,32.917]},"properties":{"key":"56948-3ffcc0ba","layer":"power","name":"Coolidge Generation Station","state":"AZ","detail_file":"data/details/power-plants-56.json","plant_id":"56948","capacity_mw":726.0,"status_group":"Operating","energy_sources":"NG","type":"Power plant","is_nuclear":false}},{"type":"Feature","geometry":{"type":"Point","coordinates":[-111.503,32.917]},"properties":{"key":"56948-d026b161","layer":"power","name":"Coolidge Generation Station","state":"AZ","detail_file":"data/details/power-plants-35.json","plant_id":"56948","capacity_mw":594.0,"status_group":"Under construction","energy_sources":"NG","type":"Power plant","is_nuclear":false}},{"type":"Feature","geometry":{"type":"Point","coordinates":[-111.484,33.155]},"properties":{"key":"58413-989124c1","layer":"power","name":"Copper Crossing Energy and Research Cent","state":"AZ","detail_file":"data/details/power-plants-21.json","plant_id":"58413","capacity_mw":154.2,"status_group":"Operating","energy_sources":"NG; SUN","type":"Power plant","is_nuclear":false}},{"type":"Feature","geometry":{"type":"Point","coordinates":[-109.271,34.579]},"properties":{"key":"6177-60428d8b","layer":"power","name":"Coronado","state":"AZ","detail_file":"data/details/power-plants-11.json","plant_id":"6177","capacity_mw":821.8,"status_group":"Operating","energy_sources":"SUB","type":"Power plant","is_nuclear":false}},{"type":"Feature","geometry":{"type":"Point","coordinates":[-111.946,33.439]},"properties":{"key":"143-7e23235f","layer":"power","name":"Crosscut","state":"AZ","detail_file":"data/details/power-plants-55.json","plant_id":"143","capacity_mw":3.0,"status_group":"Operating","energy_sources":"WAT","type":"Power plant","is_nuclear":false}},{"type":"Feature","geometry":{"type":"Point","coordinates":[-110.9,32.174]},"properties":{"key":"59779-53d87ac1","layer":"power","name":"Davis Monthan AFB (AZ) West Airfield","state":"AZ","detail_file":"data/details/power-plants-07.json","plant_id":"59779","capacity_mw":12.6,"status_group":"Operating","energy_sources":"SUN","type":"Power plant","is_nuclear":false}},{"type":"Feature","geometry":{"type":"Point","coordinates":[-110.992,32.252]},"properties":{"key":"124-8357df04","layer":"power","name":"Demoss Petrie","state":"AZ","detail_file":"data/details/power-plants-09.json","plant_id":"124","capacity_mw":85.0,"status_group":"Operating","energy_sources":"NG","type":"Power plant","is_nuclear":false}},{"type":"Feature","geometry":{"type":"Point","coordinates":[-111.789,32.904]},"properties":{"key":"55129-00cf3752","layer":"power","name":"Desert Basin","state":"AZ","detail_file":"data/details/power-plants-15.json","plant_id":"55129","capacity_mw":745.1,"status_group":"Operating","energy_sources":"NG","type":"Power plant","is_nuclear":false}},{"type":"Feature","geometry":{"type":"Point","coordinates":[-110.284,34.66]},"properties":{"key":"57098-0049ac78","layer":"power","name":"Dry Lake Wind LLC","state":"AZ","detail_file":"data/details/power-plants-09.json","plant_id":"57098","capacity_mw":63.0,"status_group":"Operating","energy_sources":"WND","type":"Power plant","is_nuclear":false}},{"type":"Feature","geometry":{"type":"Point","coordinates":[-111.565,32.847]},"properties":{"key":"62899-ffc8eb96","layer":"power","name":"East Line Solar","state":"AZ","detail_file":"data/details/power-plants-51.json","plant_id":"62899","capacity_mw":100.0,"status_group":"Operating","energy_sources":"SUN","type":"Power plant","is_nuclear":false}},{"type":"Feature","geometry":{"type":"Point","coordinates":[-111.592,32.861]},"properties":{"key":"66263-6c5e0173","layer":"power","name":"Eleven Mile Solar Center","state":"AZ","detail_file":"data/details/power-plants-14.json","plant_id":"66263","capacity_mw":600.0,"status_group":"Operating","energy_sources":"MWH; SUN","type":"Power plant","is_nuclear":false}},{"type":"Feature","geometry":{"type":"Point","coordinates":[-110.825,32.108]},"properties":{"key":"57930-e230a6cd","layer":"power","name":"FRB Solar Farm","state":"AZ","detail_file":"data/details/power-plants-38.json","plant_id":"57930","capacity_mw":1.9,"status_group":"Operating","energy_sources":"SUN","type":"Power plant","is_nuclear":false}},{"type":"Feature","geometry":{"type":"Point","coordinates":[-111.499,32.919]},"properties":{"key":"68529-89d21f25","layer":"power","name":"Flatland Storage","state":"AZ","detail_file":"data/details/power-plants-29.json","plant_id":"68529","capacity_mw":200.0,"status_group":"Operating","energy_sources":"MWH","type":"Power plant","is_nuclear":false}},{"type":"Feature","geometry":{"type":"Point","coordinates":[-110.82,32.103]},"properties":{"key":"58842-668b7b6c","layer":"power","name":"Gato Montes Solar, LLC","state":"AZ","detail_file":"data/details/power-plants-50.json","plant_id":"58842","capacity_mw":5.0,"status_group":"Operating","energy_sources":"SUN","type":"Power plant","is_nuclear":false}},{"type":"Feature","geometry":{"type":"Point","coordinates":[-111.802,33.356]},"properties":{"key":"58543-49674e51","layer":"power","name":"Gilbert Solar Facility I, LLC","state":"AZ","detail_file":"data/details/power-plants-37.json","plant_id":"58543","capacity_mw":2.0,"status_group":"Operating","energy_sources":"SUN","type":"Power plant","is_nuclear":false}},{"type":"Feature","geometry":{"type":"Point","coordinates":[-110.905,32.16]},"properties":{"key":"126-268ca07a","layer":"power","name":"H Wilson Sundt Generating Station","state":"AZ","detail_file":"data/details/power-plants-51.json","plant_id":"126","capacity_mw":528.9,"status_group":"Operating","energy_sources":"NG","type":"Power plant","is_nuclear":false}},{"type":"Feature","geometry":{"type":"Point","coordinates":[-110.495,34.574]},"properties":{"key":"69779-5871aade","layer":"power","name":"Hashknife Energy Center II LLC","state":"AZ","detail_file":"data/details/power-plants-62.json","plant_id":"69779","capacity_mw":400.0,"status_group":"Under construction","energy_sources":"MWH; SUN","type":"Power plant","is_nuclear":false}},{"type":"Feature","geometry":{"type":"Point","coordinates":[-110.495,34.574]},"properties":{"key":"69778-76283855","layer":"power","name":"Hashknife Energy Center LLC","state":"AZ","detail_file":"data/details/power-plants-48.json","plant_id":"69778","capacity_mw":550.0,"status_group":"Under construction","energy_sources":"MWH; SUN","type":"Power plant","is_nuclear":false}},{"type":"Feature","geometry":{"type":"Point","coordinates":[-111.344,33.591]},"properties":{"key":"145-41b8929a","layer":"power","name":"Horse Mesa","state":"AZ","detail_file":"data/details/power-plants-17.json","plant_id":"145","capacity_mw":131.3,"status_group":"Operating","energy_sources":"WAT","type":"Power plant","is_nuclear":false}},{"type":"Feature","geometry":{"type":"Point","coordinates":[-111.892,33.243]},"properties":{"key":"60822-5d8834a2","layer":"power","name":"Intel - Ocotillo Campus Solar","state":"AZ","detail_file":"data/details/power-plants-16.json","plant_id":"60822","capacity_mw":4.2,"status_group":"Operating","energy_sources":"SUN","type":"Power plant","is_nuclear":false}},{"type":"Feature","geometry":{"type":"Point","coordinates":[-110.819,32.098]},"properties":{"key":"60996-fb6996b8","layer":"power","name":"Iron Horse Battery Storage Hybrid","state":"AZ","detail_file":"data/details/power-plants-57.json","plant_id":"60996","capacity_mw":12.0,"status_group":"Operating","energy_sources":"MWH; SUN","type":"Power plant","is_nuclear":false}},{"type":"Feature","geometry":{"type":"Point","coordinates":[-111.925,33.603]},"properties":{"key":"58292-605c229a","layer":"power","name":"Jewish Community Center PV","state":"AZ","detail_file":"data/details/power-plants-43.json","plant_id":"58292","capacity_mw":1.1,"status_group":"Operating","energy_sources":"SUN","type":"Power plant","is_nuclear":false}},{"type":"Feature","geometry":{"type":"Point","coordinates":[-111.569,32.734]},"properties":{"key":"68452-1a1fe5e2","layer":"power","name":"Kitt Solar","state":"AZ","detail_file":"data/details/power-plants-24.json","plant_id":"68452","capacity_mw":200.0,"status_group":"Under construction","energy_sources":"MWH; SUN","type":"Power plant","is_nuclear":false}},{"type":"Feature","geometry":{"type":"Point","coordinates":[-111.935,33.356]},"properties":{"key":"147-8f763b88","layer":"power","name":"Kyrene","state":"AZ","detail_file":"data/details/power-plants-26.json","plant_id":"147","capacity_mw":573.7,"status_group":"Operating","energy_sources":"NG","type":"Power plant","is_nuclear":false}},{"type":"Feature","geometry":{"type":"Point","coordinates":[-111.602,33.347]},"properties":{"key":"64404-6416e469","layer":"power","name":"Mesa Carport PV","state":"AZ","detail_file":"data/details/power-plants-01.json","plant_id":"64404","capacity_mw":4.6,"status_group":"Operating","energy_sources":"SUN","type":"Power plant","is_nuclear":false}},{"type":"Feature","geometry":{"type":"Point","coordinates":[-111.443,33.554]},"properties":{"key":"148-c00b9f95","layer":"power","name":"Mormon Flat","state":"AZ","detail_file":"data/details/power-plants-05.json","plant_id":"148","capacity_mw":63.5,"status_group":"Operating","energy_sources":"WAT","type":"Power plant","is_nuclear":false}},{"type":"Feature","geometry":{"type":"Point","coordinates":[-111.126,32.401]},"properties":{"key":"6088-c2ad8d60","layer":"power","name":"North Loop","state":"AZ","detail_file":"data/details/power-plants-33.json","plant_id":"6088","capacity_mw":107.8,"status_group":"Operating","energy_sources":"NG","type":"Power plant","is_nuclear":false}},{"type":"Feature","geometry":{"type":"Point","coordinates":[-110.335,34.503]},"properties":{"key":"56616-6428fa61","layer":"power","name":"Novo BioPower Plant","state":"AZ","detail_file":"data/details/power-plants-13.json","plant_id":"56616","capacity_mw":27.2,"status_group":"Operating","energy_sources":"WDS","type":"Power plant","is_nuclear":false}},{"type":"Feature","geometry":{"type":"Point","coordinates":[-111.912,33.422]},"properties":{"key":"116-654a22f4","layer":"power","name":"Ocotillo","state":"AZ","detail_file":"data/details/power-plants-30.json","plant_id":"116","capacity_mw":806.2,"status_group":"Operating","energy_sources":"NG","type":"Power plant","is_nuclear":false}},{"type":"Feature","geometry":{"type":"Point","coordinates":[-112.0,33.642]},"properties":{"key":"58293-fe35d86c","layer":"power","name":"Paradise Valley H.S. PV","state":"AZ","detail_file":"data/details/power-plants-20.json","plant_id":"58293","capacity_mw":1.3,"status_group":"Operating","energy_sources":"SUN","type":"Power plant","is_nuclear":false}},{"type":"Feature","geometry":{"type":"Point","coordinates":[-111.602,33.356]},"properties":{"key":"68477-5fe940b7","layer":"power","name":"Pediment BESS I","state":"AZ","detail_file":"data/details/power-plants-00.json","plant_id":"68477","capacity_mw":250.0,"status_group":"Operating","energy_sources":"MWH","type":"Power plant","is_nuclear":false}},{"type":"Feature","geometry":{"type":"Point","coordinates":[-111.984,33.434]},"properties":{"key":"58708-6adaf7ef","layer":"power","name":"Phoenix Airport East Economy Lot","state":"AZ","detail_file":"data/details/power-plants-19.json","plant_id":"58708","capacity_mw":1.1,"status_group":"Operating","energy_sources":"SUN","type":"Power plant","is_nuclear":false}},{"type":"Feature","geometry":{"type":"Point","coordinates":[-111.243,32.37]},"properties":{"key":"58486-ccbf7ddf","layer":"power","name":"Picture Rocks Solar, LLC","state":"AZ","detail_file":"data/details/power-plants-13.json","plant_id":"58486","capacity_mw":20.0,"status_group":"Operating","energy_sources":"SUN","type":"Power plant","is_nuclear":false}},{"type":"Feature","geometry":{"type":"Point","coordinates":[-110.817,32.166]},"properties":{"key":"62075-1e1556e0","layer":"power","name":"Pima Community College","state":"AZ","detail_file":"data/details/power-plants-35.json","plant_id":"62075","capacity_mw":1.1,"status_group":"Operating","energy_sources":"SUN","type":"Power plant","is_nuclear":false}},{"type":"Feature","geometry":{"type":"Point","coordinates":[-110.991,32.146]},"properties":{"key":"61104-ad81d5cf","layer":"power","name":"Pima Community College - East Campus","state":"AZ","detail_file":"data/details/power-plants-30.json","plant_id":"61104","capacity_mw":1.3,"status_group":"Operating","energy_sources":"SUN","type":"Power plant","is_nuclear":false}},{"type":"Feature","geometry":{"type":"Point","coordinates":[-111.028,32.343]},"properties":{"key":"63531-a006732c","layer":"power","name":"Pima Community College NW","state":"AZ","detail_file":"data/details/power-plants-02.json","plant_id":"63531","capacity_mw":1.3,"status_group":"Operating","energy_sources":"SUN","type":"Power plant","is_nuclear":false}},{"type":"Feature","geometry":{"type":"Point","coordinates":[-110.991,32.252]},"properties":{"key":"61197-f671387f","layer":"power","name":"Pima Energy Storage System","state":"AZ","detail_file":"data/details/power-plants-61.json","plant_id":"61197","capacity_mw":10.0,"status_group":"Operating","energy_sources":"MWH","type":"Power plant","is_nuclear":false}},{"type":"Feature","geometry":{"type":"Point","coordinates":[-111.551,32.876]},"properties":{"key":"61678-da0fbeb1","layer":"power","name":"Pinal Central Energy Center Hybrid","state":"AZ","detail_file":"data/details/power-plants-13.json","plant_id":"61678","capacity_mw":30.0,"status_group":"Operating","energy_sources":"MWH; SUN","type":"Power plant","is_nuclear":false}},{"type":"Feature","geometry":{"type":"Point","coordinates":[-111.484,33.161]},"properties":{"key":"57318-0b6f8954","layer":"power","name":"Poseidon Solar, LLC","state":"AZ","detail_file":"data/details/power-plants-21.json","plant_id":"57318","capacity_mw":20.0,"status_group":"Operating","energy_sources":"SUN","type":"Power plant","is_nuclear":false}},{"type":"Feature","geometry":{"type":"Point","coordinates":[-110.173,34.606]},"properties":{"key":"57379-124b862b","layer":"power","name":"Poseidon Wind, LLC","state":"AZ","detail_file":"data/details/power-plants-13.json","plant_id":"57379","capacity_mw":65.1,"status_group":"Operating","energy_sources":"WND","type":"Power plant","is_nuclear":false}},{"type":"Feature","geometry":{"type":"Point","coordinates":[-110.82,32.116]},"properties":{"key":"58171-cb4f766f","layer":"power","name":"Prairie Fire","state":"AZ","detail_file":"data/details/power-plants-04.json","plant_id":"58171","capacity_mw":4.5,"status_group":"Operating","energy_sources":"SUN","type":"Power plant","is_nuclear":false}},{"type":"Feature","geometry":{"type":"Point","coordinates":[-111.612,33.267]},"properties":{"key":"57883-8369b2f5","layer":"power","name":"Queen Creek Solar Farm","state":"AZ","detail_file":"data/details/power-plants-36.json","plant_id":"57883","capacity_mw":19.0,"status_group":"Operating","energy_sources":"SUN","type":"Power plant","is_nuclear":false}},{"type":"Feature","geometry":{"type":"Point","coordinates":[-110.878,32.147]},"properties":{"key":"65972-c0601556","layer":"power","name":"Raptor Ridge","state":"AZ","detail_file":"data/details/power-plants-23.json","plant_id":"65972","capacity_mw":12.5,"status_group":"Operating","energy_sources":"SUN","type":"Power plant","is_nuclear":false}},{"type":"Feature","geometry":{"type":"Point","coordinates":[-110.088,32.286]},"properties":{"key":"58833-a3e3dd61","layer":"power","name":"Red Horse 2","state":"AZ","detail_file":"data/details/power-plants-01.json","plant_id":"58833","capacity_mw":81.0,"status_group":"Operating","energy_sources":"SUN; WND","type":"Power plant","is_nuclear":false}},{"type":"Feature","geometry":{"type":"Point","coordinates":[-110.051,32.136]},"properties":{"key":"60285-a7becaf5","layer":"power","name":"Red Horse III","state":"AZ","detail_file":"data/details/power-plants-51.json","plant_id":"60285","capacity_mw":30.0,"status_group":"Operating","energy_sources":"SUN","type":"Power plant","is_nuclear":false}},{"type":"Feature","geometry":{"type":"Point","coordinates":[-111.289,32.551]},"properties":{"key":"60467-3eaf5ddb","layer":"power","name":"Red Rock","state":"AZ","detail_file":"data/details/power-plants-01.json","plant_id":"60467","capacity_mw":84.9,"status_group":"Operating","energy_sources":"MWH; SUN","type":"Power plant","is_nuclear":false}},{"type":"Feature","geometry":{"type":"Point","coordinates":[-110.816,32.072]},"properties":{"key":"67905-a117c2f4","layer":"power","name":"Roadrunner Reserve Phase 1","state":"AZ","detail_file":"data/details/power-plants-34.json","plant_id":"67905","capacity_mw":200.0,"status_group":"Operating","energy_sources":"MWH","type":"Power plant","is_nuclear":false}},{"type":"Feature","geometry":{"type":"Point","coordinates":[-109.935,32.086]},"properties":{"key":"67823-22738200","layer":"power","name":"Roadrunner Solar and BESS","state":"AZ","detail_file":"data/details/power-plants-13.json","plant_id":"67823","capacity_mw":470.0,"status_group":"Operating","energy_sources":"MWH; SUN","type":"Power plant","is_nuclear":false}},{"type":"Feature","geometry":{"type":"Point","coordinates":[-111.033,32.289]},"properties":{"key":"57524-2a832df3","layer":"power","name":"Roger Road WWTP","state":"AZ","detail_file":"data/details/power-plants-50.json","plant_id":"57524","capacity_mw":1.1,"status_group":"Operating","energy_sources":"SUN","type":"Power plant","is_nuclear":false}},{"type":"Feature","geometry":{"type":"Point","coordinates":[-111.162,33.671]},"properties":{"key":"149-c0d12dfc","layer":"power","name":"Roosevelt","state":"AZ","detail_file":"data/details/power-plants-13.json","plant_id":"149","capacity_mw":36.0,"status_group":"Operating","energy_sources":"WAT","type":"Power plant","is_nuclear":false}},{"type":"Feature","geometry":{"type":"Point","coordinates":[-111.3,32.552]},"properties":{"key":"118-9e661c5c","layer":"power","name":"Saguaro","state":"AZ","detail_file":"data/details/power-plants-39.json","plant_id":"118","capacity_mw":184.5,"status_group":"Operating","energy_sources":"NG","type":"Power plant","is_nuclear":false}},{"type":"Feature","geometry":{"type":"Point","coordinates":[-111.514,32.87]},"properties":{"key":"66716-49cf44c4","layer":"power","name":"Saint Energy Storage II LLC","state":"AZ","detail_file":"data/details/power-plants-27.json","plant_id":"66716","capacity_mw":100.0,"status_group":"Operating","energy_sources":"MWH","type":"Power plant","is_nuclear":false}},{"type":"Feature","geometry":{"type":"Point","coordinates":[-111.502,32.866]},"properties":{"key":"63476-3c3f0447","layer":"power","name":"Saint Solar","state":"AZ","detail_file":"data/details/power-plants-02.json","plant_id":"63476","capacity_mw":100.0,"status_group":"Operating","energy_sources":"SUN","type":"Power plant","is_nuclear":false}},{"type":"Feature","geometry":{"type":"Point","coordinates":[-111.43,33.036]},"properties":{"key":"59634-b5558bd7","layer":"power","name":"Sandstone Solar","state":"AZ","detail_file":"data/details/power-plants-15.json","plant_id":"59634","capacity_mw":45.0,"status_group":"Operating","energy_sources":"SUN","type":"Power plant","is_nuclear":false}},{"type":"Feature","geometry":{"type":"Point","coordinates":[-111.75,33.333]},"properties":{"key":"8068-8ce78e88","layer":"power","name":"Santan","state":"AZ","detail_file":"data/details/power-plants-12.json","plant_id":"8068","capacity_mw":1326.0,"status_group":"Operating","energy_sources":"NG","type":"Power plant","is_nuclear":false}},{"type":"Feature","geometry":{"type":"Point","coordinates":[-111.629,32.728]},"properties":{"key":"68883-bb950b41","layer":"power","name":"Sawtooth Solar","state":"AZ","detail_file":"data/details/power-plants-18.json","plant_id":"68883","capacity_mw":500.0,"status_group":"Under construction","energy_sources":"MWH; SUN","type":"Power plant","is_nuclear":false}},{"type":"Feature","geometry":{"type":"Point","coordinates":[-111.304,32.502]},"properties":{"key":"67503-2e4af911","layer":"power","name":"Serrano","state":"AZ","detail_file":"data/details/power-plants-47.json","plant_id":"67503","capacity_mw":383.8,"status_group":"Operating","energy_sources":"MWH; SUN","type":"Power plant","is_nuclear":false}},{"type":"Feature","geometry":{"type":"Point","coordinates":[-110.126,34.998]},"properties":{"key":"69060-8aea58bb","layer":"power","name":"Snowflake A Solar and BESS","state":"AZ","detail_file":"data/details/power-plants-58.json","plant_id":"69060","capacity_mw":950.0,"status_group":"Under construction","energy_sources":"MWH; SUN","type":"Power plant","is_nuclear":false}},{"type":"Feature","geometry":{"type":"Point","coordinates":[-111.781,33.466]},"properties":{"key":"100-94dc5487","layer":"power","name":"South Consolidated","state":"AZ","detail_file":"data/details/power-plants-61.json","plant_id":"100","capacity_mw":1.4,"status_group":"Operating","energy_sources":"WAT","type":"Power plant","is_nuclear":false}},{"type":"Feature","geometry":{"type":"Point","coordinates":[-109.164,34.319]},"properties":{"key":"8223-0c6cf352","layer":"power","name":"Springerville","state":"AZ","detail_file":"data/details/power-plants-52.json","plant_id":"8223","capacity_mw":1779.2,"status_group":"Operating","energy_sources":"SUB; SUN","type":"Power plant","is_nuclear":false}},{"type":"Feature","geometry":{"type":"Point","coordinates":[-111.536,33.566]},"properties":{"key":"150-845e70ec","layer":"power","name":"Stewart Mountain","state":"AZ","detail_file":"data/details/power-plants-57.json","plant_id":"150","capacity_mw":13.0,"status_group":"Operating","energy_sources":"WAT","type":"Power plant","is_nuclear":false}},{"type":"Feature","geometry":{"type":"Point","coordinates":[-111.498,32.888]},"properties":{"key":"65956-0f504e85","layer":"power","name":"Storey Solar and Storage","state":"AZ","detail_file":"data/details/power-plants-51.json","plant_id":"65956","capacity_mw":210.0,"status_group":"Operating","energy_sources":"MWH; SUN","type":"Power plant","is_nuclear":false}},{"type":"Feature","geometry":{"type":"Point","coordinates":[-109.919,32.063]},"properties":{"key":"60381-b5fc42e1","layer":"power","name":"Sulphur Springs","state":"AZ","detail_file":"data/details/power-plants-10.json","plant_id":"60381","capacity_mw":20.0,"status_group":"Operating","energy_sources":"SUN","type":"Power plant","is_nuclear":false}},{"type":"Feature","geometry":{"type":"Point","coordinates":[-111.59,32.928]},"properties":{"key":"55522-6598376d","layer":"power","name":"Sundance","state":"AZ","detail_file":"data/details/power-plants-20.json","plant_id":"55522","capacity_mw":695.0,"status_group":"Operating","energy_sources":"NG","type":"Power plant","is_nuclear":false}},{"type":"Feature","geometry":{"type":"Point","coordinates":[-111.831,33.359]},"properties":{"key":"66333-a1ddd056","layer":"power","name":"Superstition Energy Storage","state":"AZ","detail_file":"data/details/power-plants-09.json","plant_id":"66333","capacity_mw":90.0,"status_group":"Operating","energy_sources":"MWH","type":"Power plant","is_nuclear":false}},{"type":"Feature","geometry":{"type":"Point","coordinates":[-109.823,32.054]},"properties":{"key":"68298-3d332f19","layer":"power","name":"THREE SISTERS Solar Generation and BESS","state":"AZ","detail_file":"data/details/power-plants-33.json","plant_id":"68298","capacity_mw":600.0,"status_group":"Under construction","energy_sources":"MWH; SUN","type":"Power plant","is_nuclear":false}},{"type":"Feature","geometry":{"type":"Point","coordinates":[-110.914,32.125]},"properties":{"key":"67821-f02aa8b3","layer":"power","name":"TJX Tucson","state":"AZ","detail_file":"data/details/power-plants-15.json","plant_id":"67821","capacity_mw":1.0,"status_group":"Operating","energy_sources":"SUN","type":"Power plant","is_nuclear":false}},{"type":"Feature","geometry":{"type":"Point","coordinates":[-110.816,32.098]},"properties":{"key":"59455-c8e943b1","layer":"power","name":"Tech Park Solar","state":"AZ","detail_file":"data/details/power-plants-14.json","plant_id":"59455","capacity_mw":5.0,"status_group":"Operating","energy_sources":"SUN","type":"Power plant","is_nuclear":false}},{"type":"Feature","geometry":{"type":"Point","coordinates":[-111.255,32.247]},"properties":{"key":"69740-976a550c","layer":"power","name":"Tucson - CAVSARP","state":"AZ","detail_file":"data/details/power-plants-34.json","plant_id":"69740","capacity_mw":7.2,"status_group":"Operating","energy_sources":"SUN","type":"Power plant","is_nuclear":false}},{"type":"Feature","geometry":{"type":"Point","coordinates":[-110.811,32.097]},"properties":{"key":"57392-51f1f77a","layer":"power","name":"UASTP I","state":"AZ","detail_file":"data/details/power-plants-44.json","plant_id":"57392","capacity_mw":1.2,"status_group":"Operating","energy_sources":"SUN","type":"Power plant","is_nuclear":false}},{"type":"Feature","geometry":{"type":"Point","coordinates":[-111.739,32.937]},"properties":{"key":"58516-d42444e1","layer":"power","name":"Union HS at Casa Grande","state":"AZ","detail_file":"data/details/power-plants-02.json","plant_id":"58516","capacity_mw":1.6,"status_group":"Operating","energy_sources":"SUN","type":"Power plant","is_nuclear":false}},{"type":"Feature","geometry":{"type":"Point","coordinates":[-110.853,32.578]},"properties":{"key":"54594-0b88c0c8","layer":"power","name":"University of Arizona - Biosphere 2","state":"AZ","detail_file":"data/details/power-plants-35.json","plant_id":"54594","capacity_mw":3.1,"status_group":"Operating","energy_sources":"DFO; NG","type":"Power plant","is_nuclear":false}},{"type":"Feature","geometry":{"type":"Point","coordinates":[-110.867,32.146]},"properties":{"key":"59454-330e85af","layer":"power","name":"Valencia Solar","state":"AZ","detail_file":"data/details/power-plants-29.json","plant_id":"59454","capacity_mw":10.0,"status_group":"Operating","energy_sources":"SUN","type":"Power plant","is_nuclear":false}},{"type":"Feature","geometry":{"type":"Point","coordinates":[-111.713,32.891]},"properties":{"key":"58517-130d6ef7","layer":"power","name":"Vista Grande HS at Casa Grande","state":"AZ","detail_file":"data/details/power-plants-27.json","plant_id":"58517","capacity_mw":1.4,"status_group":"Operating","energy_sources":"SUN","type":"Power plant","is_nuclear":false}},{"type":"Feature","geometry":{"type":"Point","coordinates":[-110.425,34.736]},"properties":{"key":"69451-234a984b","layer":"power","name":"West Camp Wind Farm","state":"AZ","detail_file":"data/details/power-plants-25.json","plant_id":"69451","capacity_mw":500.0,"status_group":"Operating","energy_sources":"WND","type":"Power plant","is_nuclear":false}},{"type":"Feature","geometry":{"type":"Point","coordinates":[-111.555,32.756]},"properties":{"key":"66125-00dfb84e","layer":"power","name":"West Line Solar, LLC","state":"AZ","detail_file":"data/details/power-plants-39.json","plant_id":"66125","capacity_mw":100.0,"status_group":"Operating","energy_sources":"SUN","type":"Power plant","is_nuclear":false}},{"type":"Feature","geometry":{"type":"Point","coordinates":[-109.29,34.093]},"properties":{"key":"56358-fcd32e97","layer":"power","name":"Western Renewable Energy","state":"AZ","detail_file":"data/details/power-plants-23.json","plant_id":"56358","capacity_mw":3.0,"status_group":"Operating","energy_sources":"WDS","type":"Power plant","is_nuclear":false}},{"type":"Feature","geometry":{"type":"Point","coordinates":[-110.893,32.044]},"properties":{"key":"64426-25879c02","layer":"power","name":"Wilmot Energy Center LLC","state":"AZ","detail_file":"data/details/power-plants-30.json","plant_id":"64426","capacity_mw":160.0,"status_group":"Operating","energy_sources":"MWH; SUN","type":"Power plant","is_nuclear":false}},{"type":"Feature","geometry":{"type":"Point","coordinates":[-108.894,34.16]},"properties":{"key":"64638-7057fc97","layer":"power","name":"Borderlands Wind, LLC","state":"NM","detail_file":"data/details/power-plants-33.json","plant_id":"64638","capacity_mw":100.0,"status_group":"Operating","energy_sources":"WND","type":"Power plant","is_nuclear":false}},{"type":"Feature","geometry":{"type":"Point","coordinates":[-108.123,32.696]},"properties":{"key":"54667-9c17f805","layer":"power","name":"Chino Mines","state":"NM","detail_file":"data/details/power-plants-47.json","plant_id":"54667","capacity_mw":54.0,"status_group":"Operating","energy_sources":"NG","type":"Power plant","is_nuclear":false}},{"type":"Feature","geometry":{"type":"Point","coordinates":[-108.779,35.522]},"properties":{"key":"62406-6be0ab7d","layer":"power","name":"City of Gallup Solar","state":"NM","detail_file":"data/details/power-plants-58.json","plant_id":"62406","capacity_mw":8.0,"status_group":"Operating","energy_sources":"SUN","type":"Power plant","is_nuclear":false}},{"type":"Feature","geometry":{"type":"Point","coordinates":[-108.081,35.408]},"properties":{"key":"66888-d1236ff9","layer":"power","name":"Escalante (NM)","state":"NM","detail_file":"data/details/power-plants-12.json","plant_id":"66888","capacity_mw":200.0,"status_group":"Operating","energy_sources":"SUN","type":"Power plant","is_nuclear":false}},{"type":"Feature","geometry":{"type":"Point","coordinates":[-108.838,32.145]},"properties":{"key":"58629-02940afe","layer":"power","name":"Lightning Dock Geothermal","state":"NM","detail_file":"data/details/power-plants-39.json","plant_id":"58629","capacity_mw":19.2,"status_group":"Operating","energy_sources":"GEO","type":"Power plant","is_nuclear":false}},{"type":"Feature","geometry":{"type":"Point","coordinates":[-108.698,32.351]},"properties":{"key":"7967-db77ee65","layer":"power","name":"Lordsburg Generating","state":"NM","detail_file":"data/details/power-plants-27.json","plant_id":"7967","capacity_mw":88.0,"status_group":"Operating","energy_sources":"NG","type":"Power plant","is_nuclear":false}},{"type":"Feature","geometry":{"type":"Point","coordinates":[-108.179,32.762]},"properties":{"key":"69558-9a8bcf52","layer":"power","name":"Pluma - SLT Grant","state":"NM","detail_file":"data/details/power-plants-43.json","plant_id":"69558","capacity_mw":4.8,"status_group":"Under construction","energy_sources":"SUN","type":"Power plant","is_nuclear":false}},{"type":"Feature","geometry":{"type":"Point","coordinates":[-108.708,32.37]},"properties":{"key":"69559-d59cbdc6","layer":"power","name":"Pluma - SLT Hidalgo","state":"NM","detail_file":"data/details/power-plants-54.json","plant_id":"69559","capacity_mw":3.8,"status_group":"Under construction","energy_sources":"SUN","type":"Power plant","is_nuclear":false}},{"type":"Feature","geometry":{"type":"Point","coordinates":[-108.549,32.236]},"properties":{"key":"7975-e1020139","layer":"power","name":"Pyramid","state":"NM","detail_file":"data/details/power-plants-14.json","plant_id":"7975","capacity_mw":186.0,"status_group":"Operating","energy_sources":"NG","type":"Power plant","is_nuclear":false}},{"type":"Feature","geometry":{"type":"Point","coordinates":[-108.248,32.714]},"properties":{"key":"58540-035b221d","layer":"power","name":"Silver City WWTP PV Project","state":"NM","detail_file":"data/details/power-plants-32.json","plant_id":"58540","capacity_mw":1.0,"status_group":"Operating","energy_sources":"SUN","type":"Power plant","is_nuclear":false}},{"type":"Feature","geometry":{"type":"Point","coordinates":[-108.693,32.367]},"properties":{"key":"69888-da7cb7fe","layer":"power","name":"USS Fletcher Solar","state":"NM","detail_file":"data/details/power-plants-60.json","plant_id":"69888","capacity_mw":1.7,"status_group":"Under construction","energy_sources":"SUN","type":"Power plant","is_nuclear":false}},{"type":"Feature","geometry":{"type":"Point","coordinates":[-108.902,35.58]},"properties":{"key":"64849-cf8b2312","layer":"power","name":"Wildcat Solar Power Plant LLC","state":"NM","detail_file":"data/details/power-plants-44.json","plant_id":"64849","capacity_mw":140.0,"status_group":"Planned","energy_sources":"MWH; SUN","type":"Power plant","is_nuclear":false}}]}