{"type":"FeatureCollection","features":[{"type":"Feature","geometry":{"type":"Point","coordinates":[-141.937,62.962]},"properties":{"key":"7169-6d0fadde","layer":"power","name":"Northway","state":"AK","detail_file":"data/details/power-plants-28.json","plant_id":"7169","capacity_mw":1.2,"status_group":"Operating","energy_sources":"DFO","type":"Power plant","is_nuclear":false}},{"type":"Feature","geometry":{"type":"Point","coordinates":[-143.589,62.593]},"properties":{"key":"61685-e4d92bf3","layer":"power","name":"Slana Generating Station","state":"AK","detail_file":"data/details/power-plants-28.json","plant_id":"61685","capacity_mw":1.2,"status_group":"Operating","energy_sources":"DFO","type":"Power plant","is_nuclear":false}},{"type":"Feature","geometry":{"type":"Point","coordinates":[-143.0,63.336]},"properties":{"key":"406-6faf8c5d","layer":"power","name":"Tok","state":"AK","detail_file":"data/details/power-plants-17.json","plant_id":"406","capacity_mw":8.2,"status_group":"Operating","energy_sources":"DFO","type":"Power plant","is_nuclear":false}}]}