{"type":"FeatureCollection","features":[{"type":"Feature","geometry":{"type":"Point","coordinates":[-171.712,63.777]},"properties":{"key":"57062-fa4d3de2","layer":"power","name":"Gambell","state":"AK","detail_file":"data/details/power-plants-08.json","plant_id":"57062","capacity_mw":1.8,"status_group":"Operating","energy_sources":"DFO","type":"Power plant","is_nuclear":false}},{"type":"Feature","geometry":{"type":"Point","coordinates":[-170.476,63.695]},"properties":{"key":"57052-887a51f6","layer":"power","name":"Savoonga","state":"AK","detail_file":"data/details/power-plants-62.json","plant_id":"57052","capacity_mw":1.7,"status_group":"Operating","energy_sources":"DFO","type":"Power plant","is_nuclear":false}}]}