{"type":"FeatureCollection","features":[{"type":"Feature","geometry":{"type":"Point","coordinates":[-147.725,64.817]},"properties":{"key":"57583-124ed5ef","layer":"power","name":"Battery Energy Storage System","state":"AK","detail_file":"data/details/power-plants-52.json","plant_id":"57583","capacity_mw":40.0,"status_group":"Operating","energy_sources":"MWH","type":"Power plant","is_nuclear":false}},{"type":"Feature","geometry":{"type":"Point","coordinates":[-147.735,64.848]},"properties":{"key":"79-3e1f1653","layer":"power","name":"Chena Power Plant","state":"AK","detail_file":"data/details/power-plants-50.json","plant_id":"79","capacity_mw":27.5,"status_group":"Operating","energy_sources":"SUB","type":"Power plant","is_nuclear":false}},{"type":"Feature","geometry":{"type":"Point","coordinates":[-145.719,64.028]},"properties":{"key":"56325-3a667ffa","layer":"power","name":"Delta Power","state":"AK","detail_file":"data/details/power-plants-53.json","plant_id":"56325","capacity_mw":23.1,"status_group":"Operating","energy_sources":"DFO","type":"Power plant","is_nuclear":false}},{"type":"Feature","geometry":{"type":"Point","coordinates":[-145.597,64.014]},"properties":{"key":"58511-a6bcafb9","layer":"power","name":"Delta Wind Farm","state":"AK","detail_file":"data/details/power-plants-12.json","plant_id":"58511","capacity_mw":1.9,"status_group":"Operating","energy_sources":"WND","type":"Power plant","is_nuclear":false}},{"type":"Feature","geometry":{"type":"Point","coordinates":[-147.076,64.671]},"properties":{"key":"50392-bbecb1e9","layer":"power","name":"Eielson AFB Central Heat & Power Plant","state":"AK","detail_file":"data/details/power-plants-05.json","plant_id":"50392","capacity_mw":36.0,"status_group":"Operating","energy_sources":"DFO; SUB","type":"Power plant","is_nuclear":false}},{"type":"Feature","geometry":{"type":"Point","coordinates":[-147.649,64.826]},"properties":{"key":"50308-359eaa64","layer":"power","name":"FWA Central Heat and Power Plant","state":"AK","detail_file":"data/details/power-plants-15.json","plant_id":"50308","capacity_mw":20.0,"status_group":"Operating","energy_sources":"SUB","type":"Power plant","is_nuclear":false}},{"type":"Feature","geometry":{"type":"Point","coordinates":[-147.719,64.854]},"properties":{"key":"6286-5d80a84f","layer":"power","name":"Fairbanks","state":"AK","detail_file":"data/details/power-plants-42.json","plant_id":"6286","capacity_mw":42.2,"status_group":"Operating","energy_sources":"DFO","type":"Power plant","is_nuclear":false}},{"type":"Feature","geometry":{"type":"Point","coordinates":[-145.253,66.566]},"properties":{"key":"7174-69d5dd79","layer":"power","name":"Gwitchyaa Zhee","state":"AK","detail_file":"data/details/power-plants-28.json","plant_id":"7174","capacity_mw":2.8,"status_group":"Operating","energy_sources":"DFO","type":"Power plant","is_nuclear":false}},{"type":"Feature","geometry":{"type":"Point","coordinates":[-147.348,64.736]},"properties":{"key":"6285-e3145e82","layer":"power","name":"North Pole","state":"AK","detail_file":"data/details/power-plants-51.json","plant_id":"6285","capacity_mw":181.0,"status_group":"Operating","energy_sources":"DFO; WO","type":"Power plant","is_nuclear":false}},{"type":"Feature","geometry":{"type":"Point","coordinates":[-147.822,64.854]},"properties":{"key":"50711-8b71a123","layer":"power","name":"University of Alaska Fairbanks","state":"AK","detail_file":"data/details/power-plants-49.json","plant_id":"50711","capacity_mw":39.6,"status_group":"Operating","energy_sources":"DFO; SUB","type":"Power plant","is_nuclear":false}}]}