{"type":"FeatureCollection","features":[{"type":"Feature","geometry":{"type":"Point","coordinates":[-96.436,47.005]},"properties":{"key":"55576-a00827e9","layer":"power","name":"Agassiz Beach LLC","state":"MN","detail_file":"data/details/power-plants-19.json","plant_id":"55576","capacity_mw":1.9,"status_group":"Operating","energy_sources":"WND","type":"Power plant","is_nuclear":false}},{"type":"Feature","geometry":{"type":"Point","coordinates":[-96.633,47.765]},"properties":{"key":"54212-79449525","layer":"power","name":"American Crystal Sugar Crookston","state":"MN","detail_file":"data/details/power-plants-35.json","plant_id":"54212","capacity_mw":6.5,"status_group":"Operating","energy_sources":"SUB","type":"Power plant","is_nuclear":false}},{"type":"Feature","geometry":{"type":"Point","coordinates":[-97.007,47.927]},"properties":{"key":"54214-25da5c81","layer":"power","name":"American Crystal Sugar East Grand Forks","state":"MN","detail_file":"data/details/power-plants-14.json","plant_id":"54214","capacity_mw":7.5,"status_group":"Operating","energy_sources":"SUB","type":"Power plant","is_nuclear":false}},{"type":"Feature","geometry":{"type":"Point","coordinates":[-96.761,46.903]},"properties":{"key":"54211-dbee3361","layer":"power","name":"American Crystal Sugar Moorhead","state":"MN","detail_file":"data/details/power-plants-24.json","plant_id":"54211","capacity_mw":5.0,"status_group":"Operating","energy_sources":"SUB","type":"Power plant","is_nuclear":false}},{"type":"Feature","geometry":{"type":"Point","coordinates":[-96.433,44.413]},"properties":{"key":"55566-e2656296","layer":"power","name":"Autumn Hills LLC","state":"MN","detail_file":"data/details/power-plants-27.json","plant_id":"55566","capacity_mw":1.9,"status_group":"Operating","energy_sources":"WND","type":"Power plant","is_nuclear":false}},{"type":"Feature","geometry":{"type":"Point","coordinates":[-96.353,44.445]},"properties":{"key":"61650-d0a8feff","layer":"power","name":"Blazing Star 2 Wind Farm","state":"MN","detail_file":"data/details/power-plants-31.json","plant_id":"61650","capacity_mw":200.0,"status_group":"Operating","energy_sources":"WND","type":"Power plant","is_nuclear":false}},{"type":"Feature","geometry":{"type":"Point","coordinates":[-96.368,44.544]},"properties":{"key":"60504-8ef50a28","layer":"power","name":"Blazing Star Wind Farm 1","state":"MN","detail_file":"data/details/power-plants-47.json","plant_id":"60504","capacity_mw":200.0,"status_group":"Operating","energy_sources":"WND","type":"Power plant","is_nuclear":false}},{"type":"Feature","geometry":{"type":"Point","coordinates":[-96.093,44.05]},"properties":{"key":"56209-ba9b628b","layer":"power","name":"Boeve Windfarm LLC","state":"MN","detail_file":"data/details/power-plants-40.json","plant_id":"56209","capacity_mw":2.0,"status_group":"Operating","energy_sources":"WND","type":"Power plant","is_nuclear":false}},{"type":"Feature","geometry":{"type":"Point","coordinates":[-96.297,44.423]},"properties":{"key":"65761-7422a136","layer":"power","name":"Buffalo Ridge Wind","state":"MN","detail_file":"data/details/power-plants-30.json","plant_id":"65761","capacity_mw":106.0,"status_group":"Operating","energy_sources":"WND","type":"Power plant","is_nuclear":false}},{"type":"Feature","geometry":{"type":"Point","coordinates":[-96.161,44.09]},"properties":{"key":"61178-235aff90","layer":"power","name":"Capella Community Solar","state":"MN","detail_file":"data/details/power-plants-22.json","plant_id":"61178","capacity_mw":5.0,"status_group":"Operating","energy_sources":"SUN","type":"Power plant","is_nuclear":false}},{"type":"Feature","geometry":{"type":"Point","coordinates":[-96.437,44.025]},"properties":{"key":"56410-7ab7e694","layer":"power","name":"Carstensen Wind","state":"MN","detail_file":"data/details/power-plants-20.json","plant_id":"56410","capacity_mw":1.7,"status_group":"Operating","energy_sources":"WND","type":"Power plant","is_nuclear":false}},{"type":"Feature","geometry":{"type":"Point","coordinates":[-96.746,46.866]},"properties":{"key":"57910-dda122a9","layer":"power","name":"Centennial Generating Station","state":"MN","detail_file":"data/details/power-plants-52.json","plant_id":"57910","capacity_mw":11.5,"status_group":"Operating","energy_sources":"DFO","type":"Power plant","is_nuclear":false}},{"type":"Feature","geometry":{"type":"Point","coordinates":[-96.406,44.246]},"properties":{"key":"57385-6d869057","layer":"power","name":"Community Wind North LLC","state":"MN","detail_file":"data/details/power-plants-15.json","plant_id":"57385","capacity_mw":30.0,"status_group":"Operating","energy_sources":"WND","type":"Power plant","is_nuclear":false}},{"type":"Feature","geometry":{"type":"Point","coordinates":[-96.074,44.036]},"properties":{"key":"56204-19eb4913","layer":"power","name":"Fey Windfarm LLC","state":"MN","detail_file":"data/details/power-plants-36.json","plant_id":"56204","capacity_mw":2.0,"status_group":"Operating","energy_sources":"WND","type":"Power plant","is_nuclear":false}},{"type":"Feature","geometry":{"type":"Point","coordinates":[-96.225,44.23]},"properties":{"key":"55574-11a21162","layer":"power","name":"Florence Hills LLC","state":"MN","detail_file":"data/details/power-plants-00.json","plant_id":"55574","capacity_mw":1.9,"status_group":"Operating","energy_sources":"WND","type":"Power plant","is_nuclear":false}},{"type":"Feature","geometry":{"type":"Point","coordinates":[-96.433,44.021]},"properties":{"key":"56413-4860cfa4","layer":"power","name":"Greenback Energy","state":"MN","detail_file":"data/details/power-plants-12.json","plant_id":"56413","capacity_mw":1.7,"status_group":"Operating","energy_sources":"WND","type":"Power plant","is_nuclear":false}},{"type":"Feature","geometry":{"type":"Point","coordinates":[-96.235,44.225]},"properties":{"key":"55573-c03c3bb9","layer":"power","name":"Hadley Ridge LLC","state":"MN","detail_file":"data/details/power-plants-56.json","plant_id":"55573","capacity_mw":1.9,"status_group":"Operating","energy_sources":"WND","type":"Power plant","is_nuclear":false}},{"type":"Feature","geometry":{"type":"Point","coordinates":[-96.832,47.35]},"properties":{"key":"8105-e8cdfb21","layer":"power","name":"Halstad","state":"MN","detail_file":"data/details/power-plants-40.json","plant_id":"8105","capacity_mw":4.0,"status_group":"Operating","energy_sources":"DFO","type":"Power plant","is_nuclear":false}},{"type":"Feature","geometry":{"type":"Point","coordinates":[-96.043,46.291]},"properties":{"key":"1943-c3b30643","layer":"power","name":"Hoot Lake","state":"MN","detail_file":"data/details/power-plants-33.json","plant_id":"1943","capacity_mw":1.0,"status_group":"Operating","energy_sources":"WAT","type":"Power plant","is_nuclear":false}},{"type":"Feature","geometry":{"type":"Point","coordinates":[-96.043,46.291]},"properties":{"key":"65066-f4f113c4","layer":"power","name":"Hoot Lake Solar","state":"MN","detail_file":"data/details/power-plants-49.json","plant_id":"65066","capacity_mw":49.9,"status_group":"Operating","energy_sources":"SUN","type":"Power plant","is_nuclear":false}},{"type":"Feature","geometry":{"type":"Point","coordinates":[-96.219,44.227]},"properties":{"key":"55572-8dc6c02d","layer":"power","name":"Hope Creek LLC","state":"MN","detail_file":"data/details/power-plants-31.json","plant_id":"55572","capacity_mw":1.9,"status_group":"Operating","energy_sources":"WND","type":"Power plant","is_nuclear":false}},{"type":"Feature","geometry":{"type":"Point","coordinates":[-96.441,44.423]},"properties":{"key":"55565-a5b05d54","layer":"power","name":"Jack River LLC","state":"MN","detail_file":"data/details/power-plants-60.json","plant_id":"55565","capacity_mw":1.9,"status_group":"Operating","energy_sources":"WND","type":"Power plant","is_nuclear":false}},{"type":"Feature","geometry":{"type":"Point","coordinates":[-96.43,44.428]},"properties":{"key":"55564-29380017","layer":"power","name":"Jessica Mills LLC","state":"MN","detail_file":"data/details/power-plants-09.json","plant_id":"55564","capacity_mw":1.9,"status_group":"Operating","energy_sources":"WND","type":"Power plant","is_nuclear":false}},{"type":"Feature","geometry":{"type":"Point","coordinates":[-96.446,44.423]},"properties":{"key":"55563-caa83a99","layer":"power","name":"Julia Hills LLC","state":"MN","detail_file":"data/details/power-plants-23.json","plant_id":"55563","capacity_mw":1.9,"status_group":"Operating","energy_sources":"WND","type":"Power plant","is_nuclear":false}},{"type":"Feature","geometry":{"type":"Point","coordinates":[-96.118,44.02]},"properties":{"key":"56206-2fb2115c","layer":"power","name":"K-Brink Windfarm LLC","state":"MN","detail_file":"data/details/power-plants-48.json","plant_id":"56206","capacity_mw":2.0,"status_group":"Operating","energy_sources":"WND","type":"Power plant","is_nuclear":false}},{"type":"Feature","geometry":{"type":"Point","coordinates":[-96.112,44.012]},"properties":{"key":"55809-b97a3d2d","layer":"power","name":"Kas Brothers Windfarm","state":"MN","detail_file":"data/details/power-plants-06.json","plant_id":"55809","capacity_mw":1.5,"status_group":"Operating","energy_sources":"WND","type":"Power plant","is_nuclear":false}},{"type":"Feature","geometry":{"type":"Point","coordinates":[-96.375,44.292]},"properties":{"key":"55208-b68fb04e","layer":"power","name":"Lake Benton I","state":"MN","detail_file":"data/details/power-plants-62.json","plant_id":"55208","capacity_mw":107.2,"status_group":"Operating","energy_sources":"WND","type":"Power plant","is_nuclear":false}},{"type":"Feature","geometry":{"type":"Point","coordinates":[-96.117,44.129]},"properties":{"key":"55265-1d393a5f","layer":"power","name":"Lake Benton II","state":"MN","detail_file":"data/details/power-plants-63.json","plant_id":"55265","capacity_mw":100.2,"status_group":"Operating","energy_sources":"WND","type":"Power plant","is_nuclear":false}},{"type":"Feature","geometry":{"type":"Point","coordinates":[-96.157,46.505]},"properties":{"key":"62442-5c596f75","layer":"power","name":"Lake Region Community Hybrid, LLC","state":"MN","detail_file":"data/details/power-plants-21.json","plant_id":"62442","capacity_mw":2.5,"status_group":"Operating","energy_sources":"SUN; WND","type":"Power plant","is_nuclear":false}},{"type":"Feature","geometry":{"type":"Point","coordinates":[-96.212,46.718]},"properties":{"key":"58836-07bf97c3","layer":"power","name":"Lakeswind Power Partners","state":"MN","detail_file":"data/details/power-plants-54.json","plant_id":"58836","capacity_mw":51.8,"status_group":"Operating","energy_sources":"WND","type":"Power plant","is_nuclear":false}},{"type":"Feature","geometry":{"type":"Point","coordinates":[-96.428,44.4]},"properties":{"key":"55353-9fba0fa4","layer":"power","name":"Lakota Ridge LLC","state":"MN","detail_file":"data/details/power-plants-22.json","plant_id":"55353","capacity_mw":11.2,"status_group":"Operating","energy_sources":"WND","type":"Power plant","is_nuclear":false}},{"type":"Feature","geometry":{"type":"Point","coordinates":[-96.433,44.288]},"properties":{"key":"63432-640e374f","layer":"power","name":"Lincoln Heights I","state":"MN","detail_file":"data/details/power-plants-02.json","plant_id":"63432","capacity_mw":5.2,"status_group":"Operating","energy_sources":"WND","type":"Power plant","is_nuclear":false}},{"type":"Feature","geometry":{"type":"Point","coordinates":[-96.332,44.316]},"properties":{"key":"63433-45dd329b","layer":"power","name":"Lincoln Heights II","state":"MN","detail_file":"data/details/power-plants-16.json","plant_id":"63433","capacity_mw":3.9,"status_group":"Operating","energy_sources":"WND","type":"Power plant","is_nuclear":false}},{"type":"Feature","geometry":{"type":"Point","coordinates":[-96.441,44.021]},"properties":{"key":"56412-e15bea83","layer":"power","name":"Lucky Wind","state":"MN","detail_file":"data/details/power-plants-34.json","plant_id":"56412","capacity_mw":1.7,"status_group":"Operating","energy_sources":"WND","type":"Power plant","is_nuclear":false}},{"type":"Feature","geometry":{"type":"Point","coordinates":[-96.344,44.267]},"properties":{"key":"56459-810d608a","layer":"power","name":"MinnDakota Wind LLC","state":"MN","detail_file":"data/details/power-plants-08.json","plant_id":"56459","capacity_mw":150.0,"status_group":"Operating","energy_sources":"WND","type":"Power plant","is_nuclear":false}},{"type":"Feature","geometry":{"type":"Point","coordinates":[-96.735,46.895]},"properties":{"key":"7855-402be0b3","layer":"power","name":"Moorhead Wind Turbine","state":"MN","detail_file":"data/details/power-plants-31.json","plant_id":"7855","capacity_mw":1.4,"status_group":"Operating","energy_sources":"WND","type":"Power plant","is_nuclear":false}},{"type":"Feature","geometry":{"type":"Point","coordinates":[-96.078,44.124]},"properties":{"key":"56794-bf39560f","layer":"power","name":"Moraine II Wind LLC","state":"MN","detail_file":"data/details/power-plants-27.json","plant_id":"56794","capacity_mw":49.5,"status_group":"Operating","energy_sources":"WND","type":"Power plant","is_nuclear":false}},{"type":"Feature","geometry":{"type":"Point","coordinates":[-96.067,44.067]},"properties":{"key":"56174-2bdfc585","layer":"power","name":"Moraine Wind LLC","state":"MN","detail_file":"data/details/power-plants-35.json","plant_id":"56174","capacity_mw":51.0,"status_group":"Operating","energy_sources":"WND","type":"Power plant","is_nuclear":false}},{"type":"Feature","geometry":{"type":"Point","coordinates":[-96.437,44.015]},"properties":{"key":"56411-be0413d8","layer":"power","name":"Northern Lights Wind LLC","state":"MN","detail_file":"data/details/power-plants-37.json","plant_id":"56411","capacity_mw":1.7,"status_group":"Operating","energy_sources":"WND","type":"Power plant","is_nuclear":false}},{"type":"Feature","geometry":{"type":"Point","coordinates":[-96.045,44.011]},"properties":{"key":"65714-46ea77ca","layer":"power","name":"Northern Wind","state":"MN","detail_file":"data/details/power-plants-04.json","plant_id":"65714","capacity_mw":100.0,"status_group":"Operating","energy_sources":"WND","type":"Power plant","is_nuclear":false}},{"type":"Feature","geometry":{"type":"Point","coordinates":[-96.758,46.63]},"properties":{"key":"64865-c7cb9aba","layer":"power","name":"Novel Blilie Solar LLC","state":"MN","detail_file":"data/details/power-plants-22.json","plant_id":"64865","capacity_mw":1.0,"status_group":"Under construction","energy_sources":"SUN","type":"Power plant","is_nuclear":false}},{"type":"Feature","geometry":{"type":"Point","coordinates":[-96.318,44.016]},"properties":{"key":"63726-95d91313","layer":"power","name":"Pipestone City Solar LLC CSG","state":"MN","detail_file":"data/details/power-plants-01.json","plant_id":"63726","capacity_mw":1.0,"status_group":"Operating","energy_sources":"SUN","type":"Power plant","is_nuclear":false}},{"type":"Feature","geometry":{"type":"Point","coordinates":[-96.319,47.869]},"properties":{"key":"63689-fd2d9eca","layer":"power","name":"Red Lake Falls Community Hybrid","state":"MN","detail_file":"data/details/power-plants-36.json","plant_id":"63689","capacity_mw":5.6,"status_group":"Operating","energy_sources":"SUN; WND","type":"Power plant","is_nuclear":false}},{"type":"Feature","geometry":{"type":"Point","coordinates":[-96.154,44.478]},"properties":{"key":"61357-c4585153","layer":"power","name":"Red Pine Wind Project","state":"MN","detail_file":"data/details/power-plants-26.json","plant_id":"61357","capacity_mw":200.0,"status_group":"Operating","energy_sources":"WND","type":"Power plant","is_nuclear":false}},{"type":"Feature","geometry":{"type":"Point","coordinates":[-96.065,44.019]},"properties":{"key":"57386-3fc82aa5","layer":"power","name":"Ridgewind","state":"MN","detail_file":"data/details/power-plants-20.json","plant_id":"57386","capacity_mw":25.3,"status_group":"Operating","energy_sources":"WND","type":"Power plant","is_nuclear":false}},{"type":"Feature","geometry":{"type":"Point","coordinates":[-96.052,44.023]},"properties":{"key":"65713-feb4c9ae","layer":"power","name":"Rock Aetna Power Partners","state":"MN","detail_file":"data/details/power-plants-15.json","plant_id":"65713","capacity_mw":20.0,"status_group":"Operating","energy_sources":"WND","type":"Power plant","is_nuclear":false}},{"type":"Feature","geometry":{"type":"Point","coordinates":[-96.213,44.213]},"properties":{"key":"55571-42787396","layer":"power","name":"Ruthton Ridge LLC","state":"MN","detail_file":"data/details/power-plants-41.json","plant_id":"55571","capacity_mw":1.9,"status_group":"Operating","energy_sources":"WND","type":"Power plant","is_nuclear":false}},{"type":"Feature","geometry":{"type":"Point","coordinates":[-96.136,44.151]},"properties":{"key":"56577-9288d7af","layer":"power","name":"Shane's Wind Machine","state":"MN","detail_file":"data/details/power-plants-38.json","plant_id":"56577","capacity_mw":1.3,"status_group":"Operating","energy_sources":"WND","type":"Power plant","is_nuclear":false}},{"type":"Feature","geometry":{"type":"Point","coordinates":[-96.435,44.422]},"properties":{"key":"55354-a5f808e4","layer":"power","name":"Shaokatan Hills LLC","state":"MN","detail_file":"data/details/power-plants-16.json","plant_id":"55354","capacity_mw":11.8,"status_group":"Operating","energy_sources":"WND","type":"Power plant","is_nuclear":false}},{"type":"Feature","geometry":{"type":"Point","coordinates":[-96.233,44.236]},"properties":{"key":"55570-2b279816","layer":"power","name":"Soliloquoy Ridge LLC","state":"MN","detail_file":"data/details/power-plants-54.json","plant_id":"55570","capacity_mw":1.9,"status_group":"Operating","energy_sources":"WND","type":"Power plant","is_nuclear":false}},{"type":"Feature","geometry":{"type":"Point","coordinates":[-96.238,44.236]},"properties":{"key":"55569-3c4c2d58","layer":"power","name":"Spartan Hills LLC","state":"MN","detail_file":"data/details/power-plants-03.json","plant_id":"55569","capacity_mw":1.9,"status_group":"Operating","energy_sources":"WND","type":"Power plant","is_nuclear":false}},{"type":"Feature","geometry":{"type":"Point","coordinates":[-96.479,46.977]},"properties":{"key":"66972-78ffeb12","layer":"power","name":"Spring Prairie Solar LLC CSG","state":"MN","detail_file":"data/details/power-plants-62.json","plant_id":"66972","capacity_mw":1.0,"status_group":"Operating","energy_sources":"SUN","type":"Power plant","is_nuclear":false}},{"type":"Feature","geometry":{"type":"Point","coordinates":[-96.43,44.026]},"properties":{"key":"56409-e512b655","layer":"power","name":"Stahl Wind Energy","state":"MN","detail_file":"data/details/power-plants-30.json","plant_id":"56409","capacity_mw":1.7,"status_group":"Operating","energy_sources":"WND","type":"Power plant","is_nuclear":false}},{"type":"Feature","geometry":{"type":"Point","coordinates":[-96.127,44.104]},"properties":{"key":"62269-7ff053b6","layer":"power","name":"Stoneray Power Partners, LLC","state":"MN","detail_file":"data/details/power-plants-21.json","plant_id":"62269","capacity_mw":100.0,"status_group":"Operating","energy_sources":"WND","type":"Power plant","is_nuclear":false}},{"type":"Feature","geometry":{"type":"Point","coordinates":[-96.436,44.429]},"properties":{"key":"55562-23afe074","layer":"power","name":"Sun River LLC","state":"MN","detail_file":"data/details/power-plants-11.json","plant_id":"55562","capacity_mw":1.9,"status_group":"Operating","energy_sources":"WND","type":"Power plant","is_nuclear":false}},{"type":"Feature","geometry":{"type":"Point","coordinates":[-96.435,44.42]},"properties":{"key":"55561-278c33d5","layer":"power","name":"Tsar Nicholas LLC","state":"MN","detail_file":"data/details/power-plants-63.json","plant_id":"55561","capacity_mw":1.9,"status_group":"Operating","energy_sources":"WND","type":"Power plant","is_nuclear":false}},{"type":"Feature","geometry":{"type":"Point","coordinates":[-96.279,44.226]},"properties":{"key":"55568-b87fe88c","layer":"power","name":"Twin Lake Hills LLC","state":"MN","detail_file":"data/details/power-plants-59.json","plant_id":"55568","capacity_mw":1.9,"status_group":"Operating","energy_sources":"WND","type":"Power plant","is_nuclear":false}},{"type":"Feature","geometry":{"type":"Point","coordinates":[-96.501,46.977]},"properties":{"key":"63153-f1fc8f8e","layer":"power","name":"USS Buckaroo Solar LLC CSG","state":"MN","detail_file":"data/details/power-plants-60.json","plant_id":"63153","capacity_mw":1.0,"status_group":"Operating","energy_sources":"SUN","type":"Power plant","is_nuclear":false}},{"type":"Feature","geometry":{"type":"Point","coordinates":[-96.48,47.022]},"properties":{"key":"63154-f941a5eb","layer":"power","name":"USS Horne North Solar LLC CSG","state":"MN","detail_file":"data/details/power-plants-24.json","plant_id":"63154","capacity_mw":1.0,"status_group":"Operating","energy_sources":"SUN","type":"Power plant","is_nuclear":false}},{"type":"Feature","geometry":{"type":"Point","coordinates":[-96.5,47.004]},"properties":{"key":"63155-a79ff06e","layer":"power","name":"USS Horne South Solar LLC CSG","state":"MN","detail_file":"data/details/power-plants-11.json","plant_id":"63155","capacity_mw":1.0,"status_group":"Operating","energy_sources":"SUN","type":"Power plant","is_nuclear":false}},{"type":"Feature","geometry":{"type":"Point","coordinates":[-96.5,47.029]},"properties":{"key":"63156-ea02a4c5","layer":"power","name":"USS JJ Clay Solar LLC CSG","state":"MN","detail_file":"data/details/power-plants-10.json","plant_id":"63156","capacity_mw":1.0,"status_group":"Operating","energy_sources":"SUN","type":"Power plant","is_nuclear":false}},{"type":"Feature","geometry":{"type":"Point","coordinates":[-96.501,46.983]},"properties":{"key":"63169-67484927","layer":"power","name":"USS KVPV Solar LLC CSG","state":"MN","detail_file":"data/details/power-plants-13.json","plant_id":"63169","capacity_mw":1.0,"status_group":"Operating","energy_sources":"SUN","type":"Power plant","is_nuclear":false}},{"type":"Feature","geometry":{"type":"Point","coordinates":[-96.079,44.024]},"properties":{"key":"56205-ec62735d","layer":"power","name":"Windcurrent Farms LLC","state":"MN","detail_file":"data/details/power-plants-35.json","plant_id":"56205","capacity_mw":2.0,"status_group":"Operating","energy_sources":"WND","type":"Power plant","is_nuclear":false}},{"type":"Feature","geometry":{"type":"Point","coordinates":[-96.199,44.208]},"properties":{"key":"55567-d0331a81","layer":"power","name":"Winters Spawn LLC","state":"MN","detail_file":"data/details/power-plants-56.json","plant_id":"55567","capacity_mw":1.9,"status_group":"Operating","energy_sources":"WND","type":"Power plant","is_nuclear":false}},{"type":"Feature","geometry":{"type":"Point","coordinates":[-96.826,46.428]},"properties":{"key":"68339-cf024d76","layer":"power","name":"Abercrombie Solar","state":"ND","detail_file":"data/details/power-plants-23.json","plant_id":"68339","capacity_mw":295.1,"status_group":"Under construction","energy_sources":"SUN","type":"Power plant","is_nuclear":false}},{"type":"Feature","geometry":{"type":"Point","coordinates":[-97.063,47.438]},"properties":{"key":"54210-a4f9052a","layer":"power","name":"American Crystal Sugar Hillsboro","state":"ND","detail_file":"data/details/power-plants-13.json","plant_id":"54210","capacity_mw":13.3,"status_group":"Operating","energy_sources":"SUB","type":"Power plant","is_nuclear":false}},{"type":"Feature","geometry":{"type":"Point","coordinates":[-97.896,47.124]},"properties":{"key":"57032-dffe5e77","layer":"power","name":"Ashtabula Wind Energy Center","state":"ND","detail_file":"data/details/power-plants-13.json","plant_id":"57032","capacity_mw":48.0,"status_group":"Operating","energy_sources":"WND","type":"Power plant","is_nuclear":false}},{"type":"Feature","geometry":{"type":"Point","coordinates":[-97.932,47.292]},"properties":{"key":"57121-fb4dbde0","layer":"power","name":"Ashtabula Wind II LLC","state":"ND","detail_file":"data/details/power-plants-11.json","plant_id":"57121","capacity_mw":120.0,"status_group":"Operating","energy_sources":"WND","type":"Power plant","is_nuclear":false}},{"type":"Feature","geometry":{"type":"Point","coordinates":[-97.896,47.124]},"properties":{"key":"57387-e144ec71","layer":"power","name":"Ashtabula Wind III LLC","state":"ND","detail_file":"data/details/power-plants-42.json","plant_id":"57387","capacity_mw":62.4,"status_group":"Operating","energy_sources":"WND","type":"Power plant","is_nuclear":false}},{"type":"Feature","geometry":{"type":"Point","coordinates":[-99.598,46.217]},"properties":{"key":"64342-3b620b21","layer":"power","name":"Badger Wind, LLC","state":"ND","detail_file":"data/details/power-plants-47.json","plant_id":"64342","capacity_mw":250.0,"status_group":"Operating","energy_sources":"WND","type":"Power plant","is_nuclear":false}},{"type":"Feature","geometry":{"type":"Point","coordinates":[-98.595,47.18]},"properties":{"key":"58658-bd675185","layer":"power","name":"Courtenay Wind Farm","state":"ND","detail_file":"data/details/power-plants-50.json","plant_id":"58658","capacity_mw":200.0,"status_group":"Operating","energy_sources":"WND","type":"Power plant","is_nuclear":false}},{"type":"Feature","geometry":{"type":"Point","coordinates":[-96.836,45.939]},"properties":{"key":"7884-12d60279","layer":"power","name":"Dakota Magic","state":"ND","detail_file":"data/details/power-plants-09.json","plant_id":"7884","capacity_mw":1.5,"status_group":"Operating","energy_sources":"DFO","type":"Power plant","is_nuclear":false}},{"type":"Feature","geometry":{"type":"Point","coordinates":[-99.978,46.373]},"properties":{"key":"69878-6bec8850","layer":"power","name":"Emmons-Logan Energy Storage","state":"ND","detail_file":"data/details/power-plants-23.json","plant_id":"69878","capacity_mw":140.0,"status_group":"Under construction","energy_sources":"MWH","type":"Power plant","is_nuclear":false}},{"type":"Feature","geometry":{"type":"Point","coordinates":[-97.576,46.614]},"properties":{"key":"54908-20623822","layer":"power","name":"Enderlin","state":"ND","detail_file":"data/details/power-plants-21.json","plant_id":"54908","capacity_mw":9.8,"status_group":"Operating","energy_sources":"AB","type":"Power plant","is_nuclear":false}},{"type":"Feature","geometry":{"type":"Point","coordinates":[-97.885,47.129]},"properties":{"key":"56919-1f39bf3b","layer":"power","name":"FPL Energy Ashtabula Wind LLC","state":"ND","detail_file":"data/details/power-plants-11.json","plant_id":"56919","capacity_mw":148.5,"status_group":"Operating","energy_sources":"WND","type":"Power plant","is_nuclear":false}},{"type":"Feature","geometry":{"type":"Point","coordinates":[-98.898,46.327]},"properties":{"key":"56099-dca2558e","layer":"power","name":"FPL Energy North Dakota Wind I/II","state":"ND","detail_file":"data/details/power-plants-23.json","plant_id":"56099","capacity_mw":61.5,"status_group":"Operating","energy_sources":"WND","type":"Power plant","is_nuclear":false}},{"type":"Feature","geometry":{"type":"Point","coordinates":[-98.88,46.098]},"properties":{"key":"61747-97353e16","layer":"power","name":"Foxtail Wind, LLC","state":"ND","detail_file":"data/details/power-plants-53.json","plant_id":"61747","capacity_mw":150.0,"status_group":"Operating","energy_sources":"WND","type":"Power plant","is_nuclear":false}},{"type":"Feature","geometry":{"type":"Point","coordinates":[-97.061,47.397]},"properties":{"key":"56098-ef0edc4b","layer":"power","name":"Hillsboro","state":"ND","detail_file":"data/details/power-plants-24.json","plant_id":"56098","capacity_mw":4.0,"status_group":"Operating","energy_sources":"DFO","type":"Power plant","is_nuclear":false}},{"type":"Feature","geometry":{"type":"Point","coordinates":[-98.662,46.906]},"properties":{"key":"2801-07f55f6c","layer":"power","name":"Jamestown","state":"ND","detail_file":"data/details/power-plants-12.json","plant_id":"2801","capacity_mw":48.2,"status_group":"Operating","energy_sources":"DFO","type":"Power plant","is_nuclear":false}},{"type":"Feature","geometry":{"type":"Point","coordinates":[-97.01,46.65]},"properties":{"key":"56242-521ef56e","layer":"power","name":"Kindred School","state":"ND","detail_file":"data/details/power-plants-33.json","plant_id":"56242","capacity_mw":2.0,"status_group":"Operating","energy_sources":"DFO","type":"Power plant","is_nuclear":false}},{"type":"Feature","geometry":{"type":"Point","coordinates":[-97.897,47.327]},"properties":{"key":"57031-c7b870de","layer":"power","name":"Luverne Wind Energy Center","state":"ND","detail_file":"data/details/power-plants-51.json","plant_id":"57031","capacity_mw":49.5,"status_group":"Operating","energy_sources":"WND","type":"Power plant","is_nuclear":false}},{"type":"Feature","geometry":{"type":"Point","coordinates":[-96.86,46.899]},"properties":{"key":"69583-96e083d4","layer":"power","name":"Marvin Composites","state":"ND","detail_file":"data/details/power-plants-05.json","plant_id":"69583","capacity_mw":2.5,"status_group":"Operating","energy_sources":"DFO; NG","type":"Power plant","is_nuclear":false}},{"type":"Feature","geometry":{"type":"Point","coordinates":[-99.059,46.108]},"properties":{"key":"57048-f864ed59","layer":"power","name":"Merricourt Wind Energy Center","state":"ND","detail_file":"data/details/power-plants-47.json","plant_id":"57048","capacity_mw":150.0,"status_group":"Operating","energy_sources":"WND","type":"Power plant","is_nuclear":false}},{"type":"Feature","geometry":{"type":"Point","coordinates":[-98.5,46.926]},"properties":{"key":"56786-2478536d","layer":"power","name":"Spiritwood Station","state":"ND","detail_file":"data/details/power-plants-28.json","plant_id":"56786","capacity_mw":106.2,"status_group":"Operating","energy_sources":"NG","type":"Power plant","is_nuclear":false}},{"type":"Feature","geometry":{"type":"Point","coordinates":[-98.946,45.959]},"properties":{"key":"56669-8374dc9e","layer":"power","name":"Tatanka Wind Power LLC","state":"ND","detail_file":"data/details/power-plants-20.json","plant_id":"56669","capacity_mw":180.0,"status_group":"Operating","energy_sources":"WND","type":"Power plant","is_nuclear":false}},{"type":"Feature","geometry":{"type":"Point","coordinates":[-98.494,45.43]},"properties":{"key":"3338-2e83dac1","layer":"power","name":"Aberdeen CT","state":"SD","detail_file":"data/details/power-plants-17.json","plant_id":"3338","capacity_mw":111.0,"status_group":"Operating","energy_sources":"DFO; NG","type":"Power plant","is_nuclear":false}},{"type":"Feature","geometry":{"type":"Point","coordinates":[-98.494,45.43]},"properties":{"key":"3338-49982172","layer":"power","name":"Aberdeen CT","state":"SD","detail_file":"data/details/power-plants-39.json","plant_id":"3338","capacity_mw":32.0,"status_group":"Under construction","energy_sources":"NG","type":"Power plant","is_nuclear":false}},{"type":"Feature","geometry":{"type":"Point","coordinates":[-96.559,44.575]},"properties":{"key":"61144-a10d16a0","layer":"power","name":"Astoria Station","state":"SD","detail_file":"data/details/power-plants-57.json","plant_id":"61144","capacity_mw":349.0,"status_group":"Operating","energy_sources":"NG","type":"Power plant","is_nuclear":false}},{"type":"Feature","geometry":{"type":"Point","coordinates":[-99.446,44.038]},"properties":{"key":"3375-6a656fcf","layer":"power","name":"Big Bend Dam","state":"SD","detail_file":"data/details/power-plants-15.json","plant_id":"3375","capacity_mw":538.3,"status_group":"Operating","energy_sources":"WAT","type":"Power plant","is_nuclear":false}},{"type":"Feature","geometry":{"type":"Point","coordinates":[-96.51,45.304]},"properties":{"key":"6098-530de8ae","layer":"power","name":"Big Stone","state":"SD","detail_file":"data/details/power-plants-19.json","plant_id":"6098","capacity_mw":451.0,"status_group":"Operating","energy_sources":"DFO; SUB","type":"Power plant","is_nuclear":false}},{"type":"Feature","geometry":{"type":"Point","coordinates":[-98.172,44.37]},"properties":{"key":"65295-35746af9","layer":"power","name":"Bob Glanzer Generating Station","state":"SD","detail_file":"data/details/power-plants-39.json","plant_id":"65295","capacity_mw":69.0,"status_group":"Operating","energy_sources":"NG","type":"Power plant","is_nuclear":false}},{"type":"Feature","geometry":{"type":"Point","coordinates":[-96.729,44.341]},"properties":{"key":"68277-7abbabe6","layer":"power","name":"Brookings Solar","state":"SD","detail_file":"data/details/power-plants-19.json","plant_id":"68277","capacity_mw":4.9,"status_group":"Under construction","energy_sources":"SUN","type":"Power plant","is_nuclear":false}},{"type":"Feature","geometry":{"type":"Point","coordinates":[-96.478,44.433]},"properties":{"key":"56792-768f21eb","layer":"power","name":"Buffalo Ridge I LLC","state":"SD","detail_file":"data/details/power-plants-48.json","plant_id":"56792","capacity_mw":50.4,"status_group":"Operating","energy_sources":"WND","type":"Power plant","is_nuclear":false}},{"type":"Feature","geometry":{"type":"Point","coordinates":[-96.627,44.528]},"properties":{"key":"57424-cc00cd1f","layer":"power","name":"Buffalo Ridge II LLC","state":"SD","detail_file":"data/details/power-plants-04.json","plant_id":"57424","capacity_mw":210.0,"status_group":"Operating","energy_sources":"WND","type":"Power plant","is_nuclear":false}},{"type":"Feature","geometry":{"type":"Point","coordinates":[-97.732,44.876]},"properties":{"key":"3341-01661636","layer":"power","name":"Clark (SD)","state":"SD","detail_file":"data/details/power-plants-61.json","plant_id":"3341","capacity_mw":2.7,"status_group":"Operating","energy_sources":"DFO","type":"Power plant","is_nuclear":false}},{"type":"Feature","geometry":{"type":"Point","coordinates":[-96.55,44.45]},"properties":{"key":"61047-2e526369","layer":"power","name":"Coyote Ridge","state":"SD","detail_file":"data/details/power-plants-37.json","plant_id":"61047","capacity_mw":97.4,"status_group":"Operating","energy_sources":"WND","type":"Power plant","is_nuclear":false}},{"type":"Feature","geometry":{"type":"Point","coordinates":[-97.826,45.052]},"properties":{"key":"60505-37c9c424","layer":"power","name":"Crocker Wind Farm","state":"SD","detail_file":"data/details/power-plants-58.json","plant_id":"60505","capacity_mw":200.0,"status_group":"Operating","energy_sources":"WND","type":"Power plant","is_nuclear":false}},{"type":"Feature","geometry":{"type":"Point","coordinates":[-96.837,45.155]},"properties":{"key":"60503-91618985","layer":"power","name":"Crowned Ridge Wind Energy Center","state":"SD","detail_file":"data/details/power-plants-25.json","plant_id":"60503","capacity_mw":200.1,"status_group":"Operating","energy_sources":"WND","type":"Power plant","is_nuclear":false}},{"type":"Feature","geometry":{"type":"Point","coordinates":[-96.93,45.005]},"properties":{"key":"63269-55ede58d","layer":"power","name":"Crowned Ridge Wind II Energy Center","state":"SD","detail_file":"data/details/power-plants-04.json","plant_id":"63269","capacity_mw":200.6,"status_group":"Operating","energy_sources":"WND","type":"Power plant","is_nuclear":false}},{"type":"Feature","geometry":{"type":"Point","coordinates":[-97.104,45.268]},"properties":{"key":"63102-0809fe08","layer":"power","name":"Dakota Range III Wind Project","state":"SD","detail_file":"data/details/power-plants-28.json","plant_id":"63102","capacity_mw":153.6,"status_group":"Operating","energy_sources":"WND","type":"Power plant","is_nuclear":false}},{"type":"Feature","geometry":{"type":"Point","coordinates":[-97.023,45.224]},"properties":{"key":"68318-df90d511","layer":"power","name":"Dakota Range Wind","state":"SD","detail_file":"data/details/power-plants-22.json","plant_id":"68318","capacity_mw":304.0,"status_group":"Operating","energy_sources":"WND","type":"Power plant","is_nuclear":false}},{"type":"Feature","geometry":{"type":"Point","coordinates":[-97.906,45.215]},"properties":{"key":"57194-0e746c9c","layer":"power","name":"Day County Wind LLC","state":"SD","detail_file":"data/details/power-plants-52.json","plant_id":"57194","capacity_mw":99.0,"status_group":"Operating","energy_sources":"WND","type":"Power plant","is_nuclear":false}},{"type":"Feature","geometry":{"type":"Point","coordinates":[-96.533,44.396]},"properties":{"key":"56610-d647edc1","layer":"power","name":"Deer Creek Station","state":"SD","detail_file":"data/details/power-plants-57.json","plant_id":"56610","capacity_mw":324.0,"status_group":"Operating","energy_sources":"NG","type":"Power plant","is_nuclear":false}},{"type":"Feature","geometry":{"type":"Point","coordinates":[-96.535,44.864]},"properties":{"key":"62943-20f8db91","layer":"power","name":"Deuel Harvest Wind Energy LLC","state":"SD","detail_file":"data/details/power-plants-00.json","plant_id":"62943","capacity_mw":300.0,"status_group":"Operating","energy_sources":"WND","type":"Power plant","is_nuclear":false}},{"type":"Feature","geometry":{"type":"Point","coordinates":[-99.12,45.037]},"properties":{"key":"3342-5a0ebc8c","layer":"power","name":"Faulkton","state":"SD","detail_file":"data/details/power-plants-63.json","plant_id":"3342","capacity_mw":2.7,"status_group":"Operating","energy_sources":"DFO","type":"Power plant","is_nuclear":false}},{"type":"Feature","geometry":{"type":"Point","coordinates":[-98.099,45.373]},"properties":{"key":"56238-7a1a3fc8","layer":"power","name":"Groton Generation Station","state":"SD","detail_file":"data/details/power-plants-39.json","plant_id":"56238","capacity_mw":216.4,"status_group":"Operating","energy_sources":"NG","type":"Power plant","is_nuclear":false}},{"type":"Feature","geometry":{"type":"Point","coordinates":[-97.381,44.365]},"properties":{"key":"3352-d9e43aea","layer":"power","name":"Lake Preston","state":"SD","detail_file":"data/details/power-plants-23.json","plant_id":"3352","capacity_mw":24.1,"status_group":"Operating","energy_sources":"DFO","type":"Power plant","is_nuclear":false}},{"type":"Feature","geometry":{"type":"Point","coordinates":[-99.66,44.377]},"properties":{"key":"67002-cc1cd803","layer":"power","name":"North Bend Wind Project, LLC","state":"SD","detail_file":"data/details/power-plants-34.json","plant_id":"67002","capacity_mw":200.0,"status_group":"Operating","energy_sources":"WND","type":"Power plant","is_nuclear":false}},{"type":"Feature","geometry":{"type":"Point","coordinates":[-97.741,44.933]},"properties":{"key":"59435-bb73c2aa","layer":"power","name":"Oak Tree Energy","state":"SD","detail_file":"data/details/power-plants-56.json","plant_id":"59435","capacity_mw":19.5,"status_group":"Operating","energy_sources":"WND","type":"Power plant","is_nuclear":false}},{"type":"Feature","geometry":{"type":"Point","coordinates":[-98.502,44.924]},"properties":{"key":"69686-6918dee1","layer":"power","name":"RE Solar, LLC","state":"SD","detail_file":"data/details/power-plants-49.json","plant_id":"69686","capacity_mw":8.3,"status_group":"Operating","energy_sources":"SUN","type":"Power plant","is_nuclear":false}},{"type":"Feature","geometry":{"type":"Point","coordinates":[-99.134,44.478]},"properties":{"key":"57045-71df8d25","layer":"power","name":"Rolling Thunder Wind Farm Hybrid","state":"SD","detail_file":"data/details/power-plants-11.json","plant_id":"57045","capacity_mw":25.8,"status_group":"Operating","energy_sources":"MWH; WND","type":"Power plant","is_nuclear":false}},{"type":"Feature","geometry":{"type":"Point","coordinates":[-99.5,44.549]},"properties":{"key":"56092-d783439e","layer":"power","name":"South Dakota Wind Energy Cente","state":"SD","detail_file":"data/details/power-plants-12.json","plant_id":"56092","capacity_mw":40.5,"status_group":"Operating","energy_sources":"WND","type":"Power plant","is_nuclear":false}},{"type":"Feature","geometry":{"type":"Point","coordinates":[-96.617,45.221]},"properties":{"key":"56244-46a4e2c8","layer":"power","name":"State Auto Insurance","state":"SD","detail_file":"data/details/power-plants-30.json","plant_id":"56244","capacity_mw":1.7,"status_group":"Operating","energy_sources":"DFO","type":"Power plant","is_nuclear":false}},{"type":"Feature","geometry":{"type":"Point","coordinates":[-98.801,44.387]},"properties":{"key":"66496-1afa517b","layer":"power","name":"Sweetland Wind Farm, LLC","state":"SD","detail_file":"data/details/power-plants-11.json","plant_id":"66496","capacity_mw":200.0,"status_group":"Operating","energy_sources":"WND","type":"Power plant","is_nuclear":false}},{"type":"Feature","geometry":{"type":"Point","coordinates":[-96.576,44.592]},"properties":{"key":"61046-5ac64da5","layer":"power","name":"Tatanka Ridge","state":"SD","detail_file":"data/details/power-plants-46.json","plant_id":"61046","capacity_mw":154.0,"status_group":"Operating","energy_sources":"WND","type":"Power plant","is_nuclear":false}},{"type":"Feature","geometry":{"type":"Point","coordinates":[-96.622,44.595]},"properties":{"key":"69102-3458fcc6","layer":"power","name":"Toronto Power Plant","state":"SD","detail_file":"data/details/power-plants-12.json","plant_id":"69102","capacity_mw":145.2,"status_group":"Under construction","energy_sources":"NG","type":"Power plant","is_nuclear":false}},{"type":"Feature","geometry":{"type":"Point","coordinates":[-99.604,44.401]},"properties":{"key":"63103-4c152aa9","layer":"power","name":"Triple H Wind Project","state":"SD","detail_file":"data/details/power-plants-32.json","plant_id":"63103","capacity_mw":250.2,"status_group":"Operating","energy_sources":"WND","type":"Power plant","is_nuclear":false}},{"type":"Feature","geometry":{"type":"Point","coordinates":[-96.637,45.221]},"properties":{"key":"56274-ab55f2c0","layer":"power","name":"Valley Queen Cheese","state":"SD","detail_file":"data/details/power-plants-49.json","plant_id":"56274","capacity_mw":4.5,"status_group":"Operating","energy_sources":"DFO","type":"Power plant","is_nuclear":false}},{"type":"Feature","geometry":{"type":"Point","coordinates":[-97.108,44.902]},"properties":{"key":"7247-ed08b1f8","layer":"power","name":"Watertown Power Plant","state":"SD","detail_file":"data/details/power-plants-17.json","plant_id":"7247","capacity_mw":67.5,"status_group":"Operating","energy_sources":"DFO","type":"Power plant","is_nuclear":false}},{"type":"Feature","geometry":{"type":"Point","coordinates":[-98.591,44.002]},"properties":{"key":"56650-ac4f164a","layer":"power","name":"Wessington Springs","state":"SD","detail_file":"data/details/power-plants-12.json","plant_id":"56650","capacity_mw":51.0,"status_group":"Operating","energy_sources":"WND","type":"Power plant","is_nuclear":false}}]}