{"type":"FeatureCollection","features":[{"type":"Feature","geometry":{"type":"Point","coordinates":[-106.814,35.242]},"properties":{"key":"69103-dce53642","layer":"power","name":"ASG-2 Community Solar","state":"NM","detail_file":"data/details/power-plants-01.json","plant_id":"69103","capacity_mw":5.0,"status_group":"Operating","energy_sources":"SUN","type":"Power plant","is_nuclear":false}},{"type":"Feature","geometry":{"type":"Point","coordinates":[-106.816,34.61]},"properties":{"key":"69061-3df22812","layer":"power","name":"ASG-4 Community Solar","state":"NM","detail_file":"data/details/power-plants-46.json","plant_id":"69061","capacity_mw":5.0,"status_group":"Operating","energy_sources":"SUN","type":"Power plant","is_nuclear":false}},{"type":"Feature","geometry":{"type":"Point","coordinates":[-106.815,34.657]},"properties":{"key":"69062-89a3a8a3","layer":"power","name":"ASG-8","state":"NM","detail_file":"data/details/power-plants-21.json","plant_id":"69062","capacity_mw":5.0,"status_group":"Operating","energy_sources":"SUN","type":"Power plant","is_nuclear":false}},{"type":"Feature","geometry":{"type":"Point","coordinates":[-106.847,32.114]},"properties":{"key":"55210-e5aee12f","layer":"power","name":"Afton Generating Station","state":"NM","detail_file":"data/details/power-plants-14.json","plant_id":"55210","capacity_mw":287.0,"status_group":"Operating","energy_sources":"NG","type":"Power plant","is_nuclear":false}},{"type":"Feature","geometry":{"type":"Point","coordinates":[-106.0,32.866]},"properties":{"key":"57577-c8963c77","layer":"power","name":"Alamogordo Solar Energy Center","state":"NM","detail_file":"data/details/power-plants-43.json","plant_id":"57577","capacity_mw":5.0,"status_group":"Operating","energy_sources":"SUN","type":"Power plant","is_nuclear":false}},{"type":"Feature","geometry":{"type":"Point","coordinates":[-106.6,35.169]},"properties":{"key":"57567-dc3a0288","layer":"power","name":"Albuquerque Solar Energy Center","state":"NM","detail_file":"data/details/power-plants-27.json","plant_id":"57567","capacity_mw":2.0,"status_group":"Operating","energy_sources":"SUN","type":"Power plant","is_nuclear":false}},{"type":"Feature","geometry":{"type":"Point","coordinates":[-106.464,35.384]},"properties":{"key":"2475-d59a8d91","layer":"power","name":"Algodones","state":"NM","detail_file":"data/details/power-plants-08.json","plant_id":"2475","capacity_mw":45.0,"status_group":"Operating","energy_sources":"NG","type":"Power plant","is_nuclear":false}},{"type":"Feature","geometry":{"type":"Point","coordinates":[-107.487,32.572]},"properties":{"key":"60258-5be051ed","layer":"power","name":"Alta Luna","state":"NM","detail_file":"data/details/power-plants-47.json","plant_id":"60258","capacity_mw":28.1,"status_group":"Operating","energy_sources":"SUN","type":"Power plant","is_nuclear":false}},{"type":"Feature","geometry":{"type":"Point","coordinates":[-105.011,34.815]},"properties":{"key":"56336-a564e010","layer":"power","name":"Aragonne Wind LLC","state":"NM","detail_file":"data/details/power-plants-49.json","plant_id":"56336","capacity_mw":235.0,"status_group":"Operating","energy_sources":"WND","type":"Power plant","is_nuclear":false}},{"type":"Feature","geometry":{"type":"Point","coordinates":[-107.563,35.97]},"properties":{"key":"63172-2a836d23","layer":"power","name":"Arroyo Solar Energy Storage Hybrid","state":"NM","detail_file":"data/details/power-plants-36.json","plant_id":"63172","capacity_mw":450.0,"status_group":"Operating","energy_sources":"MWH; SUN","type":"Power plant","is_nuclear":false}},{"type":"Feature","geometry":{"type":"Point","coordinates":[-106.912,35.197]},"properties":{"key":"66694-ab7ad1ef","layer":"power","name":"Atrisco Energy Storage","state":"NM","detail_file":"data/details/power-plants-27.json","plant_id":"66694","capacity_mw":300.0,"status_group":"Operating","energy_sources":"MWH","type":"Power plant","is_nuclear":false}},{"type":"Feature","geometry":{"type":"Point","coordinates":[-106.861,35.189]},"properties":{"key":"67003-006310f5","layer":"power","name":"Atrisco Solar LLC","state":"NM","detail_file":"data/details/power-plants-46.json","plant_id":"67003","capacity_mw":300.0,"status_group":"Operating","energy_sources":"SUN","type":"Power plant","is_nuclear":false}},{"type":"Feature","geometry":{"type":"Point","coordinates":[-107.952,35.241]},"properties":{"key":"62994-390cecf9","layer":"power","name":"Bluewater CDEC 1","state":"NM","detail_file":"data/details/power-plants-32.json","plant_id":"62994","capacity_mw":2.4,"status_group":"Operating","energy_sources":"SUN","type":"Power plant","is_nuclear":false}},{"type":"Feature","geometry":{"type":"Point","coordinates":[-106.098,35.016]},"properties":{"key":"63579-ccfaea88","layer":"power","name":"Britton Solar Energy Center","state":"NM","detail_file":"data/details/power-plants-20.json","plant_id":"63579","capacity_mw":50.0,"status_group":"Operating","energy_sources":"SUN","type":"Power plant","is_nuclear":false}},{"type":"Feature","geometry":{"type":"Point","coordinates":[-106.285,32.067]},"properties":{"key":"66408-6a406842","layer":"power","name":"Buena Vista Energy Center","state":"NM","detail_file":"data/details/power-plants-50.json","plant_id":"66408","capacity_mw":170.0,"status_group":"Operating","energy_sources":"MWH; SUN","type":"Power plant","is_nuclear":false}},{"type":"Feature","geometry":{"type":"Point","coordinates":[-106.285,32.067]},"properties":{"key":"69517-9053455e","layer":"power","name":"Buena Vista Energy Center III","state":"NM","detail_file":"data/details/power-plants-17.json","plant_id":"69517","capacity_mw":200.0,"status_group":"Under construction","energy_sources":"MWH; SUN","type":"Power plant","is_nuclear":false}},{"type":"Feature","geometry":{"type":"Point","coordinates":[-106.051,34.783]},"properties":{"key":"62191-90997c1b","layer":"power","name":"CNMEC Solar Energy Center","state":"NM","detail_file":"data/details/power-plants-02.json","plant_id":"62191","capacity_mw":2.0,"status_group":"Operating","energy_sources":"SUN","type":"Power plant","is_nuclear":false}},{"type":"Feature","geometry":{"type":"Point","coordinates":[-107.678,32.315]},"properties":{"key":"67230-a471139f","layer":"power","name":"Carne Energy Storage, LLC","state":"NM","detail_file":"data/details/power-plants-52.json","plant_id":"67230","capacity_mw":130.0,"status_group":"Operating","energy_sources":"MWH","type":"Power plant","is_nuclear":false}},{"type":"Feature","geometry":{"type":"Point","coordinates":[-105.748,33.61]},"properties":{"key":"61662-f1246f2b","layer":"power","name":"Carrizozo Solar","state":"NM","detail_file":"data/details/power-plants-08.json","plant_id":"61662","capacity_mw":3.0,"status_group":"Operating","energy_sources":"SUN","type":"Power plant","is_nuclear":false}},{"type":"Feature","geometry":{"type":"Point","coordinates":[-104.448,33.434]},"properties":{"key":"66405-d67f8bfc","layer":"power","name":"Chaves County Solar II","state":"NM","detail_file":"data/details/power-plants-17.json","plant_id":"66405","capacity_mw":30.0,"status_group":"Operating","energy_sources":"SUN","type":"Power plant","is_nuclear":false}},{"type":"Feature","geometry":{"type":"Point","coordinates":[-104.456,33.45]},"properties":{"key":"60405-e5b2aab7","layer":"power","name":"Chaves Solar, LLC","state":"NM","detail_file":"data/details/power-plants-33.json","plant_id":"60405","capacity_mw":70.0,"status_group":"Operating","energy_sources":"SUN","type":"Power plant","is_nuclear":false}},{"type":"Feature","geometry":{"type":"Point","coordinates":[-107.245,35.201]},"properties":{"key":"59619-a229be5c","layer":"power","name":"Cibola","state":"NM","detail_file":"data/details/power-plants-00.json","plant_id":"59619","capacity_mw":7.6,"status_group":"Operating","energy_sources":"SUN","type":"Power plant","is_nuclear":false}},{"type":"Feature","geometry":{"type":"Point","coordinates":[-106.807,35.18]},"properties":{"key":"63391-2ca5ee25","layer":"power","name":"City of Rio Rancho WWTP","state":"NM","detail_file":"data/details/power-plants-37.json","plant_id":"63391","capacity_mw":1.2,"status_group":"Operating","energy_sources":"SUN","type":"Power plant","is_nuclear":false}},{"type":"Feature","geometry":{"type":"Point","coordinates":[-107.288,33.121]},"properties":{"key":"59653-966e1e6d","layer":"power","name":"City of Truth or Consequences PV","state":"NM","detail_file":"data/details/power-plants-48.json","plant_id":"59653","capacity_mw":1.9,"status_group":"Operating","energy_sources":"SUN","type":"Power plant","is_nuclear":false}},{"type":"Feature","geometry":{"type":"Point","coordinates":[-105.437,34.357]},"properties":{"key":"64054-3075f59c","layer":"power","name":"Clines Corners Wind Farm LLC","state":"NM","detail_file":"data/details/power-plants-03.json","plant_id":"64054","capacity_mw":325.0,"status_group":"Operating","energy_sources":"WND","type":"Power plant","is_nuclear":false}},{"type":"Feature","geometry":{"type":"Point","coordinates":[-106.742,35.003]},"properties":{"key":"69974-34a14e62","layer":"power","name":"Corazon Energy Storage","state":"NM","detail_file":"data/details/power-plants-50.json","plant_id":"69974","capacity_mw":150.0,"status_group":"Under construction","energy_sources":"MWH","type":"Power plant","is_nuclear":false}},{"type":"Feature","geometry":{"type":"Point","coordinates":[-107.751,32.166]},"properties":{"key":"57575-2b3d9b80","layer":"power","name":"Deming Solar Energy Center","state":"NM","detail_file":"data/details/power-plants-63.json","plant_id":"57575","capacity_mw":9.0,"status_group":"Operating","energy_sources":"SUN","type":"Power plant","is_nuclear":false}},{"type":"Feature","geometry":{"type":"Point","coordinates":[-105.492,34.391]},"properties":{"key":"64065-0871284c","layer":"power","name":"Duran Mesa LLC","state":"NM","detail_file":"data/details/power-plants-09.json","plant_id":"64065","capacity_mw":105.0,"status_group":"Operating","energy_sources":"WND","type":"Power plant","is_nuclear":false}},{"type":"Feature","geometry":{"type":"Point","coordinates":[-105.462,34.651]},"properties":{"key":"58098-f7d086e2","layer":"power","name":"El Cabo Wind","state":"NM","detail_file":"data/details/power-plants-46.json","plant_id":"58098","capacity_mw":298.0,"status_group":"Operating","energy_sources":"WND","type":"Power plant","is_nuclear":false}},{"type":"Feature","geometry":{"type":"Point","coordinates":[-107.192,33.153]},"properties":{"key":"6402-5b870587","layer":"power","name":"Elephant Butte","state":"NM","detail_file":"data/details/power-plants-06.json","plant_id":"6402","capacity_mw":27.9,"status_group":"Operating","energy_sources":"WAT","type":"Power plant","is_nuclear":false}},{"type":"Feature","geometry":{"type":"Point","coordinates":[-107.241,32.736]},"properties":{"key":"69530-bcd0165a","layer":"power","name":"Emi NM Bent Bow","state":"NM","detail_file":"data/details/power-plants-46.json","plant_id":"69530","capacity_mw":5.0,"status_group":"Operating","energy_sources":"SUN","type":"Power plant","is_nuclear":false}},{"type":"Feature","geometry":{"type":"Point","coordinates":[-106.858,35.354]},"properties":{"key":"63860-aa3a505d","layer":"power","name":"Encino Solar Energy Center","state":"NM","detail_file":"data/details/power-plants-13.json","plant_id":"63860","capacity_mw":55.0,"status_group":"Operating","energy_sources":"SUN","type":"Power plant","is_nuclear":false}},{"type":"Feature","geometry":{"type":"Point","coordinates":[-106.53,35.049]},"properties":{"key":"59393-3ea17e01","layer":"power","name":"Eubank Landfill Solar Array","state":"NM","detail_file":"data/details/power-plants-16.json","plant_id":"59393","capacity_mw":2.0,"status_group":"Operating","energy_sources":"SUN","type":"Power plant","is_nuclear":false}},{"type":"Feature","geometry":{"type":"Point","coordinates":[-106.762,34.831]},"properties":{"key":"61556-d8893b61","layer":"power","name":"Facebook 1 Solar Energy Center","state":"NM","detail_file":"data/details/power-plants-61.json","plant_id":"61556","capacity_mw":10.0,"status_group":"Operating","energy_sources":"SUN","type":"Power plant","is_nuclear":false}},{"type":"Feature","geometry":{"type":"Point","coordinates":[-106.865,35.08]},"properties":{"key":"61557-4e8da75b","layer":"power","name":"Facebook 2 Solar Energy Center","state":"NM","detail_file":"data/details/power-plants-52.json","plant_id":"61557","capacity_mw":10.0,"status_group":"Operating","energy_sources":"SUN","type":"Power plant","is_nuclear":false}},{"type":"Feature","geometry":{"type":"Point","coordinates":[-106.865,35.075]},"properties":{"key":"61558-b45d1c74","layer":"power","name":"Facebook 3 Solar Energy Center","state":"NM","detail_file":"data/details/power-plants-02.json","plant_id":"61558","capacity_mw":10.0,"status_group":"Operating","energy_sources":"SUN","type":"Power plant","is_nuclear":false}},{"type":"Feature","geometry":{"type":"Point","coordinates":[-106.625,35.084]},"properties":{"key":"50906-d7e74642","layer":"power","name":"Ford Utilities Center","state":"NM","detail_file":"data/details/power-plants-04.json","plant_id":"50906","capacity_mw":14.8,"status_group":"Operating","energy_sources":"NG; WH","type":"Power plant","is_nuclear":false}},{"type":"Feature","geometry":{"type":"Point","coordinates":[-104.4,33.3]},"properties":{"key":"58576-840a2bbd","layer":"power","name":"GSE NM1","state":"NM","detail_file":"data/details/power-plants-50.json","plant_id":"58576","capacity_mw":2.3,"status_group":"Operating","energy_sources":"SUN","type":"Power plant","is_nuclear":false}},{"type":"Feature","geometry":{"type":"Point","coordinates":[-107.821,35.14]},"properties":{"key":"62995-bbe7d3a5","layer":"power","name":"Grants CDEC 2","state":"NM","detail_file":"data/details/power-plants-55.json","plant_id":"62995","capacity_mw":4.5,"status_group":"Operating","energy_sources":"SUN","type":"Power plant","is_nuclear":false}},{"type":"Feature","geometry":{"type":"Point","coordinates":[-107.26,32.63]},"properties":{"key":"57591-eba3d8a5","layer":"power","name":"Hatch Solar Energy Center I, LLC","state":"NM","detail_file":"data/details/power-plants-19.json","plant_id":"57591","capacity_mw":5.0,"status_group":"Operating","energy_sources":"SUN","type":"Power plant","is_nuclear":false}},{"type":"Feature","geometry":{"type":"Point","coordinates":[-104.162,32.071]},"properties":{"key":"66412-7220c918","layer":"power","name":"Hayhurst New Mexico Solar","state":"NM","detail_file":"data/details/power-plants-44.json","plant_id":"66412","capacity_mw":20.0,"status_group":"Operating","energy_sources":"SUN","type":"Power plant","is_nuclear":false}},{"type":"Feature","geometry":{"type":"Point","coordinates":[-105.963,34.467]},"properties":{"key":"56945-78ea3252","layer":"power","name":"High Lonesome Mesa LLC","state":"NM","detail_file":"data/details/power-plants-13.json","plant_id":"56945","capacity_mw":100.0,"status_group":"Operating","energy_sources":"WND","type":"Power plant","is_nuclear":false}},{"type":"Feature","geometry":{"type":"Point","coordinates":[-106.072,32.921]},"properties":{"key":"60301-dac0df01","layer":"power","name":"Holloman Solar Facility","state":"NM","detail_file":"data/details/power-plants-28.json","plant_id":"60301","capacity_mw":5.0,"status_group":"Operating","energy_sources":"SUN","type":"Power plant","is_nuclear":false}},{"type":"Feature","geometry":{"type":"Point","coordinates":[-105.952,35.509]},"properties":{"key":"69270-290eb9fd","layer":"power","name":"Juniper Sol Solar CSG","state":"NM","detail_file":"data/details/power-plants-45.json","plant_id":"69270","capacity_mw":5.0,"status_group":"Operating","energy_sources":"SUN","type":"Power plant","is_nuclear":false}},{"type":"Feature","geometry":{"type":"Point","coordinates":[-105.74,34.81]},"properties":{"key":"61044-77e4116c","layer":"power","name":"La Joya NM","state":"NM","detail_file":"data/details/power-plants-16.json","plant_id":"61044","capacity_mw":306.2,"status_group":"Operating","energy_sources":"WND","type":"Power plant","is_nuclear":false}},{"type":"Feature","geometry":{"type":"Point","coordinates":[-106.815,34.616]},"properties":{"key":"58284-10d72612","layer":"power","name":"La Luz Energy Center","state":"NM","detail_file":"data/details/power-plants-01.json","plant_id":"58284","capacity_mw":42.3,"status_group":"Operating","energy_sources":"NG","type":"Power plant","is_nuclear":false}},{"type":"Feature","geometry":{"type":"Point","coordinates":[-105.207,35.643]},"properties":{"key":"57576-48d9c3be","layer":"power","name":"Las Vegas Solar Energy Center","state":"NM","detail_file":"data/details/power-plants-58.json","plant_id":"57576","capacity_mw":5.0,"status_group":"Operating","energy_sources":"SUN","type":"Power plant","is_nuclear":false}},{"type":"Feature","geometry":{"type":"Point","coordinates":[-106.31,35.876]},"properties":{"key":"58256-e2f60714","layer":"power","name":"Los Alamos PV Site","state":"NM","detail_file":"data/details/power-plants-35.json","plant_id":"58256","capacity_mw":1.0,"status_group":"Operating","energy_sources":"SUN","type":"Power plant","is_nuclear":false}},{"type":"Feature","geometry":{"type":"Point","coordinates":[-106.772,34.833]},"properties":{"key":"57571-dbdfcf47","layer":"power","name":"Los Lunas Solar Energy Center","state":"NM","detail_file":"data/details/power-plants-25.json","plant_id":"57571","capacity_mw":7.0,"status_group":"Operating","energy_sources":"SUN","type":"Power plant","is_nuclear":false}},{"type":"Feature","geometry":{"type":"Point","coordinates":[-107.783,32.299]},"properties":{"key":"55343-fdde46da","layer":"power","name":"Luna Energy Facility","state":"NM","detail_file":"data/details/power-plants-08.json","plant_id":"55343","capacity_mw":650.0,"status_group":"Operating","energy_sources":"NG","type":"Power plant","is_nuclear":false}},{"type":"Feature","geometry":{"type":"Point","coordinates":[-107.48,32.57]},"properties":{"key":"59010-4b40e6eb","layer":"power","name":"Macho Springs","state":"NM","detail_file":"data/details/power-plants-44.json","plant_id":"59010","capacity_mw":55.0,"status_group":"Operating","energy_sources":"SUN","type":"Power plant","is_nuclear":false}},{"type":"Feature","geometry":{"type":"Point","coordinates":[-107.509,32.554]},"properties":{"key":"57947-cd95ad52","layer":"power","name":"Macho Springs Power I","state":"NM","detail_file":"data/details/power-plants-08.json","plant_id":"57947","capacity_mw":50.4,"status_group":"Operating","energy_sources":"WND","type":"Power plant","is_nuclear":false}},{"type":"Feature","geometry":{"type":"Point","coordinates":[-106.654,34.747]},"properties":{"key":"58521-8c79c43b","layer":"power","name":"Manzano Solar","state":"NM","detail_file":"data/details/power-plants-09.json","plant_id":"58521","capacity_mw":8.4,"status_group":"Operating","energy_sources":"SUN","type":"Power plant","is_nuclear":false}},{"type":"Feature","geometry":{"type":"Point","coordinates":[-106.52,34.81]},"properties":{"key":"59618-cacb4944","layer":"power","name":"Meadow Lake Solar Energy Center","state":"NM","detail_file":"data/details/power-plants-53.json","plant_id":"59618","capacity_mw":9.1,"status_group":"Operating","energy_sources":"SUN","type":"Power plant","is_nuclear":false}},{"type":"Feature","geometry":{"type":"Point","coordinates":[-106.854,35.371]},"properties":{"key":"66287-ec2be22b","layer":"power","name":"NMRD Data Center III, LLC","state":"NM","detail_file":"data/details/power-plants-24.json","plant_id":"66287","capacity_mw":50.0,"status_group":"Operating","energy_sources":"SUN","type":"Power plant","is_nuclear":false}},{"type":"Feature","geometry":{"type":"Point","coordinates":[-106.745,32.286]},"properties":{"key":"64881-9d56e27d","layer":"power","name":"NMSU Solar and Storage","state":"NM","detail_file":"data/details/power-plants-42.json","plant_id":"64881","capacity_mw":4.0,"status_group":"Operating","energy_sources":"MWH; SUN","type":"Power plant","is_nuclear":false}},{"type":"Feature","geometry":{"type":"Point","coordinates":[-106.611,34.998]},"properties":{"key":"69757-24ce7c3a","layer":"power","name":"Netflix ABQ System A","state":"NM","detail_file":"data/details/power-plants-38.json","plant_id":"69757","capacity_mw":2.6,"status_group":"Operating","energy_sources":"SUN","type":"Power plant","is_nuclear":false}},{"type":"Feature","geometry":{"type":"Point","coordinates":[-106.611,34.998]},"properties":{"key":"69758-dc79c979","layer":"power","name":"Netflix ABQ System B","state":"NM","detail_file":"data/details/power-plants-10.json","plant_id":"69758","capacity_mw":2.0,"status_group":"Operating","energy_sources":"SUN","type":"Power plant","is_nuclear":false}},{"type":"Feature","geometry":{"type":"Point","coordinates":[-106.451,32.165]},"properties":{"key":"54975-6348de2b","layer":"power","name":"New Mexico State University","state":"NM","detail_file":"data/details/power-plants-40.json","plant_id":"54975","capacity_mw":4.7,"status_group":"Operating","energy_sources":"NG","type":"Power plant","is_nuclear":false}},{"type":"Feature","geometry":{"type":"Point","coordinates":[-104.047,34.636]},"properties":{"key":"56097-6356d2f7","layer":"power","name":"New Mexico Wind Energy Center","state":"NM","detail_file":"data/details/power-plants-24.json","plant_id":"56097","capacity_mw":204.0,"status_group":"Operating","energy_sources":"WND","type":"Power plant","is_nuclear":false}},{"type":"Feature","geometry":{"type":"Point","coordinates":[-106.721,35.112]},"properties":{"key":"69973-99d68802","layer":"power","name":"Oso Negro","state":"NM","detail_file":"data/details/power-plants-58.json","plant_id":"69973","capacity_mw":100.0,"status_group":"Under construction","energy_sources":"MWH","type":"Power plant","is_nuclear":false}},{"type":"Feature","geometry":{"type":"Point","coordinates":[-105.971,32.976]},"properties":{"key":"58520-4c955a94","layer":"power","name":"Otero Solar","state":"NM","detail_file":"data/details/power-plants-61.json","plant_id":"58520","capacity_mw":8.0,"status_group":"Operating","energy_sources":"SUN","type":"Power plant","is_nuclear":false}},{"type":"Feature","geometry":{"type":"Point","coordinates":[-105.228,35.632]},"properties":{"key":"69529-4b2543cb","layer":"power","name":"Pluma - Pino","state":"NM","detail_file":"data/details/power-plants-60.json","plant_id":"69529","capacity_mw":5.0,"status_group":"Operating","energy_sources":"SUN","type":"Power plant","is_nuclear":false}},{"type":"Feature","geometry":{"type":"Point","coordinates":[-106.008,33.052]},"properties":{"key":"69557-dfe7525b","layer":"power","name":"Pluma - Reynolds (CSG)","state":"NM","detail_file":"data/details/power-plants-50.json","plant_id":"69557","capacity_mw":5.0,"status_group":"Operating","energy_sources":"SUN","type":"Power plant","is_nuclear":false}},{"type":"Feature","geometry":{"type":"Point","coordinates":[-106.709,32.427]},"properties":{"key":"69532-61ff4cb2","layer":"power","name":"Pluma - SLT Las Cruces","state":"NM","detail_file":"data/details/power-plants-15.json","plant_id":"69532","capacity_mw":5.0,"status_group":"Operating","energy_sources":"SUN","type":"Power plant","is_nuclear":false}},{"type":"Feature","geometry":{"type":"Point","coordinates":[-106.637,35.002]},"properties":{"key":"58899-6184dab9","layer":"power","name":"Prosperity Energy Storage Facility Hybri","state":"NM","detail_file":"data/details/power-plants-03.json","plant_id":"58899","capacity_mw":1.3,"status_group":"Operating","energy_sources":"MWH; SUN","type":"Power plant","is_nuclear":false}},{"type":"Feature","geometry":{"type":"Point","coordinates":[-106.857,35.199]},"properties":{"key":"67204-3b1e7967","layer":"power","name":"Quail Ranch Solar and BESS","state":"NM","detail_file":"data/details/power-plants-29.json","plant_id":"67204","capacity_mw":200.0,"status_group":"Operating","energy_sources":"MWH; SUN","type":"Power plant","is_nuclear":false}},{"type":"Feature","geometry":{"type":"Point","coordinates":[-106.547,35.153]},"properties":{"key":"62756-c116191f","layer":"power","name":"RC Energy AA LLC Solar Facility","state":"NM","detail_file":"data/details/power-plants-49.json","plant_id":"62756","capacity_mw":1.0,"status_group":"Operating","energy_sources":"SUN","type":"Power plant","is_nuclear":false}},{"type":"Feature","geometry":{"type":"Point","coordinates":[-105.423,34.274]},"properties":{"key":"63981-1986242f","layer":"power","name":"Red Cloud Wind LLC","state":"NM","detail_file":"data/details/power-plants-49.json","plant_id":"63981","capacity_mw":350.0,"status_group":"Operating","energy_sources":"WND","type":"Power plant","is_nuclear":false}},{"type":"Feature","geometry":{"type":"Point","coordinates":[-107.383,35.269]},"properties":{"key":"57357-74e25686","layer":"power","name":"Red Mesa Wind LLC","state":"NM","detail_file":"data/details/power-plants-34.json","plant_id":"57357","capacity_mw":102.4,"status_group":"Operating","energy_sources":"WND","type":"Power plant","is_nuclear":false}},{"type":"Feature","geometry":{"type":"Point","coordinates":[-106.602,35.171]},"properties":{"key":"2450-4996ec1f","layer":"power","name":"Reeves","state":"NM","detail_file":"data/details/power-plants-52.json","plant_id":"2450","capacity_mw":154.0,"status_group":"Operating","energy_sources":"NG","type":"Power plant","is_nuclear":false}},{"type":"Feature","geometry":{"type":"Point","coordinates":[-106.644,35.026]},"properties":{"key":"55039-1a462d85","layer":"power","name":"Rio Bravo","state":"NM","detail_file":"data/details/power-plants-08.json","plant_id":"55039","capacity_mw":150.0,"status_group":"Operating","energy_sources":"NG","type":"Power plant","is_nuclear":false}},{"type":"Feature","geometry":{"type":"Point","coordinates":[-106.683,34.583]},"properties":{"key":"60198-68212017","layer":"power","name":"Rio Communities Solar Energy Center","state":"NM","detail_file":"data/details/power-plants-36.json","plant_id":"60198","capacity_mw":10.0,"status_group":"Operating","energy_sources":"SUN","type":"Power plant","is_nuclear":false}},{"type":"Feature","geometry":{"type":"Point","coordinates":[-106.688,34.692]},"properties":{"key":"62597-bd007620","layer":"power","name":"Rio De Oro Solar Energy Center","state":"NM","detail_file":"data/details/power-plants-10.json","plant_id":"62597","capacity_mw":10.0,"status_group":"Operating","energy_sources":"SUN","type":"Power plant","is_nuclear":false}},{"type":"Feature","geometry":{"type":"Point","coordinates":[-106.668,35.264]},"properties":{"key":"58589-f9a513da","layer":"power","name":"Rio Rancho High School","state":"NM","detail_file":"data/details/power-plants-43.json","plant_id":"58589","capacity_mw":1.0,"status_group":"Operating","energy_sources":"SUN","type":"Power plant","is_nuclear":false}},{"type":"Feature","geometry":{"type":"Point","coordinates":[-106.482,35.105]},"properties":{"key":"63184-c690870f","layer":"power","name":"Rio Rancho Solar Energy Center","state":"NM","detail_file":"data/details/power-plants-50.json","plant_id":"63184","capacity_mw":10.0,"status_group":"Operating","energy_sources":"SUN","type":"Power plant","is_nuclear":false}},{"type":"Feature","geometry":{"type":"Point","coordinates":[-107.802,32.162]},"properties":{"key":"69266-5752e0cd","layer":"power","name":"Rockhound Sol Solar CSG","state":"NM","detail_file":"data/details/power-plants-05.json","plant_id":"69266","capacity_mw":4.0,"status_group":"Operating","energy_sources":"SUN","type":"Power plant","is_nuclear":false}},{"type":"Feature","geometry":{"type":"Point","coordinates":[-104.461,33.453]},"properties":{"key":"60406-a9750cc8","layer":"power","name":"Roswell Solar, LLC","state":"NM","detail_file":"data/details/power-plants-39.json","plant_id":"60406","capacity_mw":70.0,"status_group":"Operating","energy_sources":"SUN","type":"Power plant","is_nuclear":false}},{"type":"Feature","geometry":{"type":"Point","coordinates":[-107.615,35.098]},"properties":{"key":"64076-b98fb65a","layer":"power","name":"Route 66 Energy Center, LLC","state":"NM","detail_file":"data/details/power-plants-21.json","plant_id":"64076","capacity_mw":49.5,"status_group":"Operating","energy_sources":"SUN","type":"Power plant","is_nuclear":false}},{"type":"Feature","geometry":{"type":"Point","coordinates":[-107.709,35.059]},"properties":{"key":"68616-9dbf98b5","layer":"power","name":"Route 66 Energy Storage","state":"NM","detail_file":"data/details/power-plants-05.json","plant_id":"68616","capacity_mw":49.5,"status_group":"Operating","energy_sources":"MWH","type":"Power plant","is_nuclear":false}},{"type":"Feature","geometry":{"type":"Point","coordinates":[-104.507,33.351]},"properties":{"key":"58479-843654ac","layer":"power","name":"SEV NM Phase 2","state":"NM","detail_file":"data/details/power-plants-46.json","plant_id":"58479","capacity_mw":2.0,"status_group":"Operating","energy_sources":"SUN","type":"Power plant","is_nuclear":false}},{"type":"Feature","geometry":{"type":"Point","coordinates":[-106.654,34.785]},"properties":{"key":"69104-ff95940f","layer":"power","name":"SLO-1 Community Solar","state":"NM","detail_file":"data/details/power-plants-41.json","plant_id":"69104","capacity_mw":5.0,"status_group":"Operating","energy_sources":"SUN","type":"Power plant","is_nuclear":false}},{"type":"Feature","geometry":{"type":"Point","coordinates":[-106.631,35.363]},"properties":{"key":"69105-6f9996e9","layer":"power","name":"SLO-2","state":"NM","detail_file":"data/details/power-plants-07.json","plant_id":"69105","capacity_mw":5.0,"status_group":"Under construction","energy_sources":"SUN","type":"Power plant","is_nuclear":false}},{"type":"Feature","geometry":{"type":"Point","coordinates":[-106.686,32.433]},"properties":{"key":"69106-63c2587b","layer":"power","name":"SLO-3 Community Solar","state":"NM","detail_file":"data/details/power-plants-06.json","plant_id":"69106","capacity_mw":5.0,"status_group":"Operating","energy_sources":"SUN","type":"Power plant","is_nuclear":false}},{"type":"Feature","geometry":{"type":"Point","coordinates":[-104.235,32.346]},"properties":{"key":"57740-2ba1ec29","layer":"power","name":"SPS5 Hopi","state":"NM","detail_file":"data/details/power-plants-31.json","plant_id":"57740","capacity_mw":10.1,"status_group":"Operating","energy_sources":"SUN","type":"Power plant","is_nuclear":false}},{"type":"Feature","geometry":{"type":"Point","coordinates":[-105.178,35.635]},"properties":{"key":"63081-c8652a8a","layer":"power","name":"San Miguel I Solar Energy Center","state":"NM","detail_file":"data/details/power-plants-24.json","plant_id":"63081","capacity_mw":10.0,"status_group":"Operating","energy_sources":"SUN","type":"Power plant","is_nuclear":false}},{"type":"Feature","geometry":{"type":"Point","coordinates":[-105.173,35.635]},"properties":{"key":"63082-e1c325cb","layer":"power","name":"San Miguel II Solar Energy Center","state":"NM","detail_file":"data/details/power-plants-23.json","plant_id":"63082","capacity_mw":10.0,"status_group":"Operating","energy_sources":"SUN","type":"Power plant","is_nuclear":false}},{"type":"Feature","geometry":{"type":"Point","coordinates":[-106.528,35.057]},"properties":{"key":"68210-6941707e","layer":"power","name":"Sandia Energy Center","state":"NM","detail_file":"data/details/power-plants-45.json","plant_id":"68210","capacity_mw":60.0,"status_group":"Operating","energy_sources":"MWH","type":"Power plant","is_nuclear":false}},{"type":"Feature","geometry":{"type":"Point","coordinates":[-106.813,35.284]},"properties":{"key":"59558-4afddfc1","layer":"power","name":"Sandoval Solar Energy Center","state":"NM","detail_file":"data/details/power-plants-22.json","plant_id":"59558","capacity_mw":6.1,"status_group":"Operating","energy_sources":"SUN","type":"Power plant","is_nuclear":false}},{"type":"Feature","geometry":{"type":"Point","coordinates":[-106.061,35.588]},"properties":{"key":"60196-0504a70f","layer":"power","name":"Santa Fe Solar Energy Center","state":"NM","detail_file":"data/details/power-plants-34.json","plant_id":"60196","capacity_mw":9.5,"status_group":"Operating","energy_sources":"SUN","type":"Power plant","is_nuclear":false}},{"type":"Feature","geometry":{"type":"Point","coordinates":[-106.856,35.03]},"properties":{"key":"60197-a3e40b21","layer":"power","name":"Santolina Solar Energy Center","state":"NM","detail_file":"data/details/power-plants-49.json","plant_id":"60197","capacity_mw":10.5,"status_group":"Operating","energy_sources":"SUN","type":"Power plant","is_nuclear":false}},{"type":"Feature","geometry":{"type":"Point","coordinates":[-106.777,34.782]},"properties":{"key":"68617-04e6fbb6","layer":"power","name":"Sky Ranch BESS II","state":"NM","detail_file":"data/details/power-plants-28.json","plant_id":"68617","capacity_mw":100.0,"status_group":"Operating","energy_sources":"MWH","type":"Power plant","is_nuclear":false}},{"type":"Feature","geometry":{"type":"Point","coordinates":[-106.777,34.782]},"properties":{"key":"66814-a4f54f73","layer":"power","name":"Sky Ranch Solar","state":"NM","detail_file":"data/details/power-plants-09.json","plant_id":"66814","capacity_mw":240.0,"status_group":"Operating","energy_sources":"MWH; SUN","type":"Power plant","is_nuclear":false}},{"type":"Feature","geometry":{"type":"Point","coordinates":[-107.678,32.315]},"properties":{"key":"67260-a36b3319","layer":"power","name":"Solar PV Development NM 18 II LLC","state":"NM","detail_file":"data/details/power-plants-29.json","plant_id":"67260","capacity_mw":130.0,"status_group":"Operating","energy_sources":"SUN","type":"Power plant","is_nuclear":false}},{"type":"Feature","geometry":{"type":"Point","coordinates":[-106.736,34.986]},"properties":{"key":"60195-06df0dff","layer":"power","name":"South Valley Solar Energy Center","state":"NM","detail_file":"data/details/power-plants-63.json","plant_id":"60195","capacity_mw":10.0,"status_group":"Operating","energy_sources":"SUN","type":"Power plant","is_nuclear":false}},{"type":"Feature","geometry":{"type":"Point","coordinates":[-106.67,35.016]},"properties":{"key":"10339-90a9a02c","layer":"power","name":"Southside Water Reclamation Plant","state":"NM","detail_file":"data/details/power-plants-05.json","plant_id":"10339","capacity_mw":6.6,"status_group":"Operating","energy_sources":"NG; OBG","type":"Power plant","is_nuclear":false}},{"type":"Feature","geometry":{"type":"Point","coordinates":[-106.793,34.74]},"properties":{"key":"69497-0472511d","layer":"power","name":"Star Light Energy Center","state":"NM","detail_file":"data/details/power-plants-16.json","plant_id":"69497","capacity_mw":200.0,"status_group":"Under construction","energy_sources":"MWH; SUN","type":"Power plant","is_nuclear":false}},{"type":"Feature","geometry":{"type":"Point","coordinates":[-105.184,35.657]},"properties":{"key":"58794-06ea9eb4","layer":"power","name":"Storrie Lake Solar Project","state":"NM","detail_file":"data/details/power-plants-38.json","plant_id":"58794","capacity_mw":1.5,"status_group":"Operating","energy_sources":"SUN","type":"Power plant","is_nuclear":false}},{"type":"Feature","geometry":{"type":"Point","coordinates":[-106.658,35.313]},"properties":{"key":"58588-11ec3817","layer":"power","name":"Sue Cleveland High School","state":"NM","detail_file":"data/details/power-plants-10.json","plant_id":"58588","capacity_mw":1.0,"status_group":"Operating","energy_sources":"SUN","type":"Power plant","is_nuclear":false}},{"type":"Feature","geometry":{"type":"Point","coordinates":[-106.341,32.034]},"properties":{"key":"57986-9800d546","layer":"power","name":"SunE EPE1 LLC","state":"NM","detail_file":"data/details/power-plants-23.json","plant_id":"57986","capacity_mw":10.0,"status_group":"Operating","energy_sources":"SUN","type":"Power plant","is_nuclear":false}},{"type":"Feature","geometry":{"type":"Point","coordinates":[-106.913,32.252]},"properties":{"key":"57985-2898e088","layer":"power","name":"SunE EPE2 LLC","state":"NM","detail_file":"data/details/power-plants-57.json","plant_id":"57985","capacity_mw":12.0,"status_group":"Operating","energy_sources":"SUN","type":"Power plant","is_nuclear":false}},{"type":"Feature","geometry":{"type":"Point","coordinates":[-105.593,34.352]},"properties":{"key":"66924-6e083c16","layer":"power","name":"SunZia Wind North","state":"NM","detail_file":"data/details/power-plants-57.json","plant_id":"66924","capacity_mw":1089.0,"status_group":"Operating","energy_sources":"WND","type":"Power plant","is_nuclear":false}},{"type":"Feature","geometry":{"type":"Point","coordinates":[-105.593,34.352]},"properties":{"key":"66923-e2268f38","layer":"power","name":"SunZia Wind South","state":"NM","detail_file":"data/details/power-plants-01.json","plant_id":"66923","capacity_mw":2561.2,"status_group":"Operating","energy_sources":"WND","type":"Power plant","is_nuclear":false}},{"type":"Feature","geometry":{"type":"Point","coordinates":[-106.862,35.272]},"properties":{"key":"67710-8ff1a2cf","layer":"power","name":"TAG","state":"NM","detail_file":"data/details/power-plants-02.json","plant_id":"67710","capacity_mw":197.8,"status_group":"Operating","energy_sources":"MWH; SUN","type":"Power plant","is_nuclear":false}},{"type":"Feature","geometry":{"type":"Point","coordinates":[-105.44,34.36]},"properties":{"key":"64066-bfdbf5d2","layer":"power","name":"Tecolote Wind LLC","state":"NM","detail_file":"data/details/power-plants-53.json","plant_id":"64066","capacity_mw":272.0,"status_group":"Operating","energy_sources":"WND","type":"Power plant","is_nuclear":false}},{"type":"Feature","geometry":{"type":"Point","coordinates":[-107.778,32.261]},"properties":{"key":"69889-a236fe4e","layer":"power","name":"USS Gold Solar","state":"NM","detail_file":"data/details/power-plants-11.json","plant_id":"69889","capacity_mw":4.3,"status_group":"Under construction","energy_sources":"SUN","type":"Power plant","is_nuclear":false}},{"type":"Feature","geometry":{"type":"Point","coordinates":[-107.811,32.21]},"properties":{"key":"69881-89c11d23","layer":"power","name":"USS Hermanas Solar","state":"NM","detail_file":"data/details/power-plants-16.json","plant_id":"69881","capacity_mw":3.3,"status_group":"Under construction","energy_sources":"SUN","type":"Power plant","is_nuclear":false}},{"type":"Feature","geometry":{"type":"Point","coordinates":[-106.683,32.431]},"properties":{"key":"69883-bc451f9f","layer":"power","name":"USS Jornada Solar","state":"NM","detail_file":"data/details/power-plants-63.json","plant_id":"69883","capacity_mw":5.0,"status_group":"Under construction","energy_sources":"SUN","type":"Power plant","is_nuclear":false}},{"type":"Feature","geometry":{"type":"Point","coordinates":[-106.654,34.798]},"properties":{"key":"69884-535160e7","layer":"power","name":"USS Meadow Lake Solar","state":"NM","detail_file":"data/details/power-plants-31.json","plant_id":"69884","capacity_mw":3.0,"status_group":"Under construction","energy_sources":"SUN","type":"Power plant","is_nuclear":false}},{"type":"Feature","geometry":{"type":"Point","coordinates":[-106.732,34.612]},"properties":{"key":"55802-fae05046","layer":"power","name":"Valencia Energy Facility","state":"NM","detail_file":"data/details/power-plants-10.json","plant_id":"55802","capacity_mw":159.5,"status_group":"Operating","energy_sources":"NG","type":"Power plant","is_nuclear":false}},{"type":"Feature","geometry":{"type":"Point","coordinates":[-106.655,34.741]},"properties":{"key":"62467-1f7e206e","layer":"power","name":"Vista Solar Energy Center","state":"NM","detail_file":"data/details/power-plants-37.json","plant_id":"62467","capacity_mw":10.0,"status_group":"Operating","energy_sources":"SUN","type":"Power plant","is_nuclear":false}},{"type":"Feature","geometry":{"type":"Point","coordinates":[-106.477,32.396]},"properties":{"key":"58010-b55a316c","layer":"power","name":"WSMR I","state":"NM","detail_file":"data/details/power-plants-26.json","plant_id":"58010","capacity_mw":4.1,"status_group":"Operating","energy_sources":"SUN","type":"Power plant","is_nuclear":false}},{"type":"Feature","geometry":{"type":"Point","coordinates":[-107.25,33.153]},"properties":{"key":"60341-a9e372ea","layer":"power","name":"Wal-Mart Truth or Consequences PV","state":"NM","detail_file":"data/details/power-plants-27.json","plant_id":"60341","capacity_mw":1.0,"status_group":"Operating","energy_sources":"SUN","type":"Power plant","is_nuclear":false}},{"type":"Feature","geometry":{"type":"Point","coordinates":[-104.031,34.588]},"properties":{"key":"69524-63827e03","layer":"power","name":"Windy Lane Energy Center","state":"NM","detail_file":"data/details/power-plants-54.json","plant_id":"69524","capacity_mw":158.0,"status_group":"Under construction","energy_sources":"MWH; SUN","type":"Power plant","is_nuclear":false}},{"type":"Feature","geometry":{"type":"Point","coordinates":[-104.536,33.327]},"properties":{"key":"69107-72077ee9","layer":"power","name":"XCEL-1 Community Solar","state":"NM","detail_file":"data/details/power-plants-50.json","plant_id":"69107","capacity_mw":5.0,"status_group":"Operating","energy_sources":"SUN","type":"Power plant","is_nuclear":false}}]}