{"type":"FeatureCollection","features":[{"type":"Feature","geometry":{"type":"Point","coordinates":[-93.847,36.422]},"properties":{"key":"182-2d417cb6","layer":"power","name":"Beaver Dam (AR)","state":"AR","detail_file":"data/details/power-plants-00.json","plant_id":"182","capacity_mw":112.0,"status_group":"Operating","energy_sources":"WAT","type":"Power plant","is_nuclear":false}},{"type":"Feature","geometry":{"type":"Point","coordinates":[-93.586,36.373]},"properties":{"key":"66589-0386c4b6","layer":"power","name":"Berryville School District Solar","state":"AR","detail_file":"data/details/power-plants-14.json","plant_id":"66589","capacity_mw":1.0,"status_group":"Operating","energy_sources":"SUN","type":"Power plant","is_nuclear":false}},{"type":"Feature","geometry":{"type":"Point","coordinates":[-92.576,36.364]},"properties":{"key":"198-f6ea4a22","layer":"power","name":"Bull Shoals","state":"AR","detail_file":"data/details/power-plants-19.json","plant_id":"198","capacity_mw":340.0,"status_group":"Operating","energy_sources":"WAT","type":"Power plant","is_nuclear":false}},{"type":"Feature","geometry":{"type":"Point","coordinates":[-93.543,36.367]},"properties":{"key":"67514-afa9ad5d","layer":"power","name":"City of Green Forest (Carroll)","state":"AR","detail_file":"data/details/power-plants-03.json","plant_id":"67514","capacity_mw":1.2,"status_group":"Operating","energy_sources":"SUN","type":"Power plant","is_nuclear":false}},{"type":"Feature","geometry":{"type":"Point","coordinates":[-94.021,36.005]},"properties":{"key":"67518-e0b34512","layer":"power","name":"Fayetteville Public Schools (Ozarks)","state":"AR","detail_file":"data/details/power-plants-54.json","plant_id":"67518","capacity_mw":1.0,"status_group":"Operating","energy_sources":"SUN","type":"Power plant","is_nuclear":false}},{"type":"Feature","geometry":{"type":"Point","coordinates":[-94.524,36.256]},"properties":{"key":"6138-807aa6f1","layer":"power","name":"Flint Creek","state":"AR","detail_file":"data/details/power-plants-48.json","plant_id":"6138","capacity_mw":558.0,"status_group":"Operating","energy_sources":"SUB","type":"Power plant","is_nuclear":false}},{"type":"Feature","geometry":{"type":"Point","coordinates":[-94.284,36.185]},"properties":{"key":"56328-63cf3540","layer":"power","name":"Harry D Mattison Gas Plant","state":"AR","detail_file":"data/details/power-plants-35.json","plant_id":"56328","capacity_mw":349.0,"status_group":"Operating","energy_sources":"NG","type":"Power plant","is_nuclear":false}},{"type":"Feature","geometry":{"type":"Point","coordinates":[-93.89,36.155]},"properties":{"key":"68708-fe068920","layer":"power","name":"Hindsville","state":"AR","detail_file":"data/details/power-plants-17.json","plant_id":"68708","capacity_mw":5.0,"status_group":"Operating","energy_sources":"SUN","type":"Power plant","is_nuclear":false}},{"type":"Feature","geometry":{"type":"Point","coordinates":[-93.407,36.271]},"properties":{"key":"68319-dfebb4f1","layer":"power","name":"Nimbus Wind Farm","state":"AR","detail_file":"data/details/power-plants-52.json","plant_id":"68319","capacity_mw":183.0,"status_group":"Under construction","energy_sources":"WND","type":"Power plant","is_nuclear":false}},{"type":"Feature","geometry":{"type":"Point","coordinates":[-94.067,36.082]},"properties":{"key":"62682-46c55bac","layer":"power","name":"Noland Wastewater Treatment Plant Hybrid","state":"AR","detail_file":"data/details/power-plants-42.json","plant_id":"62682","capacity_mw":11.0,"status_group":"Operating","energy_sources":"MWH; SUN","type":"Power plant","is_nuclear":false}},{"type":"Feature","geometry":{"type":"Point","coordinates":[-92.24,36.249]},"properties":{"key":"196-4137c3e9","layer":"power","name":"Norfork","state":"AR","detail_file":"data/details/power-plants-20.json","plant_id":"196","capacity_mw":80.4,"status_group":"Operating","energy_sources":"WAT","type":"Power plant","is_nuclear":false}},{"type":"Feature","geometry":{"type":"Point","coordinates":[-94.082,36.164]},"properties":{"key":"60924-3e9a4b0a","layer":"power","name":"Ozarks Natural Energy Community Solar","state":"AR","detail_file":"data/details/power-plants-40.json","plant_id":"60924","capacity_mw":1.0,"status_group":"Operating","energy_sources":"SUN","type":"Power plant","is_nuclear":false}},{"type":"Feature","geometry":{"type":"Point","coordinates":[-94.049,36.165]},"properties":{"key":"68719-f28d0649","layer":"power","name":"Springdale School District","state":"AR","detail_file":"data/details/power-plants-55.json","plant_id":"68719","capacity_mw":2.9,"status_group":"Operating","energy_sources":"SUN","type":"Power plant","is_nuclear":false}},{"type":"Feature","geometry":{"type":"Point","coordinates":[-94.172,36.066]},"properties":{"key":"60536-83c92222","layer":"power","name":"UA Central Utility Plant","state":"AR","detail_file":"data/details/power-plants-44.json","plant_id":"60536","capacity_mw":5.6,"status_group":"Operating","energy_sources":"NG","type":"Power plant","is_nuclear":false}},{"type":"Feature","geometry":{"type":"Point","coordinates":[-94.26,36.141]},"properties":{"key":"57025-fb2c26a4","layer":"power","name":"Waste Management Eco Vista LFGTE","state":"AR","detail_file":"data/details/power-plants-41.json","plant_id":"57025","capacity_mw":4.0,"status_group":"Operating","energy_sources":"LFG","type":"Power plant","is_nuclear":false}},{"type":"Feature","geometry":{"type":"Point","coordinates":[-94.14,36.041]},"properties":{"key":"62683-3753a1b2","layer":"power","name":"Westside Wastewater Treatment Plant Hybr","state":"AR","detail_file":"data/details/power-plants-59.json","plant_id":"62683","capacity_mw":11.0,"status_group":"Operating","energy_sources":"MWH; SUN","type":"Power plant","is_nuclear":false}},{"type":"Feature","geometry":{"type":"Point","coordinates":[-94.31,36.264]},"properties":{"key":"68729-e67bdbb2","layer":"power","name":"XNA (NW AR Natnl Airport)","state":"AR","detail_file":"data/details/power-plants-13.json","plant_id":"68729","capacity_mw":3.0,"status_group":"Operating","energy_sources":"SUN","type":"Power plant","is_nuclear":false}},{"type":"Feature","geometry":{"type":"Point","coordinates":[-94.697,39.166]},"properties":{"key":"61313-afba90a0","layer":"power","name":"BPU Solar Farm","state":"KS","detail_file":"data/details/power-plants-39.json","plant_id":"61313","capacity_mw":1.0,"status_group":"Operating","energy_sources":"SUN","type":"Power plant","is_nuclear":false}},{"type":"Feature","geometry":{"type":"Point","coordinates":[-95.187,38.775]},"properties":{"key":"1262-3fafa966","layer":"power","name":"Baldwin City Plant No 1","state":"KS","detail_file":"data/details/power-plants-27.json","plant_id":"1262","capacity_mw":4.2,"status_group":"Operating","energy_sources":"DFO","type":"Power plant","is_nuclear":false}},{"type":"Feature","geometry":{"type":"Point","coordinates":[-95.192,38.765]},"properties":{"key":"8020-e70da749","layer":"power","name":"Baldwin City Plant No 2","state":"KS","detail_file":"data/details/power-plants-41.json","plant_id":"8020","capacity_mw":10.8,"status_group":"Operating","energy_sources":"DFO; NG","type":"Power plant","is_nuclear":false}},{"type":"Feature","geometry":{"type":"Point","coordinates":[-95.837,38.755]},"properties":{"key":"1265-108ca4bf","layer":"power","name":"Burlingame","state":"KS","detail_file":"data/details/power-plants-63.json","plant_id":"1265","capacity_mw":4.0,"status_group":"Operating","energy_sources":"NG","type":"Power plant","is_nuclear":false}},{"type":"Feature","geometry":{"type":"Point","coordinates":[-95.75,38.193]},"properties":{"key":"1266-2f05f810","layer":"power","name":"Burlington (KS)","state":"KS","detail_file":"data/details/power-plants-40.json","plant_id":"1266","capacity_mw":10.4,"status_group":"Operating","energy_sources":"DFO; NG","type":"Power plant","is_nuclear":false}},{"type":"Feature","geometry":{"type":"Point","coordinates":[-95.585,37.093]},"properties":{"key":"59726-f77b935c","layer":"power","name":"CML&P Generating Facility No. 2","state":"KS","detail_file":"data/details/power-plants-44.json","plant_id":"59726","capacity_mw":56.1,"status_group":"Operating","energy_sources":"NG","type":"Power plant","is_nuclear":false}},{"type":"Feature","geometry":{"type":"Point","coordinates":[-95.455,37.683]},"properties":{"key":"1267-2e92debc","layer":"power","name":"Chanute 1","state":"KS","detail_file":"data/details/power-plants-60.json","plant_id":"1267","capacity_mw":6.6,"status_group":"Under construction","energy_sources":"DFO","type":"Power plant","is_nuclear":false}},{"type":"Feature","geometry":{"type":"Point","coordinates":[-95.459,37.695]},"properties":{"key":"1268-c9f95e0c","layer":"power","name":"Chanute 2","state":"KS","detail_file":"data/details/power-plants-20.json","plant_id":"1268","capacity_mw":64.0,"status_group":"Operating","energy_sources":"NG","type":"Power plant","is_nuclear":false}},{"type":"Feature","geometry":{"type":"Point","coordinates":[-95.47,37.638]},"properties":{"key":"7018-c9829c62","layer":"power","name":"Chanute 3","state":"KS","detail_file":"data/details/power-plants-56.json","plant_id":"7018","capacity_mw":34.8,"status_group":"Operating","energy_sources":"DFO; NG","type":"Power plant","is_nuclear":false}},{"type":"Feature","geometry":{"type":"Point","coordinates":[-95.468,37.637]},"properties":{"key":"69036-8b3e14f4","layer":"power","name":"Chanute Solar","state":"KS","detail_file":"data/details/power-plants-13.json","plant_id":"69036","capacity_mw":6.0,"status_group":"Operating","energy_sources":"SUN","type":"Power plant","is_nuclear":false}},{"type":"Feature","geometry":{"type":"Point","coordinates":[-95.613,37.037]},"properties":{"key":"1271-329f5d1f","layer":"power","name":"Coffeyville","state":"KS","detail_file":"data/details/power-plants-57.json","plant_id":"1271","capacity_mw":44.0,"status_group":"Operating","energy_sources":"DFO; NG","type":"Power plant","is_nuclear":false}},{"type":"Feature","geometry":{"type":"Point","coordinates":[-95.24,38.273]},"properties":{"key":"59383-4806580c","layer":"power","name":"East Kansas Agri-Energy, LLC","state":"KS","detail_file":"data/details/power-plants-54.json","plant_id":"59383","capacity_mw":2.0,"status_group":"Operating","energy_sources":"WH","type":"Power plant","is_nuclear":false}},{"type":"Feature","geometry":{"type":"Point","coordinates":[-95.237,37.567]},"properties":{"key":"1276-8c321538","layer":"power","name":"Erie","state":"KS","detail_file":"data/details/power-plants-44.json","plant_id":"1276","capacity_mw":4.3,"status_group":"Operating","energy_sources":"DFO","type":"Power plant","is_nuclear":false}},{"type":"Feature","geometry":{"type":"Point","coordinates":[-95.237,37.574]},"properties":{"key":"7766-2d173b55","layer":"power","name":"Erie Energy Center","state":"KS","detail_file":"data/details/power-plants-47.json","plant_id":"7766","capacity_mw":20.0,"status_group":"Operating","energy_sources":"DFO","type":"Power plant","is_nuclear":false}},{"type":"Feature","geometry":{"type":"Point","coordinates":[-95.815,37.547]},"properties":{"key":"65374-52e2f262","layer":"power","name":"Fredonia (KS)","state":"KS","detail_file":"data/details/power-plants-03.json","plant_id":"65374","capacity_mw":3.0,"status_group":"Operating","energy_sources":"DFO","type":"Power plant","is_nuclear":false}},{"type":"Feature","geometry":{"type":"Point","coordinates":[-95.818,37.547]},"properties":{"key":"66570-35a32fc1","layer":"power","name":"Fredonia Solar (KS)","state":"KS","detail_file":"data/details/power-plants-59.json","plant_id":"66570","capacity_mw":2.0,"status_group":"Operating","energy_sources":"SUN","type":"Power plant","is_nuclear":false}},{"type":"Feature","geometry":{"type":"Point","coordinates":[-95.816,38.994]},"properties":{"key":"66883-5890aaec","layer":"power","name":"FreeState Crooked Post Solar I","state":"KS","detail_file":"data/details/power-plants-51.json","plant_id":"66883","capacity_mw":1.6,"status_group":"Operating","energy_sources":"SUN","type":"Power plant","is_nuclear":false}},{"type":"Feature","geometry":{"type":"Point","coordinates":[-95.787,39.109]},"properties":{"key":"66882-352ae11f","layer":"power","name":"FreeState Kiro Solar I","state":"KS","detail_file":"data/details/power-plants-34.json","plant_id":"66882","capacity_mw":1.0,"status_group":"Operating","energy_sources":"SUN","type":"Power plant","is_nuclear":false}},{"type":"Feature","geometry":{"type":"Point","coordinates":[-95.428,38.99]},"properties":{"key":"66884-d5413207","layer":"power","name":"FreeState Stull Solar I","state":"KS","detail_file":"data/details/power-plants-07.json","plant_id":"66884","capacity_mw":1.3,"status_group":"Operating","energy_sources":"SUN","type":"Power plant","is_nuclear":false}},{"type":"Feature","geometry":{"type":"Point","coordinates":[-94.89,38.831]},"properties":{"key":"7281-21754b48","layer":"power","name":"Gardner Energy Center","state":"KS","detail_file":"data/details/power-plants-33.json","plant_id":"7281","capacity_mw":39.2,"status_group":"Operating","energy_sources":"NG","type":"Power plant","is_nuclear":false}},{"type":"Feature","geometry":{"type":"Point","coordinates":[-95.245,38.27]},"properties":{"key":"1278-826a4453","layer":"power","name":"Garnett Municipal","state":"KS","detail_file":"data/details/power-plants-12.json","plant_id":"1278","capacity_mw":11.7,"status_group":"Operating","energy_sources":"DFO","type":"Power plant","is_nuclear":false}},{"type":"Feature","geometry":{"type":"Point","coordinates":[-94.839,37.508]},"properties":{"key":"1279-3c0c5b16","layer":"power","name":"Girard","state":"KS","detail_file":"data/details/power-plants-24.json","plant_id":"1279","capacity_mw":10.8,"status_group":"Operating","energy_sources":"DFO; NG","type":"Power plant","is_nuclear":false}},{"type":"Feature","geometry":{"type":"Point","coordinates":[-94.983,37.515]},"properties":{"key":"68707-3767da8b","layer":"power","name":"Greenbush-Heartland","state":"KS","detail_file":"data/details/power-plants-24.json","plant_id":"68707","capacity_mw":1.0,"status_group":"Operating","energy_sources":"SUN","type":"Power plant","is_nuclear":false}},{"type":"Feature","geometry":{"type":"Point","coordinates":[-95.732,39.474]},"properties":{"key":"1287-0d1d7161","layer":"power","name":"Holton","state":"KS","detail_file":"data/details/power-plants-38.json","plant_id":"1287","capacity_mw":21.5,"status_group":"Operating","energy_sources":"DFO; NG","type":"Power plant","is_nuclear":false}},{"type":"Feature","geometry":{"type":"Point","coordinates":[-95.426,37.923]},"properties":{"key":"1291-558d77f7","layer":"power","name":"Iola","state":"KS","detail_file":"data/details/power-plants-04.json","plant_id":"1291","capacity_mw":29.3,"status_group":"Operating","energy_sources":"DFO; NG","type":"Power plant","is_nuclear":false}},{"type":"Feature","geometry":{"type":"Point","coordinates":[-95.426,37.923]},"properties":{"key":"1291-58d73ee0","layer":"power","name":"Iola","state":"KS","detail_file":"data/details/power-plants-53.json","plant_id":"1291","capacity_mw":8.0,"status_group":"Under construction","energy_sources":"DFO","type":"Power plant","is_nuclear":false}},{"type":"Feature","geometry":{"type":"Point","coordinates":[-95.03,37.704]},"properties":{"key":"65129-a0c4981b","layer":"power","name":"Jayhawk Wind Energy Center","state":"KS","detail_file":"data/details/power-plants-46.json","plant_id":"65129","capacity_mw":197.4,"status_group":"Operating","energy_sources":"WND","type":"Power plant","is_nuclear":false}},{"type":"Feature","geometry":{"type":"Point","coordinates":[-95.235,38.974]},"properties":{"key":"10279-486496f8","layer":"power","name":"Kansas River Project","state":"KS","detail_file":"data/details/power-plants-63.json","plant_id":"10279","capacity_mw":7.0,"status_group":"Operating","energy_sources":"WAT","type":"Power plant","is_nuclear":false}},{"type":"Feature","geometry":{"type":"Point","coordinates":[-94.646,38.348]},"properties":{"key":"1241-065bdcd7","layer":"power","name":"La Cygne","state":"KS","detail_file":"data/details/power-plants-13.json","plant_id":"1241","capacity_mw":1598.9,"status_group":"Operating","energy_sources":"SUB","type":"Power plant","is_nuclear":false}},{"type":"Feature","geometry":{"type":"Point","coordinates":[-95.269,39.007]},"properties":{"key":"1250-72ba82f9","layer":"power","name":"Lawrence Energy Center","state":"KS","detail_file":"data/details/power-plants-26.json","plant_id":"1250","capacity_mw":517.0,"status_group":"Operating","energy_sources":"SUB","type":"Power plant","is_nuclear":false}},{"type":"Feature","geometry":{"type":"Point","coordinates":[-95.45,37.157]},"properties":{"key":"68699-b09c762e","layer":"power","name":"Mound","state":"KS","detail_file":"data/details/power-plants-18.json","plant_id":"68699","capacity_mw":1.0,"status_group":"Operating","energy_sources":"SUN","type":"Power plant","is_nuclear":false}},{"type":"Feature","geometry":{"type":"Point","coordinates":[-94.698,39.168]},"properties":{"key":"6064-fdd9f4fb","layer":"power","name":"Nearman Creek","state":"KS","detail_file":"data/details/power-plants-55.json","plant_id":"6064","capacity_mw":365.0,"status_group":"Operating","energy_sources":"NG; SUB","type":"Power plant","is_nuclear":false}},{"type":"Feature","geometry":{"type":"Point","coordinates":[-95.377,37.485]},"properties":{"key":"62481-f1d156b4","layer":"power","name":"Neosho Ridge Wind Energy Center","state":"KS","detail_file":"data/details/power-plants-12.json","plant_id":"62481","capacity_mw":301.0,"status_group":"Operating","energy_sources":"WND","type":"Power plant","is_nuclear":false}},{"type":"Feature","geometry":{"type":"Point","coordinates":[-94.641,37.63]},"properties":{"key":"57489-23f9b6fb","layer":"power","name":"Oak Grove Power Producers","state":"KS","detail_file":"data/details/power-plants-01.json","plant_id":"57489","capacity_mw":3.6,"status_group":"Operating","energy_sources":"LFG","type":"Power plant","is_nuclear":false}},{"type":"Feature","geometry":{"type":"Point","coordinates":[-95.828,38.633]},"properties":{"key":"1313-854ffa6d","layer":"power","name":"Osage City","state":"KS","detail_file":"data/details/power-plants-14.json","plant_id":"1313","capacity_mw":15.1,"status_group":"Operating","energy_sources":"DFO; NG","type":"Power plant","is_nuclear":false}},{"type":"Feature","geometry":{"type":"Point","coordinates":[-95.828,38.651]},"properties":{"key":"67699-d3ec5706","layer":"power","name":"Osage City Solar","state":"KS","detail_file":"data/details/power-plants-06.json","plant_id":"67699","capacity_mw":1.8,"status_group":"Operating","energy_sources":"SUN","type":"Power plant","is_nuclear":false}},{"type":"Feature","geometry":{"type":"Point","coordinates":[-94.903,38.532]},"properties":{"key":"7928-bce8a701","layer":"power","name":"Osawatomie","state":"KS","detail_file":"data/details/power-plants-14.json","plant_id":"7928","capacity_mw":102.0,"status_group":"Operating","energy_sources":"NG","type":"Power plant","is_nuclear":false}},{"type":"Feature","geometry":{"type":"Point","coordinates":[-94.957,38.501]},"properties":{"key":"60751-9aa6a3af","layer":"power","name":"Osawatomie Power Plant North Sub","state":"KS","detail_file":"data/details/power-plants-49.json","plant_id":"60751","capacity_mw":6.0,"status_group":"Operating","energy_sources":"DFO","type":"Power plant","is_nuclear":false}},{"type":"Feature","geometry":{"type":"Point","coordinates":[-94.953,38.496]},"properties":{"key":"60750-a9252a74","layer":"power","name":"Osawatomie Power Plant South Sub","state":"KS","detail_file":"data/details/power-plants-50.json","plant_id":"60750","capacity_mw":6.0,"status_group":"Operating","energy_sources":"DFO","type":"Power plant","is_nuclear":false}},{"type":"Feature","geometry":{"type":"Point","coordinates":[-94.938,38.521]},"properties":{"key":"67025-1f0e7d15","layer":"power","name":"Osawatomie Solar","state":"KS","detail_file":"data/details/power-plants-63.json","plant_id":"67025","capacity_mw":4.9,"status_group":"Operating","energy_sources":"SUN","type":"Power plant","is_nuclear":false}},{"type":"Feature","geometry":{"type":"Point","coordinates":[-95.328,39.147]},"properties":{"key":"68703-34c79613","layer":"power","name":"Oskaloosa","state":"KS","detail_file":"data/details/power-plants-55.json","plant_id":"68703","capacity_mw":1.0,"status_group":"Operating","energy_sources":"SUN","type":"Power plant","is_nuclear":false}},{"type":"Feature","geometry":{"type":"Point","coordinates":[-95.28,38.616]},"properties":{"key":"1316-8f035618","layer":"power","name":"Ottawa","state":"KS","detail_file":"data/details/power-plants-00.json","plant_id":"1316","capacity_mw":19.2,"status_group":"Operating","energy_sources":"NG","type":"Power plant","is_nuclear":false}},{"type":"Feature","geometry":{"type":"Point","coordinates":[-95.224,37.979]},"properties":{"key":"62488-03c88be7","layer":"power","name":"Prairie Queen Wind Farm","state":"KS","detail_file":"data/details/power-plants-04.json","plant_id":"62488","capacity_mw":199.3,"status_group":"Operating","energy_sources":"WND","type":"Power plant","is_nuclear":false}},{"type":"Feature","geometry":{"type":"Point","coordinates":[-94.638,39.149]},"properties":{"key":"1295-09fa250d","layer":"power","name":"Quindaro","state":"KS","detail_file":"data/details/power-plants-08.json","plant_id":"1295","capacity_mw":143.6,"status_group":"Operating","energy_sources":"DFO","type":"Power plant","is_nuclear":false}},{"type":"Feature","geometry":{"type":"Point","coordinates":[-95.966,38.475]},"properties":{"key":"60999-2db4e08b","layer":"power","name":"Reading Wind Project","state":"KS","detail_file":"data/details/power-plants-18.json","plant_id":"60999","capacity_mw":200.1,"status_group":"Operating","energy_sources":"WND","type":"Power plant","is_nuclear":false}},{"type":"Feature","geometry":{"type":"Point","coordinates":[-94.699,37.073]},"properties":{"key":"1239-9f5043a2","layer":"power","name":"Riverton","state":"KS","detail_file":"data/details/power-plants-01.json","plant_id":"1239","capacity_mw":300.2,"status_group":"Operating","energy_sources":"NG","type":"Power plant","is_nuclear":false}},{"type":"Feature","geometry":{"type":"Point","coordinates":[-94.699,37.073]},"properties":{"key":"1239-c6f8df0a","layer":"power","name":"Riverton","state":"KS","detail_file":"data/details/power-plants-57.json","plant_id":"1239","capacity_mw":27.0,"status_group":"Under construction","energy_sources":"NG","type":"Power plant","is_nuclear":false}},{"type":"Feature","geometry":{"type":"Point","coordinates":[-95.803,39.905]},"properties":{"key":"1320-31349641","layer":"power","name":"Sabetha Power Plant","state":"KS","detail_file":"data/details/power-plants-40.json","plant_id":"1320","capacity_mw":21.8,"status_group":"Operating","energy_sources":"DFO; NG","type":"Power plant","is_nuclear":false}},{"type":"Feature","geometry":{"type":"Point","coordinates":[-95.684,38.275]},"properties":{"key":"7973-e668092e","layer":"power","name":"Sharpe","state":"KS","detail_file":"data/details/power-plants-51.json","plant_id":"7973","capacity_mw":20.0,"status_group":"Operating","energy_sources":"DFO","type":"Power plant","is_nuclear":false}},{"type":"Feature","geometry":{"type":"Point","coordinates":[-95.798,37.508]},"properties":{"key":"68724-1caf13ef","layer":"power","name":"Studebaker","state":"KS","detail_file":"data/details/power-plants-40.json","plant_id":"68724","capacity_mw":1.0,"status_group":"Operating","energy_sources":"SUN","type":"Power plant","is_nuclear":false}},{"type":"Feature","geometry":{"type":"Point","coordinates":[-95.649,37.502]},"properties":{"key":"69631-db017d9c","layer":"power","name":"Sunflower Sky Energy Center","state":"KS","detail_file":"data/details/power-plants-31.json","plant_id":"69631","capacity_mw":65.0,"status_group":"Under construction","energy_sources":"SUN","type":"Power plant","is_nuclear":false}},{"type":"Feature","geometry":{"type":"Point","coordinates":[-95.37,37.602]},"properties":{"key":"68726-b0377f6c","layer":"power","name":"Urbana-Heartland","state":"KS","detail_file":"data/details/power-plants-02.json","plant_id":"68726","capacity_mw":1.0,"status_group":"Operating","energy_sources":"SUN","type":"Power plant","is_nuclear":false}},{"type":"Feature","geometry":{"type":"Point","coordinates":[-95.731,39.175]},"properties":{"key":"57023-df1b1a59","layer":"power","name":"Waste Management Rolling Meadows LFGTE","state":"KS","detail_file":"data/details/power-plants-32.json","plant_id":"57023","capacity_mw":5.6,"status_group":"Operating","energy_sources":"LFG","type":"Power plant","is_nuclear":false}},{"type":"Feature","geometry":{"type":"Point","coordinates":[-95.814,38.257]},"properties":{"key":"57614-c988c421","layer":"power","name":"Waverly Wind Farm LLC","state":"KS","detail_file":"data/details/power-plants-35.json","plant_id":"57614","capacity_mw":199.0,"status_group":"Operating","energy_sources":"WND","type":"Power plant","is_nuclear":false}},{"type":"Feature","geometry":{"type":"Point","coordinates":[-94.986,38.788]},"properties":{"key":"7929-38952e67","layer":"power","name":"West Gardner","state":"KS","detail_file":"data/details/power-plants-33.json","plant_id":"7929","capacity_mw":408.0,"status_group":"Operating","energy_sources":"NG","type":"Power plant","is_nuclear":false}},{"type":"Feature","geometry":{"type":"Point","coordinates":[-95.69,38.239]},"properties":{"key":"210-cb8eacbf","layer":"power","name":"Wolf Creek Generating Station","state":"KS","detail_file":"data/details/power-plants-62.json","plant_id":"210","capacity_mw":1296.3,"status_group":"Operating","energy_sources":"NUC","type":"Nuclear power plant","is_nuclear":true}},{"type":"Feature","geometry":{"type":"Point","coordinates":[-95.684,38.274]},"properties":{"key":"62590-6811bc12","layer":"power","name":"Wolf Creek Generator","state":"KS","detail_file":"data/details/power-plants-35.json","plant_id":"62590","capacity_mw":1.0,"status_group":"Operating","energy_sources":"DFO","type":"Power plant","is_nuclear":false}},{"type":"Feature","geometry":{"type":"Point","coordinates":[-94.012,39.755]},"properties":{"key":"68927-5a70cb8d","layer":"power","name":"Adelite Solar, LLC","state":"MO","detail_file":"data/details/power-plants-05.json","plant_id":"68927","capacity_mw":25.0,"status_group":"Operating","energy_sources":"SUN","type":"Power plant","is_nuclear":false}},{"type":"Feature","geometry":{"type":"Point","coordinates":[-92.142,39.283]},"properties":{"key":"66628-9140f15c","layer":"power","name":"Altona Solar, LLC","state":"MO","detail_file":"data/details/power-plants-07.json","plant_id":"66628","capacity_mw":30.0,"status_group":"Operating","energy_sources":"SUN","type":"Power plant","is_nuclear":false}},{"type":"Feature","geometry":{"type":"Point","coordinates":[-92.045,38.552]},"properties":{"key":"56896-844a5aec","layer":"power","name":"Ameresco Jefferson City","state":"MO","detail_file":"data/details/power-plants-26.json","plant_id":"56896","capacity_mw":3.0,"status_group":"Operating","energy_sources":"LFG","type":"Power plant","is_nuclear":false}},{"type":"Feature","geometry":{"type":"Point","coordinates":[-93.935,38.312]},"properties":{"key":"68917-009e63ca","layer":"power","name":"Beavertail Solar","state":"MO","detail_file":"data/details/power-plants-20.json","plant_id":"68917","capacity_mw":400.0,"status_group":"Under construction","energy_sources":"SUN","type":"Power plant","is_nuclear":false}},{"type":"Feature","geometry":{"type":"Point","coordinates":[-92.454,37.232]},"properties":{"key":"59310-27353b44","layer":"power","name":"Black Oak Power Producers","state":"MO","detail_file":"data/details/power-plants-33.json","plant_id":"59310","capacity_mw":4.0,"status_group":"Operating","energy_sources":"LFG","type":"Power plant","is_nuclear":false}},{"type":"Feature","geometry":{"type":"Point","coordinates":[-93.93,37.383]},"properties":{"key":"66701-6a3f4b07","layer":"power","name":"Buffalo Branch Wind and Solar LLC","state":"MO","detail_file":"data/details/power-plants-39.json","plant_id":"66701","capacity_mw":247.0,"status_group":"Planned","energy_sources":"WND","type":"Power plant","is_nuclear":false}},{"type":"Feature","geometry":{"type":"Point","coordinates":[-94.344,38.264]},"properties":{"key":"2115-42a37cad","layer":"power","name":"Butler Municipal Power Plant","state":"MO","detail_file":"data/details/power-plants-47.json","plant_id":"2115","capacity_mw":10.9,"status_group":"Operating","energy_sources":"DFO","type":"Power plant","is_nuclear":false}},{"type":"Feature","geometry":{"type":"Point","coordinates":[-94.35,38.27]},"properties":{"key":"58959-d1242664","layer":"power","name":"Butler Solar Power Project","state":"MO","detail_file":"data/details/power-plants-04.json","plant_id":"58959","capacity_mw":2.8,"status_group":"Operating","energy_sources":"SUN","type":"Power plant","is_nuclear":false}},{"type":"Feature","geometry":{"type":"Point","coordinates":[-93.502,39.352]},"properties":{"key":"2120-c9ae3863","layer":"power","name":"Carrollton","state":"MO","detail_file":"data/details/power-plants-31.json","plant_id":"2120","capacity_mw":20.6,"status_group":"Operating","energy_sources":"DFO; NG","type":"Power plant","is_nuclear":false}},{"type":"Feature","geometry":{"type":"Point","coordinates":[-94.299,37.177]},"properties":{"key":"2121-e0d86973","layer":"power","name":"Carthage","state":"MO","detail_file":"data/details/power-plants-59.json","plant_id":"2121","capacity_mw":41.8,"status_group":"Operating","energy_sources":"DFO","type":"Power plant","is_nuclear":false}},{"type":"Feature","geometry":{"type":"Point","coordinates":[-93.564,39.783]},"properties":{"key":"2122-db423154","layer":"power","name":"Chillicothe","state":"MO","detail_file":"data/details/power-plants-03.json","plant_id":"2122","capacity_mw":90.0,"status_group":"Operating","energy_sources":"DFO; NG","type":"Power plant","is_nuclear":false}},{"type":"Feature","geometry":{"type":"Point","coordinates":[-93.537,39.789]},"properties":{"key":"61223-fb7f01c3","layer":"power","name":"Chillicothe Solar Farm","state":"MO","detail_file":"data/details/power-plants-01.json","plant_id":"61223","capacity_mw":2.5,"status_group":"Operating","energy_sources":"SUN","type":"Power plant","is_nuclear":false}},{"type":"Feature","geometry":{"type":"Point","coordinates":[-92.317,38.965]},"properties":{"key":"2123-cbee8612","layer":"power","name":"Columbia (MO)","state":"MO","detail_file":"data/details/power-plants-14.json","plant_id":"2123","capacity_mw":61.1,"status_group":"Operating","energy_sources":"DFO; LFG; NG","type":"Power plant","is_nuclear":false}},{"type":"Feature","geometry":{"type":"Point","coordinates":[-92.263,39.019]},"properties":{"key":"55447-9331f57d","layer":"power","name":"Columbia Energy Center","state":"MO","detail_file":"data/details/power-plants-45.json","plant_id":"55447","capacity_mw":162.8,"status_group":"Operating","energy_sources":"NG","type":"Power plant","is_nuclear":false}},{"type":"Feature","geometry":{"type":"Point","coordinates":[-94.301,38.793]},"properties":{"key":"55178-c7c26257","layer":"power","name":"Dogwood Energy Facility","state":"MO","detail_file":"data/details/power-plants-34.json","plant_id":"55178","capacity_mw":655.2,"status_group":"Operating","energy_sources":"NG","type":"Power plant","is_nuclear":false}},{"type":"Feature","geometry":{"type":"Point","coordinates":[-94.003,37.859]},"properties":{"key":"61566-f5bcf7e3","layer":"power","name":"El Dorado Springs Solar Farm","state":"MO","detail_file":"data/details/power-plants-30.json","plant_id":"61566","capacity_mw":2.5,"status_group":"Operating","energy_sources":"SUN","type":"Power plant","is_nuclear":false}},{"type":"Feature","geometry":{"type":"Point","coordinates":[-94.104,37.139]},"properties":{"key":"6223-6b8b04ef","layer":"power","name":"Empire Energy Center","state":"MO","detail_file":"data/details/power-plants-40.json","plant_id":"6223","capacity_mw":379.0,"status_group":"Operating","energy_sources":"NG","type":"Power plant","is_nuclear":false}},{"type":"Feature","geometry":{"type":"Point","coordinates":[-92.221,38.593]},"properties":{"key":"2082-f973370c","layer":"power","name":"Fairgrounds","state":"MO","detail_file":"data/details/power-plants-15.json","plant_id":"2082","capacity_mw":68.3,"status_group":"Operating","energy_sources":"DFO","type":"Power plant","is_nuclear":false}},{"type":"Feature","geometry":{"type":"Point","coordinates":[-92.68,39.141]},"properties":{"key":"2125-9c06b59c","layer":"power","name":"Fayette","state":"MO","detail_file":"data/details/power-plants-44.json","plant_id":"2125","capacity_mw":10.9,"status_group":"Operating","energy_sources":"DFO","type":"Power plant","is_nuclear":false}},{"type":"Feature","geometry":{"type":"Point","coordinates":[-94.606,37.352]},"properties":{"key":"69481-c5a1282d","layer":"power","name":"Foxtrot Solar Energy LLC","state":"MO","detail_file":"data/details/power-plants-34.json","plant_id":"69481","capacity_mw":107.0,"status_group":"Under construction","energy_sources":"SUN","type":"Power plant","is_nuclear":false}},{"type":"Feature","geometry":{"type":"Point","coordinates":[-93.954,39.917]},"properties":{"key":"2127-5a0e7f2f","layer":"power","name":"Gallatin (MO)","state":"MO","detail_file":"data/details/power-plants-47.json","plant_id":"2127","capacity_mw":7.2,"status_group":"Operating","energy_sources":"DFO","type":"Power plant","is_nuclear":false}},{"type":"Feature","geometry":{"type":"Point","coordinates":[-94.581,39.112]},"properties":{"key":"58205-9522ee1c","layer":"power","name":"Grand Ave Plant","state":"MO","detail_file":"data/details/power-plants-55.json","plant_id":"58205","capacity_mw":5.0,"status_group":"Operating","energy_sources":"NG","type":"Power plant","is_nuclear":false}},{"type":"Feature","geometry":{"type":"Point","coordinates":[-94.298,38.861]},"properties":{"key":"6074-b1cadb61","layer":"power","name":"Greenwood (MO)","state":"MO","detail_file":"data/details/power-plants-50.json","plant_id":"6074","capacity_mw":287.8,"status_group":"Operating","energy_sources":"NG; SUN","type":"Power plant","is_nuclear":false}},{"type":"Feature","geometry":{"type":"Point","coordinates":[-93.406,38.262]},"properties":{"key":"6141-b91a7bcf","layer":"power","name":"Harry Truman","state":"MO","detail_file":"data/details/power-plants-46.json","plant_id":"6141","capacity_mw":161.4,"status_group":"Operating","energy_sources":"WAT","type":"Power plant","is_nuclear":false}},{"type":"Feature","geometry":{"type":"Point","coordinates":[-94.478,39.131]},"properties":{"key":"2079-951e8709","layer":"power","name":"Hawthorn","state":"MO","detail_file":"data/details/power-plants-01.json","plant_id":"2079","capacity_mw":1046.2,"status_group":"Operating","energy_sources":"NG; SUB","type":"Power plant","is_nuclear":false}},{"type":"Feature","geometry":{"type":"Point","coordinates":[-94.486,39.134]},"properties":{"key":"65296-03350f50","layer":"power","name":"Hawthorn Solar I","state":"MO","detail_file":"data/details/power-plants-57.json","plant_id":"65296","capacity_mw":10.0,"status_group":"Operating","energy_sources":"SUN","type":"Power plant","is_nuclear":false}},{"type":"Feature","geometry":{"type":"Point","coordinates":[-93.715,39.073]},"properties":{"key":"2131-94b2aede","layer":"power","name":"Higginsville","state":"MO","detail_file":"data/details/power-plants-55.json","plant_id":"2131","capacity_mw":51.6,"status_group":"Operating","energy_sources":"DFO; NG","type":"Power plant","is_nuclear":false}},{"type":"Feature","geometry":{"type":"Point","coordinates":[-93.727,39.002]},"properties":{"key":"61316-52ad5611","layer":"power","name":"Higginsville Solar Farm","state":"MO","detail_file":"data/details/power-plants-04.json","plant_id":"61316","capacity_mw":2.5,"status_group":"Operating","energy_sources":"SUN","type":"Power plant","is_nuclear":false}},{"type":"Feature","geometry":{"type":"Point","coordinates":[-93.998,38.754]},"properties":{"key":"7848-3ad2cd7b","layer":"power","name":"Holden","state":"MO","detail_file":"data/details/power-plants-38.json","plant_id":"7848","capacity_mw":321.3,"status_group":"Operating","energy_sources":"NG","type":"Power plant","is_nuclear":false}},{"type":"Feature","geometry":{"type":"Point","coordinates":[-94.98,39.447]},"properties":{"key":"6065-240bfc0f","layer":"power","name":"Iatan","state":"MO","detail_file":"data/details/power-plants-45.json","plant_id":"6065","capacity_mw":1753.9,"status_group":"Operating","energy_sources":"SUB","type":"Power plant","is_nuclear":false}},{"type":"Feature","geometry":{"type":"Point","coordinates":[-94.27,39.04]},"properties":{"key":"61588-e5a12b3a","layer":"power","name":"Independence II Solar Farm","state":"MO","detail_file":"data/details/power-plants-23.json","plant_id":"61588","capacity_mw":8.5,"status_group":"Operating","energy_sources":"SUN","type":"Power plant","is_nuclear":false}},{"type":"Feature","geometry":{"type":"Point","coordinates":[-94.288,39.117]},"properties":{"key":"61092-a8aa5cc9","layer":"power","name":"Independence Solar Farm","state":"MO","detail_file":"data/details/power-plants-38.json","plant_id":"61092","capacity_mw":3.0,"status_group":"Operating","energy_sources":"SUN","type":"Power plant","is_nuclear":false}},{"type":"Feature","geometry":{"type":"Point","coordinates":[-94.412,39.095]},"properties":{"key":"2134-a6b8b3e0","layer":"power","name":"Jackson Square","state":"MO","detail_file":"data/details/power-plants-39.json","plant_id":"2134","capacity_mw":36.0,"status_group":"Operating","energy_sources":"DFO","type":"Power plant","is_nuclear":false}},{"type":"Feature","geometry":{"type":"Point","coordinates":[-93.262,37.109]},"properties":{"key":"2161-81b79170","layer":"power","name":"James River Power Station","state":"MO","detail_file":"data/details/power-plants-08.json","plant_id":"2161","capacity_mw":197.5,"status_group":"Operating","energy_sources":"NG","type":"Power plant","is_nuclear":false}},{"type":"Feature","geometry":{"type":"Point","coordinates":[-93.262,37.109]},"properties":{"key":"2161-7d8bac49","layer":"power","name":"James River Power Station","state":"MO","detail_file":"data/details/power-plants-17.json","plant_id":"2161","capacity_mw":31.0,"status_group":"Under construction","energy_sources":"MWH","type":"Power plant","is_nuclear":false}},{"type":"Feature","geometry":{"type":"Point","coordinates":[-93.388,37.152]},"properties":{"key":"6195-f417b442","layer":"power","name":"John Twitty Energy Center","state":"MO","detail_file":"data/details/power-plants-03.json","plant_id":"6195","capacity_mw":603.0,"status_group":"Operating","energy_sources":"NG; SUB","type":"Power plant","is_nuclear":false}},{"type":"Feature","geometry":{"type":"Point","coordinates":[-94.571,39.04]},"properties":{"key":"59772-975f7d63","layer":"power","name":"KCP&L SmartGrid Innovation Park","state":"MO","detail_file":"data/details/power-plants-29.json","plant_id":"59772","capacity_mw":1.0,"status_group":"Operating","energy_sources":"MWH","type":"Power plant","is_nuclear":false}},{"type":"Feature","geometry":{"type":"Point","coordinates":[-94.053,37.27]},"properties":{"key":"62475-d909880f","layer":"power","name":"Kings Point Wind Energy Center","state":"MO","detail_file":"data/details/power-plants-18.json","plant_id":"62475","capacity_mw":149.4,"status_group":"Operating","energy_sources":"WND","type":"Power plant","is_nuclear":false}},{"type":"Feature","geometry":{"type":"Point","coordinates":[-94.877,39.725]},"properties":{"key":"2098-aebbcbda","layer":"power","name":"Lake Road (MO)","state":"MO","detail_file":"data/details/power-plants-58.json","plant_id":"2098","capacity_mw":278.4,"status_group":"Operating","energy_sources":"DFO; NG","type":"Power plant","is_nuclear":false}},{"type":"Feature","geometry":{"type":"Point","coordinates":[-92.671,37.668]},"properties":{"key":"61135-388fac26","layer":"power","name":"Lebanon Solar Farm (MO)","state":"MO","detail_file":"data/details/power-plants-36.json","plant_id":"61135","capacity_mw":2.5,"status_group":"Operating","energy_sources":"SUN","type":"Power plant","is_nuclear":false}},{"type":"Feature","geometry":{"type":"Point","coordinates":[-94.518,39.981]},"properties":{"key":"57189-9d8c24ed","layer":"power","name":"Lost Creek Wind Energy Facility","state":"MO","detail_file":"data/details/power-plants-62.json","plant_id":"57189","capacity_mw":168.0,"status_group":"Operating","energy_sources":"WND","type":"Power plant","is_nuclear":false}},{"type":"Feature","geometry":{"type":"Point","coordinates":[-92.378,38.957]},"properties":{"key":"62647-d8a60ec8","layer":"power","name":"MBS Textbook Exchange","state":"MO","detail_file":"data/details/power-plants-34.json","plant_id":"62647","capacity_mw":2.0,"status_group":"Operating","energy_sources":"DFO","type":"Power plant","is_nuclear":false}},{"type":"Feature","geometry":{"type":"Point","coordinates":[-92.333,38.946]},"properties":{"key":"50969-9f8e6ab8","layer":"power","name":"MU Combined Heat and Power Plant","state":"MO","detail_file":"data/details/power-plants-00.json","plant_id":"50969","capacity_mw":84.7,"status_group":"Operating","energy_sources":"DFO; NG","type":"Power plant","is_nuclear":false}},{"type":"Feature","geometry":{"type":"Point","coordinates":[-92.333,38.946]},"properties":{"key":"50969-f29c78e0","layer":"power","name":"MU Combined Heat and Power Plant","state":"MO","detail_file":"data/details/power-plants-02.json","plant_id":"50969","capacity_mw":9.0,"status_group":"Under construction","energy_sources":"NG","type":"Power plant","is_nuclear":false}},{"type":"Feature","geometry":{"type":"Point","coordinates":[-92.469,39.738]},"properties":{"key":"2141-d792bdd8","layer":"power","name":"Macon","state":"MO","detail_file":"data/details/power-plants-25.json","plant_id":"2141","capacity_mw":1.0,"status_group":"Operating","energy_sources":"DFO","type":"Power plant","is_nuclear":false}},{"type":"Feature","geometry":{"type":"Point","coordinates":[-92.384,39.749]},"properties":{"key":"56127-09a40073","layer":"power","name":"Macon Energy Center","state":"MO","detail_file":"data/details/power-plants-52.json","plant_id":"56127","capacity_mw":10.0,"status_group":"Operating","energy_sources":"NG","type":"Power plant","is_nuclear":false}},{"type":"Feature","geometry":{"type":"Point","coordinates":[-92.46,39.76]},"properties":{"key":"59729-cb1a36fe","layer":"power","name":"Macon Solar Power Project","state":"MO","detail_file":"data/details/power-plants-14.json","plant_id":"59729","capacity_mw":2.8,"status_group":"Operating","energy_sources":"SUN","type":"Power plant","is_nuclear":false}},{"type":"Feature","geometry":{"type":"Point","coordinates":[-92.946,39.717]},"properties":{"key":"7470-55afd658","layer":"power","name":"Marceline","state":"MO","detail_file":"data/details/power-plants-41.json","plant_id":"7470","capacity_mw":8.0,"status_group":"Operating","energy_sources":"DFO","type":"Power plant","is_nuclear":false}},{"type":"Feature","geometry":{"type":"Point","coordinates":[-93.206,39.123]},"properties":{"key":"2144-acd31e3b","layer":"power","name":"Marshall (MO)","state":"MO","detail_file":"data/details/power-plants-28.json","plant_id":"2144","capacity_mw":30.8,"status_group":"Operating","energy_sources":"DFO; NG","type":"Power plant","is_nuclear":false}},{"type":"Feature","geometry":{"type":"Point","coordinates":[-93.206,39.124]},"properties":{"key":"69890-7180e018","layer":"power","name":"Marshall Energy Center","state":"MO","detail_file":"data/details/power-plants-57.json","plant_id":"69890","capacity_mw":122.2,"status_group":"Under construction","energy_sources":"NG","type":"Power plant","is_nuclear":false}},{"type":"Feature","geometry":{"type":"Point","coordinates":[-93.21,39.095]},"properties":{"key":"60707-8ca7d6d1","layer":"power","name":"Marshall Solar Farm (MO)","state":"MO","detail_file":"data/details/power-plants-27.json","plant_id":"60707","capacity_mw":2.8,"status_group":"Operating","energy_sources":"SUN","type":"Power plant","is_nuclear":false}},{"type":"Feature","geometry":{"type":"Point","coordinates":[-93.171,37.248]},"properties":{"key":"7903-7c18fccf","layer":"power","name":"McCartney","state":"MO","detail_file":"data/details/power-plants-60.json","plant_id":"7903","capacity_mw":117.8,"status_group":"Operating","energy_sources":"NG","type":"Power plant","is_nuclear":false}},{"type":"Feature","geometry":{"type":"Point","coordinates":[-93.171,37.248]},"properties":{"key":"7903-3176fd66","layer":"power","name":"McCartney","state":"MO","detail_file":"data/details/power-plants-11.json","plant_id":"7903","capacity_mw":146.7,"status_group":"Under construction","energy_sources":"NG","type":"Power plant","is_nuclear":false}},{"type":"Feature","geometry":{"type":"Point","coordinates":[-92.484,39.424]},"properties":{"key":"6651-9a75144b","layer":"power","name":"Moberly","state":"MO","detail_file":"data/details/power-plants-43.json","plant_id":"6651","capacity_mw":60.6,"status_group":"Operating","energy_sources":"DFO","type":"Power plant","is_nuclear":false}},{"type":"Feature","geometry":{"type":"Point","coordinates":[-92.102,38.556]},"properties":{"key":"6652-3db3df2e","layer":"power","name":"Moreau","state":"MO","detail_file":"data/details/power-plants-52.json","plant_id":"6652","capacity_mw":60.8,"status_group":"Operating","energy_sources":"DFO","type":"Power plant","is_nuclear":false}},{"type":"Feature","geometry":{"type":"Point","coordinates":[-94.344,37.85]},"properties":{"key":"2090-75158d67","layer":"power","name":"Nevada","state":"MO","detail_file":"data/details/power-plants-01.json","plant_id":"2090","capacity_mw":21.6,"status_group":"Operating","energy_sources":"DFO","type":"Power plant","is_nuclear":false}},{"type":"Feature","geometry":{"type":"Point","coordinates":[-92.848,37.938]},"properties":{"key":"2099-7e031dd1","layer":"power","name":"Niangua","state":"MO","detail_file":"data/details/power-plants-40.json","plant_id":"2099","capacity_mw":3.0,"status_group":"Operating","energy_sources":"WAT","type":"Power plant","is_nuclear":false}},{"type":"Feature","geometry":{"type":"Point","coordinates":[-93.339,37.044]},"properties":{"key":"60673-b019daaf","layer":"power","name":"Nixa Solar, LLC","state":"MO","detail_file":"data/details/power-plants-04.json","plant_id":"60673","capacity_mw":7.9,"status_group":"Operating","energy_sources":"SUN","type":"Power plant","is_nuclear":false}},{"type":"Feature","geometry":{"type":"Point","coordinates":[-93.351,37.381]},"properties":{"key":"56404-1f47dd88","layer":"power","name":"Noble Hill Landfill","state":"MO","detail_file":"data/details/power-plants-48.json","plant_id":"56404","capacity_mw":3.2,"status_group":"Operating","energy_sources":"LFG","type":"Power plant","is_nuclear":false}},{"type":"Feature","geometry":{"type":"Point","coordinates":[-94.51,37.39]},"properties":{"key":"62478-46d5a193","layer":"power","name":"North Fork Ridge Wind Energy Center","state":"MO","detail_file":"data/details/power-plants-17.json","plant_id":"62478","capacity_mw":149.4,"status_group":"Operating","energy_sources":"WND","type":"Power plant","is_nuclear":false}},{"type":"Feature","geometry":{"type":"Point","coordinates":[-94.561,39.123]},"properties":{"key":"2081-78bb559c","layer":"power","name":"Northeast (MO)","state":"MO","detail_file":"data/details/power-plants-19.json","plant_id":"2081","capacity_mw":540.0,"status_group":"Operating","energy_sources":"DFO","type":"Power plant","is_nuclear":false}},{"type":"Feature","geometry":{"type":"Point","coordinates":[-92.624,38.204]},"properties":{"key":"2106-90cb4c30","layer":"power","name":"Osage Dam","state":"MO","detail_file":"data/details/power-plants-58.json","plant_id":"2106","capacity_mw":208.0,"status_group":"Operating","energy_sources":"WAT","type":"Power plant","is_nuclear":false}},{"type":"Feature","geometry":{"type":"Point","coordinates":[-94.473,39.748]},"properties":{"key":"60672-444bf30a","layer":"power","name":"Osborn Wind Energy","state":"MO","detail_file":"data/details/power-plants-30.json","plant_id":"60672","capacity_mw":200.9,"status_group":"Operating","energy_sources":"WND","type":"Power plant","is_nuclear":false}},{"type":"Feature","geometry":{"type":"Point","coordinates":[-93.124,36.659]},"properties":{"key":"6280-9c6f59de","layer":"power","name":"Ozark Beach","state":"MO","detail_file":"data/details/power-plants-35.json","plant_id":"6280","capacity_mw":16.0,"status_group":"Operating","energy_sources":"WAT","type":"Power plant","is_nuclear":false}},{"type":"Feature","geometry":{"type":"Point","coordinates":[-94.434,37.127]},"properties":{"key":"64225-17cfa8b7","layer":"power","name":"Prosperity Solar Farm CSG","state":"MO","detail_file":"data/details/power-plants-62.json","plant_id":"64225","capacity_mw":2.3,"status_group":"Operating","energy_sources":"SUN","type":"Power plant","is_nuclear":false}},{"type":"Feature","geometry":{"type":"Point","coordinates":[-94.278,38.788]},"properties":{"key":"2092-c840e6d4","layer":"power","name":"Ralph Green","state":"MO","detail_file":"data/details/power-plants-59.json","plant_id":"2092","capacity_mw":88.9,"status_group":"Operating","energy_sources":"NG","type":"Power plant","is_nuclear":false}},{"type":"Feature","geometry":{"type":"Point","coordinates":[-92.803,39.424]},"properties":{"key":"7400-db163421","layer":"power","name":"Salisbury City of","state":"MO","detail_file":"data/details/power-plants-19.json","plant_id":"7400","capacity_mw":6.4,"status_group":"Operating","energy_sources":"DFO","type":"Power plant","is_nuclear":false}},{"type":"Feature","geometry":{"type":"Point","coordinates":[-92.047,39.695]},"properties":{"key":"7405-c76999d7","layer":"power","name":"Shelbina Power #1","state":"MO","detail_file":"data/details/power-plants-33.json","plant_id":"7405","capacity_mw":4.6,"status_group":"Operating","energy_sources":"DFO","type":"Power plant","is_nuclear":false}},{"type":"Feature","geometry":{"type":"Point","coordinates":[-92.047,39.695]},"properties":{"key":"7406-07cd7ab6","layer":"power","name":"Shelbina Power #2","state":"MO","detail_file":"data/details/power-plants-21.json","plant_id":"7406","capacity_mw":6.6,"status_group":"Operating","energy_sources":"DFO","type":"Power plant","is_nuclear":false}},{"type":"Feature","geometry":{"type":"Point","coordinates":[-92.053,39.698]},"properties":{"key":"7860-101acc9b","layer":"power","name":"Shelbina Power #3","state":"MO","detail_file":"data/details/power-plants-17.json","plant_id":"7860","capacity_mw":3.6,"status_group":"Operating","energy_sources":"DFO","type":"Power plant","is_nuclear":false}},{"type":"Feature","geometry":{"type":"Point","coordinates":[-94.482,38.68]},"properties":{"key":"56151-243c3c2c","layer":"power","name":"South Harper","state":"MO","detail_file":"data/details/power-plants-49.json","plant_id":"56151","capacity_mw":351.0,"status_group":"Operating","energy_sources":"NG","type":"Power plant","is_nuclear":false}},{"type":"Feature","geometry":{"type":"Point","coordinates":[-93.166,37.246]},"properties":{"key":"59110-9ca7422b","layer":"power","name":"Springfield Solar 1 LLC","state":"MO","detail_file":"data/details/power-plants-37.json","plant_id":"59110","capacity_mw":4.9,"status_group":"Operating","energy_sources":"SUN","type":"Power plant","is_nuclear":false}},{"type":"Feature","geometry":{"type":"Point","coordinates":[-94.776,39.674]},"properties":{"key":"58024-314911d5","layer":"power","name":"St Joseph Landfill Generating Station","state":"MO","detail_file":"data/details/power-plants-54.json","plant_id":"58024","capacity_mw":1.6,"status_group":"Operating","energy_sources":"LFG","type":"Power plant","is_nuclear":false}},{"type":"Feature","geometry":{"type":"Point","coordinates":[-94.614,37.066]},"properties":{"key":"7296-762d44ae","layer":"power","name":"State Line Combined Cycle","state":"MO","detail_file":"data/details/power-plants-12.json","plant_id":"7296","capacity_mw":690.5,"status_group":"Operating","energy_sources":"NG","type":"Power plant","is_nuclear":false}},{"type":"Feature","geometry":{"type":"Point","coordinates":[-94.38,39.107]},"properties":{"key":"2135-3c0ca0bb","layer":"power","name":"Station H","state":"MO","detail_file":"data/details/power-plants-32.json","plant_id":"2135","capacity_mw":43.0,"status_group":"Operating","energy_sources":"NG","type":"Power plant","is_nuclear":false}},{"type":"Feature","geometry":{"type":"Point","coordinates":[-94.393,39.056]},"properties":{"key":"2136-fd052a67","layer":"power","name":"Station I","state":"MO","detail_file":"data/details/power-plants-48.json","plant_id":"2136","capacity_mw":38.0,"status_group":"Operating","energy_sources":"DFO","type":"Power plant","is_nuclear":false}},{"type":"Feature","geometry":{"type":"Point","coordinates":[-93.769,37.694]},"properties":{"key":"2124-acd2373d","layer":"power","name":"Stockton Hydro","state":"MO","detail_file":"data/details/power-plants-55.json","plant_id":"2124","capacity_mw":52.0,"status_group":"Operating","energy_sources":"WAT","type":"Power plant","is_nuclear":false}},{"type":"Feature","geometry":{"type":"Point","coordinates":[-93.309,36.597]},"properties":{"key":"2166-3c375c72","layer":"power","name":"Table Rock","state":"MO","detail_file":"data/details/power-plants-63.json","plant_id":"2166","capacity_mw":200.0,"status_group":"Operating","energy_sources":"WAT","type":"Power plant","is_nuclear":false}},{"type":"Feature","geometry":{"type":"Point","coordinates":[-92.638,39.552]},"properties":{"key":"2168-ca2adffb","layer":"power","name":"Thomas Hill","state":"MO","detail_file":"data/details/power-plants-06.json","plant_id":"2168","capacity_mw":1181.7,"status_group":"Operating","energy_sources":"SUB","type":"Power plant","is_nuclear":false}},{"type":"Feature","geometry":{"type":"Point","coordinates":[-92.243,38.956]},"properties":{"key":"65230-1df6a85b","layer":"power","name":"Truman Solar","state":"MO","detail_file":"data/details/power-plants-26.json","plant_id":"65230","capacity_mw":10.0,"status_group":"Operating","energy_sources":"SUN","type":"Power plant","is_nuclear":false}},{"type":"Feature","geometry":{"type":"Point","coordinates":[-94.351,39.615]},"properties":{"key":"67263-291de024","layer":"power","name":"Turney Energy Center","state":"MO","detail_file":"data/details/power-plants-49.json","plant_id":"67263","capacity_mw":419.0,"status_group":"Under construction","energy_sources":"NG","type":"Power plant","is_nuclear":false}},{"type":"Feature","geometry":{"type":"Point","coordinates":[-92.254,37.804]},"properties":{"key":"60706-ef370090","layer":"power","name":"Waynesville Solar Farm (MO)","state":"MO","detail_file":"data/details/power-plants-13.json","plant_id":"60706","capacity_mw":2.8,"status_group":"Operating","energy_sources":"SUN","type":"Power plant","is_nuclear":false}},{"type":"Feature","geometry":{"type":"Point","coordinates":[-95.277,36.222]},"properties":{"key":"7757-48d314ae","layer":"power","name":"Chouteau","state":"OK","detail_file":"data/details/power-plants-52.json","plant_id":"7757","capacity_mw":1069.6,"status_group":"Operating","energy_sources":"NG","type":"Power plant","is_nuclear":false}},{"type":"Feature","geometry":{"type":"Point","coordinates":[-95.289,36.19]},"properties":{"key":"165-ce95498c","layer":"power","name":"GREC","state":"OK","detail_file":"data/details/power-plants-30.json","plant_id":"165","capacity_mw":1194.3,"status_group":"Operating","energy_sources":"NG; SUB","type":"Power plant","is_nuclear":false}},{"type":"Feature","geometry":{"type":"Point","coordinates":[-95.289,36.19]},"properties":{"key":"165-f8921917","layer":"power","name":"GREC","state":"OK","detail_file":"data/details/power-plants-16.json","plant_id":"165","capacity_mw":594.0,"status_group":"Under construction","energy_sources":"NG","type":"Power plant","is_nuclear":false}},{"type":"Feature","geometry":{"type":"Point","coordinates":[-95.397,36.254]},"properties":{"key":"68011-c88322f0","layer":"power","name":"Huckleberry Solar","state":"OK","detail_file":"data/details/power-plants-06.json","plant_id":"68011","capacity_mw":124.7,"status_group":"Operating","energy_sources":"SUN","type":"Power plant","is_nuclear":false}},{"type":"Feature","geometry":{"type":"Point","coordinates":[-95.182,36.232]},"properties":{"key":"2980-209330be","layer":"power","name":"Markham","state":"OK","detail_file":"data/details/power-plants-20.json","plant_id":"2980","capacity_mw":128.4,"status_group":"Operating","energy_sources":"WAT","type":"Power plant","is_nuclear":false}},{"type":"Feature","geometry":{"type":"Point","coordinates":[-95.427,36.29]},"properties":{"key":"68006-c17c7e16","layer":"power","name":"Mayes County Solar","state":"OK","detail_file":"data/details/power-plants-19.json","plant_id":"68006","capacity_mw":101.5,"status_group":"Under construction","energy_sources":"SUN","type":"Power plant","is_nuclear":false}},{"type":"Feature","geometry":{"type":"Point","coordinates":[-95.701,36.432]},"properties":{"key":"2963-907ac3a7","layer":"power","name":"Northeastern","state":"OK","detail_file":"data/details/power-plants-24.json","plant_id":"2963","capacity_mw":1477.5,"status_group":"Operating","energy_sources":"DFO; NG; SUB","type":"Power plant","is_nuclear":false}},{"type":"Feature","geometry":{"type":"Point","coordinates":[-95.697,36.012]},"properties":{"key":"55225-d1be695a","layer":"power","name":"Oneta Energy Center","state":"OK","detail_file":"data/details/power-plants-10.json","plant_id":"55225","capacity_mw":1214.0,"status_group":"Operating","energy_sources":"NG","type":"Power plant","is_nuclear":false}},{"type":"Feature","geometry":{"type":"Point","coordinates":[-95.041,36.468]},"properties":{"key":"2981-ab3b1b21","layer":"power","name":"Pensacola","state":"OK","detail_file":"data/details/power-plants-10.json","plant_id":"2981","capacity_mw":130.1,"status_group":"Operating","energy_sources":"WAT","type":"Power plant","is_nuclear":false}},{"type":"Feature","geometry":{"type":"Point","coordinates":[-95.104,36.265]},"properties":{"key":"2982-53725d15","layer":"power","name":"Salina","state":"OK","detail_file":"data/details/power-plants-13.json","plant_id":"2982","capacity_mw":259.2,"status_group":"Operating","energy_sources":"WAT","type":"Power plant","is_nuclear":false}},{"type":"Feature","geometry":{"type":"Point","coordinates":[-95.229,36.332]},"properties":{"key":"68009-06a00432","layer":"power","name":"Saltbranch 2","state":"OK","detail_file":"data/details/power-plants-56.json","plant_id":"68009","capacity_mw":73.0,"status_group":"Under construction","energy_sources":"SUN","type":"Power plant","is_nuclear":false}},{"type":"Feature","geometry":{"type":"Point","coordinates":[-95.229,36.332]},"properties":{"key":"68007-7dd70620","layer":"power","name":"Saltbranch Solar 1","state":"OK","detail_file":"data/details/power-plants-48.json","plant_id":"68007","capacity_mw":73.0,"status_group":"Under construction","energy_sources":"SUN","type":"Power plant","is_nuclear":false}},{"type":"Feature","geometry":{"type":"Point","coordinates":[-95.991,36.116]},"properties":{"key":"2965-8d11daa2","layer":"power","name":"Tulsa","state":"OK","detail_file":"data/details/power-plants-31.json","plant_id":"2965","capacity_mw":348.2,"status_group":"Operating","energy_sources":"DFO; NG","type":"Power plant","is_nuclear":false}},{"type":"Feature","geometry":{"type":"Point","coordinates":[-95.229,36.332]},"properties":{"key":"68088-76cfd069","layer":"power","name":"Twelvemile Solar 1","state":"OK","detail_file":"data/details/power-plants-33.json","plant_id":"68088","capacity_mw":152.0,"status_group":"Operating","energy_sources":"SUN","type":"Power plant","is_nuclear":false}},{"type":"Feature","geometry":{"type":"Point","coordinates":[-95.229,36.332]},"properties":{"key":"69538-ed0732e6","layer":"power","name":"Twelvemile Solar 2","state":"OK","detail_file":"data/details/power-plants-38.json","plant_id":"69538","capacity_mw":52.2,"status_group":"Operating","energy_sources":"SUN","type":"Power plant","is_nuclear":false}},{"type":"Feature","geometry":{"type":"Point","coordinates":[-95.229,36.332]},"properties":{"key":"68089-59aab167","layer":"power","name":"Twelvemile Solar 3","state":"OK","detail_file":"data/details/power-plants-04.json","plant_id":"68089","capacity_mw":200.0,"status_group":"Under construction","energy_sources":"SUN","type":"Power plant","is_nuclear":false}}]}