{"type":"FeatureCollection","features":[{"type":"Feature","geometry":{"type":"Point","coordinates":[-116.999,48.18]},"properties":{"key":"851-27241225","layer":"power","name":"Albeni Falls","state":"ID","detail_file":"data/details/power-plants-24.json","plant_id":"851","capacity_mw":42.0,"status_group":"Operating","energy_sources":"WAT","type":"Power plant","is_nuclear":false}},{"type":"Feature","geometry":{"type":"Point","coordinates":[-116.053,48.084]},"properties":{"key":"833-ce1e1705","layer":"power","name":"Cabinet Gorge","state":"ID","detail_file":"data/details/power-plants-12.json","plant_id":"833","capacity_mw":265.2,"status_group":"Operating","energy_sources":"WAT","type":"Power plant","is_nuclear":false}},{"type":"Feature","geometry":{"type":"Point","coordinates":[-116.175,48.734]},"properties":{"key":"6506-548f4c79","layer":"power","name":"Moyie Springs","state":"ID","detail_file":"data/details/power-plants-37.json","plant_id":"6506","capacity_mw":3.9,"status_group":"Operating","energy_sources":"WAT","type":"Power plant","is_nuclear":false}},{"type":"Feature","geometry":{"type":"Point","coordinates":[-116.557,48.96]},"properties":{"key":"54249-b6940c9f","layer":"power","name":"Smith Falls Hydro Project","state":"ID","detail_file":"data/details/power-plants-52.json","plant_id":"54249","capacity_mw":38.1,"status_group":"Operating","energy_sources":"WAT","type":"Power plant","is_nuclear":false}},{"type":"Feature","geometry":{"type":"Point","coordinates":[-117.348,48.987]},"properties":{"key":"6433-3e03a05f","layer":"power","name":"Boundary","state":"WA","detail_file":"data/details/power-plants-23.json","plant_id":"6433","capacity_mw":1159.7,"status_group":"Operating","energy_sources":"WAT","type":"Power plant","is_nuclear":false}},{"type":"Feature","geometry":{"type":"Point","coordinates":[-117.418,48.781]},"properties":{"key":"3891-50cbdf3a","layer":"power","name":"Box Canyon","state":"WA","detail_file":"data/details/power-plants-06.json","plant_id":"3891","capacity_mw":90.0,"status_group":"Operating","energy_sources":"WAT","type":"Power plant","is_nuclear":false}},{"type":"Feature","geometry":{"type":"Point","coordinates":[-118.111,48.62]},"properties":{"key":"550-21bafb94","layer":"power","name":"Kettle Falls Generating Station","state":"WA","detail_file":"data/details/power-plants-19.json","plant_id":"550","capacity_mw":57.9,"status_group":"Operating","energy_sources":"NG; WDS","type":"Power plant","is_nuclear":false}},{"type":"Feature","geometry":{"type":"Point","coordinates":[-118.06,48.595]},"properties":{"key":"3868-d38470e1","layer":"power","name":"Meyers Falls","state":"WA","detail_file":"data/details/power-plants-09.json","plant_id":"3868","capacity_mw":1.8,"status_group":"Operating","energy_sources":"WAT","type":"Power plant","is_nuclear":false}},{"type":"Feature","geometry":{"type":"Point","coordinates":[-117.795,48.948]},"properties":{"key":"50091-b0175db6","layer":"power","name":"Sheep Creek Hydro","state":"WA","detail_file":"data/details/power-plants-58.json","plant_id":"50091","capacity_mw":1.6,"status_group":"Operating","energy_sources":"WAT","type":"Power plant","is_nuclear":false}}]}