{"type":"FeatureCollection","features":[{"type":"Feature","geometry":{"type":"Point","coordinates":[-93.407,48.607]},"properties":{"key":"10486-9d26aff5","layer":"power","name":"Boise Cascade International Falls","state":"MN","detail_file":"data/details/power-plants-55.json","plant_id":"10486","capacity_mw":52.3,"status_group":"Operating","energy_sources":"BLQ","type":"Power plant","is_nuclear":false}},{"type":"Feature","geometry":{"type":"Point","coordinates":[-93.404,48.608]},"properties":{"key":"10487-5820a0aa","layer":"power","name":"International Falls Power","state":"MN","detail_file":"data/details/power-plants-30.json","plant_id":"10487","capacity_mw":14.2,"status_group":"Operating","energy_sources":"WAT","type":"Power plant","is_nuclear":false}},{"type":"Feature","geometry":{"type":"Point","coordinates":[-95.326,48.916]},"properties":{"key":"69725-b8258fff","layer":"power","name":"Warroad Factory","state":"MN","detail_file":"data/details/power-plants-54.json","plant_id":"69725","capacity_mw":10.9,"status_group":"Operating","energy_sources":"DFO; MWH; NG","type":"Power plant","is_nuclear":false}}]}