{"type":"FeatureCollection","features":[{"type":"Feature","geometry":{"type":"Point","coordinates":[-88.025,32.227]},"properties":{"key":"10699-c26d835c","layer":"power","name":"Georgia-Pacific Consr Prods LP-Naheola","state":"AL","detail_file":"data/details/power-plants-54.json","plant_id":"10699","capacity_mw":87.5,"status_group":"Operating","energy_sources":"BLQ; WDS","type":"Power plant","is_nuclear":false}},{"type":"Feature","geometry":{"type":"Point","coordinates":[-91.628,34.041]},"properties":{"key":"67513-7e252674","layer":"power","name":"ADC Varner","state":"AR","detail_file":"data/details/power-plants-17.json","plant_id":"67513","capacity_mw":4.9,"status_group":"Operating","energy_sources":"SUN","type":"Power plant","is_nuclear":false}},{"type":"Feature","geometry":{"type":"Point","coordinates":[-91.922,33.251]},"properties":{"key":"66588-5780ce93","layer":"power","name":"Ashley-Chicot Solar","state":"AR","detail_file":"data/details/power-plants-35.json","plant_id":"66588","capacity_mw":1.0,"status_group":"Operating","energy_sources":"SUN","type":"Power plant","is_nuclear":false}},{"type":"Feature","geometry":{"type":"Point","coordinates":[-90.308,35.345]},"properties":{"key":"65483-6622c528","layer":"power","name":"Big Cypress Solar, LLC","state":"AR","detail_file":"data/details/power-plants-22.json","plant_id":"65483","capacity_mw":180.0,"status_group":"Operating","energy_sources":"SUN","type":"Power plant","is_nuclear":false}},{"type":"Feature","geometry":{"type":"Point","coordinates":[-91.828,34.075]},"properties":{"key":"66590-c43aab6f","layer":"power","name":"C&L","state":"AR","detail_file":"data/details/power-plants-49.json","plant_id":"66590","capacity_mw":1.0,"status_group":"Operating","energy_sources":"SUN","type":"Power plant","is_nuclear":false}},{"type":"Feature","geometry":{"type":"Point","coordinates":[-90.433,35.052]},"properties":{"key":"68772-1acfe8c2","layer":"power","name":"Chalk Bluff Solar","state":"AR","detail_file":"data/details/power-plants-18.json","plant_id":"68772","capacity_mw":450.0,"status_group":"Under construction","energy_sources":"SUN","type":"Power plant","is_nuclear":false}},{"type":"Feature","geometry":{"type":"Point","coordinates":[-90.755,35.389]},"properties":{"key":"67992-22bc908c","layer":"power","name":"Cherry Valley PV I","state":"AR","detail_file":"data/details/power-plants-39.json","plant_id":"67992","capacity_mw":135.0,"status_group":"Operating","energy_sources":"SUN","type":"Power plant","is_nuclear":false}},{"type":"Feature","geometry":{"type":"Point","coordinates":[-91.349,33.479]},"properties":{"key":"63295-27163b8b","layer":"power","name":"Chicot Solar","state":"AR","detail_file":"data/details/power-plants-61.json","plant_id":"63295","capacity_mw":100.0,"status_group":"Operating","energy_sources":"SUN","type":"Power plant","is_nuclear":false}},{"type":"Feature","geometry":{"type":"Point","coordinates":[-91.237,33.706]},"properties":{"key":"50638-47e4977f","layer":"power","name":"Clearwater Paper APP CB","state":"AR","detail_file":"data/details/power-plants-42.json","plant_id":"50638","capacity_mw":28.0,"status_group":"Operating","energy_sources":"BLQ","type":"Power plant","is_nuclear":false}},{"type":"Feature","geometry":{"type":"Point","coordinates":[-90.567,35.922]},"properties":{"key":"66608-cc86be6f","layer":"power","name":"Craighead Electric Solar One","state":"AR","detail_file":"data/details/power-plants-17.json","plant_id":"66608","capacity_mw":2.2,"status_group":"Operating","energy_sources":"MWH; SUN","type":"Power plant","is_nuclear":false}},{"type":"Feature","geometry":{"type":"Point","coordinates":[-89.784,35.915]},"properties":{"key":"66185-5f23f458","layer":"power","name":"Crooked Lake Solar, LLC","state":"AR","detail_file":"data/details/power-plants-48.json","plant_id":"66185","capacity_mw":175.0,"status_group":"Operating","energy_sources":"SUN","type":"Power plant","is_nuclear":false}},{"type":"Feature","geometry":{"type":"Point","coordinates":[-91.941,33.131]},"properties":{"key":"67515-22b41b50","layer":"power","name":"Crossett SD","state":"AR","detail_file":"data/details/power-plants-28.json","plant_id":"67515","capacity_mw":1.0,"status_group":"Operating","energy_sources":"SUN","type":"Power plant","is_nuclear":false}},{"type":"Feature","geometry":{"type":"Point","coordinates":[-91.948,33.096]},"properties":{"key":"67915-b4881e70","layer":"power","name":"Crossett Solar","state":"AR","detail_file":"data/details/power-plants-14.json","plant_id":"67915","capacity_mw":100.0,"status_group":"Operating","energy_sources":"SUN","type":"Power plant","is_nuclear":false}},{"type":"Feature","geometry":{"type":"Point","coordinates":[-90.746,35.246]},"properties":{"key":"67959-a9f564c5","layer":"power","name":"Crossover Wind","state":"AR","detail_file":"data/details/power-plants-05.json","plant_id":"67959","capacity_mw":144.0,"status_group":"Operating","energy_sources":"WND","type":"Power plant","is_nuclear":false}},{"type":"Feature","geometry":{"type":"Point","coordinates":[-91.316,33.987]},"properties":{"key":"7246-e9d65743","layer":"power","name":"Dam 2","state":"AR","detail_file":"data/details/power-plants-52.json","plant_id":"7246","capacity_mw":102.6,"status_group":"Operating","energy_sources":"WAT","type":"Power plant","is_nuclear":false}},{"type":"Feature","geometry":{"type":"Point","coordinates":[-91.521,34.463]},"properties":{"key":"70022-8a79dfff","layer":"power","name":"Decoy Solar Energy LLC","state":"AR","detail_file":"data/details/power-plants-22.json","plant_id":"70022","capacity_mw":155.0,"status_group":"Under construction","energy_sources":"SUN","type":"Power plant","is_nuclear":false}},{"type":"Feature","geometry":{"type":"Point","coordinates":[-90.025,35.862]},"properties":{"key":"55340-f2723134","layer":"power","name":"Dell Power Station","state":"AR","detail_file":"data/details/power-plants-32.json","plant_id":"55340","capacity_mw":679.1,"status_group":"Operating","energy_sources":"NG","type":"Power plant","is_nuclear":false}},{"type":"Feature","geometry":{"type":"Point","coordinates":[-89.969,35.641]},"properties":{"key":"65736-adb8e509","layer":"power","name":"Driver Solar","state":"AR","detail_file":"data/details/power-plants-58.json","plant_id":"65736","capacity_mw":150.0,"status_group":"Operating","energy_sources":"SUN","type":"Power plant","is_nuclear":false}},{"type":"Feature","geometry":{"type":"Point","coordinates":[-91.895,33.343]},"properties":{"key":"66851-4da03b44","layer":"power","name":"Fairview Solar (AR)","state":"AR","detail_file":"data/details/power-plants-55.json","plant_id":"66851","capacity_mw":75.0,"status_group":"Under construction","energy_sources":"SUN","type":"Power plant","is_nuclear":false}},{"type":"Feature","geometry":{"type":"Point","coordinates":[-91.231,35.63]},"properties":{"key":"66610-725794d0","layer":"power","name":"Farmers Electric Cooperative","state":"AR","detail_file":"data/details/power-plants-02.json","plant_id":"66610","capacity_mw":1.0,"status_group":"Operating","energy_sources":"SUN","type":"Power plant","is_nuclear":false}},{"type":"Feature","geometry":{"type":"Point","coordinates":[-91.104,34.883]},"properties":{"key":"67076-e72356ad","layer":"power","name":"Flat Fork Solar","state":"AR","detail_file":"data/details/power-plants-52.json","plant_id":"67076","capacity_mw":200.0,"status_group":"Operating","energy_sources":"SUN","type":"Power plant","is_nuclear":false}},{"type":"Feature","geometry":{"type":"Point","coordinates":[-89.869,35.946]},"properties":{"key":"67075-62188ea9","layer":"power","name":"Forgeview Solar","state":"AR","detail_file":"data/details/power-plants-60.json","plant_id":"67075","capacity_mw":200.0,"status_group":"Operating","energy_sources":"SUN","type":"Power plant","is_nuclear":false}},{"type":"Feature","geometry":{"type":"Point","coordinates":[-90.807,35.038]},"properties":{"key":"64262-7bc49842","layer":"power","name":"Forrest City- Eldridge Road","state":"AR","detail_file":"data/details/power-plants-13.json","plant_id":"64262","capacity_mw":1.0,"status_group":"Operating","energy_sources":"SUN","type":"Power plant","is_nuclear":false}},{"type":"Feature","geometry":{"type":"Point","coordinates":[-90.806,34.98]},"properties":{"key":"64261-d53f31e5","layer":"power","name":"Forrest City- Prison Site","state":"AR","detail_file":"data/details/power-plants-41.json","plant_id":"64261","capacity_mw":1.0,"status_group":"Operating","energy_sources":"SUN","type":"Power plant","is_nuclear":false}},{"type":"Feature","geometry":{"type":"Point","coordinates":[-91.975,33.142]},"properties":{"key":"10606-4da41d9f","layer":"power","name":"Georgia-Pacific Crossett LLC","state":"AR","detail_file":"data/details/power-plants-02.json","plant_id":"10606","capacity_mw":25.0,"status_group":"Operating","energy_sources":"NG","type":"Power plant","is_nuclear":false}},{"type":"Feature","geometry":{"type":"Point","coordinates":[-91.995,35.521]},"properties":{"key":"188-86d6b57e","layer":"power","name":"Greers Ferry Lake","state":"AR","detail_file":"data/details/power-plants-38.json","plant_id":"188","capacity_mw":96.0,"status_group":"Operating","energy_sources":"WAT","type":"Power plant","is_nuclear":false}},{"type":"Feature","geometry":{"type":"Point","coordinates":[-91.66,35.168]},"properties":{"key":"63766-07f541c1","layer":"power","name":"Happy Solar 1","state":"AR","detail_file":"data/details/power-plants-49.json","plant_id":"63766","capacity_mw":95.0,"status_group":"Operating","energy_sources":"SUN","type":"Power plant","is_nuclear":false}},{"type":"Feature","geometry":{"type":"Point","coordinates":[-91.409,35.678]},"properties":{"key":"6641-af973161","layer":"power","name":"Independence Steam Electric Station","state":"AR","detail_file":"data/details/power-plants-03.json","plant_id":"6641","capacity_mw":1800.0,"status_group":"Operating","energy_sources":"SUB","type":"Power plant","is_nuclear":false}},{"type":"Feature","geometry":{"type":"Point","coordinates":[-90.579,35.814]},"properties":{"key":"67487-16f8fa72","layer":"power","name":"Jonesboro CWL Solar Park","state":"AR","detail_file":"data/details/power-plants-05.json","plant_id":"67487","capacity_mw":10.0,"status_group":"Operating","energy_sources":"SUN","type":"Power plant","is_nuclear":false}},{"type":"Feature","geometry":{"type":"Point","coordinates":[-90.725,35.849]},"properties":{"key":"56505-cb75742a","layer":"power","name":"Jonesboro City Water & Light Plant","state":"AR","detail_file":"data/details/power-plants-12.json","plant_id":"56505","capacity_mw":224.3,"status_group":"Operating","energy_sources":"NG","type":"Power plant","is_nuclear":false}},{"type":"Feature","geometry":{"type":"Point","coordinates":[-91.925,34.325]},"properties":{"key":"69633-9b370a5b","layer":"power","name":"Lion Solar","state":"AR","detail_file":"data/details/power-plants-25.json","plant_id":"69633","capacity_mw":200.0,"status_group":"Planned","energy_sources":"SUN","type":"Power plant","is_nuclear":false}},{"type":"Feature","geometry":{"type":"Point","coordinates":[-90.615,34.469]},"properties":{"key":"66649-5b6d211d","layer":"power","name":"Long Lake Solar, LLC","state":"AR","detail_file":"data/details/power-plants-06.json","plant_id":"66649","capacity_mw":200.0,"status_group":"Operating","energy_sources":"SUN","type":"Power plant","is_nuclear":false}},{"type":"Feature","geometry":{"type":"Point","coordinates":[-91.187,35.669]},"properties":{"key":"66112-3dc1e312","layer":"power","name":"Newport Solar Project","state":"AR","detail_file":"data/details/power-plants-38.json","plant_id":"66112","capacity_mw":180.0,"status_group":"Operating","energy_sources":"SUN","type":"Power plant","is_nuclear":false}},{"type":"Feature","geometry":{"type":"Point","coordinates":[-89.969,35.705]},"properties":{"key":"172-cea1a4fe","layer":"power","name":"Osceola (AR)","state":"AR","detail_file":"data/details/power-plants-62.json","plant_id":"172","capacity_mw":1.6,"status_group":"Operating","energy_sources":"DFO","type":"Power plant","is_nuclear":false}},{"type":"Feature","geometry":{"type":"Point","coordinates":[-91.903,34.218]},"properties":{"key":"55075-4a448df1","layer":"power","name":"Pine Bluff Energy Center","state":"AR","detail_file":"data/details/power-plants-45.json","plant_id":"55075","capacity_mw":230.4,"status_group":"Operating","energy_sources":"NG","type":"Power plant","is_nuclear":false}},{"type":"Feature","geometry":{"type":"Point","coordinates":[-91.907,34.221]},"properties":{"key":"10627-68839ce3","layer":"power","name":"Pine Bluff Mill","state":"AR","detail_file":"data/details/power-plants-27.json","plant_id":"10627","capacity_mw":85.0,"status_group":"Operating","energy_sources":"BLQ","type":"Power plant","is_nuclear":false}},{"type":"Feature","geometry":{"type":"Point","coordinates":[-89.949,35.664]},"properties":{"key":"56456-ff51ef70","layer":"power","name":"Plum Point Energy Station","state":"AR","detail_file":"data/details/power-plants-51.json","plant_id":"56456","capacity_mw":720.0,"status_group":"Operating","energy_sources":"SUB","type":"Power plant","is_nuclear":false}},{"type":"Feature","geometry":{"type":"Point","coordinates":[-91.669,33.255]},"properties":{"key":"66625-67ddb87a","layer":"power","name":"Prairie Mist Solar","state":"AR","detail_file":"data/details/power-plants-37.json","plant_id":"66625","capacity_mw":109.2,"status_group":"Operating","energy_sources":"SUN","type":"Power plant","is_nuclear":false}},{"type":"Feature","geometry":{"type":"Point","coordinates":[-90.791,35.209]},"properties":{"key":"67038-470ab3c3","layer":"power","name":"Quartz Solar, LLC","state":"AR","detail_file":"data/details/power-plants-41.json","plant_id":"67038","capacity_mw":135.0,"status_group":"Operating","energy_sources":"SUN","type":"Power plant","is_nuclear":false}},{"type":"Feature","geometry":{"type":"Point","coordinates":[-90.105,35.618]},"properties":{"key":"67521-4b03bdb9","layer":"power","name":"Rivercrest SD","state":"AR","detail_file":"data/details/power-plants-36.json","plant_id":"67521","capacity_mw":1.0,"status_group":"Operating","energy_sources":"SUN","type":"Power plant","is_nuclear":false}},{"type":"Feature","geometry":{"type":"Point","coordinates":[-90.771,35.373]},"properties":{"key":"68097-28f3bdef","layer":"power","name":"SR Cherry Valley","state":"AR","detail_file":"data/details/power-plants-52.json","plant_id":"68097","capacity_mw":4.8,"status_group":"Under construction","energy_sources":"SUN","type":"Power plant","is_nuclear":false}},{"type":"Feature","geometry":{"type":"Point","coordinates":[-91.525,34.977]},"properties":{"key":"68230-c01dfb69","layer":"power","name":"SR Des Arc","state":"AR","detail_file":"data/details/power-plants-52.json","plant_id":"68230","capacity_mw":4.8,"status_group":"Under construction","energy_sources":"SUN","type":"Power plant","is_nuclear":false}},{"type":"Feature","geometry":{"type":"Point","coordinates":[-91.47,33.892]},"properties":{"key":"68100-1d6d20a2","layer":"power","name":"SR Dumas","state":"AR","detail_file":"data/details/power-plants-52.json","plant_id":"68100","capacity_mw":4.8,"status_group":"Operating","energy_sources":"SUN","type":"Power plant","is_nuclear":false}},{"type":"Feature","geometry":{"type":"Point","coordinates":[-90.967,35.5]},"properties":{"key":"68101-9fad1c6f","layer":"power","name":"SR Fisher","state":"AR","detail_file":"data/details/power-plants-23.json","plant_id":"68101","capacity_mw":4.8,"status_group":"Operating","energy_sources":"SUN","type":"Power plant","is_nuclear":false}},{"type":"Feature","geometry":{"type":"Point","coordinates":[-90.786,34.984]},"properties":{"key":"68557-fddb8850","layer":"power","name":"SR Forrest City","state":"AR","detail_file":"data/details/power-plants-09.json","plant_id":"68557","capacity_mw":4.8,"status_group":"Under construction","energy_sources":"SUN","type":"Power plant","is_nuclear":false}},{"type":"Feature","geometry":{"type":"Point","coordinates":[-91.452,34.578]},"properties":{"key":"68569-e6e4e79d","layer":"power","name":"SR Ulm","state":"AR","detail_file":"data/details/power-plants-22.json","plant_id":"68569","capacity_mw":4.8,"status_group":"Under construction","energy_sources":"SUN","type":"Power plant","is_nuclear":false}},{"type":"Feature","geometry":{"type":"Point","coordinates":[-90.684,34.553]},"properties":{"key":"68570-bbb6ef1b","layer":"power","name":"SR West Helena","state":"AR","detail_file":"data/details/power-plants-27.json","plant_id":"68570","capacity_mw":4.8,"status_group":"Under construction","energy_sources":"SUN","type":"Power plant","is_nuclear":false}},{"type":"Feature","geometry":{"type":"Point","coordinates":[-91.69,35.233]},"properties":{"key":"62617-2ac85fcc","layer":"power","name":"Searcy Solar Hybrid","state":"AR","detail_file":"data/details/power-plants-26.json","plant_id":"62617","capacity_mw":110.0,"status_group":"Operating","energy_sources":"MWH; SUN","type":"Power plant","is_nuclear":false}},{"type":"Feature","geometry":{"type":"Point","coordinates":[-91.716,35.266]},"properties":{"key":"67522-97e8d725","layer":"power","name":"Searcy Water I","state":"AR","detail_file":"data/details/power-plants-31.json","plant_id":"67522","capacity_mw":1.0,"status_group":"Operating","energy_sources":"SUN","type":"Power plant","is_nuclear":false}},{"type":"Feature","geometry":{"type":"Point","coordinates":[-91.722,35.208]},"properties":{"key":"67523-0fb32f8e","layer":"power","name":"Searcy Water II","state":"AR","detail_file":"data/details/power-plants-41.json","plant_id":"67523","capacity_mw":2.8,"status_group":"Operating","energy_sources":"SUN","type":"Power plant","is_nuclear":false}},{"type":"Feature","geometry":{"type":"Point","coordinates":[-91.811,33.961]},"properties":{"key":"68722-7d889127","layer":"power","name":"Star City School District","state":"AR","detail_file":"data/details/power-plants-52.json","plant_id":"68722","capacity_mw":1.0,"status_group":"Operating","energy_sources":"SUN","type":"Power plant","is_nuclear":false}},{"type":"Feature","geometry":{"type":"Point","coordinates":[-91.44,34.44]},"properties":{"key":"61262-80b7a9c5","layer":"power","name":"Stuttgart Solar","state":"AR","detail_file":"data/details/power-plants-02.json","plant_id":"61262","capacity_mw":81.0,"status_group":"Operating","energy_sources":"SUN","type":"Power plant","is_nuclear":false}},{"type":"Feature","geometry":{"type":"Point","coordinates":[-91.082,34.86]},"properties":{"key":"67504-2ce80189","layer":"power","name":"Walnut Bend Solar Station PV","state":"AR","detail_file":"data/details/power-plants-42.json","plant_id":"67504","capacity_mw":100.0,"status_group":"Operating","energy_sources":"SUN","type":"Power plant","is_nuclear":false}},{"type":"Feature","geometry":{"type":"Point","coordinates":[-90.31,35.157]},"properties":{"key":"65482-797acbbc","layer":"power","name":"West Memphis Solar Station","state":"AR","detail_file":"data/details/power-plants-22.json","plant_id":"65482","capacity_mw":180.0,"status_group":"Operating","energy_sources":"SUN","type":"Power plant","is_nuclear":false}},{"type":"Feature","geometry":{"type":"Point","coordinates":[-91.637,35.757]},"properties":{"key":"57160-f6664f16","layer":"power","name":"White River Lock and Dam 1","state":"AR","detail_file":"data/details/power-plants-18.json","plant_id":"57160","capacity_mw":4.3,"status_group":"Operating","energy_sources":"WAT","type":"Power plant","is_nuclear":false}},{"type":"Feature","geometry":{"type":"Point","coordinates":[-91.765,35.744]},"properties":{"key":"57161-56bb2191","layer":"power","name":"White River Lock and Dam 2","state":"AR","detail_file":"data/details/power-plants-63.json","plant_id":"57161","capacity_mw":3.5,"status_group":"Operating","energy_sources":"WAT","type":"Power plant","is_nuclear":false}},{"type":"Feature","geometry":{"type":"Point","coordinates":[-91.851,35.844]},"properties":{"key":"57162-d7b4ad22","layer":"power","name":"White River Lock and Dam 3","state":"AR","detail_file":"data/details/power-plants-01.json","plant_id":"57162","capacity_mw":4.3,"status_group":"Operating","energy_sources":"WAT","type":"Power plant","is_nuclear":false}},{"type":"Feature","geometry":{"type":"Point","coordinates":[-91.257,35.61]},"properties":{"key":"67527-6d3d2f4b","layer":"power","name":"White River Medical Center","state":"AR","detail_file":"data/details/power-plants-05.json","plant_id":"67527","capacity_mw":2.9,"status_group":"Operating","energy_sources":"SUN","type":"Power plant","is_nuclear":false}},{"type":"Feature","geometry":{"type":"Point","coordinates":[-91.34,35.256]},"properties":{"key":"66282-220d14cb","layer":"power","name":"Woodruff County Solar","state":"AR","detail_file":"data/details/power-plants-05.json","plant_id":"66282","capacity_mw":122.0,"status_group":"Operating","energy_sources":"SUN","type":"Power plant","is_nuclear":false}},{"type":"Feature","geometry":{"type":"Point","coordinates":[-90.825,35.039]},"properties":{"key":"68728-c141d458","layer":"power","name":"Woodruff Electric Cooperative","state":"AR","detail_file":"data/details/power-plants-12.json","plant_id":"68728","capacity_mw":1.0,"status_group":"Operating","energy_sources":"SUN","type":"Power plant","is_nuclear":false}},{"type":"Feature","geometry":{"type":"Point","coordinates":[-91.784,32.798]},"properties":{"key":"67104-79a0670a","layer":"power","name":"Bayou Galion Solar Project","state":"LA","detail_file":"data/details/power-plants-57.json","plant_id":"67104","capacity_mw":98.1,"status_group":"Operating","energy_sources":"SUN","type":"Power plant","is_nuclear":false}},{"type":"Feature","geometry":{"type":"Point","coordinates":[-91.943,32.989]},"properties":{"key":"69589-e98fb92f","layer":"power","name":"Beekman Solar","state":"LA","detail_file":"data/details/power-plants-38.json","plant_id":"69589","capacity_mw":206.8,"status_group":"Under construction","energy_sources":"SUN","type":"Power plant","is_nuclear":false}},{"type":"Feature","geometry":{"type":"Point","coordinates":[-90.714,33.794]},"properties":{"key":"68028-62ab5cc1","layer":"power","name":"Delta Solar Plant","state":"LA","detail_file":"data/details/power-plants-15.json","plant_id":"68028","capacity_mw":80.0,"status_group":"Planned","energy_sources":"SUN","type":"Power plant","is_nuclear":false}},{"type":"Feature","geometry":{"type":"Point","coordinates":[-91.628,32.532]},"properties":{"key":"68214-51aa828d","layer":"power","name":"Franklin Farms 1&2","state":"LA","detail_file":"data/details/power-plants-52.json","plant_id":"68214","capacity_mw":1560.6,"status_group":"Under construction","energy_sources":"NG","type":"Power plant","is_nuclear":false}},{"type":"Feature","geometry":{"type":"Point","coordinates":[-91.632,32.477]},"properties":{"key":"entergy-franklin-farms-power-station-la-60806369","layer":"power","name":"Franklin Farms Power Station","state":"LA","detail_file":"data/details/power-plants-08.json","plant_id":"entergy-franklin-farms-power-station-la","capacity_mw":1500.0,"status_group":"Under construction","energy_sources":"natural_gas","type":"Power plant","is_nuclear":false}},{"type":"Feature","geometry":{"type":"Point","coordinates":[-91.788,32.575]},"properties":{"key":"66193-29a07e4a","layer":"power","name":"Oak Ridge Solar","state":"LA","detail_file":"data/details/power-plants-63.json","plant_id":"66193","capacity_mw":200.0,"status_group":"Operating","energy_sources":"SUN","type":"Power plant","is_nuclear":false}},{"type":"Feature","geometry":{"type":"Point","coordinates":[-91.68,32.468]},"properties":{"key":"69449-f0dedf94","layer":"power","name":"Richland Parish Power Station 1&2","state":"LA","detail_file":"data/details/power-plants-45.json","plant_id":"69449","capacity_mw":1560.6,"status_group":"Planned","energy_sources":"NG","type":"Power plant","is_nuclear":false}},{"type":"Feature","geometry":{"type":"Point","coordinates":[-91.699,32.497]},"properties":{"key":"69649-5d1f6e6c","layer":"power","name":"Richland Parish Power Station 3","state":"LA","detail_file":"data/details/power-plants-27.json","plant_id":"69649","capacity_mw":780.3,"status_group":"Planned","energy_sources":"NG","type":"Power plant","is_nuclear":false}},{"type":"Feature","geometry":{"type":"Point","coordinates":[-91.7,32.498]},"properties":{"key":"69650-6d166c4a","layer":"power","name":"Richland Parish Power Station 4","state":"LA","detail_file":"data/details/power-plants-21.json","plant_id":"69650","capacity_mw":780.3,"status_group":"Planned","energy_sources":"NG","type":"Power plant","is_nuclear":false}},{"type":"Feature","geometry":{"type":"Point","coordinates":[-91.911,32.747]},"properties":{"key":"68256-445f47ac","layer":"power","name":"SR South Bastrop","state":"LA","detail_file":"data/details/power-plants-20.json","plant_id":"68256","capacity_mw":4.8,"status_group":"Under construction","energy_sources":"SUN","type":"Power plant","is_nuclear":false}},{"type":"Feature","geometry":{"type":"Point","coordinates":[-91.676,32.16]},"properties":{"key":"68257-f8295cfd","layer":"power","name":"SR Winnsboro","state":"LA","detail_file":"data/details/power-plants-32.json","plant_id":"68257","capacity_mw":4.8,"status_group":"Under construction","energy_sources":"SUN","type":"Power plant","is_nuclear":false}},{"type":"Feature","geometry":{"type":"Point","coordinates":[-90.126,34.758]},"properties":{"key":"62402-12a83a99","layer":"power","name":"Arkabutla Lake Hydroelectric Project","state":"MS","detail_file":"data/details/power-plants-23.json","plant_id":"62402","capacity_mw":5.0,"status_group":"Planned","energy_sources":"WAT","type":"Power plant","is_nuclear":false}},{"type":"Feature","geometry":{"type":"Point","coordinates":[-89.675,33.015]},"properties":{"key":"55220-ec393ff8","layer":"power","name":"Attala","state":"MS","detail_file":"data/details/power-plants-19.json","plant_id":"55220","capacity_mw":551.3,"status_group":"Operating","energy_sources":"NG","type":"Power plant","is_nuclear":false}},{"type":"Feature","geometry":{"type":"Point","coordinates":[-89.927,34.336]},"properties":{"key":"55063-4c8cb35a","layer":"power","name":"Batesville Generation Facility","state":"MS","detail_file":"data/details/power-plants-17.json","plant_id":"55063","capacity_mw":891.0,"status_group":"Operating","energy_sources":"NG","type":"Power plant","is_nuclear":false}},{"type":"Feature","geometry":{"type":"Point","coordinates":[-90.378,32.904]},"properties":{"key":"10195-e59404cb","layer":"power","name":"CF Industries Yazoo City Complex","state":"MS","detail_file":"data/details/power-plants-39.json","plant_id":"10195","capacity_mw":25.0,"status_group":"Operating","energy_sources":"NG","type":"Power plant","is_nuclear":false}},{"type":"Feature","geometry":{"type":"Point","coordinates":[-88.272,33.646]},"properties":{"key":"55197-0eb443b6","layer":"power","name":"Caledonia","state":"MS","detail_file":"data/details/power-plants-13.json","plant_id":"55197","capacity_mw":801.0,"status_group":"Operating","energy_sources":"NG","type":"Power plant","is_nuclear":false}},{"type":"Feature","geometry":{"type":"Point","coordinates":[-89.42,33.288]},"properties":{"key":"55706-f771c867","layer":"power","name":"Choctaw County","state":"MS","detail_file":"data/details/power-plants-61.json","plant_id":"55706","capacity_mw":899.0,"status_group":"Operating","energy_sources":"NG","type":"Power plant","is_nuclear":false}},{"type":"Feature","geometry":{"type":"Point","coordinates":[-90.042,34.984]},"properties":{"key":"xai-colossus-2-power-station-southaven-ms-bcd77ae7","layer":"power","name":"Colossus 2 power station","state":"MS","detail_file":"data/details/power-plants-51.json","plant_id":"xai-colossus-2-power-station-southaven-ms","status_group":"Operating","energy_sources":"natural_gas","type":"Power plant","is_nuclear":false}},{"type":"Feature","geometry":{"type":"Point","coordinates":[-90.562,34.183]},"properties":{"key":"55395-8d929b76","layer":"power","name":"Crossroads Energy Center","state":"MS","detail_file":"data/details/power-plants-40.json","plant_id":"55395","capacity_mw":306.4,"status_group":"Operating","energy_sources":"NG","type":"Power plant","is_nuclear":false}},{"type":"Feature","geometry":{"type":"Point","coordinates":[-91.131,33.33]},"properties":{"key":"67914-a7a6a4b1","layer":"power","name":"Delta Blues Advanced Power Station","state":"MS","detail_file":"data/details/power-plants-27.json","plant_id":"67914","capacity_mw":818.7,"status_group":"Under construction","energy_sources":"NG","type":"Power plant","is_nuclear":false}},{"type":"Feature","geometry":{"type":"Point","coordinates":[-90.393,34.469]},"properties":{"key":"66000-9af0b626","layer":"power","name":"Delta Wind Farm (MS)","state":"MS","detail_file":"data/details/power-plants-21.json","plant_id":"66000","capacity_mw":184.5,"status_group":"Operating","energy_sources":"WND","type":"Power plant","is_nuclear":false}},{"type":"Feature","geometry":{"type":"Point","coordinates":[-90.1,33.5]},"properties":{"key":"66759-7da3131f","layer":"power","name":"Delta's Edge Solar","state":"MS","detail_file":"data/details/power-plants-47.json","plant_id":"66759","capacity_mw":100.0,"status_group":"Operating","energy_sources":"SUN","type":"Power plant","is_nuclear":false}},{"type":"Feature","geometry":{"type":"Point","coordinates":[-90.86,32.31]},"properties":{"key":"66592-e3a48d71","layer":"power","name":"ERDC","state":"MS","detail_file":"data/details/power-plants-22.json","plant_id":"66592","capacity_mw":3.2,"status_group":"Operating","energy_sources":"NG","type":"Power plant","is_nuclear":false}},{"type":"Feature","geometry":{"type":"Point","coordinates":[-89.906,34.158]},"properties":{"key":"62432-921b7037","layer":"power","name":"Enid Lake Hydroelectric Project","state":"MS","detail_file":"data/details/power-plants-12.json","plant_id":"62432","capacity_mw":5.0,"status_group":"Planned","energy_sources":"WAT","type":"Power plant","is_nuclear":false}},{"type":"Feature","geometry":{"type":"Point","coordinates":[-90.908,32.388]},"properties":{"key":"54918-92420621","layer":"power","name":"Ergon Refining Vicksburg","state":"MS","detail_file":"data/details/power-plants-15.json","plant_id":"54918","capacity_mw":4.8,"status_group":"Operating","energy_sources":"NG","type":"Power plant","is_nuclear":false}},{"type":"Feature","geometry":{"type":"Point","coordinates":[-90.908,32.388]},"properties":{"key":"54918-0125bac5","layer":"power","name":"Ergon Refining Vicksburg","state":"MS","detail_file":"data/details/power-plants-34.json","plant_id":"54918","capacity_mw":15.8,"status_group":"Under construction","energy_sources":"NG","type":"Power plant","is_nuclear":false}},{"type":"Feature","geometry":{"type":"Point","coordinates":[-88.46,33.36]},"properties":{"key":"50184-e3fd1d56","layer":"power","name":"GCF US Holdings LLC Columbus Mill","state":"MS","detail_file":"data/details/power-plants-63.json","plant_id":"50184","capacity_mw":128.6,"status_group":"Operating","energy_sources":"BLQ","type":"Power plant","is_nuclear":false}},{"type":"Feature","geometry":{"type":"Point","coordinates":[-91.117,33.35]},"properties":{"key":"8054-3b0fb0d4","layer":"power","name":"Gerald Andrus","state":"MS","detail_file":"data/details/power-plants-55.json","plant_id":"8054","capacity_mw":781.4,"status_group":"Operating","energy_sources":"NG","type":"Power plant","is_nuclear":false}},{"type":"Feature","geometry":{"type":"Point","coordinates":[-90.643,33.676]},"properties":{"key":"68352-29d3f950","layer":"power","name":"Girasol Solar Farm","state":"MS","detail_file":"data/details/power-plants-31.json","plant_id":"68352","capacity_mw":100.0,"status_group":"Planned","energy_sources":"SUN","type":"Power plant","is_nuclear":false}},{"type":"Feature","geometry":{"type":"Point","coordinates":[-88.619,33.419]},"properties":{"key":"64529-c9e65d0f","layer":"power","name":"Golden Triangle","state":"MS","detail_file":"data/details/power-plants-18.json","plant_id":"64529","capacity_mw":250.0,"status_group":"Operating","energy_sources":"MWH; SUN","type":"Power plant","is_nuclear":false}},{"type":"Feature","geometry":{"type":"Point","coordinates":[-88.622,33.416]},"properties":{"key":"65291-89f34327","layer":"power","name":"Golden Triangle II","state":"MS","detail_file":"data/details/power-plants-07.json","plant_id":"65291","capacity_mw":200.0,"status_group":"Operating","energy_sources":"MWH; SUN","type":"Power plant","is_nuclear":false}},{"type":"Feature","geometry":{"type":"Point","coordinates":[-91.048,32.008]},"properties":{"key":"6072-f3602d0c","layer":"power","name":"Grand Gulf","state":"MS","detail_file":"data/details/power-plants-19.json","plant_id":"6072","capacity_mw":1440.0,"status_group":"Operating","energy_sources":"NUC","type":"Nuclear power plant","is_nuclear":true}},{"type":"Feature","geometry":{"type":"Point","coordinates":[-90.831,33.116]},"properties":{"key":"68515-e61433c2","layer":"power","name":"Greer Solar Plant","state":"MS","detail_file":"data/details/power-plants-18.json","plant_id":"68515","capacity_mw":200.0,"status_group":"Under construction","energy_sources":"SUN","type":"Power plant","is_nuclear":false}},{"type":"Feature","geometry":{"type":"Point","coordinates":[-89.772,33.809]},"properties":{"key":"62430-75e6f9e5","layer":"power","name":"Grenada Lake Hydroelectric Project","state":"MS","detail_file":"data/details/power-plants-03.json","plant_id":"62430","capacity_mw":10.0,"status_group":"Planned","energy_sources":"WAT","type":"Power plant","is_nuclear":false}},{"type":"Feature","geometry":{"type":"Point","coordinates":[-90.636,33.505]},"properties":{"key":"66623-6d02f442","layer":"power","name":"Harvest Gold Solar","state":"MS","detail_file":"data/details/power-plants-58.json","plant_id":"66623","capacity_mw":99.0,"status_group":"Operating","energy_sources":"SUN","type":"Power plant","is_nuclear":false}},{"type":"Feature","geometry":{"type":"Point","coordinates":[-90.22,32.379]},"properties":{"key":"55218-793fc8b4","layer":"power","name":"Hinds Energy Facility","state":"MS","detail_file":"data/details/power-plants-05.json","plant_id":"55218","capacity_mw":600.4,"status_group":"Operating","energy_sources":"NG","type":"Power plant","is_nuclear":false}},{"type":"Feature","geometry":{"type":"Point","coordinates":[-90.389,32.416]},"properties":{"key":"67231-bed4623d","layer":"power","name":"Hinds Solar, LLC","state":"MS","detail_file":"data/details/power-plants-26.json","plant_id":"67231","capacity_mw":150.0,"status_group":"Under construction","energy_sources":"SUN","type":"Power plant","is_nuclear":false}},{"type":"Feature","geometry":{"type":"Point","coordinates":[-90.774,32.529]},"properties":{"key":"54100-b1037938","layer":"power","name":"International Paper Vicksburg Mill","state":"MS","detail_file":"data/details/power-plants-43.json","plant_id":"54100","capacity_mw":50.5,"status_group":"Operating","energy_sources":"BLQ","type":"Power plant","is_nuclear":false}},{"type":"Feature","geometry":{"type":"Point","coordinates":[-88.606,32.798]},"properties":{"key":"7960-6d16b200","layer":"power","name":"Kemper County","state":"MS","detail_file":"data/details/power-plants-24.json","plant_id":"7960","capacity_mw":372.0,"status_group":"Operating","energy_sources":"NG","type":"Power plant","is_nuclear":false}},{"type":"Feature","geometry":{"type":"Point","coordinates":[-90.563,34.184]},"properties":{"key":"2059-9e0fbf48","layer":"power","name":"L L Wilkins","state":"MS","detail_file":"data/details/power-plants-42.json","plant_id":"2059","capacity_mw":55.2,"status_group":"Operating","energy_sources":"NG","type":"Power plant","is_nuclear":false}},{"type":"Feature","geometry":{"type":"Point","coordinates":[-89.146,33.899]},"properties":{"key":"69638-87ecf6d6","layer":"power","name":"Landshark Energy Generation Facility","state":"MS","detail_file":"data/details/power-plants-40.json","plant_id":"69638","capacity_mw":160.0,"status_group":"Planned","energy_sources":"SUN","type":"Power plant","is_nuclear":false}},{"type":"Feature","geometry":{"type":"Point","coordinates":[-90.155,32.254]},"properties":{"key":"65257-9db2cecb","layer":"power","name":"Lineage MS","state":"MS","detail_file":"data/details/power-plants-41.json","plant_id":"65257","capacity_mw":1.2,"status_group":"Operating","energy_sources":"SUN","type":"Power plant","is_nuclear":false}},{"type":"Feature","geometry":{"type":"Point","coordinates":[-89.203,34.835]},"properties":{"key":"55451-7952ccab","layer":"power","name":"Magnolia Power Plant","state":"MS","detail_file":"data/details/power-plants-08.json","plant_id":"55451","capacity_mw":1003.5,"status_group":"Operating","energy_sources":"NG","type":"Power plant","is_nuclear":false}},{"type":"Feature","geometry":{"type":"Point","coordinates":[-88.607,32.551]},"properties":{"key":"7719-4f9a10c5","layer":"power","name":"Meridian","state":"MS","detail_file":"data/details/power-plants-07.json","plant_id":"7719","capacity_mw":9.0,"status_group":"Operating","energy_sources":"DFO","type":"Power plant","is_nuclear":false}},{"type":"Feature","geometry":{"type":"Point","coordinates":[-88.58,32.553]},"properties":{"key":"62164-92d845b6","layer":"power","name":"Meridian II","state":"MS","detail_file":"data/details/power-plants-30.json","plant_id":"62164","capacity_mw":5.0,"status_group":"Operating","energy_sources":"SUN","type":"Power plant","is_nuclear":false}},{"type":"Feature","geometry":{"type":"Point","coordinates":[-88.549,32.454]},"properties":{"key":"62163-22b2918f","layer":"power","name":"Meridian III","state":"MS","detail_file":"data/details/power-plants-07.json","plant_id":"62163","capacity_mw":52.5,"status_group":"Operating","energy_sources":"SUN","type":"Power plant","is_nuclear":false}},{"type":"Feature","geometry":{"type":"Point","coordinates":[-90.18,32.313]},"properties":{"key":"54203-67ad6b88","layer":"power","name":"Mississippi Baptist Medical Center","state":"MS","detail_file":"data/details/power-plants-43.json","plant_id":"54203","capacity_mw":4.2,"status_group":"Operating","energy_sources":"NG","type":"Power plant","is_nuclear":false}},{"type":"Feature","geometry":{"type":"Point","coordinates":[-88.802,33.452]},"properties":{"key":"68899-93a41ef1","layer":"power","name":"Mississippi State University","state":"MS","detail_file":"data/details/power-plants-62.json","plant_id":"68899","capacity_mw":26.0,"status_group":"Operating","energy_sources":"NG","type":"Power plant","is_nuclear":false}},{"type":"Feature","geometry":{"type":"Point","coordinates":[-88.315,33.649]},"properties":{"key":"69147-beb25dc3","layer":"power","name":"New Caledonia","state":"MS","detail_file":"data/details/power-plants-62.json","plant_id":"69147","capacity_mw":504.0,"status_group":"Planned","energy_sources":"NG","type":"Power plant","is_nuclear":false}},{"type":"Feature","geometry":{"type":"Point","coordinates":[-88.594,33.644]},"properties":{"key":"68536-d84843aa","layer":"power","name":"Optimist","state":"MS","detail_file":"data/details/power-plants-49.json","plant_id":"68536","capacity_mw":250.0,"status_group":"Operating","energy_sources":"MWH; SUN","type":"Power plant","is_nuclear":false}},{"type":"Feature","geometry":{"type":"Point","coordinates":[-89.73,32.551]},"properties":{"key":"66239-44ad762a","layer":"power","name":"Pearl River Solar Park LLC","state":"MS","detail_file":"data/details/power-plants-23.json","plant_id":"66239","capacity_mw":175.0,"status_group":"Operating","energy_sources":"SUN","type":"Power plant","is_nuclear":false}},{"type":"Feature","geometry":{"type":"Point","coordinates":[-90.263,34.862]},"properties":{"key":"68029-f6836b1e","layer":"power","name":"Penton Solar Plant","state":"MS","detail_file":"data/details/power-plants-07.json","plant_id":"68029","capacity_mw":190.0,"status_group":"Planned","energy_sources":"SUN","type":"Power plant","is_nuclear":false}},{"type":"Feature","geometry":{"type":"Point","coordinates":[-88.993,33.954]},"properties":{"key":"57408-f2e42b19","layer":"power","name":"Prairie Bluff","state":"MS","detail_file":"data/details/power-plants-38.json","plant_id":"57408","capacity_mw":1.6,"status_group":"Operating","energy_sources":"LFG","type":"Power plant","is_nuclear":false}},{"type":"Feature","geometry":{"type":"Point","coordinates":[-89.209,33.379]},"properties":{"key":"55694-0d3e2e23","layer":"power","name":"Quantum Choctaw Power LLC","state":"MS","detail_file":"data/details/power-plants-57.json","plant_id":"55694","capacity_mw":850.5,"status_group":"Operating","energy_sources":"NG","type":"Power plant","is_nuclear":false}},{"type":"Feature","geometry":{"type":"Point","coordinates":[-90.01,32.551]},"properties":{"key":"66240-0bcca50d","layer":"power","name":"Ragsdale Solar LLC","state":"MS","detail_file":"data/details/power-plants-15.json","plant_id":"66240","capacity_mw":100.0,"status_group":"Operating","energy_sources":"SUN","type":"Power plant","is_nuclear":false}},{"type":"Feature","geometry":{"type":"Point","coordinates":[-88.762,32.655]},"properties":{"key":"57037-39b7f54f","layer":"power","name":"Ratcliffe","state":"MS","detail_file":"data/details/power-plants-34.json","plant_id":"57037","capacity_mw":840.0,"status_group":"Operating","energy_sources":"NG","type":"Power plant","is_nuclear":false}},{"type":"Feature","geometry":{"type":"Point","coordinates":[-89.218,33.376]},"properties":{"key":"55076-57715382","layer":"power","name":"Red Hills Generating Facility","state":"MS","detail_file":"data/details/power-plants-31.json","plant_id":"55076","capacity_mw":513.7,"status_group":"Operating","energy_sources":"LIG","type":"Power plant","is_nuclear":false}},{"type":"Feature","geometry":{"type":"Point","coordinates":[-88.998,33.927]},"properties":{"key":"60853-2f9ef40f","layer":"power","name":"SR Houston","state":"MS","detail_file":"data/details/power-plants-06.json","plant_id":"60853","capacity_mw":3.1,"status_group":"Operating","energy_sources":"SUN","type":"Power plant","is_nuclear":false}},{"type":"Feature","geometry":{"type":"Point","coordinates":[-88.944,32.048]},"properties":{"key":"68105-fd424668","layer":"power","name":"SR Jasper","state":"MS","detail_file":"data/details/power-plants-39.json","plant_id":"68105","capacity_mw":150.0,"status_group":"Under construction","energy_sources":"SUN","type":"Power plant","is_nuclear":false}},{"type":"Feature","geometry":{"type":"Point","coordinates":[-88.675,33.856]},"properties":{"key":"68559-9a82960d","layer":"power","name":"SR Magnolia","state":"MS","detail_file":"data/details/power-plants-03.json","plant_id":"68559","capacity_mw":160.0,"status_group":"Under construction","energy_sources":"SUN","type":"Power plant","is_nuclear":false}},{"type":"Feature","geometry":{"type":"Point","coordinates":[-89.589,34.96]},"properties":{"key":"67134-c27da010","layer":"power","name":"SR Marshall, LLC","state":"MS","detail_file":"data/details/power-plants-04.json","plant_id":"67134","capacity_mw":4.8,"status_group":"Under construction","energy_sources":"SUN","type":"Power plant","is_nuclear":false}},{"type":"Feature","geometry":{"type":"Point","coordinates":[-89.583,34.952]},"properties":{"key":"68562-881514d2","layer":"power","name":"SR Mount Pleasant","state":"MS","detail_file":"data/details/power-plants-28.json","plant_id":"68562","capacity_mw":50.0,"status_group":"Under construction","energy_sources":"SUN","type":"Power plant","is_nuclear":false}},{"type":"Feature","geometry":{"type":"Point","coordinates":[-89.986,34.304]},"properties":{"key":"67132-3e0168dc","layer":"power","name":"SR Panola I, LLC","state":"MS","detail_file":"data/details/power-plants-56.json","plant_id":"67132","capacity_mw":4.8,"status_group":"Operating","energy_sources":"SUN","type":"Power plant","is_nuclear":false}},{"type":"Feature","geometry":{"type":"Point","coordinates":[-89.911,34.341]},"properties":{"key":"67130-3a1501cc","layer":"power","name":"SR Panola II, LLC","state":"MS","detail_file":"data/details/power-plants-32.json","plant_id":"67130","capacity_mw":4.8,"status_group":"Operating","energy_sources":"SUN","type":"Power plant","is_nuclear":false}},{"type":"Feature","geometry":{"type":"Point","coordinates":[-89.988,34.302]},"properties":{"key":"67131-d1e001d3","layer":"power","name":"SR Panola III, LLC","state":"MS","detail_file":"data/details/power-plants-16.json","plant_id":"67131","capacity_mw":3.5,"status_group":"Operating","energy_sources":"SUN","type":"Power plant","is_nuclear":false}},{"type":"Feature","geometry":{"type":"Point","coordinates":[-89.701,34.958]},"properties":{"key":"67135-8fbd8323","layer":"power","name":"SR West Marshall, LLC","state":"MS","detail_file":"data/details/power-plants-59.json","plant_id":"67135","capacity_mw":4.8,"status_group":"Operating","energy_sources":"SUN","type":"Power plant","is_nuclear":false}},{"type":"Feature","geometry":{"type":"Point","coordinates":[-89.772,34.399]},"properties":{"key":"62425-6bd1418f","layer":"power","name":"Sardis Lake Hydroelectric Project","state":"MS","detail_file":"data/details/power-plants-02.json","plant_id":"62425","capacity_mw":15.0,"status_group":"Planned","energy_sources":"WAT","type":"Power plant","is_nuclear":false}},{"type":"Feature","geometry":{"type":"Point","coordinates":[-89.666,34.861]},"properties":{"key":"67081-f45bb0fe","layer":"power","name":"Sr Byhalia, LLC","state":"MS","detail_file":"data/details/power-plants-36.json","plant_id":"67081","capacity_mw":4.8,"status_group":"Operating","energy_sources":"SUN","type":"Power plant","is_nuclear":false}},{"type":"Feature","geometry":{"type":"Point","coordinates":[-90.536,33.758]},"properties":{"key":"64081-d305fd1c","layer":"power","name":"Sunflower County","state":"MS","detail_file":"data/details/power-plants-62.json","plant_id":"64081","capacity_mw":100.0,"status_group":"Operating","energy_sources":"SUN","type":"Power plant","is_nuclear":false}},{"type":"Feature","geometry":{"type":"Point","coordinates":[-88.746,32.292]},"properties":{"key":"2048-02db492b","layer":"power","name":"Sweatt","state":"MS","detail_file":"data/details/power-plants-18.json","plant_id":"2048","capacity_mw":41.9,"status_group":"Operating","energy_sources":"NG","type":"Power plant","is_nuclear":false}},{"type":"Feature","geometry":{"type":"Point","coordinates":[-90.038,34.994]},"properties":{"key":"55269-e5a36e26","layer":"power","name":"TVA Southaven Combined Cycle","state":"MS","detail_file":"data/details/power-plants-12.json","plant_id":"55269","capacity_mw":903.9,"status_group":"Operating","energy_sources":"NG","type":"Power plant","is_nuclear":false}},{"type":"Feature","geometry":{"type":"Point","coordinates":[-90.221,32.406]},"properties":{"key":"70187-98b5c102","layer":"power","name":"Traceview Advanced Power Station","state":"MS","detail_file":"data/details/power-plants-00.json","plant_id":"70187","capacity_mw":819.4,"status_group":"Under construction","energy_sources":"NG","type":"Power plant","is_nuclear":false}},{"type":"Feature","geometry":{"type":"Point","coordinates":[-90.926,32.285]},"properties":{"key":"69223-fded5dd7","layer":"power","name":"Vicksburg Advanced Power Station","state":"MS","detail_file":"data/details/power-plants-43.json","plant_id":"69223","capacity_mw":819.4,"status_group":"Under construction","energy_sources":"NG","type":"Power plant","is_nuclear":false}},{"type":"Feature","geometry":{"type":"Point","coordinates":[-89.454,32.58]},"properties":{"key":"65697-2dbc408d","layer":"power","name":"Walnut Grove Demonstration Plant","state":"MS","detail_file":"data/details/power-plants-40.json","plant_id":"65697","capacity_mw":3.0,"status_group":"Operating","energy_sources":"MWH; SUN","type":"Power plant","is_nuclear":false}},{"type":"Feature","geometry":{"type":"Point","coordinates":[-90.184,34.962]},"properties":{"key":"66369-f3eb2fd0","layer":"power","name":"Wildflower Solar, LLC (MS)","state":"MS","detail_file":"data/details/power-plants-62.json","plant_id":"66369","capacity_mw":100.0,"status_group":"Operating","energy_sources":"SUN","type":"Power plant","is_nuclear":false}},{"type":"Feature","geometry":{"type":"Point","coordinates":[-90.339,33.935]},"properties":{"key":"68516-6dd81e41","layer":"power","name":"Wildwood Solar Plant","state":"MS","detail_file":"data/details/power-plants-60.json","plant_id":"68516","capacity_mw":100.0,"status_group":"Operating","energy_sources":"SUN","type":"Power plant","is_nuclear":false}},{"type":"Feature","geometry":{"type":"Point","coordinates":[-90.149,35.074]},"properties":{"key":"3393-8b8309a1","layer":"power","name":"Allen","state":"TN","detail_file":"data/details/power-plants-43.json","plant_id":"3393","capacity_mw":1290.1,"status_group":"Operating","energy_sources":"DFO; NG","type":"Power plant","is_nuclear":false}},{"type":"Feature","geometry":{"type":"Point","coordinates":[-89.198,35.544]},"properties":{"key":"55081-90ed50e3","layer":"power","name":"Brownsville Peaking Power","state":"TN","detail_file":"data/details/power-plants-52.json","plant_id":"55081","capacity_mw":460.0,"status_group":"Operating","energy_sources":"NG","type":"Power plant","is_nuclear":false}},{"type":"Feature","geometry":{"type":"Point","coordinates":[-89.866,35.309]},"properties":{"key":"66687-b9d40a05","layer":"power","name":"Graceland Solar, LLC","state":"TN","detail_file":"data/details/power-plants-60.json","plant_id":"66687","capacity_mw":150.0,"status_group":"Operating","energy_sources":"SUN","type":"Power plant","is_nuclear":false}},{"type":"Feature","geometry":{"type":"Point","coordinates":[-89.287,35.578]},"properties":{"key":"61733-75ca6f9b","layer":"power","name":"Haywood Solar","state":"TN","detail_file":"data/details/power-plants-59.json","plant_id":"61733","capacity_mw":3.0,"status_group":"Operating","energy_sources":"SUN","type":"Power plant","is_nuclear":false}},{"type":"Feature","geometry":{"type":"Point","coordinates":[-89.799,35.19]},"properties":{"key":"61211-6a513301","layer":"power","name":"IKEA Memphis 508","state":"TN","detail_file":"data/details/power-plants-61.json","plant_id":"61211","capacity_mw":1.1,"status_group":"Operating","energy_sources":"SUN","type":"Power plant","is_nuclear":false}},{"type":"Feature","geometry":{"type":"Point","coordinates":[-89.396,35.658]},"properties":{"key":"7845-d4cf7027","layer":"power","name":"Lagoon Creek","state":"TN","detail_file":"data/details/power-plants-07.json","plant_id":"7845","capacity_mw":1625.2,"status_group":"Operating","energy_sources":"NG","type":"Power plant","is_nuclear":false}},{"type":"Feature","geometry":{"type":"Point","coordinates":[-89.168,35.306]},"properties":{"key":"61412-7f50114e","layer":"power","name":"Latitude Solar Center","state":"TN","detail_file":"data/details/power-plants-37.json","plant_id":"61412","capacity_mw":15.0,"status_group":"Operating","energy_sources":"SUN","type":"Power plant","is_nuclear":false}},{"type":"Feature","geometry":{"type":"Point","coordinates":[-89.855,35.352]},"properties":{"key":"60560-f030f0d7","layer":"power","name":"Millington Solar Farm","state":"TN","detail_file":"data/details/power-plants-11.json","plant_id":"60560","capacity_mw":53.0,"status_group":"Operating","energy_sources":"SUN","type":"Power plant","is_nuclear":false}},{"type":"Feature","geometry":{"type":"Point","coordinates":[-88.587,35.132]},"properties":{"key":"59184-3cfdbb69","layer":"power","name":"Mulberry Farm LLC","state":"TN","detail_file":"data/details/power-plants-59.json","plant_id":"59184","capacity_mw":15.8,"status_group":"Operating","energy_sources":"SUN","type":"Power plant","is_nuclear":false}},{"type":"Feature","geometry":{"type":"Point","coordinates":[-88.266,35.047]},"properties":{"key":"50296-78bbb6f3","layer":"power","name":"Packaging Corp of America","state":"TN","detail_file":"data/details/power-plants-34.json","plant_id":"50296","capacity_mw":72.5,"status_group":"Operating","energy_sources":"BLQ; WDS","type":"Power plant","is_nuclear":false}},{"type":"Feature","geometry":{"type":"Point","coordinates":[-88.249,35.068]},"properties":{"key":"3415-54adcd8e","layer":"power","name":"Pickwick Landing Dam","state":"TN","detail_file":"data/details/power-plants-30.json","plant_id":"3415","capacity_mw":240.0,"status_group":"Operating","energy_sources":"WAT","type":"Power plant","is_nuclear":false}},{"type":"Feature","geometry":{"type":"Point","coordinates":[-89.048,35.578]},"properties":{"key":"60337-485d2987","layer":"power","name":"Providence Solar","state":"TN","detail_file":"data/details/power-plants-16.json","plant_id":"60337","capacity_mw":16.0,"status_group":"Operating","energy_sources":"SUN","type":"Power plant","is_nuclear":false}},{"type":"Feature","geometry":{"type":"Point","coordinates":[-88.37,35.256]},"properties":{"key":"68224-5da26464","layer":"power","name":"SR Adamsville","state":"TN","detail_file":"data/details/power-plants-30.json","plant_id":"68224","capacity_mw":25.0,"status_group":"Under construction","energy_sources":"SUN","type":"Power plant","is_nuclear":false}},{"type":"Feature","geometry":{"type":"Point","coordinates":[-88.158,35.88]},"properties":{"key":"68095-2f13b531","layer":"power","name":"SR Benton","state":"TN","detail_file":"data/details/power-plants-04.json","plant_id":"68095","capacity_mw":3.0,"status_group":"Operating","energy_sources":"SUN","type":"Power plant","is_nuclear":false}},{"type":"Feature","geometry":{"type":"Point","coordinates":[-89.02,35.257]},"properties":{"key":"65640-cf16b497","layer":"power","name":"SR Bolivar","state":"TN","detail_file":"data/details/power-plants-45.json","plant_id":"65640","capacity_mw":3.3,"status_group":"Operating","energy_sources":"SUN","type":"Power plant","is_nuclear":false}},{"type":"Feature","geometry":{"type":"Point","coordinates":[-89.233,35.59]},"properties":{"key":"68096-ba5c344d","layer":"power","name":"SR Brownsville","state":"TN","detail_file":"data/details/power-plants-20.json","plant_id":"68096","capacity_mw":3.0,"status_group":"Operating","energy_sources":"SUN","type":"Power plant","is_nuclear":false}},{"type":"Feature","geometry":{"type":"Point","coordinates":[-89.599,35.1]},"properties":{"key":"67298-a51d4e4f","layer":"power","name":"SR Canadaville, LLC","state":"TN","detail_file":"data/details/power-plants-39.json","plant_id":"67298","capacity_mw":16.0,"status_group":"Operating","energy_sources":"SUN","type":"Power plant","is_nuclear":false}},{"type":"Feature","geometry":{"type":"Point","coordinates":[-88.933,35.564]},"properties":{"key":"68229-b59536bc","layer":"power","name":"SR Denmark","state":"TN","detail_file":"data/details/power-plants-11.json","plant_id":"68229","capacity_mw":42.0,"status_group":"Under construction","energy_sources":"SUN","type":"Power plant","is_nuclear":false}},{"type":"Feature","geometry":{"type":"Point","coordinates":[-89.462,35.627]},"properties":{"key":"68556-63f10bf1","layer":"power","name":"SR Durhamville","state":"TN","detail_file":"data/details/power-plants-44.json","plant_id":"68556","capacity_mw":66.0,"status_group":"Under construction","energy_sources":"SUN","type":"Power plant","is_nuclear":false}},{"type":"Feature","geometry":{"type":"Point","coordinates":[-89.51,35.709]},"properties":{"key":"68102-838d3b16","layer":"power","name":"SR Forked Deer","state":"TN","detail_file":"data/details/power-plants-20.json","plant_id":"68102","capacity_mw":2.5,"status_group":"Operating","energy_sources":"SUN","type":"Power plant","is_nuclear":false}},{"type":"Feature","geometry":{"type":"Point","coordinates":[-89.963,35.3]},"properties":{"key":"61332-5317bc3b","layer":"power","name":"SR Innovation - NIKE PV","state":"TN","detail_file":"data/details/power-plants-08.json","plant_id":"61332","capacity_mw":1.5,"status_group":"Operating","energy_sources":"SUN","type":"Power plant","is_nuclear":false}},{"type":"Feature","geometry":{"type":"Point","coordinates":[-88.917,35.608]},"properties":{"key":"65642-9d665ccb","layer":"power","name":"SR Jackson II","state":"TN","detail_file":"data/details/power-plants-02.json","plant_id":"65642","capacity_mw":1.0,"status_group":"Operating","energy_sources":"SUN","type":"Power plant","is_nuclear":false}},{"type":"Feature","geometry":{"type":"Point","coordinates":[-88.369,35.721]},"properties":{"key":"68107-c529d335","layer":"power","name":"SR Lexington","state":"TN","detail_file":"data/details/power-plants-00.json","plant_id":"68107","capacity_mw":6.5,"status_group":"Operating","energy_sources":"SUN","type":"Power plant","is_nuclear":false}},{"type":"Feature","geometry":{"type":"Point","coordinates":[-88.927,35.574]},"properties":{"key":"65629-f3043d1b","layer":"power","name":"SR McKellar","state":"TN","detail_file":"data/details/power-plants-45.json","plant_id":"65629","capacity_mw":70.0,"status_group":"Operating","energy_sources":"SUN","type":"Power plant","is_nuclear":false}},{"type":"Feature","geometry":{"type":"Point","coordinates":[-88.879,35.177]},"properties":{"key":"68561-56afe1d1","layer":"power","name":"SR Middleton","state":"TN","detail_file":"data/details/power-plants-44.json","plant_id":"68561","capacity_mw":55.0,"status_group":"Under construction","energy_sources":"SUN","type":"Power plant","is_nuclear":false}},{"type":"Feature","geometry":{"type":"Point","coordinates":[-88.76,35.945]},"properties":{"key":"68110-da2d0470","layer":"power","name":"SR Milan","state":"TN","detail_file":"data/details/power-plants-20.json","plant_id":"68110","capacity_mw":2.8,"status_group":"Under construction","energy_sources":"SUN","type":"Power plant","is_nuclear":false}},{"type":"Feature","geometry":{"type":"Point","coordinates":[-89.846,35.358]},"properties":{"key":"68326-e2ee1abe","layer":"power","name":"SR Millington II","state":"TN","detail_file":"data/details/power-plants-00.json","plant_id":"68326","capacity_mw":74.9,"status_group":"Operating","energy_sources":"SUN","type":"Power plant","is_nuclear":false}},{"type":"Feature","geometry":{"type":"Point","coordinates":[-89.815,35.353]},"properties":{"key":"68255-dbefc198","layer":"power","name":"SR Shelby","state":"TN","detail_file":"data/details/power-plants-52.json","plant_id":"68255","capacity_mw":9.8,"status_group":"Under construction","energy_sources":"SUN","type":"Power plant","is_nuclear":false}},{"type":"Feature","geometry":{"type":"Point","coordinates":[-89.811,35.354]},"properties":{"key":"69867-642ead33","layer":"power","name":"SR Shelby II, LLC","state":"TN","detail_file":"data/details/power-plants-31.json","plant_id":"69867","capacity_mw":6.0,"status_group":"Under construction","energy_sources":"SUN","type":"Power plant","is_nuclear":false}},{"type":"Feature","geometry":{"type":"Point","coordinates":[-88.817,35.826]},"properties":{"key":"68112-34b0899b","layer":"power","name":"SR South Gibson","state":"TN","detail_file":"data/details/power-plants-42.json","plant_id":"68112","capacity_mw":4.8,"status_group":"Operating","energy_sources":"SUN","type":"Power plant","is_nuclear":false}},{"type":"Feature","geometry":{"type":"Point","coordinates":[-88.948,35.942]},"properties":{"key":"68113-68c2e694","layer":"power","name":"SR Trenton","state":"TN","detail_file":"data/details/power-plants-00.json","plant_id":"68113","capacity_mw":2.3,"status_group":"Operating","energy_sources":"SUN","type":"Power plant","is_nuclear":false}},{"type":"Feature","geometry":{"type":"Point","coordinates":[-88.555,35.15]},"properties":{"key":"59188-5a00101a","layer":"power","name":"Selmer Farm LLC","state":"TN","detail_file":"data/details/power-plants-63.json","plant_id":"59188","capacity_mw":15.8,"status_group":"Operating","energy_sources":"SUN","type":"Power plant","is_nuclear":false}},{"type":"Feature","geometry":{"type":"Point","coordinates":[-88.551,35.141]},"properties":{"key":"60555-4a8e647d","layer":"power","name":"Selmer I","state":"TN","detail_file":"data/details/power-plants-12.json","plant_id":"60555","capacity_mw":16.0,"status_group":"Operating","energy_sources":"SUN","type":"Power plant","is_nuclear":false}},{"type":"Feature","geometry":{"type":"Point","coordinates":[-88.647,35.166]},"properties":{"key":"60556-4a53e9b1","layer":"power","name":"Selmer II","state":"TN","detail_file":"data/details/power-plants-48.json","plant_id":"60556","capacity_mw":8.0,"status_group":"Operating","energy_sources":"SUN","type":"Power plant","is_nuclear":false}},{"type":"Feature","geometry":{"type":"Point","coordinates":[-89.351,35.225]},"properties":{"key":"62900-decc3b79","layer":"power","name":"Somerville Solar","state":"TN","detail_file":"data/details/power-plants-21.json","plant_id":"62900","capacity_mw":2.3,"status_group":"Operating","energy_sources":"SUN","type":"Power plant","is_nuclear":false}},{"type":"Feature","geometry":{"type":"Point","coordinates":[-89.388,35.409]},"properties":{"key":"58431-6ed01e63","layer":"power","name":"West Tennessee Solar Farm","state":"TN","detail_file":"data/details/power-plants-20.json","plant_id":"58431","capacity_mw":4.2,"status_group":"Operating","energy_sources":"SUN","type":"Power plant","is_nuclear":false}},{"type":"Feature","geometry":{"type":"Point","coordinates":[-89.369,35.058]},"properties":{"key":"62775-93e07fc9","layer":"power","name":"Wildberry","state":"TN","detail_file":"data/details/power-plants-34.json","plant_id":"62775","capacity_mw":15.0,"status_group":"Operating","energy_sources":"SUN","type":"Power plant","is_nuclear":false}},{"type":"Feature","geometry":{"type":"Point","coordinates":[-89.251,35.252]},"properties":{"key":"63026-7b1187b9","layer":"power","name":"Yum Yum Solar LLC","state":"TN","detail_file":"data/details/power-plants-48.json","plant_id":"63026","capacity_mw":147.0,"status_group":"Operating","energy_sources":"SUN","type":"Power plant","is_nuclear":false}}]}