{"type":"FeatureCollection","features":[{"type":"Feature","geometry":{"type":"Point","coordinates":[-113.577,33.583]},"properties":{"key":"69054-accb109d","layer":"power","name":"ATLAS II","state":"AZ","detail_file":"data/details/power-plants-55.json","plant_id":"69054","capacity_mw":100.0,"status_group":"Under construction","energy_sources":"SUN","type":"Power plant","is_nuclear":false}},{"type":"Feature","geometry":{"type":"Point","coordinates":[-113.577,33.583]},"properties":{"key":"69055-af9cff54","layer":"power","name":"ATLAS SOLAR IV","state":"AZ","detail_file":"data/details/power-plants-43.json","plant_id":"69055","capacity_mw":300.0,"status_group":"Under construction","energy_sources":"SUN","type":"Power plant","is_nuclear":false}},{"type":"Feature","geometry":{"type":"Point","coordinates":[-113.577,33.573]},"properties":{"key":"69237-4f7a6210","layer":"power","name":"ATLAS Solar V, LLC","state":"AZ","detail_file":"data/details/power-plants-17.json","plant_id":"69237","capacity_mw":200.0,"status_group":"Under construction","energy_sources":"SUN","type":"Power plant","is_nuclear":false}},{"type":"Feature","geometry":{"type":"Point","coordinates":[-113.574,33.579]},"properties":{"key":"69238-9c301b6f","layer":"power","name":"ATLAS Solar VI, LLC","state":"AZ","detail_file":"data/details/power-plants-30.json","plant_id":"69238","capacity_mw":100.0,"status_group":"Under construction","energy_sources":"SUN","type":"Power plant","is_nuclear":false}},{"type":"Feature","geometry":{"type":"Point","coordinates":[-113.556,33.547]},"properties":{"key":"69198-4498b812","layer":"power","name":"ATLAS Solar X, LLC","state":"AZ","detail_file":"data/details/power-plants-30.json","plant_id":"69198","capacity_mw":225.0,"status_group":"Planned","energy_sources":"SUN","type":"Power plant","is_nuclear":false}},{"type":"Feature","geometry":{"type":"Point","coordinates":[-113.58,33.553]},"properties":{"key":"69199-960fcac5","layer":"power","name":"ATLAS Solar XI, LLC","state":"AZ","detail_file":"data/details/power-plants-16.json","plant_id":"69199","capacity_mw":200.0,"status_group":"Planned","energy_sources":"SUN","type":"Power plant","is_nuclear":false}},{"type":"Feature","geometry":{"type":"Point","coordinates":[-112.84,33.324]},"properties":{"key":"67964-5e80f8e2","layer":"power","name":"Agave","state":"AZ","detail_file":"data/details/power-plants-31.json","plant_id":"67964","capacity_mw":150.0,"status_group":"Operating","energy_sources":"SUN","type":"Power plant","is_nuclear":false}},{"type":"Feature","geometry":{"type":"Point","coordinates":[-112.84,33.324]},"properties":{"key":"67964-03fe7c47","layer":"power","name":"Agave","state":"AZ","detail_file":"data/details/power-plants-53.json","plant_id":"67964","capacity_mw":150.0,"status_group":"Under construction","energy_sources":"MWH","type":"Power plant","is_nuclear":false}},{"type":"Feature","geometry":{"type":"Point","coordinates":[-113.495,32.977]},"properties":{"key":"57373-ef50314d","layer":"power","name":"Agua Caliente Solar Project","state":"AZ","detail_file":"data/details/power-plants-62.json","plant_id":"57373","capacity_mw":347.7,"status_group":"Operating","energy_sources":"SUN","type":"Power plant","is_nuclear":false}},{"type":"Feature","geometry":{"type":"Point","coordinates":[-112.215,33.556]},"properties":{"key":"141-dc6ddf8a","layer":"power","name":"Agua Fria","state":"AZ","detail_file":"data/details/power-plants-08.json","plant_id":"141","capacity_mw":737.5,"status_group":"Operating","energy_sources":"MWH; NG; SUN","type":"Power plant","is_nuclear":false}},{"type":"Feature","geometry":{"type":"Point","coordinates":[-112.431,33.495]},"properties":{"key":"68623-019dd1b1","layer":"power","name":"Amazon Goodyear","state":"AZ","detail_file":"data/details/power-plants-15.json","plant_id":"68623","capacity_mw":2.4,"status_group":"Operating","energy_sources":"SUN","type":"Power plant","is_nuclear":false}},{"type":"Feature","geometry":{"type":"Point","coordinates":[-114.496,32.688]},"properties":{"key":"57765-e05f3567","layer":"power","name":"Arizona Western College PV","state":"AZ","detail_file":"data/details/power-plants-03.json","plant_id":"57765","capacity_mw":4.7,"status_group":"Operating","energy_sources":"SUN","type":"Power plant","is_nuclear":false}},{"type":"Feature","geometry":{"type":"Point","coordinates":[-112.89,33.342]},"properties":{"key":"55282-88815b7f","layer":"power","name":"Arlington Valley Energy Facility","state":"AZ","detail_file":"data/details/power-plants-54.json","plant_id":"55282","capacity_mw":713.0,"status_group":"Operating","energy_sources":"NG","type":"Power plant","is_nuclear":false}},{"type":"Feature","geometry":{"type":"Point","coordinates":[-112.881,33.322]},"properties":{"key":"57679-789c04ea","layer":"power","name":"Arlington Valley Solar Energy I","state":"AZ","detail_file":"data/details/power-plants-24.json","plant_id":"57679","capacity_mw":127.0,"status_group":"Operating","energy_sources":"SUN","type":"Power plant","is_nuclear":false}},{"type":"Feature","geometry":{"type":"Point","coordinates":[-112.834,33.305]},"properties":{"key":"57680-0a33eb04","layer":"power","name":"Arlington Valley Solar Energy II","state":"AZ","detail_file":"data/details/power-plants-63.json","plant_id":"57680","capacity_mw":129.0,"status_group":"Operating","energy_sources":"SUN","type":"Power plant","is_nuclear":false}},{"type":"Feature","geometry":{"type":"Point","coordinates":[-113.792,33.943]},"properties":{"key":"63798-2bb404e8","layer":"power","name":"Atlas","state":"AZ","detail_file":"data/details/power-plants-55.json","plant_id":"63798","capacity_mw":600.0,"status_group":"Under construction","energy_sources":"MWH; SUN","type":"Power plant","is_nuclear":false}},{"type":"Feature","geometry":{"type":"Point","coordinates":[-113.577,33.583]},"properties":{"key":"68321-1a850e92","layer":"power","name":"Atlas BESS IV LLC","state":"AZ","detail_file":"data/details/power-plants-34.json","plant_id":"68321","capacity_mw":150.0,"status_group":"Under construction","energy_sources":"MWH","type":"Power plant","is_nuclear":false}},{"type":"Feature","geometry":{"type":"Point","coordinates":[-113.577,33.583]},"properties":{"key":"68324-5afbfbb0","layer":"power","name":"Atlas IX","state":"AZ","detail_file":"data/details/power-plants-39.json","plant_id":"68324","capacity_mw":150.0,"status_group":"Operating","energy_sources":"MWH","type":"Power plant","is_nuclear":false}},{"type":"Feature","geometry":{"type":"Point","coordinates":[-113.577,33.583]},"properties":{"key":"68322-001f3847","layer":"power","name":"Atlas VII","state":"AZ","detail_file":"data/details/power-plants-36.json","plant_id":"68322","capacity_mw":300.0,"status_group":"Operating","energy_sources":"MWH","type":"Power plant","is_nuclear":false}},{"type":"Feature","geometry":{"type":"Point","coordinates":[-113.577,33.583]},"properties":{"key":"68323-1d895045","layer":"power","name":"Atlas VIII","state":"AZ","detail_file":"data/details/power-plants-39.json","plant_id":"68323","capacity_mw":382.4,"status_group":"Under construction","energy_sources":"MWH","type":"Power plant","is_nuclear":false}},{"type":"Feature","geometry":{"type":"Point","coordinates":[-112.814,33.498]},"properties":{"key":"58262-fb518c5e","layer":"power","name":"Badger 1","state":"AZ","detail_file":"data/details/power-plants-60.json","plant_id":"58262","capacity_mw":14.8,"status_group":"Operating","energy_sources":"SUN","type":"Power plant","is_nuclear":false}},{"type":"Feature","geometry":{"type":"Point","coordinates":[-112.272,33.8]},"properties":{"key":"67184-d574b69a","layer":"power","name":"Beehive Energy Storage","state":"AZ","detail_file":"data/details/power-plants-38.json","plant_id":"67184","capacity_mw":250.0,"status_group":"Operating","energy_sources":"MWH","type":"Power plant","is_nuclear":false}},{"type":"Feature","geometry":{"type":"Point","coordinates":[-114.159,35.036]},"properties":{"key":"56482-2d0184a4","layer":"power","name":"Black Mountain Generating Station","state":"AZ","detail_file":"data/details/power-plants-54.json","plant_id":"56482","capacity_mw":121.0,"status_group":"Operating","energy_sources":"NG","type":"Power plant","is_nuclear":false}},{"type":"Feature","geometry":{"type":"Point","coordinates":[-114.163,35.023]},"properties":{"key":"58042-86f34bc7","layer":"power","name":"Black Mountain Solar LLC","state":"AZ","detail_file":"data/details/power-plants-09.json","plant_id":"58042","capacity_mw":9.0,"status_group":"Operating","energy_sources":"SUN","type":"Power plant","is_nuclear":false}},{"type":"Feature","geometry":{"type":"Point","coordinates":[-112.576,33.419]},"properties":{"key":"58037-38649a6f","layer":"power","name":"Buckeye Union HS District 201","state":"AZ","detail_file":"data/details/power-plants-44.json","plant_id":"58037","capacity_mw":3.3,"status_group":"Operating","energy_sources":"SUN","type":"Power plant","is_nuclear":false}},{"type":"Feature","geometry":{"type":"Point","coordinates":[-112.687,33.581]},"properties":{"key":"68414-e360c281","layer":"power","name":"Catclaw Solar","state":"AZ","detail_file":"data/details/power-plants-17.json","plant_id":"68414","capacity_mw":450.0,"status_group":"Under construction","energy_sources":"MWH; SUN","type":"Power plant","is_nuclear":false}},{"type":"Feature","geometry":{"type":"Point","coordinates":[-113.528,33.588]},"properties":{"key":"68466-4ef11fa2","layer":"power","name":"Centennial Flats","state":"AZ","detail_file":"data/details/power-plants-54.json","plant_id":"68466","capacity_mw":767.1,"status_group":"Under construction","energy_sources":"MWH; SUN","type":"Power plant","is_nuclear":false}},{"type":"Feature","geometry":{"type":"Point","coordinates":[-112.429,34.718]},"properties":{"key":"57560-de74f6c5","layer":"power","name":"Chino Valley Solar","state":"AZ","detail_file":"data/details/power-plants-62.json","plant_id":"57560","capacity_mw":38.0,"status_group":"Operating","energy_sources":"MWH; SUN","type":"Power plant","is_nuclear":false}},{"type":"Feature","geometry":{"type":"Point","coordinates":[-112.662,33.035]},"properties":{"key":"57561-f5cfb4b6","layer":"power","name":"Cotton Center Solar Hybrid","state":"AZ","detail_file":"data/details/power-plants-44.json","plant_id":"57561","capacity_mw":34.0,"status_group":"Operating","energy_sources":"MWH; SUN","type":"Power plant","is_nuclear":false}},{"type":"Feature","geometry":{"type":"Point","coordinates":[-114.571,35.197]},"properties":{"key":"152-33635aa4","layer":"power","name":"Davis Dam","state":"AZ","detail_file":"data/details/power-plants-02.json","plant_id":"152","capacity_mw":254.8,"status_group":"Operating","energy_sources":"WAT","type":"Power plant","is_nuclear":false}},{"type":"Feature","geometry":{"type":"Point","coordinates":[-112.322,33.703]},"properties":{"key":"69290-6f10b75f","layer":"power","name":"Desert Bloom","state":"AZ","detail_file":"data/details/power-plants-16.json","plant_id":"69290","capacity_mw":150.0,"status_group":"Under construction","energy_sources":"MWH","type":"Power plant","is_nuclear":false}},{"type":"Feature","geometry":{"type":"Point","coordinates":[-113.051,33.497]},"properties":{"key":"68283-ce9acf7e","layer":"power","name":"Desert Sand BESS","state":"AZ","detail_file":"data/details/power-plants-62.json","plant_id":"68283","capacity_mw":600.0,"status_group":"Under construction","energy_sources":"MWH; SUN","type":"Power plant","is_nuclear":false}},{"type":"Feature","geometry":{"type":"Point","coordinates":[-112.66,33.145]},"properties":{"key":"59444-8e20eb86","layer":"power","name":"Desert Star Hybrid","state":"AZ","detail_file":"data/details/power-plants-42.json","plant_id":"59444","capacity_mw":20.0,"status_group":"Operating","energy_sources":"MWH; SUN","type":"Power plant","is_nuclear":false}},{"type":"Feature","geometry":{"type":"Point","coordinates":[-112.8,32.95]},"properties":{"key":"aps-desert-sun-power-plant-gila-bend-az-e7444722","layer":"power","name":"Desert Sun Power Plant","state":"AZ","detail_file":"data/details/power-plants-09.json","plant_id":"aps-desert-sun-power-plant-gila-bend-az","capacity_mw":2000.0,"status_group":"Proposed","energy_sources":"natural_gas","type":"Power plant","is_nuclear":false}},{"type":"Feature","geometry":{"type":"Point","coordinates":[-112.881,33.727]},"properties":{"key":"68287-159d84b1","layer":"power","name":"Eagle Eye Solar and Storage","state":"AZ","detail_file":"data/details/power-plants-01.json","plant_id":"68287","capacity_mw":800.0,"status_group":"Under construction","energy_sources":"MWH; SUN","type":"Power plant","is_nuclear":false}},{"type":"Feature","geometry":{"type":"Point","coordinates":[-112.306,33.568]},"properties":{"key":"62964-32491f66","layer":"power","name":"El Sol BESS","state":"AZ","detail_file":"data/details/power-plants-34.json","plant_id":"62964","capacity_mw":50.0,"status_group":"Operating","energy_sources":"MWH","type":"Power plant","is_nuclear":false}},{"type":"Feature","geometry":{"type":"Point","coordinates":[-113.495,32.955]},"properties":{"key":"68039-0ad61f8c","layer":"power","name":"Elisabeth Solar","state":"AZ","detail_file":"data/details/power-plants-47.json","plant_id":"68039","capacity_mw":350.0,"status_group":"Under construction","energy_sources":"SUN","type":"Power plant","is_nuclear":false}},{"type":"Feature","geometry":{"type":"Point","coordinates":[-112.34,33.41]},"properties":{"key":"60230-07ca4153","layer":"power","name":"Estrella Mountain PV","state":"AZ","detail_file":"data/details/power-plants-33.json","plant_id":"60230","capacity_mw":1.8,"status_group":"Operating","energy_sources":"SUN","type":"Power plant","is_nuclear":false}},{"type":"Feature","geometry":{"type":"Point","coordinates":[-114.429,32.649]},"properties":{"key":"57997-55b15087","layer":"power","name":"Foothills Solar Plant Hybrid","state":"AZ","detail_file":"data/details/power-plants-32.json","plant_id":"57997","capacity_mw":73.0,"status_group":"Operating","energy_sources":"MWH; SUN","type":"Power plant","is_nuclear":false}},{"type":"Feature","geometry":{"type":"Point","coordinates":[-112.881,32.941]},"properties":{"key":"59020-7bb22c30","layer":"power","name":"Gila Bend Hybrid","state":"AZ","detail_file":"data/details/power-plants-37.json","plant_id":"59020","capacity_mw":68.0,"status_group":"Operating","energy_sources":"MWH; SUN","type":"Power plant","is_nuclear":false}},{"type":"Feature","geometry":{"type":"Point","coordinates":[-112.694,32.975]},"properties":{"key":"59338-3413eaaf","layer":"power","name":"Gila River Power Block 1","state":"AZ","detail_file":"data/details/power-plants-40.json","plant_id":"59338","capacity_mw":619.0,"status_group":"Operating","energy_sources":"NG","type":"Power plant","is_nuclear":false}},{"type":"Feature","geometry":{"type":"Point","coordinates":[-112.694,32.975]},"properties":{"key":"60768-8f0f058c","layer":"power","name":"Gila River Power Block 2","state":"AZ","detail_file":"data/details/power-plants-37.json","plant_id":"60768","capacity_mw":619.0,"status_group":"Operating","energy_sources":"NG","type":"Power plant","is_nuclear":false}},{"type":"Feature","geometry":{"type":"Point","coordinates":[-112.694,32.975]},"properties":{"key":"59784-754a49a7","layer":"power","name":"Gila River Power Block 3","state":"AZ","detail_file":"data/details/power-plants-60.json","plant_id":"59784","capacity_mw":619.0,"status_group":"Operating","energy_sources":"NG","type":"Power plant","is_nuclear":false}},{"type":"Feature","geometry":{"type":"Point","coordinates":[-112.694,32.975]},"properties":{"key":"55306-d22e2c48","layer":"power","name":"Gila River Power Block 4","state":"AZ","detail_file":"data/details/power-plants-40.json","plant_id":"55306","capacity_mw":619.0,"status_group":"Operating","energy_sources":"NG","type":"Power plant","is_nuclear":false}},{"type":"Feature","geometry":{"type":"Point","coordinates":[-113.898,35.364]},"properties":{"key":"61272-d4d66f17","layer":"power","name":"Gray Hawk Solar","state":"AZ","detail_file":"data/details/power-plants-21.json","plant_id":"61272","capacity_mw":55.0,"status_group":"Operating","energy_sources":"SUN","type":"Power plant","is_nuclear":false}},{"type":"Feature","geometry":{"type":"Point","coordinates":[-114.133,35.054]},"properties":{"key":"55124-9403112f","layer":"power","name":"Griffith Energy LLC","state":"AZ","detail_file":"data/details/power-plants-47.json","plant_id":"55124","capacity_mw":655.0,"status_group":"Operating","energy_sources":"NG","type":"Power plant","is_nuclear":false}},{"type":"Feature","geometry":{"type":"Point","coordinates":[-113.11,33.46]},"properties":{"key":"67474-18a0b6a7","layer":"power","name":"Harquahala 2","state":"AZ","detail_file":"data/details/power-plants-52.json","plant_id":"67474","capacity_mw":600.0,"status_group":"Operating","energy_sources":"MWH; SUN","type":"Power plant","is_nuclear":false}},{"type":"Feature","geometry":{"type":"Point","coordinates":[-113.113,33.476]},"properties":{"key":"55372-dcc7dd04","layer":"power","name":"Harquahala Generating Project","state":"AZ","detail_file":"data/details/power-plants-57.json","plant_id":"55372","capacity_mw":1277.1,"status_group":"Operating","energy_sources":"NG","type":"Power plant","is_nuclear":false}},{"type":"Feature","geometry":{"type":"Point","coordinates":[-113.135,33.441]},"properties":{"key":"66670-571684a4","layer":"power","name":"Harquahala Sun Solar Project","state":"AZ","detail_file":"data/details/power-plants-24.json","plant_id":"66670","capacity_mw":150.0,"status_group":"Operating","energy_sources":"SUN","type":"Power plant","is_nuclear":false}},{"type":"Feature","geometry":{"type":"Point","coordinates":[-114.277,34.168]},"properties":{"key":"7179-c43e2d23","layer":"power","name":"Headgate Rock","state":"AZ","detail_file":"data/details/power-plants-51.json","plant_id":"7179","capacity_mw":19.5,"status_group":"Operating","energy_sources":"WAT","type":"Power plant","is_nuclear":false}},{"type":"Feature","geometry":{"type":"Point","coordinates":[-113.349,33.027]},"properties":{"key":"58383-7f7355e8","layer":"power","name":"Hyder II Hybrid","state":"AZ","detail_file":"data/details/power-plants-02.json","plant_id":"58383","capacity_mw":28.0,"status_group":"Operating","energy_sources":"MWH; SUN","type":"Power plant","is_nuclear":false}},{"type":"Feature","geometry":{"type":"Point","coordinates":[-113.344,33.026]},"properties":{"key":"57563-dac20e37","layer":"power","name":"Hyder Solar Hybrid","state":"AZ","detail_file":"data/details/power-plants-63.json","plant_id":"57563","capacity_mw":48.0,"status_group":"Operating","energy_sources":"MWH; SUN","type":"Power plant","is_nuclear":false}},{"type":"Feature","geometry":{"type":"Point","coordinates":[-113.578,32.916]},"properties":{"key":"68397-14a7f3ee","layer":"power","name":"Ironwood Solar","state":"AZ","detail_file":"data/details/power-plants-14.json","plant_id":"68397","capacity_mw":168.0,"status_group":"Under construction","energy_sources":"SUN","type":"Power plant","is_nuclear":false}},{"type":"Feature","geometry":{"type":"Point","coordinates":[-114.012,35.305]},"properties":{"key":"60603-ebee8d75","layer":"power","name":"Jacobson 5 MW Solar","state":"AZ","detail_file":"data/details/power-plants-03.json","plant_id":"60603","capacity_mw":4.4,"status_group":"Operating","energy_sources":"SUN","type":"Power plant","is_nuclear":false}},{"type":"Feature","geometry":{"type":"Point","coordinates":[-112.496,33.408]},"properties":{"key":"69469-0e7471f8","layer":"power","name":"Justice Energy Storage","state":"AZ","detail_file":"data/details/power-plants-39.json","plant_id":"69469","capacity_mw":150.0,"status_group":"Operating","energy_sources":"MWH","type":"Power plant","is_nuclear":false}},{"type":"Feature","geometry":{"type":"Point","coordinates":[-114.067,35.146]},"properties":{"key":"57775-a1d61849","layer":"power","name":"Kingman 1","state":"AZ","detail_file":"data/details/power-plants-46.json","plant_id":"57775","capacity_mw":10.5,"status_group":"Operating","energy_sources":"SUN; WND","type":"Power plant","is_nuclear":false}},{"type":"Feature","geometry":{"type":"Point","coordinates":[-114.051,35.084]},"properties":{"key":"68801-b9294b13","layer":"power","name":"Kingman Energy Storage","state":"AZ","detail_file":"data/details/power-plants-42.json","plant_id":"68801","capacity_mw":50.0,"status_group":"Operating","energy_sources":"MWH","type":"Power plant","is_nuclear":false}},{"type":"Feature","geometry":{"type":"Point","coordinates":[-114.267,33.917]},"properties":{"key":"58652-aa0d291f","layer":"power","name":"La Paz Solar Tower","state":"AZ","detail_file":"data/details/power-plants-14.json","plant_id":"58652","capacity_mw":200.0,"status_group":"Planned","energy_sources":"SUN","type":"Power plant","is_nuclear":false}},{"type":"Feature","geometry":{"type":"Point","coordinates":[-114.005,35.242]},"properties":{"key":"57556-3b0a8241","layer":"power","name":"La Senita","state":"AZ","detail_file":"data/details/power-plants-11.json","plant_id":"57556","capacity_mw":1.0,"status_group":"Operating","energy_sources":"SUN","type":"Power plant","is_nuclear":false}},{"type":"Feature","geometry":{"type":"Point","coordinates":[-112.24,33.821]},"properties":{"key":"58539-f28462c2","layer":"power","name":"Lake Pleasant WTP","state":"AZ","detail_file":"data/details/power-plants-56.json","plant_id":"58539","capacity_mw":6.5,"status_group":"Operating","energy_sources":"SUN","type":"Power plant","is_nuclear":false}},{"type":"Feature","geometry":{"type":"Point","coordinates":[-112.379,33.526]},"properties":{"key":"57324-dd1d7b3e","layer":"power","name":"Luke Solar","state":"AZ","detail_file":"data/details/power-plants-09.json","plant_id":"57324","capacity_mw":11.2,"status_group":"Operating","energy_sources":"SUN","type":"Power plant","is_nuclear":false}},{"type":"Feature","geometry":{"type":"Point","coordinates":[-112.415,33.409]},"properties":{"key":"57673-b178b935","layer":"power","name":"Macys Goodyear","state":"AZ","detail_file":"data/details/power-plants-58.json","plant_id":"57673","capacity_mw":3.1,"status_group":"Operating","energy_sources":"SUN","type":"Power plant","is_nuclear":false}},{"type":"Feature","geometry":{"type":"Point","coordinates":[-113.11,33.463]},"properties":{"key":"69684-e05e41e5","layer":"power","name":"Maricopa Solar","state":"AZ","detail_file":"data/details/power-plants-01.json","plant_id":"69684","capacity_mw":1100.0,"status_group":"Under construction","energy_sources":"MWH; SUN","type":"Power plant","is_nuclear":false}},{"type":"Feature","geometry":{"type":"Point","coordinates":[-113.49,32.951]},"properties":{"key":"66636-d3f81cb2","layer":"power","name":"McFarland A Solar and Storage","state":"AZ","detail_file":"data/details/power-plants-01.json","plant_id":"66636","capacity_mw":300.0,"status_group":"Operating","energy_sources":"MWH; SUN","type":"Power plant","is_nuclear":false}},{"type":"Feature","geometry":{"type":"Point","coordinates":[-113.476,32.957]},"properties":{"key":"66637-e68ca42f","layer":"power","name":"McFarland B Solar and Storage","state":"AZ","detail_file":"data/details/power-plants-39.json","plant_id":"66637","capacity_mw":450.0,"status_group":"Operating","energy_sources":"MWH; SUN","type":"Power plant","is_nuclear":false}},{"type":"Feature","geometry":{"type":"Point","coordinates":[-113.492,32.946]},"properties":{"key":"67498-ba7219e2","layer":"power","name":"McFarland C","state":"AZ","detail_file":"data/details/power-plants-21.json","plant_id":"67498","capacity_mw":185.0,"status_group":"Operating","energy_sources":"MWH","type":"Power plant","is_nuclear":false}},{"type":"Feature","geometry":{"type":"Point","coordinates":[-112.864,33.345]},"properties":{"key":"58557-86814c38","layer":"power","name":"Mesquite Generating Station Block 1","state":"AZ","detail_file":"data/details/power-plants-29.json","plant_id":"58557","capacity_mw":691.6,"status_group":"Operating","energy_sources":"NG","type":"Power plant","is_nuclear":false}},{"type":"Feature","geometry":{"type":"Point","coordinates":[-112.864,33.345]},"properties":{"key":"55481-5c213982","layer":"power","name":"Mesquite Generating Station Block 2","state":"AZ","detail_file":"data/details/power-plants-49.json","plant_id":"55481","capacity_mw":691.6,"status_group":"Operating","energy_sources":"NG","type":"Power plant","is_nuclear":false}},{"type":"Feature","geometry":{"type":"Point","coordinates":[-112.904,33.342]},"properties":{"key":"57707-ef3d0d72","layer":"power","name":"Mesquite Solar 1","state":"AZ","detail_file":"data/details/power-plants-43.json","plant_id":"57707","capacity_mw":170.0,"status_group":"Operating","energy_sources":"SUN","type":"Power plant","is_nuclear":false}},{"type":"Feature","geometry":{"type":"Point","coordinates":[-112.911,33.333]},"properties":{"key":"60307-f20f2a93","layer":"power","name":"Mesquite Solar 2, LLC","state":"AZ","detail_file":"data/details/power-plants-39.json","plant_id":"60307","capacity_mw":100.0,"status_group":"Operating","energy_sources":"SUN","type":"Power plant","is_nuclear":false}},{"type":"Feature","geometry":{"type":"Point","coordinates":[-112.937,33.348]},"properties":{"key":"60308-69eb7ea2","layer":"power","name":"Mesquite Solar 3, LLC","state":"AZ","detail_file":"data/details/power-plants-49.json","plant_id":"60308","capacity_mw":150.0,"status_group":"Operating","energy_sources":"SUN","type":"Power plant","is_nuclear":false}},{"type":"Feature","geometry":{"type":"Point","coordinates":[-112.919,33.326]},"properties":{"key":"65962-93e99194","layer":"power","name":"Mesquite Solar 4, LLC","state":"AZ","detail_file":"data/details/power-plants-30.json","plant_id":"65962","capacity_mw":62.5,"status_group":"Operating","energy_sources":"MWH; SUN","type":"Power plant","is_nuclear":false}},{"type":"Feature","geometry":{"type":"Point","coordinates":[-112.918,33.325]},"properties":{"key":"65963-eff572a7","layer":"power","name":"Mesquite Solar 5, LLC","state":"AZ","detail_file":"data/details/power-plants-32.json","plant_id":"65963","capacity_mw":120.0,"status_group":"Operating","energy_sources":"MWH; SUN","type":"Power plant","is_nuclear":false}},{"type":"Feature","geometry":{"type":"Point","coordinates":[-114.504,35.791]},"properties":{"key":"63114-ccf2a064","layer":"power","name":"Mohave County Wind Farm","state":"AZ","detail_file":"data/details/power-plants-58.json","plant_id":"63114","capacity_mw":350.0,"status_group":"Operating","energy_sources":"WND","type":"Power plant","is_nuclear":false}},{"type":"Feature","geometry":{"type":"Point","coordinates":[-114.556,34.984]},"properties":{"key":"63554-fd8e3c62","layer":"power","name":"Mohave Electric Cooperative at Joy Lane","state":"AZ","detail_file":"data/details/power-plants-57.json","plant_id":"63554","capacity_mw":25.9,"status_group":"Operating","energy_sources":"MWH; SUN","type":"Power plant","is_nuclear":false}},{"type":"Feature","geometry":{"type":"Point","coordinates":[-114.556,34.984]},"properties":{"key":"59819-1650f782","layer":"power","name":"Mohave Electric at Fort Mohave","state":"AZ","detail_file":"data/details/power-plants-20.json","plant_id":"59819","capacity_mw":4.4,"status_group":"Operating","energy_sources":"SUN","type":"Power plant","is_nuclear":false}},{"type":"Feature","geometry":{"type":"Point","coordinates":[-114.548,34.993]},"properties":{"key":"67178-fc13d064","layer":"power","name":"Mohave Energy - Hybrid","state":"AZ","detail_file":"data/details/power-plants-58.json","plant_id":"67178","capacity_mw":32.6,"status_group":"Operating","energy_sources":"MWH; SUN","type":"Power plant","is_nuclear":false}},{"type":"Feature","geometry":{"type":"Point","coordinates":[-114.548,34.932]},"properties":{"key":"69773-e49afd06","layer":"power","name":"Mohave Energy Park","state":"AZ","detail_file":"data/details/power-plants-47.json","plant_id":"69773","capacity_mw":242.0,"status_group":"Under construction","energy_sources":"NG","type":"Power plant","is_nuclear":false}},{"type":"Feature","geometry":{"type":"Point","coordinates":[-112.477,33.682]},"properties":{"key":"57403-0d200975","layer":"power","name":"Northwest Regional","state":"AZ","detail_file":"data/details/power-plants-01.json","plant_id":"57403","capacity_mw":3.2,"status_group":"Operating","energy_sources":"LFG","type":"Power plant","is_nuclear":false}},{"type":"Feature","geometry":{"type":"Point","coordinates":[-113.656,33.777]},"properties":{"key":"63349-3ccc2022","layer":"power","name":"OE_AZ1","state":"AZ","detail_file":"data/details/power-plants-57.json","plant_id":"63349","capacity_mw":32.5,"status_group":"Operating","energy_sources":"SUN","type":"Power plant","is_nuclear":false}},{"type":"Feature","geometry":{"type":"Point","coordinates":[-112.862,33.388]},"properties":{"key":"6008-e92194c8","layer":"power","name":"Palo Verde","state":"AZ","detail_file":"data/details/power-plants-32.json","plant_id":"6008","capacity_mw":4209.6,"status_group":"Operating","energy_sources":"NUC","type":"Nuclear power plant","is_nuclear":true}},{"type":"Feature","geometry":{"type":"Point","coordinates":[-112.661,33.021]},"properties":{"key":"57562-039859d4","layer":"power","name":"Paloma Solar Hybrid","state":"AZ","detail_file":"data/details/power-plants-49.json","plant_id":"57562","capacity_mw":34.0,"status_group":"Operating","energy_sources":"MWH; SUN","type":"Power plant","is_nuclear":false}},{"type":"Feature","geometry":{"type":"Point","coordinates":[-113.038,33.484]},"properties":{"key":"66779-59c15b1e","layer":"power","name":"Papago Energy Storage","state":"AZ","detail_file":"data/details/power-plants-12.json","plant_id":"66779","capacity_mw":300.0,"status_group":"Operating","energy_sources":"MWH","type":"Power plant","is_nuclear":false}},{"type":"Feature","geometry":{"type":"Point","coordinates":[-113.042,33.485]},"properties":{"key":"69256-62cd9318","layer":"power","name":"Papago PV","state":"AZ","detail_file":"data/details/power-plants-59.json","plant_id":"69256","capacity_mw":150.0,"status_group":"Operating","energy_sources":"SUN","type":"Power plant","is_nuclear":false}},{"type":"Feature","geometry":{"type":"Point","coordinates":[-112.271,35.416]},"properties":{"key":"58155-5c1a9cc2","layer":"power","name":"Perrin Ranch Wind LLC","state":"AZ","detail_file":"data/details/power-plants-18.json","plant_id":"58155","capacity_mw":99.2,"status_group":"Operating","energy_sources":"WND","type":"Power plant","is_nuclear":false}},{"type":"Feature","geometry":{"type":"Point","coordinates":[-112.045,33.43]},"properties":{"key":"58709-304de137","layer":"power","name":"Phoenix Airport Rental Car Center","state":"AZ","detail_file":"data/details/power-plants-53.json","plant_id":"58709","capacity_mw":1.6,"status_group":"Operating","energy_sources":"SUN","type":"Power plant","is_nuclear":false}},{"type":"Feature","geometry":{"type":"Point","coordinates":[-114.597,32.549]},"properties":{"key":"68328-fab9e265","layer":"power","name":"Pioneer Clean Energy Center","state":"AZ","detail_file":"data/details/power-plants-54.json","plant_id":"68328","capacity_mw":600.0,"status_group":"Under construction","energy_sources":"MWH; SUN","type":"Power plant","is_nuclear":false}},{"type":"Feature","geometry":{"type":"Point","coordinates":[-112.412,33.41]},"properties":{"key":"67328-1390bf3a","layer":"power","name":"Pluto Energy Storage","state":"AZ","detail_file":"data/details/power-plants-05.json","plant_id":"67328","capacity_mw":75.0,"status_group":"Operating","energy_sources":"MWH","type":"Power plant","is_nuclear":false}},{"type":"Feature","geometry":{"type":"Point","coordinates":[-112.401,34.658]},"properties":{"key":"56228-9308aa5d","layer":"power","name":"Prescott Airport","state":"AZ","detail_file":"data/details/power-plants-59.json","plant_id":"56228","capacity_mw":3.0,"status_group":"Operating","energy_sources":"SUN","type":"Power plant","is_nuclear":false}},{"type":"Feature","geometry":{"type":"Point","coordinates":[-112.427,34.649]},"properties":{"key":"58147-80f69086","layer":"power","name":"Prescott Solar Plant","state":"AZ","detail_file":"data/details/power-plants-28.json","plant_id":"58147","capacity_mw":10.8,"status_group":"Operating","energy_sources":"SUN","type":"Power plant","is_nuclear":false}},{"type":"Feature","geometry":{"type":"Point","coordinates":[-112.831,32.367]},"properties":{"key":"57795-98039190","layer":"power","name":"RE Ajo 1 LLC","state":"AZ","detail_file":"data/details/power-plants-56.json","plant_id":"57795","capacity_mw":4.5,"status_group":"Operating","energy_sources":"SUN","type":"Power plant","is_nuclear":false}},{"type":"Feature","geometry":{"type":"Point","coordinates":[-113.177,34.586]},"properties":{"key":"57790-03368a4f","layer":"power","name":"RE Bagdad Solar I LLC","state":"AZ","detail_file":"data/details/power-plants-45.json","plant_id":"57790","capacity_mw":14.9,"status_group":"Operating","energy_sources":"SUN","type":"Power plant","is_nuclear":false}},{"type":"Feature","geometry":{"type":"Point","coordinates":[-112.666,33.026]},"properties":{"key":"58501-5ed45108","layer":"power","name":"RE Gillespie 1 LLC","state":"AZ","detail_file":"data/details/power-plants-03.json","plant_id":"58501","capacity_mw":15.0,"status_group":"Operating","energy_sources":"SUN","type":"Power plant","is_nuclear":false}},{"type":"Feature","geometry":{"type":"Point","coordinates":[-112.841,33.335]},"properties":{"key":"55455-051c6963","layer":"power","name":"Red Hawk","state":"AZ","detail_file":"data/details/power-plants-33.json","plant_id":"55455","capacity_mw":1127.0,"status_group":"Operating","energy_sources":"NG","type":"Power plant","is_nuclear":false}},{"type":"Feature","geometry":{"type":"Point","coordinates":[-112.841,33.335]},"properties":{"key":"55455-2c6eb490","layer":"power","name":"Red Hawk","state":"AZ","detail_file":"data/details/power-plants-35.json","plant_id":"55455","capacity_mw":392.0,"status_group":"Under construction","energy_sources":"NG","type":"Power plant","is_nuclear":false}},{"type":"Feature","geometry":{"type":"Point","coordinates":[-113.181,33.378]},"properties":{"key":"58213-0478e758","layer":"power","name":"Saddle Mountain Solar I","state":"AZ","detail_file":"data/details/power-plants-21.json","plant_id":"58213","capacity_mw":15.0,"status_group":"Operating","energy_sources":"SUN","type":"Power plant","is_nuclear":false}},{"type":"Feature","geometry":{"type":"Point","coordinates":[-113.169,33.41]},"properties":{"key":"69595-823ac6f9","layer":"power","name":"Saddleback Generation Station","state":"AZ","detail_file":"data/details/power-plants-00.json","plant_id":"69595","capacity_mw":1250.0,"status_group":"Planned","energy_sources":"NG","type":"Power plant","is_nuclear":false}},{"type":"Feature","geometry":{"type":"Point","coordinates":[-112.082,33.713]},"properties":{"key":"67454-9ba42f95","layer":"power","name":"Scatter Wash 1","state":"AZ","detail_file":"data/details/power-plants-36.json","plant_id":"67454","capacity_mw":170.0,"status_group":"Operating","energy_sources":"MWH","type":"Power plant","is_nuclear":false}},{"type":"Feature","geometry":{"type":"Point","coordinates":[-112.082,33.712]},"properties":{"key":"67455-a290aae3","layer":"power","name":"Scatter Wash 2","state":"AZ","detail_file":"data/details/power-plants-56.json","plant_id":"67455","capacity_mw":85.0,"status_group":"Operating","energy_sources":"MWH","type":"Power plant","is_nuclear":false}},{"type":"Feature","geometry":{"type":"Point","coordinates":[-112.314,33.411]},"properties":{"key":"66334-b2502d7e","layer":"power","name":"Sierra Estrella Energy Storage","state":"AZ","detail_file":"data/details/power-plants-01.json","plant_id":"66334","capacity_mw":250.0,"status_group":"Operating","energy_sources":"MWH","type":"Power plant","is_nuclear":false}},{"type":"Feature","geometry":{"type":"Point","coordinates":[-113.51,32.994]},"properties":{"key":"67973-edc0cddf","layer":"power","name":"Sierra Pinta BESS","state":"AZ","detail_file":"data/details/power-plants-17.json","plant_id":"67973","capacity_mw":113.0,"status_group":"Operating","energy_sources":"MWH","type":"Power plant","is_nuclear":false}},{"type":"Feature","geometry":{"type":"Point","coordinates":[-114.08,35.13]},"properties":{"key":"70049-ae8f0de4","layer":"power","name":"Sierra Solar","state":"AZ","detail_file":"data/details/power-plants-02.json","plant_id":"70049","capacity_mw":25.0,"status_group":"Under construction","energy_sources":"SUN","type":"Power plant","is_nuclear":false}},{"type":"Feature","geometry":{"type":"Point","coordinates":[-112.956,32.922]},"properties":{"key":"56812-0b146cf8","layer":"power","name":"Solana Generating Station","state":"AZ","detail_file":"data/details/power-plants-47.json","plant_id":"56812","capacity_mw":280.0,"status_group":"Operating","energy_sources":"SUN","type":"Power plant","is_nuclear":false}},{"type":"Feature","geometry":{"type":"Point","coordinates":[-112.542,33.249]},"properties":{"key":"66627-f543b084","layer":"power","name":"Sonoran Solar Energy","state":"AZ","detail_file":"data/details/power-plants-40.json","plant_id":"66627","capacity_mw":750.0,"status_group":"Operating","energy_sources":"MWH; SUN","type":"Power plant","is_nuclear":false}},{"type":"Feature","geometry":{"type":"Point","coordinates":[-114.532,34.868]},"properties":{"key":"55177-07292f23","layer":"power","name":"South Point Energy Center","state":"AZ","detail_file":"data/details/power-plants-00.json","plant_id":"55177","capacity_mw":708.0,"status_group":"Operating","energy_sources":"NG","type":"Power plant","is_nuclear":false}},{"type":"Feature","geometry":{"type":"Point","coordinates":[-112.822,33.381]},"properties":{"key":"68492-dff5ddd5","layer":"power","name":"Sun Pond","state":"AZ","detail_file":"data/details/power-plants-59.json","plant_id":"68492","capacity_mw":170.0,"status_group":"Operating","energy_sources":"MWH; SUN","type":"Power plant","is_nuclear":false}},{"type":"Feature","geometry":{"type":"Point","coordinates":[-112.817,33.32]},"properties":{"key":"63440-fb2a5086","layer":"power","name":"Sun Streams 2","state":"AZ","detail_file":"data/details/power-plants-50.json","plant_id":"63440","capacity_mw":150.0,"status_group":"Operating","energy_sources":"SUN","type":"Power plant","is_nuclear":false}},{"type":"Feature","geometry":{"type":"Point","coordinates":[-112.812,33.332]},"properties":{"key":"67285-36eddfb6","layer":"power","name":"Sun Streams 3","state":"AZ","detail_file":"data/details/power-plants-63.json","plant_id":"67285","capacity_mw":430.0,"status_group":"Operating","energy_sources":"MWH; SUN","type":"Power plant","is_nuclear":false}},{"type":"Feature","geometry":{"type":"Point","coordinates":[-112.78,33.361]},"properties":{"key":"67291-9b84a485","layer":"power","name":"Sun Streams 4","state":"AZ","detail_file":"data/details/power-plants-63.json","plant_id":"67291","capacity_mw":600.0,"status_group":"Operating","energy_sources":"MWH; SUN","type":"Power plant","is_nuclear":false}},{"type":"Feature","geometry":{"type":"Point","coordinates":[-112.835,33.349]},"properties":{"key":"60827-896a71d3","layer":"power","name":"Sun Streams, LLC","state":"AZ","detail_file":"data/details/power-plants-49.json","plant_id":"60827","capacity_mw":160.0,"status_group":"Operating","energy_sources":"SUN","type":"Power plant","is_nuclear":false}},{"type":"Feature","geometry":{"type":"Point","coordinates":[-112.218,33.447]},"properties":{"key":"61199-4b9e44c6","layer":"power","name":"T0588 Phoenix - AZ","state":"AZ","detail_file":"data/details/power-plants-44.json","plant_id":"61199","capacity_mw":1.2,"status_group":"Operating","energy_sources":"SUN","type":"Power plant","is_nuclear":false}},{"type":"Feature","geometry":{"type":"Point","coordinates":[-112.178,33.418]},"properties":{"key":"67824-62bd8ba6","layer":"power","name":"TJX Phoenix","state":"AZ","detail_file":"data/details/power-plants-58.json","plant_id":"67824","capacity_mw":2.9,"status_group":"Operating","energy_sources":"SUN","type":"Power plant","is_nuclear":false}},{"type":"Feature","geometry":{"type":"Point","coordinates":[-112.271,33.845]},"properties":{"key":"7164-3f2dfc0f","layer":"power","name":"Waddell","state":"AZ","detail_file":"data/details/power-plants-14.json","plant_id":"7164","capacity_mw":40.0,"status_group":"Operating","energy_sources":"WAT","type":"Power plant","is_nuclear":false}},{"type":"Feature","geometry":{"type":"Point","coordinates":[-112.158,33.442]},"properties":{"key":"117-efd7f163","layer":"power","name":"West Phoenix","state":"AZ","detail_file":"data/details/power-plants-12.json","plant_id":"117","capacity_mw":1207.4,"status_group":"Operating","energy_sources":"NG","type":"Power plant","is_nuclear":false}},{"type":"Feature","geometry":{"type":"Point","coordinates":[-112.324,33.713]},"properties":{"key":"67855-cde81c41","layer":"power","name":"Westwing","state":"AZ","detail_file":"data/details/power-plants-51.json","plant_id":"67855","capacity_mw":200.0,"status_group":"Operating","energy_sources":"MWH","type":"Power plant","is_nuclear":false}},{"type":"Feature","geometry":{"type":"Point","coordinates":[-112.318,33.498]},"properties":{"key":"70033-63a1298e","layer":"power","name":"White Tank Energy Storage","state":"AZ","detail_file":"data/details/power-plants-54.json","plant_id":"70033","capacity_mw":100.0,"status_group":"Under construction","energy_sources":"MWH","type":"Power plant","is_nuclear":false}},{"type":"Feature","geometry":{"type":"Point","coordinates":[-113.509,32.994]},"properties":{"key":"60572-d8843615","layer":"power","name":"White Wing Solar","state":"AZ","detail_file":"data/details/power-plants-07.json","plant_id":"60572","capacity_mw":179.0,"status_group":"Operating","energy_sources":"SUN","type":"Power plant","is_nuclear":false}},{"type":"Feature","geometry":{"type":"Point","coordinates":[-114.711,32.721]},"properties":{"key":"120-e51bbd20","layer":"power","name":"Yucca","state":"AZ","detail_file":"data/details/power-plants-57.json","plant_id":"120","capacity_mw":422.4,"status_group":"Operating","energy_sources":"DFO; NG","type":"Power plant","is_nuclear":false}},{"type":"Feature","geometry":{"type":"Point","coordinates":[-114.654,32.729]},"properties":{"key":"54694-cfb1d90a","layer":"power","name":"Yuma Cogeneration Associates","state":"AZ","detail_file":"data/details/power-plants-05.json","plant_id":"54694","capacity_mw":62.6,"status_group":"Operating","energy_sources":"NG","type":"Power plant","is_nuclear":false}},{"type":"Feature","geometry":{"type":"Point","coordinates":[-114.429,32.642]},"properties":{"key":"67321-10473418","layer":"power","name":"Yuma Solar + Storage","state":"AZ","detail_file":"data/details/power-plants-22.json","plant_id":"67321","capacity_mw":140.0,"status_group":"Operating","energy_sources":"MWH; SUN","type":"Power plant","is_nuclear":false}},{"type":"Feature","geometry":{"type":"Point","coordinates":[-115.316,33.701]},"properties":{"key":"65744-27b259fc","layer":"power","name":"Arica Solar","state":"CA","detail_file":"data/details/power-plants-21.json","plant_id":"65744","capacity_mw":399.0,"status_group":"Operating","energy_sources":"MWH; SUN","type":"Power plant","is_nuclear":false}},{"type":"Feature","geometry":{"type":"Point","coordinates":[-114.775,33.691]},"properties":{"key":"64481-dc5dce38","layer":"power","name":"Arlington Energy Center II","state":"CA","detail_file":"data/details/power-plants-60.json","plant_id":"64481","capacity_mw":365.0,"status_group":"Operating","energy_sources":"MWH; SUN","type":"Power plant","is_nuclear":false}},{"type":"Feature","geometry":{"type":"Point","coordinates":[-114.775,33.691]},"properties":{"key":"64564-a694e233","layer":"power","name":"Arlington Energy Center III","state":"CA","detail_file":"data/details/power-plants-23.json","plant_id":"64564","capacity_mw":241.0,"status_group":"Operating","energy_sources":"MWH; SUN","type":"Power plant","is_nuclear":false}},{"type":"Feature","geometry":{"type":"Point","coordinates":[-115.513,33.016]},"properties":{"key":"67850-c24f4106","layer":"power","name":"Arrowleaf Solar and Storage","state":"CA","detail_file":"data/details/power-plants-60.json","plant_id":"67850","capacity_mw":77.0,"status_group":"Operating","energy_sources":"MWH; SUN","type":"Power plant","is_nuclear":false}},{"type":"Feature","geometry":{"type":"Point","coordinates":[-115.355,33.751]},"properties":{"key":"63300-75a9dacd","layer":"power","name":"Athos Solar Project","state":"CA","detail_file":"data/details/power-plants-25.json","plant_id":"63300","capacity_mw":250.0,"status_group":"Operating","energy_sources":"SUN","type":"Power plant","is_nuclear":false}},{"type":"Feature","geometry":{"type":"Point","coordinates":[-115.714,32.733]},"properties":{"key":"64636-4bac0544","layer":"power","name":"Big Rock Solar Farm","state":"CA","detail_file":"data/details/power-plants-46.json","plant_id":"64636","capacity_mw":200.0,"status_group":"Operating","energy_sources":"MWH","type":"Power plant","is_nuclear":false}},{"type":"Feature","geometry":{"type":"Point","coordinates":[-114.686,33.616]},"properties":{"key":"55295-68e8a93b","layer":"power","name":"Blythe Energy Inc","state":"CA","detail_file":"data/details/power-plants-06.json","plant_id":"55295","capacity_mw":591.0,"status_group":"Operating","energy_sources":"NG","type":"Power plant","is_nuclear":false}},{"type":"Feature","geometry":{"type":"Point","coordinates":[-114.68,33.641]},"properties":{"key":"65053-008c60be","layer":"power","name":"Blythe Mesa Solar II","state":"CA","detail_file":"data/details/power-plants-06.json","plant_id":"65053","capacity_mw":335.6,"status_group":"Operating","energy_sources":"MWH; SUN","type":"Power plant","is_nuclear":false}},{"type":"Feature","geometry":{"type":"Point","coordinates":[-114.742,33.68]},"properties":{"key":"60093-8aa662ae","layer":"power","name":"Blythe Solar 110, LLC","state":"CA","detail_file":"data/details/power-plants-13.json","plant_id":"60093","capacity_mw":172.8,"status_group":"Operating","energy_sources":"MWH; SUN","type":"Power plant","is_nuclear":false}},{"type":"Feature","geometry":{"type":"Point","coordinates":[-114.73,33.68]},"properties":{"key":"60092-8005d89f","layer":"power","name":"Blythe Solar II, LLC","state":"CA","detail_file":"data/details/power-plants-56.json","plant_id":"60092","capacity_mw":246.2,"status_group":"Operating","energy_sources":"MWH; SUN","type":"Power plant","is_nuclear":false}},{"type":"Feature","geometry":{"type":"Point","coordinates":[-114.742,33.656]},"properties":{"key":"60094-9c54eb01","layer":"power","name":"Blythe Solar III, LLC Hybrid","state":"CA","detail_file":"data/details/power-plants-06.json","plant_id":"60094","capacity_mw":251.8,"status_group":"Operating","energy_sources":"MWH; SUN","type":"Power plant","is_nuclear":false}},{"type":"Feature","geometry":{"type":"Point","coordinates":[-114.768,33.682]},"properties":{"key":"60095-be3d76d2","layer":"power","name":"Blythe Solar IV, LLC","state":"CA","detail_file":"data/details/power-plants-52.json","plant_id":"60095","capacity_mw":184.4,"status_group":"Operating","energy_sources":"MWH; SUN","type":"Power plant","is_nuclear":false}},{"type":"Feature","geometry":{"type":"Point","coordinates":[-115.565,33.178]},"properties":{"key":"10631-8160bb45","layer":"power","name":"CE Leathers","state":"CA","detail_file":"data/details/power-plants-42.json","plant_id":"10631","capacity_mw":45.5,"status_group":"Operating","energy_sources":"GEO","type":"Power plant","is_nuclear":false}},{"type":"Feature","geometry":{"type":"Point","coordinates":[-115.511,33.167]},"properties":{"key":"55984-6305ed9a","layer":"power","name":"CE Turbo LLC","state":"CA","detail_file":"data/details/power-plants-48.json","plant_id":"55984","capacity_mw":11.5,"status_group":"Operating","energy_sources":"GEO","type":"Power plant","is_nuclear":false}},{"type":"Feature","geometry":{"type":"Point","coordinates":[-115.518,32.913]},"properties":{"key":"60670-83411853","layer":"power","name":"CE&P Imperial Valley 1","state":"CA","detail_file":"data/details/power-plants-62.json","plant_id":"60670","capacity_mw":50.0,"status_group":"Under construction","energy_sources":"OTH","type":"Power plant","is_nuclear":false}},{"type":"Feature","geometry":{"type":"Point","coordinates":[-115.719,32.729]},"properties":{"key":"65980-acdfedf6","layer":"power","name":"CED West Side Canal Battery Storage","state":"CA","detail_file":"data/details/power-plants-54.json","plant_id":"65980","capacity_mw":131.0,"status_group":"Operating","energy_sources":"MWH","type":"Power plant","is_nuclear":false}},{"type":"Feature","geometry":{"type":"Point","coordinates":[-115.532,33.166]},"properties":{"key":"59088-eb8184f8","layer":"power","name":"Calipatria Solar Farm","state":"CA","detail_file":"data/details/power-plants-14.json","plant_id":"59088","capacity_mw":20.0,"status_group":"Operating","energy_sources":"SUN","type":"Power plant","is_nuclear":false}},{"type":"Feature","geometry":{"type":"Point","coordinates":[-115.485,33.163]},"properties":{"key":"64521-6ff397e9","layer":"power","name":"Calipatria State Prison","state":"CA","detail_file":"data/details/power-plants-13.json","plant_id":"64521","capacity_mw":6.0,"status_group":"Operating","energy_sources":"SUN","type":"Power plant","is_nuclear":false}},{"type":"Feature","geometry":{"type":"Point","coordinates":[-115.726,32.753]},"properties":{"key":"58467-e1c48a2a","layer":"power","name":"Campo Verde Solar","state":"CA","detail_file":"data/details/power-plants-29.json","plant_id":"58467","capacity_mw":147.4,"status_group":"Operating","energy_sources":"SUN","type":"Power plant","is_nuclear":false}},{"type":"Feature","geometry":{"type":"Point","coordinates":[-115.648,32.687]},"properties":{"key":"58430-33b388da","layer":"power","name":"Centinela Solar Energy","state":"CA","detail_file":"data/details/power-plants-00.json","plant_id":"58430","capacity_mw":174.8,"status_group":"Operating","energy_sources":"SUN","type":"Power plant","is_nuclear":false}},{"type":"Feature","geometry":{"type":"Point","coordinates":[-115.783,32.826]},"properties":{"key":"64519-97574ec1","layer":"power","name":"Centinela State Prison","state":"CA","detail_file":"data/details/power-plants-48.json","plant_id":"64519","capacity_mw":6.0,"status_group":"Operating","energy_sources":"SUN","type":"Power plant","is_nuclear":false}},{"type":"Feature","geometry":{"type":"Point","coordinates":[-114.918,33.568]},"properties":{"key":"58506-4ebe98e2","layer":"power","name":"Chuckawalla Solar","state":"CA","detail_file":"data/details/power-plants-02.json","plant_id":"58506","capacity_mw":4.0,"status_group":"Operating","energy_sources":"SUN","type":"Power plant","is_nuclear":false}},{"type":"Feature","geometry":{"type":"Point","coordinates":[-114.904,33.565]},"properties":{"key":"57011-8284dd2a","layer":"power","name":"Chuckawalla Valley State Prison","state":"CA","detail_file":"data/details/power-plants-15.json","plant_id":"57011","capacity_mw":1.0,"status_group":"Operating","energy_sources":"SUN","type":"Power plant","is_nuclear":false}},{"type":"Feature","geometry":{"type":"Point","coordinates":[-115.434,33.192]},"properties":{"key":"62052-619c37e7","layer":"power","name":"Citizens Imperial Solar","state":"CA","detail_file":"data/details/power-plants-06.json","plant_id":"62052","capacity_mw":30.0,"status_group":"Operating","energy_sources":"SUN","type":"Power plant","is_nuclear":false}},{"type":"Feature","geometry":{"type":"Point","coordinates":[-115.975,33.54]},"properties":{"key":"60825-aa80093c","layer":"power","name":"Colgreen North Shore Solar Farm","state":"CA","detail_file":"data/details/power-plants-13.json","plant_id":"60825","capacity_mw":74.8,"status_group":"Operating","energy_sources":"SUN","type":"Power plant","is_nuclear":false}},{"type":"Feature","geometry":{"type":"Point","coordinates":[-115.482,32.983]},"properties":{"key":"58545-2a3967ed","layer":"power","name":"Community Solar 1","state":"CA","detail_file":"data/details/power-plants-49.json","plant_id":"58545","capacity_mw":5.7,"status_group":"Operating","energy_sources":"SUN","type":"Power plant","is_nuclear":false}},{"type":"Feature","geometry":{"type":"Point","coordinates":[-114.814,33.573]},"properties":{"key":"65140-0fad1ff0","layer":"power","name":"Crimson","state":"CA","detail_file":"data/details/power-plants-20.json","plant_id":"65140","capacity_mw":350.0,"status_group":"Operating","energy_sources":"MWH","type":"Power plant","is_nuclear":false}},{"type":"Feature","geometry":{"type":"Point","coordinates":[-115.532,32.967]},"properties":{"key":"58527-b017feee","layer":"power","name":"Crown Cooling Facility","state":"CA","detail_file":"data/details/power-plants-37.json","plant_id":"58527","capacity_mw":1.0,"status_group":"Operating","energy_sources":"SUN","type":"Power plant","is_nuclear":false}},{"type":"Feature","geometry":{"type":"Point","coordinates":[-115.616,33.165]},"properties":{"key":"10632-556a6aad","layer":"power","name":"Del Ranch Company","state":"CA","detail_file":"data/details/power-plants-21.json","plant_id":"10632","capacity_mw":45.5,"status_group":"Operating","energy_sources":"GEO","type":"Power plant","is_nuclear":false}},{"type":"Feature","geometry":{"type":"Point","coordinates":[-115.38,33.8]},"properties":{"key":"64103-da76792d","layer":"power","name":"Desert Harvest II LLC","state":"CA","detail_file":"data/details/power-plants-14.json","plant_id":"64103","capacity_mw":105.0,"status_group":"Operating","energy_sources":"MWH; SUN","type":"Power plant","is_nuclear":false}},{"type":"Feature","geometry":{"type":"Point","coordinates":[-115.38,33.8]},"properties":{"key":"62177-357b82c7","layer":"power","name":"Desert Harvest, LLC","state":"CA","detail_file":"data/details/power-plants-39.json","plant_id":"62177","capacity_mw":80.0,"status_group":"Operating","energy_sources":"SUN","type":"Power plant","is_nuclear":false}},{"type":"Feature","geometry":{"type":"Point","coordinates":[-114.753,33.565]},"properties":{"key":"59871-a5927da0","layer":"power","name":"Desert Quartzite","state":"CA","detail_file":"data/details/power-plants-30.json","plant_id":"59871","capacity_mw":450.0,"status_group":"Operating","energy_sources":"MWH; SUN","type":"Power plant","is_nuclear":false}},{"type":"Feature","geometry":{"type":"Point","coordinates":[-115.395,33.806]},"properties":{"key":"58542-e455949d","layer":"power","name":"Desert Sunlight 250, LLC","state":"CA","detail_file":"data/details/power-plants-25.json","plant_id":"58542","capacity_mw":249.7,"status_group":"Operating","energy_sources":"SUN","type":"Power plant","is_nuclear":false}},{"type":"Feature","geometry":{"type":"Point","coordinates":[-115.394,33.823]},"properties":{"key":"57993-5748e8ff","layer":"power","name":"Desert Sunlight 300, LLC","state":"CA","detail_file":"data/details/power-plants-58.json","plant_id":"57993","capacity_mw":313.7,"status_group":"Operating","energy_sources":"SUN","type":"Power plant","is_nuclear":false}},{"type":"Feature","geometry":{"type":"Point","coordinates":[-115.666,32.687]},"properties":{"key":"63127-0520a439","layer":"power","name":"Drew Solar LLC","state":"CA","detail_file":"data/details/power-plants-37.json","plant_id":"63127","capacity_mw":100.0,"status_group":"Operating","energy_sources":"SUN","type":"Power plant","is_nuclear":false}},{"type":"Feature","geometry":{"type":"Point","coordinates":[-114.943,32.712]},"properties":{"key":"585-6981a6ad","layer":"power","name":"Drop 1","state":"CA","detail_file":"data/details/power-plants-23.json","plant_id":"585","capacity_mw":5.7,"status_group":"Operating","energy_sources":"WAT","type":"Power plant","is_nuclear":false}},{"type":"Feature","geometry":{"type":"Point","coordinates":[-115.031,32.705]},"properties":{"key":"385-ed5ea540","layer":"power","name":"Drop 2 (CA)","state":"CA","detail_file":"data/details/power-plants-45.json","plant_id":"385","capacity_mw":10.0,"status_group":"Operating","energy_sources":"WAT","type":"Power plant","is_nuclear":false}},{"type":"Feature","geometry":{"type":"Point","coordinates":[-115.126,32.705]},"properties":{"key":"386-ed1cc4ff","layer":"power","name":"Drop 3 (CA)","state":"CA","detail_file":"data/details/power-plants-37.json","plant_id":"386","capacity_mw":9.2,"status_group":"Operating","energy_sources":"WAT","type":"Power plant","is_nuclear":false}},{"type":"Feature","geometry":{"type":"Point","coordinates":[-115.219,32.705]},"properties":{"key":"387-bca24e21","layer":"power","name":"Drop 4","state":"CA","detail_file":"data/details/power-plants-54.json","plant_id":"387","capacity_mw":19.6,"status_group":"Operating","energy_sources":"WAT","type":"Power plant","is_nuclear":false}},{"type":"Feature","geometry":{"type":"Point","coordinates":[-115.392,32.673]},"properties":{"key":"314-9a438f12","layer":"power","name":"Drop 5 (CA)","state":"CA","detail_file":"data/details/power-plants-02.json","plant_id":"314","capacity_mw":4.0,"status_group":"Operating","energy_sources":"WAT","type":"Power plant","is_nuclear":false}},{"type":"Feature","geometry":{"type":"Point","coordinates":[-115.326,33.723]},"properties":{"key":"68758-edc14148","layer":"power","name":"Easley Solar","state":"CA","detail_file":"data/details/power-plants-09.json","plant_id":"68758","capacity_mw":940.0,"status_group":"Under construction","energy_sources":"MWH; SUN","type":"Power plant","is_nuclear":false}},{"type":"Feature","geometry":{"type":"Point","coordinates":[-115.282,32.699]},"properties":{"key":"586-52344add","layer":"power","name":"East Highline","state":"CA","detail_file":"data/details/power-plants-38.json","plant_id":"586","capacity_mw":2.4,"status_group":"Operating","energy_sources":"WAT","type":"Power plant","is_nuclear":false}},{"type":"Feature","geometry":{"type":"Point","coordinates":[-115.54,32.802]},"properties":{"key":"389-6c7782ab","layer":"power","name":"El Centro Hybrid","state":"CA","detail_file":"data/details/power-plants-13.json","plant_id":"389","capacity_mw":388.3,"status_group":"Operating","energy_sources":"MWH; NG","type":"Power plant","is_nuclear":false}},{"type":"Feature","geometry":{"type":"Point","coordinates":[-115.54,32.802]},"properties":{"key":"389-47906c65","layer":"power","name":"El Centro Hybrid","state":"CA","detail_file":"data/details/power-plants-07.json","plant_id":"389","capacity_mw":112.8,"status_group":"Planned","energy_sources":"NG","type":"Power plant","is_nuclear":false}},{"type":"Feature","geometry":{"type":"Point","coordinates":[-115.603,33.178]},"properties":{"key":"10634-5a9a6886","layer":"power","name":"Elmore Company","state":"CA","detail_file":"data/details/power-plants-03.json","plant_id":"10634","capacity_mw":45.5,"status_group":"Operating","energy_sources":"GEO","type":"Power plant","is_nuclear":false}},{"type":"Feature","geometry":{"type":"Point","coordinates":[-114.998,33.665]},"properties":{"key":"57394-2f32ff6f","layer":"power","name":"Genesis Solar Energy Project","state":"CA","detail_file":"data/details/power-plants-08.json","plant_id":"57394","capacity_mw":250.0,"status_group":"Operating","energy_sources":"SUN","type":"Power plant","is_nuclear":false}},{"type":"Feature","geometry":{"type":"Point","coordinates":[-115.264,32.776]},"properties":{"key":"54038-ed07b3a1","layer":"power","name":"Geo East Mesa II","state":"CA","detail_file":"data/details/power-plants-10.json","plant_id":"54038","capacity_mw":21.6,"status_group":"Operating","energy_sources":"GEO","type":"Power plant","is_nuclear":false}},{"type":"Feature","geometry":{"type":"Point","coordinates":[-114.696,33.654]},"properties":{"key":"69820-c2fdf987","layer":"power","name":"Grace Energy Center","state":"CA","detail_file":"data/details/power-plants-35.json","plant_id":"69820","capacity_mw":1000.0,"status_group":"Under construction","energy_sources":"MWH; SUN","type":"Power plant","is_nuclear":false}},{"type":"Feature","geometry":{"type":"Point","coordinates":[-115.518,32.715]},"properties":{"key":"54689-0ac83c4c","layer":"power","name":"Heber Geothermal","state":"CA","detail_file":"data/details/power-plants-57.json","plant_id":"54689","capacity_mw":91.5,"status_group":"Operating","energy_sources":"GEO","type":"Power plant","is_nuclear":false}},{"type":"Feature","geometry":{"type":"Point","coordinates":[-115.541,32.712]},"properties":{"key":"58398-31a26a82","layer":"power","name":"Heber Solar","state":"CA","detail_file":"data/details/power-plants-03.json","plant_id":"58398","capacity_mw":10.9,"status_group":"Operating","energy_sources":"SUN","type":"Power plant","is_nuclear":false}},{"type":"Feature","geometry":{"type":"Point","coordinates":[-115.389,32.813]},"properties":{"key":"67695-d4fe116b","layer":"power","name":"Holtville","state":"CA","detail_file":"data/details/power-plants-51.json","plant_id":"67695","capacity_mw":30.0,"status_group":"Operating","energy_sources":"MWH","type":"Power plant","is_nuclear":false}},{"type":"Feature","geometry":{"type":"Point","coordinates":[-115.507,32.832]},"properties":{"key":"61692-c7348dd2","layer":"power","name":"IVC Solar","state":"CA","detail_file":"data/details/power-plants-39.json","plant_id":"61692","capacity_mw":3.0,"status_group":"Operating","energy_sources":"SUN","type":"Power plant","is_nuclear":false}},{"type":"Feature","geometry":{"type":"Point","coordinates":[-115.658,32.663]},"properties":{"key":"57490-b9d1a413","layer":"power","name":"Imperial Solar Energy Center South","state":"CA","detail_file":"data/details/power-plants-13.json","plant_id":"57490","capacity_mw":128.9,"status_group":"Operating","energy_sources":"SUN","type":"Power plant","is_nuclear":false}},{"type":"Feature","geometry":{"type":"Point","coordinates":[-115.779,32.772]},"properties":{"key":"57491-71b066e0","layer":"power","name":"Imperial Solar Energy Center West","state":"CA","detail_file":"data/details/power-plants-18.json","plant_id":"57491","capacity_mw":148.7,"status_group":"Operating","energy_sources":"SUN","type":"Power plant","is_nuclear":false}},{"type":"Feature","geometry":{"type":"Point","coordinates":[-115.298,32.685]},"properties":{"key":"68909-6a265f44","layer":"power","name":"Imperial Sun Solar","state":"CA","detail_file":"data/details/power-plants-08.json","plant_id":"68909","capacity_mw":200.0,"status_group":"Under construction","energy_sources":"MWH; SUN","type":"Power plant","is_nuclear":false}},{"type":"Feature","geometry":{"type":"Point","coordinates":[-115.498,33.252]},"properties":{"key":"59657-b386d2c1","layer":"power","name":"Imperial Valley Solar Co (IVSC) 2, LLC","state":"CA","detail_file":"data/details/power-plants-63.json","plant_id":"59657","capacity_mw":20.0,"status_group":"Operating","energy_sources":"SUN","type":"Power plant","is_nuclear":false}},{"type":"Feature","geometry":{"type":"Point","coordinates":[-115.497,33.246]},"properties":{"key":"58062-1bdf908e","layer":"power","name":"Imperial Valley Solar Company 1 LLC","state":"CA","detail_file":"data/details/power-plants-23.json","plant_id":"58062","capacity_mw":23.0,"status_group":"Operating","energy_sources":"SUN","type":"Power plant","is_nuclear":false}},{"type":"Feature","geometry":{"type":"Point","coordinates":[-115.587,32.671]},"properties":{"key":"56917-2b2cd7fc","layer":"power","name":"Imperial Valley Solar, LLC","state":"CA","detail_file":"data/details/power-plants-30.json","plant_id":"56917","capacity_mw":199.9,"status_group":"Operating","energy_sources":"SUN","type":"Power plant","is_nuclear":false}},{"type":"Feature","geometry":{"type":"Point","coordinates":[-114.918,33.565]},"properties":{"key":"58513-a7b3a59f","layer":"power","name":"Ironwood Solar LLC","state":"CA","detail_file":"data/details/power-plants-16.json","plant_id":"58513","capacity_mw":4.0,"status_group":"Operating","energy_sources":"SUN","type":"Power plant","is_nuclear":false}},{"type":"Feature","geometry":{"type":"Point","coordinates":[-115.453,35.533]},"properties":{"key":"57074-aaa16caf","layer":"power","name":"Ivanpah 1","state":"CA","detail_file":"data/details/power-plants-44.json","plant_id":"57074","capacity_mw":126.0,"status_group":"Operating","energy_sources":"SUN","type":"Power plant","is_nuclear":false}},{"type":"Feature","geometry":{"type":"Point","coordinates":[-115.469,35.556]},"properties":{"key":"57073-67876a33","layer":"power","name":"Ivanpah 2","state":"CA","detail_file":"data/details/power-plants-46.json","plant_id":"57073","capacity_mw":133.4,"status_group":"Operating","energy_sources":"SUN","type":"Power plant","is_nuclear":false}},{"type":"Feature","geometry":{"type":"Point","coordinates":[-115.483,35.581]},"properties":{"key":"57075-dcb2ee44","layer":"power","name":"Ivanpah 3","state":"CA","detail_file":"data/details/power-plants-58.json","plant_id":"57075","capacity_mw":133.4,"status_group":"Operating","energy_sources":"SUN","type":"Power plant","is_nuclear":false}},{"type":"Feature","geometry":{"type":"Point","coordinates":[-115.573,33.205]},"properties":{"key":"57475-ad291899","layer":"power","name":"John L. Featherstone Plant","state":"CA","detail_file":"data/details/power-plants-23.json","plant_id":"57475","capacity_mw":55.0,"status_group":"Operating","energy_sources":"GEO","type":"Power plant","is_nuclear":false}},{"type":"Feature","geometry":{"type":"Point","coordinates":[-115.735,32.742]},"properties":{"key":"64634-223fa784","layer":"power","name":"Kingsley Solar Farm","state":"CA","detail_file":"data/details/power-plants-60.json","plant_id":"64634","capacity_mw":299.0,"status_group":"Planned","energy_sources":"MWH; SUN","type":"Power plant","is_nuclear":false}},{"type":"Feature","geometry":{"type":"Point","coordinates":[-115.67,32.677]},"properties":{"key":"64701-d57b9d44","layer":"power","name":"LeConte Energy Storage","state":"CA","detail_file":"data/details/power-plants-32.json","plant_id":"64701","capacity_mw":125.0,"status_group":"Operating","energy_sources":"MWH","type":"Power plant","is_nuclear":false}},{"type":"Feature","geometry":{"type":"Point","coordinates":[-115.096,33.621]},"properties":{"key":"66805-cc2cbd1e","layer":"power","name":"Lycan Solar Project","state":"CA","detail_file":"data/details/power-plants-50.json","plant_id":"66805","capacity_mw":800.0,"status_group":"Under construction","energy_sources":"MWH; SUN","type":"Power plant","is_nuclear":false}},{"type":"Feature","geometry":{"type":"Point","coordinates":[-115.38,33.7]},"properties":{"key":"64104-4da6a2a9","layer":"power","name":"Maverick Solar 4, LLC","state":"CA","detail_file":"data/details/power-plants-51.json","plant_id":"64104","capacity_mw":100.0,"status_group":"Operating","energy_sources":"SUN","type":"Power plant","is_nuclear":false}},{"type":"Feature","geometry":{"type":"Point","coordinates":[-115.38,33.7]},"properties":{"key":"64105-5f923fe0","layer":"power","name":"Maverick Solar 6, LLC","state":"CA","detail_file":"data/details/power-plants-57.json","plant_id":"64105","capacity_mw":150.0,"status_group":"Operating","energy_sources":"MWH; SUN","type":"Power plant","is_nuclear":false}},{"type":"Feature","geometry":{"type":"Point","coordinates":[-115.38,33.7]},"properties":{"key":"64106-0beacb80","layer":"power","name":"Maverick Solar 7, LLC","state":"CA","detail_file":"data/details/power-plants-13.json","plant_id":"64106","capacity_mw":132.0,"status_group":"Operating","energy_sources":"SUN","type":"Power plant","is_nuclear":false}},{"type":"Feature","geometry":{"type":"Point","coordinates":[-115.38,33.7]},"properties":{"key":"62178-dc70baa2","layer":"power","name":"Maverick Solar, LLC","state":"CA","detail_file":"data/details/power-plants-59.json","plant_id":"62178","capacity_mw":125.0,"status_group":"Operating","energy_sources":"SUN","type":"Power plant","is_nuclear":false}},{"type":"Feature","geometry":{"type":"Point","coordinates":[-114.74,33.695]},"properties":{"key":"58462-aa52ef7c","layer":"power","name":"McCoy Solar Energy Project Hybrid","state":"CA","detail_file":"data/details/power-plants-51.json","plant_id":"58462","capacity_mw":500.6,"status_group":"Operating","energy_sources":"MWH; SUN","type":"Power plant","is_nuclear":false}},{"type":"Feature","geometry":{"type":"Point","coordinates":[-115.512,32.904]},"properties":{"key":"50363-ce4f0ff7","layer":"power","name":"Mesquite Lake Energy Park Plant 2","state":"CA","detail_file":"data/details/power-plants-28.json","plant_id":"50363","capacity_mw":21.0,"status_group":"Operating","energy_sources":"WDS","type":"Power plant","is_nuclear":false}},{"type":"Feature","geometry":{"type":"Point","coordinates":[-115.573,33.177]},"properties":{"key":"60336-c8f96048","layer":"power","name":"Midway Solar Farm 1","state":"CA","detail_file":"data/details/power-plants-37.json","plant_id":"60336","capacity_mw":50.0,"status_group":"Operating","energy_sources":"SUN","type":"Power plant","is_nuclear":false}},{"type":"Feature","geometry":{"type":"Point","coordinates":[-115.532,33.162]},"properties":{"key":"60237-c728fbef","layer":"power","name":"Midway Solar Farm II","state":"CA","detail_file":"data/details/power-plants-54.json","plant_id":"60237","capacity_mw":30.0,"status_group":"Operating","energy_sources":"SUN","type":"Power plant","is_nuclear":false}},{"type":"Feature","geometry":{"type":"Point","coordinates":[-115.545,33.155]},"properties":{"key":"60315-e06a97b2","layer":"power","name":"Midway Solar Farm III","state":"CA","detail_file":"data/details/power-plants-02.json","plant_id":"60315","capacity_mw":20.0,"status_group":"Operating","energy_sources":"SUN","type":"Power plant","is_nuclear":false}},{"type":"Feature","geometry":{"type":"Point","coordinates":[-115.629,32.669]},"properties":{"key":"61353-f21f7b21","layer":"power","name":"Mount Signal Solar Farm II","state":"CA","detail_file":"data/details/power-plants-06.json","plant_id":"61353","capacity_mw":153.5,"status_group":"Operating","energy_sources":"SUN","type":"Power plant","is_nuclear":false}},{"type":"Feature","geometry":{"type":"Point","coordinates":[-115.567,32.679]},"properties":{"key":"61202-7923f90e","layer":"power","name":"Mount Signal Solar Farm V","state":"CA","detail_file":"data/details/power-plants-42.json","plant_id":"61202","capacity_mw":252.3,"status_group":"Operating","energy_sources":"SUN","type":"Power plant","is_nuclear":false}},{"type":"Feature","geometry":{"type":"Point","coordinates":[-115.504,33.239]},"properties":{"key":"56569-e5084acc","layer":"power","name":"Niland Gas Turbine Plant","state":"CA","detail_file":"data/details/power-plants-19.json","plant_id":"56569","capacity_mw":121.0,"status_group":"Operating","energy_sources":"NG","type":"Power plant","is_nuclear":false}},{"type":"Feature","geometry":{"type":"Point","coordinates":[-115.544,33.014]},"properties":{"key":"56832-d20dd826","layer":"power","name":"North Brawley Geothermal Plant","state":"CA","detail_file":"data/details/power-plants-58.json","plant_id":"56832","capacity_mw":80.0,"status_group":"Operating","energy_sources":"GEO","type":"Power plant","is_nuclear":false}},{"type":"Feature","geometry":{"type":"Point","coordinates":[-115.382,33.729]},"properties":{"key":"65735-1b47e8de","layer":"power","name":"Oberon II Solar Project","state":"CA","detail_file":"data/details/power-plants-13.json","plant_id":"65735","capacity_mw":375.0,"status_group":"Operating","energy_sources":"MWH; SUN","type":"Power plant","is_nuclear":false}},{"type":"Feature","geometry":{"type":"Point","coordinates":[-115.382,33.729]},"properties":{"key":"65734-6b53e7f6","layer":"power","name":"Oberon Solar Project","state":"CA","detail_file":"data/details/power-plants-20.json","plant_id":"65734","capacity_mw":375.0,"status_group":"Operating","energy_sources":"MWH; SUN","type":"Power plant","is_nuclear":false}},{"type":"Feature","geometry":{"type":"Point","coordinates":[-115.257,32.816]},"properties":{"key":"50766-fd8f432d","layer":"power","name":"Ormesa I","state":"CA","detail_file":"data/details/power-plants-24.json","plant_id":"50766","capacity_mw":19.0,"status_group":"Operating","energy_sources":"GEO","type":"Power plant","is_nuclear":false}},{"type":"Feature","geometry":{"type":"Point","coordinates":[-115.248,32.788]},"properties":{"key":"54724-f6349115","layer":"power","name":"Ormesa II","state":"CA","detail_file":"data/details/power-plants-07.json","plant_id":"54724","capacity_mw":24.0,"status_group":"Operating","energy_sources":"GEO","type":"Power plant","is_nuclear":false}},{"type":"Feature","geometry":{"type":"Point","coordinates":[-115.264,32.776]},"properties":{"key":"10763-72dd0d8b","layer":"power","name":"Ormesa III","state":"CA","detail_file":"data/details/power-plants-08.json","plant_id":"10763","capacity_mw":45.6,"status_group":"Operating","energy_sources":"GEO","type":"Power plant","is_nuclear":false}},{"type":"Feature","geometry":{"type":"Point","coordinates":[-114.652,33.662]},"properties":{"key":"57773-ab304809","layer":"power","name":"Palo Verde College","state":"CA","detail_file":"data/details/power-plants-32.json","plant_id":"57773","capacity_mw":1.2,"status_group":"Operating","energy_sources":"SUN","type":"Power plant","is_nuclear":false}},{"type":"Feature","geometry":{"type":"Point","coordinates":[-114.14,34.295]},"properties":{"key":"447-fecce1c1","layer":"power","name":"Parker Dam","state":"CA","detail_file":"data/details/power-plants-39.json","plant_id":"447","capacity_mw":120.0,"status_group":"Operating","energy_sources":"WAT","type":"Power plant","is_nuclear":false}},{"type":"Feature","geometry":{"type":"Point","coordinates":[-114.714,32.737]},"properties":{"key":"388-952bb38c","layer":"power","name":"Pilot Knob","state":"CA","detail_file":"data/details/power-plants-27.json","plant_id":"388","capacity_mw":33.0,"status_group":"Operating","energy_sources":"WAT","type":"Power plant","is_nuclear":false}},{"type":"Feature","geometry":{"type":"Point","coordinates":[-115.536,32.955]},"properties":{"key":"7824-56da895f","layer":"power","name":"Rockwood","state":"CA","detail_file":"data/details/power-plants-00.json","plant_id":"7824","capacity_mw":49.8,"status_group":"Operating","energy_sources":"DFO; NG","type":"Power plant","is_nuclear":false}},{"type":"Feature","geometry":{"type":"Point","coordinates":[-115.355,33.751]},"properties":{"key":"64290-c8147208","layer":"power","name":"SE Athos II, LLC","state":"CA","detail_file":"data/details/power-plants-07.json","plant_id":"64290","capacity_mw":200.0,"status_group":"Operating","energy_sources":"SUN","type":"Power plant","is_nuclear":false}},{"type":"Feature","geometry":{"type":"Point","coordinates":[-115.355,33.751]},"properties":{"key":"64290-d0f5935a","layer":"power","name":"SE Athos II, LLC","state":"CA","detail_file":"data/details/power-plants-13.json","plant_id":"64290","capacity_mw":402.3,"status_group":"Under construction","energy_sources":"MWH","type":"Power plant","is_nuclear":false}},{"type":"Feature","geometry":{"type":"Point","coordinates":[-115.773,32.792]},"properties":{"key":"60745-d3c45add","layer":"power","name":"SEPV Imperial Dixieland East","state":"CA","detail_file":"data/details/power-plants-31.json","plant_id":"60745","capacity_mw":2.0,"status_group":"Operating","energy_sources":"SUN","type":"Power plant","is_nuclear":false}},{"type":"Feature","geometry":{"type":"Point","coordinates":[-115.779,32.794]},"properties":{"key":"60744-2a37311f","layer":"power","name":"SEPV Imperial Dixieland West","state":"CA","detail_file":"data/details/power-plants-35.json","plant_id":"60744","capacity_mw":3.0,"status_group":"Operating","energy_sources":"SUN","type":"Power plant","is_nuclear":false}},{"type":"Feature","geometry":{"type":"Point","coordinates":[-115.647,33.158]},"properties":{"key":"10878-f10a38f9","layer":"power","name":"Salton Sea Power Gen Co - Unit 1","state":"CA","detail_file":"data/details/power-plants-29.json","plant_id":"10878","capacity_mw":10.0,"status_group":"Operating","energy_sources":"GEO","type":"Power plant","is_nuclear":false}},{"type":"Feature","geometry":{"type":"Point","coordinates":[-115.645,33.159]},"properties":{"key":"10879-c7db20d4","layer":"power","name":"Salton Sea Power Gen Co - Unit 2","state":"CA","detail_file":"data/details/power-plants-53.json","plant_id":"10879","capacity_mw":20.0,"status_group":"Operating","energy_sources":"GEO","type":"Power plant","is_nuclear":false}},{"type":"Feature","geometry":{"type":"Point","coordinates":[-115.639,33.158]},"properties":{"key":"10759-d6063490","layer":"power","name":"Salton Sea Power Gen Co - Unit 3","state":"CA","detail_file":"data/details/power-plants-30.json","plant_id":"10759","capacity_mw":53.9,"status_group":"Operating","energy_sources":"GEO","type":"Power plant","is_nuclear":false}},{"type":"Feature","geometry":{"type":"Point","coordinates":[-115.639,33.157]},"properties":{"key":"54996-1c485d26","layer":"power","name":"Salton Sea Power Gen Co - Unit 4","state":"CA","detail_file":"data/details/power-plants-37.json","plant_id":"54996","capacity_mw":47.5,"status_group":"Operating","energy_sources":"GEO","type":"Power plant","is_nuclear":false}},{"type":"Feature","geometry":{"type":"Point","coordinates":[-115.638,33.153]},"properties":{"key":"55983-1ca68a72","layer":"power","name":"Salton Sea Power LLC - Unit 5","state":"CA","detail_file":"data/details/power-plants-43.json","plant_id":"55983","capacity_mw":58.3,"status_group":"Operating","energy_sources":"GEO","type":"Power plant","is_nuclear":false}},{"type":"Feature","geometry":{"type":"Point","coordinates":[-115.536,32.714]},"properties":{"key":"54111-6b3348ac","layer":"power","name":"Second Imperial Geothermal","state":"CA","detail_file":"data/details/power-plants-21.json","plant_id":"54111","capacity_mw":74.5,"status_group":"Operating","energy_sources":"GEO","type":"Power plant","is_nuclear":false}},{"type":"Feature","geometry":{"type":"Point","coordinates":[-114.634,32.779]},"properties":{"key":"57364-58553dbe","layer":"power","name":"Siphon Drop Power Plant","state":"CA","detail_file":"data/details/power-plants-19.json","plant_id":"57364","capacity_mw":4.4,"status_group":"Operating","energy_sources":"WAT","type":"Power plant","is_nuclear":false}},{"type":"Feature","geometry":{"type":"Point","coordinates":[-115.546,32.803]},"properties":{"key":"58621-447160ae","layer":"power","name":"Sol Orchard El Centro PV","state":"CA","detail_file":"data/details/power-plants-32.json","plant_id":"58621","capacity_mw":20.0,"status_group":"Operating","energy_sources":"SUN","type":"Power plant","is_nuclear":false}},{"type":"Feature","geometry":{"type":"Point","coordinates":[-114.696,33.619]},"properties":{"key":"60558-92c43006","layer":"power","name":"Solar Blythe 2","state":"CA","detail_file":"data/details/power-plants-60.json","plant_id":"60558","capacity_mw":20.0,"status_group":"Operating","energy_sources":"SUN","type":"Power plant","is_nuclear":false}},{"type":"Feature","geometry":{"type":"Point","coordinates":[-114.744,33.592]},"properties":{"key":"56939-cf2d8105","layer":"power","name":"Solar Blythe LLC","state":"CA","detail_file":"data/details/power-plants-56.json","plant_id":"56939","capacity_mw":21.0,"status_group":"Operating","energy_sources":"SUN","type":"Power plant","is_nuclear":false}},{"type":"Feature","geometry":{"type":"Point","coordinates":[-115.47,33.08]},"properties":{"key":"58592-911c0678","layer":"power","name":"Solar Gen 2 Solar Facility","state":"CA","detail_file":"data/details/power-plants-51.json","plant_id":"58592","capacity_mw":163.2,"status_group":"Operating","energy_sources":"SUN","type":"Power plant","is_nuclear":false}},{"type":"Feature","geometry":{"type":"Point","coordinates":[-115.568,32.911]},"properties":{"key":"57916-c00dca5b","layer":"power","name":"Spreckels Sugar Company","state":"CA","detail_file":"data/details/power-plants-40.json","plant_id":"57916","capacity_mw":8.9,"status_group":"Operating","energy_sources":"NG","type":"Power plant","is_nuclear":false}},{"type":"Feature","geometry":{"type":"Point","coordinates":[-115.4,35.6]},"properties":{"key":"58646-ff1b03f2","layer":"power","name":"Stateline Solar","state":"CA","detail_file":"data/details/power-plants-37.json","plant_id":"58646","capacity_mw":299.5,"status_group":"Operating","energy_sources":"SUN","type":"Power plant","is_nuclear":false}},{"type":"Feature","geometry":{"type":"Point","coordinates":[-114.918,33.567]},"properties":{"key":"57007-977809ae","layer":"power","name":"SunEdison Ironwood State Prison","state":"CA","detail_file":"data/details/power-plants-55.json","plant_id":"57007","capacity_mw":1.0,"status_group":"Operating","energy_sources":"SUN","type":"Power plant","is_nuclear":false}},{"type":"Feature","geometry":{"type":"Point","coordinates":[-115.402,33.803]},"properties":{"key":"65857-2e76b122","layer":"power","name":"Sunlight Storage","state":"CA","detail_file":"data/details/power-plants-37.json","plant_id":"65857","capacity_mw":230.0,"status_group":"Operating","energy_sources":"MWH","type":"Power plant","is_nuclear":false}},{"type":"Feature","geometry":{"type":"Point","coordinates":[-115.794,33.81]},"properties":{"key":"66575-8a69ac28","layer":"power","name":"Sunlight Storage II","state":"CA","detail_file":"data/details/power-plants-08.json","plant_id":"66575","capacity_mw":230.0,"status_group":"Operating","energy_sources":"MWH","type":"Power plant","is_nuclear":false}},{"type":"Feature","geometry":{"type":"Point","coordinates":[-115.911,33.126]},"properties":{"key":"63932-def69348","layer":"power","name":"Titan Solar 1 (CA)","state":"CA","detail_file":"data/details/power-plants-10.json","plant_id":"63932","capacity_mw":70.0,"status_group":"Operating","energy_sources":"SUN","type":"Power plant","is_nuclear":false}},{"type":"Feature","geometry":{"type":"Point","coordinates":[-115.857,32.793]},"properties":{"key":"61682-42b3268a","layer":"power","name":"USG 1","state":"CA","detail_file":"data/details/power-plants-57.json","plant_id":"61682","capacity_mw":1.0,"status_group":"Operating","energy_sources":"SUN","type":"Power plant","is_nuclear":false}},{"type":"Feature","geometry":{"type":"Point","coordinates":[-115.863,32.79]},"properties":{"key":"61683-8e2adbb3","layer":"power","name":"USG 2","state":"CA","detail_file":"data/details/power-plants-55.json","plant_id":"61683","capacity_mw":1.0,"status_group":"Operating","energy_sources":"SUN","type":"Power plant","is_nuclear":false}},{"type":"Feature","geometry":{"type":"Point","coordinates":[-115.628,33.044]},"properties":{"key":"61418-c8c5a952","layer":"power","name":"Valencia 1 Solar CA","state":"CA","detail_file":"data/details/power-plants-15.json","plant_id":"61418","capacity_mw":3.0,"status_group":"Operating","energy_sources":"SUN","type":"Power plant","is_nuclear":false}},{"type":"Feature","geometry":{"type":"Point","coordinates":[-115.526,33.022]},"properties":{"key":"64267-c30412a7","layer":"power","name":"Valencia 2","state":"CA","detail_file":"data/details/power-plants-29.json","plant_id":"64267","capacity_mw":3.0,"status_group":"Operating","energy_sources":"SUN","type":"Power plant","is_nuclear":false}},{"type":"Feature","geometry":{"type":"Point","coordinates":[-115.538,32.886]},"properties":{"key":"64441-5118dc7d","layer":"power","name":"Valencia 3","state":"CA","detail_file":"data/details/power-plants-28.json","plant_id":"64441","capacity_mw":3.0,"status_group":"Operating","energy_sources":"SUN","type":"Power plant","is_nuclear":false}},{"type":"Feature","geometry":{"type":"Point","coordinates":[-114.572,33.599]},"properties":{"key":"58289-760fd1cc","layer":"power","name":"Venable Solar 1","state":"CA","detail_file":"data/details/power-plants-54.json","plant_id":"58289","capacity_mw":1.5,"status_group":"Operating","energy_sources":"SUN","type":"Power plant","is_nuclear":false}},{"type":"Feature","geometry":{"type":"Point","coordinates":[-114.572,33.597]},"properties":{"key":"58290-efb3c670","layer":"power","name":"Venable Solar 2","state":"CA","detail_file":"data/details/power-plants-48.json","plant_id":"58290","capacity_mw":1.5,"status_group":"Operating","energy_sources":"SUN","type":"Power plant","is_nuclear":false}},{"type":"Feature","geometry":{"type":"Point","coordinates":[-115.316,33.701]},"properties":{"key":"65743-3ba9bb12","layer":"power","name":"Victory Pass","state":"CA","detail_file":"data/details/power-plants-54.json","plant_id":"65743","capacity_mw":250.0,"status_group":"Operating","energy_sources":"MWH; SUN","type":"Power plant","is_nuclear":false}},{"type":"Feature","geometry":{"type":"Point","coordinates":[-114.471,34.085]},"properties":{"key":"68907-feac5ae2","layer":"power","name":"Vidal Energy Center","state":"CA","detail_file":"data/details/power-plants-17.json","plant_id":"68907","capacity_mw":320.0,"status_group":"Under construction","energy_sources":"MWH; SUN","type":"Power plant","is_nuclear":false}},{"type":"Feature","geometry":{"type":"Point","coordinates":[-115.272,32.803]},"properties":{"key":"65711-7b62263a","layer":"power","name":"Vikings Energy Farm","state":"CA","detail_file":"data/details/power-plants-54.json","plant_id":"65711","capacity_mw":286.8,"status_group":"Operating","energy_sources":"MWH; SUN","type":"Power plant","is_nuclear":false}},{"type":"Feature","geometry":{"type":"Point","coordinates":[-115.617,33.163]},"properties":{"key":"50210-43418eb3","layer":"power","name":"Vulcan-BN Geothermal Power Company","state":"CA","detail_file":"data/details/power-plants-63.json","plant_id":"50210","capacity_mw":39.6,"status_group":"Operating","energy_sources":"GEO","type":"Power plant","is_nuclear":false}},{"type":"Feature","geometry":{"type":"Point","coordinates":[-115.619,32.676]},"properties":{"key":"61750-667d28d3","layer":"power","name":"Wistaria Ranch Solar","state":"CA","detail_file":"data/details/power-plants-61.json","plant_id":"61750","capacity_mw":106.7,"status_group":"Operating","energy_sources":"SUN","type":"Power plant","is_nuclear":false}},{"type":"Feature","geometry":{"type":"Point","coordinates":[-115.503,33.269]},"properties":{"key":"63487-3825c30c","layer":"power","name":"Wister Solar","state":"CA","detail_file":"data/details/power-plants-50.json","plant_id":"63487","capacity_mw":20.0,"status_group":"Operating","energy_sources":"SUN","type":"Power plant","is_nuclear":false}},{"type":"Feature","geometry":{"type":"Point","coordinates":[-114.689,35.092]},"properties":{"key":"63841-8b29097a","layer":"power","name":"Arida Solar (Hybrid)","state":"NV","detail_file":"data/details/power-plants-15.json","plant_id":"63841","capacity_mw":740.0,"status_group":"Planned","energy_sources":"MWH; SUN","type":"Power plant","is_nuclear":false}},{"type":"Feature","geometry":{"type":"Point","coordinates":[-114.983,35.879]},"properties":{"key":"65977-69e7224e","layer":"power","name":"Boulder Flats Solar","state":"NV","detail_file":"data/details/power-plants-61.json","plant_id":"65977","capacity_mw":113.0,"status_group":"Under construction","energy_sources":"SUN","type":"Power plant","is_nuclear":false}},{"type":"Feature","geometry":{"type":"Point","coordinates":[-114.944,35.85]},"properties":{"key":"60885-941236ad","layer":"power","name":"Boulder Solar II, LLC","state":"NV","detail_file":"data/details/power-plants-55.json","plant_id":"60885","capacity_mw":50.0,"status_group":"Operating","energy_sources":"SUN","type":"Power plant","is_nuclear":false}},{"type":"Feature","geometry":{"type":"Point","coordinates":[-114.964,35.839]},"properties":{"key":"65141-02bf1218","layer":"power","name":"Boulder Solar III LLC","state":"NV","detail_file":"data/details/power-plants-57.json","plant_id":"65141","capacity_mw":256.0,"status_group":"Planned","energy_sources":"MWH; SUN","type":"Power plant","is_nuclear":false}},{"type":"Feature","geometry":{"type":"Point","coordinates":[-114.97,35.834]},"properties":{"key":"60352-7306bf08","layer":"power","name":"Boulder Solar Power, LLC","state":"NV","detail_file":"data/details/power-plants-03.json","plant_id":"60352","capacity_mw":100.0,"status_group":"Operating","energy_sources":"SUN","type":"Power plant","is_nuclear":false}},{"type":"Feature","geometry":{"type":"Point","coordinates":[-114.993,35.788]},"properties":{"key":"56944-bd2b12c3","layer":"power","name":"CM10","state":"NV","detail_file":"data/details/power-plants-58.json","plant_id":"56944","capacity_mw":10.0,"status_group":"Operating","energy_sources":"SUN","type":"Power plant","is_nuclear":false}},{"type":"Feature","geometry":{"type":"Point","coordinates":[-114.993,35.781]},"properties":{"key":"57205-b164fec3","layer":"power","name":"CM48","state":"NV","detail_file":"data/details/power-plants-34.json","plant_id":"57205","capacity_mw":48.0,"status_group":"Operating","energy_sources":"SUN","type":"Power plant","is_nuclear":false}},{"type":"Feature","geometry":{"type":"Point","coordinates":[-114.963,35.786]},"properties":{"key":"58017-d8013c40","layer":"power","name":"Copper Mountain Solar 2","state":"NV","detail_file":"data/details/power-plants-12.json","plant_id":"58017","capacity_mw":154.0,"status_group":"Operating","energy_sources":"SUN","type":"Power plant","is_nuclear":false}},{"type":"Feature","geometry":{"type":"Point","coordinates":[-114.958,35.889]},"properties":{"key":"58915-549b9a95","layer":"power","name":"Copper Mountain Solar 3","state":"NV","detail_file":"data/details/power-plants-15.json","plant_id":"58915","capacity_mw":255.0,"status_group":"Operating","energy_sources":"SUN","type":"Power plant","is_nuclear":false}},{"type":"Feature","geometry":{"type":"Point","coordinates":[-114.975,35.782]},"properties":{"key":"59814-63b0919f","layer":"power","name":"Copper Mountain Solar 4, LLC","state":"NV","detail_file":"data/details/power-plants-04.json","plant_id":"59814","capacity_mw":93.6,"status_group":"Operating","energy_sources":"SUN","type":"Power plant","is_nuclear":false}},{"type":"Feature","geometry":{"type":"Point","coordinates":[-114.974,35.776]},"properties":{"key":"63504-fd0cc335","layer":"power","name":"Copper Mountain Solar 5, LLC","state":"NV","detail_file":"data/details/power-plants-22.json","plant_id":"63504","capacity_mw":252.0,"status_group":"Operating","energy_sources":"SUN","type":"Power plant","is_nuclear":false}},{"type":"Feature","geometry":{"type":"Point","coordinates":[-114.994,35.789]},"properties":{"key":"55077-0ef50071","layer":"power","name":"Desert Star Energy Center","state":"NV","detail_file":"data/details/power-plants-10.json","plant_id":"55077","capacity_mw":537.3,"status_group":"Operating","energy_sources":"NG","type":"Power plant","is_nuclear":false}},{"type":"Feature","geometry":{"type":"Point","coordinates":[-115.411,35.809]},"properties":{"key":"57684-a47e30d8","layer":"power","name":"Goodsprings Waste Heat Recovery","state":"NV","detail_file":"data/details/power-plants-53.json","plant_id":"57684","capacity_mw":7.5,"status_group":"Operating","energy_sources":"WH","type":"Power plant","is_nuclear":false}},{"type":"Feature","geometry":{"type":"Point","coordinates":[-115.356,35.614]},"properties":{"key":"55687-1f7df65b","layer":"power","name":"Higgins Generating Station","state":"NV","detail_file":"data/details/power-plants-11.json","plant_id":"55687","capacity_mw":688.4,"status_group":"Operating","energy_sources":"NG","type":"Power plant","is_nuclear":false}},{"type":"Feature","geometry":{"type":"Point","coordinates":[-115.147,35.968]},"properties":{"key":"66099-b7041642","layer":"power","name":"IGS LAS1","state":"NV","detail_file":"data/details/power-plants-19.json","plant_id":"66099","capacity_mw":1.0,"status_group":"Operating","energy_sources":"SUN","type":"Power plant","is_nuclear":false}},{"type":"Feature","geometry":{"type":"Point","coordinates":[-114.982,35.8]},"properties":{"key":"56405-ed3dc7d8","layer":"power","name":"Nevada Solar One","state":"NV","detail_file":"data/details/power-plants-00.json","plant_id":"56405","capacity_mw":75.7,"status_group":"Operating","energy_sources":"SUN","type":"Power plant","is_nuclear":false}},{"type":"Feature","geometry":{"type":"Point","coordinates":[-115.013,35.83]},"properties":{"key":"69965-dc2af6cb","layer":"power","name":"Roccasecca BESS LLC","state":"NV","detail_file":"data/details/power-plants-35.json","plant_id":"69965","capacity_mw":126.5,"status_group":"Under construction","energy_sources":"MWH","type":"Power plant","is_nuclear":false}},{"type":"Feature","geometry":{"type":"Point","coordinates":[-114.936,35.48]},"properties":{"key":"59404-235e2a01","layer":"power","name":"Searchlight Solar","state":"NV","detail_file":"data/details/power-plants-42.json","plant_id":"59404","capacity_mw":17.5,"status_group":"Operating","energy_sources":"SUN","type":"Power plant","is_nuclear":false}},{"type":"Feature","geometry":{"type":"Point","coordinates":[-114.992,35.831]},"properties":{"key":"67736-732e2c60","layer":"power","name":"Silver Peak","state":"NV","detail_file":"data/details/power-plants-43.json","plant_id":"67736","capacity_mw":279.0,"status_group":"Operating","energy_sources":"MWH","type":"Power plant","is_nuclear":false}},{"type":"Feature","geometry":{"type":"Point","coordinates":[-115.35,35.793]},"properties":{"key":"57442-d5d9ce9e","layer":"power","name":"Silver State Solar Power North","state":"NV","detail_file":"data/details/power-plants-59.json","plant_id":"57442","capacity_mw":52.0,"status_group":"Operating","energy_sources":"SUN","type":"Power plant","is_nuclear":false}},{"type":"Feature","geometry":{"type":"Point","coordinates":[-115.32,35.63]},"properties":{"key":"58644-7bde2cbf","layer":"power","name":"Silver State Solar Power South","state":"NV","detail_file":"data/details/power-plants-57.json","plant_id":"58644","capacity_mw":260.1,"status_group":"Operating","energy_sources":"SUN","type":"Power plant","is_nuclear":false}},{"type":"Feature","geometry":{"type":"Point","coordinates":[-115.344,35.633]},"properties":{"key":"67734-07bb011d","layer":"power","name":"Silver State South Storage","state":"NV","detail_file":"data/details/power-plants-37.json","plant_id":"67734","capacity_mw":200.0,"status_group":"Operating","energy_sources":"MWH","type":"Power plant","is_nuclear":false}},{"type":"Feature","geometry":{"type":"Point","coordinates":[-114.974,35.851]},"properties":{"key":"61611-18815e88","layer":"power","name":"Techren Solar I LLC","state":"NV","detail_file":"data/details/power-plants-53.json","plant_id":"61611","capacity_mw":100.0,"status_group":"Operating","energy_sources":"SUN","type":"Power plant","is_nuclear":false}},{"type":"Feature","geometry":{"type":"Point","coordinates":[-114.956,35.867]},"properties":{"key":"61930-3442c470","layer":"power","name":"Techren Solar II LLC","state":"NV","detail_file":"data/details/power-plants-56.json","plant_id":"61930","capacity_mw":200.0,"status_group":"Operating","energy_sources":"SUN","type":"Power plant","is_nuclear":false}},{"type":"Feature","geometry":{"type":"Point","coordinates":[-114.971,35.844]},"properties":{"key":"61931-daa96011","layer":"power","name":"Techren Solar III LLC","state":"NV","detail_file":"data/details/power-plants-57.json","plant_id":"61931","capacity_mw":25.0,"status_group":"Operating","energy_sources":"SUN","type":"Power plant","is_nuclear":false}},{"type":"Feature","geometry":{"type":"Point","coordinates":[-114.936,35.893]},"properties":{"key":"61932-0cee2b07","layer":"power","name":"Techren Solar IV LLC","state":"NV","detail_file":"data/details/power-plants-05.json","plant_id":"61932","capacity_mw":25.0,"status_group":"Operating","energy_sources":"SUN","type":"Power plant","is_nuclear":false}},{"type":"Feature","geometry":{"type":"Point","coordinates":[-114.926,35.9]},"properties":{"key":"62440-f682de19","layer":"power","name":"Techren Solar V","state":"NV","detail_file":"data/details/power-plants-26.json","plant_id":"62440","capacity_mw":50.0,"status_group":"Operating","energy_sources":"SUN","type":"Power plant","is_nuclear":false}},{"type":"Feature","geometry":{"type":"Point","coordinates":[-114.884,35.937]},"properties":{"key":"60654-3c421c7b","layer":"power","name":"Townsite Solar Project Hybrid","state":"NV","detail_file":"data/details/power-plants-29.json","plant_id":"60654","capacity_mw":270.0,"status_group":"Operating","energy_sources":"MWH; SUN","type":"Power plant","is_nuclear":false}}]}