{"type":"FeatureCollection","features":[{"type":"Feature","geometry":{"type":"Point","coordinates":[-103.576,37.984]},"properties":{"key":"68941-a38d1732","layer":"power","name":"BH CSG 3","state":"CO","detail_file":"data/details/power-plants-04.json","plant_id":"68941","capacity_mw":1.5,"status_group":"Operating","energy_sources":"SUN","type":"Power plant","is_nuclear":false}},{"type":"Feature","geometry":{"type":"Point","coordinates":[-102.97,39.184]},"properties":{"key":"66014-b88a1744","layer":"power","name":"Bronco Plains Wind II, LLC","state":"CO","detail_file":"data/details/power-plants-47.json","plant_id":"66014","capacity_mw":200.0,"status_group":"Operating","energy_sources":"WND","type":"Power plant","is_nuclear":false}},{"type":"Feature","geometry":{"type":"Point","coordinates":[-103.025,39.089]},"properties":{"key":"63803-f901861c","layer":"power","name":"Bronco Plains Wind, LLC","state":"CO","detail_file":"data/details/power-plants-48.json","plant_id":"63803","capacity_mw":300.0,"status_group":"Operating","energy_sources":"WND","type":"Power plant","is_nuclear":false}},{"type":"Feature","geometry":{"type":"Point","coordinates":[-102.243,39.356]},"properties":{"key":"6619-14704db1","layer":"power","name":"Burlington (CO)","state":"CO","detail_file":"data/details/power-plants-32.json","plant_id":"6619","capacity_mw":129.4,"status_group":"Operating","energy_sources":"DFO","type":"Power plant","is_nuclear":false}},{"type":"Feature","geometry":{"type":"Point","coordinates":[-102.173,39.334]},"properties":{"key":"59975-fec297d8","layer":"power","name":"Carousel Wind Farm LLC","state":"CO","detail_file":"data/details/power-plants-50.json","plant_id":"59975","capacity_mw":150.0,"status_group":"Operating","energy_sources":"WND","type":"Power plant","is_nuclear":false}},{"type":"Feature","geometry":{"type":"Point","coordinates":[-103.678,39.422]},"properties":{"key":"57315-0267f716","layer":"power","name":"Cedar Point Wind","state":"CO","detail_file":"data/details/power-plants-03.json","plant_id":"57315","capacity_mw":252.0,"status_group":"Operating","energy_sources":"WND","type":"Power plant","is_nuclear":false}},{"type":"Feature","geometry":{"type":"Point","coordinates":[-102.359,38.998]},"properties":{"key":"69873-4e92884b","layer":"power","name":"Cheyenne Ridge II","state":"CO","detail_file":"data/details/power-plants-32.json","plant_id":"69873","capacity_mw":438.0,"status_group":"Under construction","energy_sources":"WND","type":"Power plant","is_nuclear":false}},{"type":"Feature","geometry":{"type":"Point","coordinates":[-102.211,39.017]},"properties":{"key":"62952-04b60e76","layer":"power","name":"Cheyenne Ridge Wind Farm","state":"CO","detail_file":"data/details/power-plants-50.json","plant_id":"62952","capacity_mw":498.4,"status_group":"Operating","energy_sources":"WND","type":"Power plant","is_nuclear":false}},{"type":"Feature","geometry":{"type":"Point","coordinates":[-102.623,37.703]},"properties":{"key":"56173-9b0687f5","layer":"power","name":"Colorado Green Holdings LLC","state":"CO","detail_file":"data/details/power-plants-34.json","plant_id":"56173","capacity_mw":162.0,"status_group":"Operating","energy_sources":"WND","type":"Power plant","is_nuclear":false}},{"type":"Feature","geometry":{"type":"Point","coordinates":[-102.822,39.047]},"properties":{"key":"62489-2342e320","layer":"power","name":"Crossing Trails Wind Power Project LLC.","state":"CO","detail_file":"data/details/power-plants-21.json","plant_id":"62489","capacity_mw":104.0,"status_group":"Operating","energy_sources":"WND","type":"Power plant","is_nuclear":false}},{"type":"Feature","geometry":{"type":"Point","coordinates":[-103.286,38.402]},"properties":{"key":"69643-0e4e889a","layer":"power","name":"Deep Space Solar","state":"CO","detail_file":"data/details/power-plants-39.json","plant_id":"69643","capacity_mw":300.0,"status_group":"Planned","energy_sources":"SUN","type":"Power plant","is_nuclear":false}},{"type":"Feature","geometry":{"type":"Point","coordinates":[-102.494,39.0]},"properties":{"key":"70137-ef2ee5dd","layer":"power","name":"Dry Land Prairie Energy Storage","state":"CO","detail_file":"data/details/power-plants-38.json","plant_id":"70137","capacity_mw":250.0,"status_group":"Under construction","energy_sources":"MWH","type":"Power plant","is_nuclear":false}},{"type":"Feature","geometry":{"type":"Point","coordinates":[-102.542,39.128]},"properties":{"key":"69893-fab5ba80","layer":"power","name":"Dusty Rose Wind","state":"CO","detail_file":"data/details/power-plants-08.json","plant_id":"69893","capacity_mw":502.0,"status_group":"Operating","energy_sources":"WND","type":"Power plant","is_nuclear":false}},{"type":"Feature","geometry":{"type":"Point","coordinates":[-103.133,38.081]},"properties":{"key":"70115-1e6485dc","layer":"power","name":"Fort Lyon Solar","state":"CO","detail_file":"data/details/power-plants-59.json","plant_id":"70115","capacity_mw":1.8,"status_group":"Under construction","energy_sources":"SUN","type":"Power plant","is_nuclear":false}},{"type":"Feature","geometry":{"type":"Point","coordinates":[-102.074,38.033]},"properties":{"key":"502-956d5a62","layer":"power","name":"Holly","state":"CO","detail_file":"data/details/power-plants-04.json","plant_id":"502","capacity_mw":2.9,"status_group":"Operating","energy_sources":"DFO","type":"Power plant","is_nuclear":false}},{"type":"Feature","geometry":{"type":"Point","coordinates":[-102.353,39.338]},"properties":{"key":"57244-748225a7","layer":"power","name":"Kit Carson Windpower","state":"CO","detail_file":"data/details/power-plants-56.json","plant_id":"57244","capacity_mw":51.0,"status_group":"Operating","energy_sources":"WND","type":"Power plant","is_nuclear":false}},{"type":"Feature","geometry":{"type":"Point","coordinates":[-103.524,38.038]},"properties":{"key":"70116-80b56551","layer":"power","name":"La Junta Solar","state":"CO","detail_file":"data/details/power-plants-41.json","plant_id":"70116","capacity_mw":4.8,"status_group":"Under construction","energy_sources":"SUN","type":"Power plant","is_nuclear":false}},{"type":"Feature","geometry":{"type":"Point","coordinates":[-102.538,38.033]},"properties":{"key":"508-572dc13d","layer":"power","name":"Lamar Plant","state":"CO","detail_file":"data/details/power-plants-53.json","plant_id":"508","capacity_mw":8.0,"status_group":"Operating","energy_sources":"DFO; WND","type":"Power plant","is_nuclear":false}},{"type":"Feature","geometry":{"type":"Point","coordinates":[-102.592,38.043]},"properties":{"key":"70117-d1289694","layer":"power","name":"Lamar Solar","state":"CO","detail_file":"data/details/power-plants-49.json","plant_id":"70117","capacity_mw":4.8,"status_group":"Under construction","energy_sources":"SUN","type":"Power plant","is_nuclear":false}},{"type":"Feature","geometry":{"type":"Point","coordinates":[-103.216,38.065]},"properties":{"key":"507-d8865067","layer":"power","name":"Las Animas","state":"CO","detail_file":"data/details/power-plants-05.json","plant_id":"507","capacity_mw":5.6,"status_group":"Operating","energy_sources":"DFO","type":"Power plant","is_nuclear":false}},{"type":"Feature","geometry":{"type":"Point","coordinates":[-103.701,39.204]},"properties":{"key":"55504-b4fd507b","layer":"power","name":"Limon Generating Station","state":"CO","detail_file":"data/details/power-plants-30.json","plant_id":"55504","capacity_mw":154.2,"status_group":"Operating","energy_sources":"NG","type":"Power plant","is_nuclear":false}},{"type":"Feature","geometry":{"type":"Point","coordinates":[-103.474,39.353]},"properties":{"key":"59083-be332875","layer":"power","name":"Limon III Wind LLC","state":"CO","detail_file":"data/details/power-plants-33.json","plant_id":"59083","capacity_mw":200.6,"status_group":"Operating","energy_sources":"WND","type":"Power plant","is_nuclear":false}},{"type":"Feature","geometry":{"type":"Point","coordinates":[-103.573,39.381]},"properties":{"key":"58126-379f95ed","layer":"power","name":"Limon Wind I","state":"CO","detail_file":"data/details/power-plants-45.json","plant_id":"58126","capacity_mw":200.0,"status_group":"Operating","energy_sources":"WND","type":"Power plant","is_nuclear":false}},{"type":"Feature","geometry":{"type":"Point","coordinates":[-103.581,39.341]},"properties":{"key":"58127-fe0ae716","layer":"power","name":"Limon Wind II","state":"CO","detail_file":"data/details/power-plants-17.json","plant_id":"58127","capacity_mw":200.0,"status_group":"Operating","energy_sources":"WND","type":"Power plant","is_nuclear":false}},{"type":"Feature","geometry":{"type":"Point","coordinates":[-103.747,38.209]},"properties":{"key":"64355-f3c99406","layer":"power","name":"NSE Camber BH CSG 2, LLC","state":"CO","detail_file":"data/details/power-plants-07.json","plant_id":"64355","capacity_mw":2.0,"status_group":"Operating","energy_sources":"SUN","type":"Power plant","is_nuclear":false}},{"type":"Feature","geometry":{"type":"Point","coordinates":[-103.714,38.049]},"properties":{"key":"6516-d23cf7c7","layer":"power","name":"Rocky Ford","state":"CO","detail_file":"data/details/power-plants-18.json","plant_id":"6516","capacity_mw":10.0,"status_group":"Operating","energy_sources":"DFO","type":"Power plant","is_nuclear":false}},{"type":"Feature","geometry":{"type":"Point","coordinates":[-103.845,39.172]},"properties":{"key":"60619-b7666bd9","layer":"power","name":"Rush Creek Wind","state":"CO","detail_file":"data/details/power-plants-19.json","plant_id":"60619","capacity_mw":600.0,"status_group":"Operating","energy_sources":"WND","type":"Power plant","is_nuclear":false}},{"type":"Feature","geometry":{"type":"Point","coordinates":[-102.858,39.201]},"properties":{"key":"68982-d4ae4288","layer":"power","name":"Singing Grass Wind","state":"CO","detail_file":"data/details/power-plants-04.json","plant_id":"68982","capacity_mw":603.0,"status_group":"Under construction","energy_sources":"WND","type":"Power plant","is_nuclear":false}},{"type":"Feature","geometry":{"type":"Point","coordinates":[-102.622,37.403]},"properties":{"key":"8100-7083d666","layer":"power","name":"Springfield (CO)","state":"CO","detail_file":"data/details/power-plants-07.json","plant_id":"8100","capacity_mw":2.7,"status_group":"Operating","energy_sources":"DFO","type":"Power plant","is_nuclear":false}},{"type":"Feature","geometry":{"type":"Point","coordinates":[-102.393,37.214]},"properties":{"key":"67160-6c0970a5","layer":"power","name":"Springfield Wind","state":"CO","detail_file":"data/details/power-plants-02.json","plant_id":"67160","capacity_mw":1.5,"status_group":"Operating","energy_sources":"WND","type":"Power plant","is_nuclear":false}},{"type":"Feature","geometry":{"type":"Point","coordinates":[-102.546,37.773]},"properties":{"key":"61040-506487e3","layer":"power","name":"Twin Buttes II Wind","state":"CO","detail_file":"data/details/power-plants-44.json","plant_id":"61040","capacity_mw":75.0,"status_group":"Operating","energy_sources":"WND","type":"Power plant","is_nuclear":false}},{"type":"Feature","geometry":{"type":"Point","coordinates":[-102.862,37.673]},"properties":{"key":"56460-0edf5538","layer":"power","name":"Twin Buttes Wind Project","state":"CO","detail_file":"data/details/power-plants-20.json","plant_id":"56460","capacity_mw":75.0,"status_group":"Operating","energy_sources":"WND","type":"Power plant","is_nuclear":false}},{"type":"Feature","geometry":{"type":"Point","coordinates":[-102.466,37.384]},"properties":{"key":"61606-7cc1aa8b","layer":"power","name":"Vilas Solar Array","state":"CO","detail_file":"data/details/power-plants-30.json","plant_id":"61606","capacity_mw":4.0,"status_group":"Operating","energy_sources":"SUN","type":"Power plant","is_nuclear":false}},{"type":"Feature","geometry":{"type":"Point","coordinates":[-100.804,37.111]},"properties":{"key":"58192-68b0815e","layer":"power","name":"Arkalon Ethanol LLC","state":"KS","detail_file":"data/details/power-plants-40.json","plant_id":"58192","capacity_mw":3.0,"status_group":"Operating","energy_sources":"NG","type":"Power plant","is_nuclear":false}},{"type":"Feature","geometry":{"type":"Point","coordinates":[-101.532,39.758]},"properties":{"key":"1224-14fc9012","layer":"power","name":"Bird City","state":"KS","detail_file":"data/details/power-plants-55.json","plant_id":"1224","capacity_mw":4.0,"status_group":"Operating","energy_sources":"DFO","type":"Power plant","is_nuclear":false}},{"type":"Feature","geometry":{"type":"Point","coordinates":[-100.836,37.959]},"properties":{"key":"58193-367753ff","layer":"power","name":"Bonanza BioEnergy LLC","state":"KS","detail_file":"data/details/power-plants-07.json","plant_id":"58193","capacity_mw":2.0,"status_group":"Operating","energy_sources":"NG","type":"Power plant","is_nuclear":false}},{"type":"Feature","geometry":{"type":"Point","coordinates":[-101.076,37.621]},"properties":{"key":"58474-aa3fde9e","layer":"power","name":"Buffalo Dunes Wind Project","state":"KS","detail_file":"data/details/power-plants-24.json","plant_id":"58474","capacity_mw":249.8,"status_group":"Operating","energy_sources":"WND","type":"Power plant","is_nuclear":false}},{"type":"Feature","geometry":{"type":"Point","coordinates":[-101.162,38.503]},"properties":{"key":"56818-49598f48","layer":"power","name":"Central Plains Wind Farm","state":"KS","detail_file":"data/details/power-plants-20.json","plant_id":"56818","capacity_mw":99.0,"status_group":"Operating","energy_sources":"WND","type":"Power plant","is_nuclear":false}},{"type":"Feature","geometry":{"type":"Point","coordinates":[-100.762,37.161]},"properties":{"key":"1230-3081a9ab","layer":"power","name":"Cimarron River","state":"KS","detail_file":"data/details/power-plants-19.json","plant_id":"1230","capacity_mw":65.0,"status_group":"Operating","energy_sources":"NG","type":"Power plant","is_nuclear":false}},{"type":"Feature","geometry":{"type":"Point","coordinates":[-100.28,37.874]},"properties":{"key":"57762-e3eb2d94","layer":"power","name":"Cimarron Wind Energy LLC","state":"KS","detail_file":"data/details/power-plants-52.json","plant_id":"57762","capacity_mw":165.6,"status_group":"Operating","energy_sources":"WND","type":"Power plant","is_nuclear":false}},{"type":"Feature","geometry":{"type":"Point","coordinates":[-100.372,37.901]},"properties":{"key":"57663-0b016572","layer":"power","name":"Cimarron Windpower II","state":"KS","detail_file":"data/details/power-plants-51.json","plant_id":"57663","capacity_mw":131.0,"status_group":"Operating","energy_sources":"WND","type":"Power plant","is_nuclear":false}},{"type":"Feature","geometry":{"type":"Point","coordinates":[-101.038,39.403]},"properties":{"key":"1225-0772f543","layer":"power","name":"Colby","state":"KS","detail_file":"data/details/power-plants-40.json","plant_id":"1225","capacity_mw":16.0,"status_group":"Operating","energy_sources":"NG","type":"Power plant","is_nuclear":false}},{"type":"Feature","geometry":{"type":"Point","coordinates":[-101.058,39.394]},"properties":{"key":"1272-a5d0c97b","layer":"power","name":"Colby City of","state":"KS","detail_file":"data/details/power-plants-19.json","plant_id":"1272","capacity_mw":20.7,"status_group":"Operating","energy_sources":"DFO","type":"Power plant","is_nuclear":false}},{"type":"Feature","geometry":{"type":"Point","coordinates":[-101.074,39.306]},"properties":{"key":"62220-1e36e37f","layer":"power","name":"East Fork Wind Project, LLC","state":"KS","detail_file":"data/details/power-plants-32.json","plant_id":"62220","capacity_mw":195.8,"status_group":"Operating","energy_sources":"WND","type":"Power plant","is_nuclear":false}},{"type":"Feature","geometry":{"type":"Point","coordinates":[-100.279,37.614]},"properties":{"key":"58137-ba29a2d3","layer":"power","name":"Ensign Wind LLC","state":"KS","detail_file":"data/details/power-plants-14.json","plant_id":"58137","capacity_mw":98.9,"status_group":"Operating","energy_sources":"WND","type":"Power plant","is_nuclear":false}},{"type":"Feature","geometry":{"type":"Point","coordinates":[-100.896,37.97]},"properties":{"key":"1336-ae83302b","layer":"power","name":"Garden City","state":"KS","detail_file":"data/details/power-plants-48.json","plant_id":"1336","capacity_mw":256.3,"status_group":"Operating","energy_sources":"NG","type":"Power plant","is_nuclear":false}},{"type":"Feature","geometry":{"type":"Point","coordinates":[-101.705,39.342]},"properties":{"key":"1280-e9af6b95","layer":"power","name":"Goodland","state":"KS","detail_file":"data/details/power-plants-16.json","plant_id":"1280","capacity_mw":18.7,"status_group":"Operating","energy_sources":"DFO; NG","type":"Power plant","is_nuclear":false}},{"type":"Feature","geometry":{"type":"Point","coordinates":[-100.378,37.613]},"properties":{"key":"55734-2b259c3d","layer":"power","name":"Gray County Wind Energy","state":"KS","detail_file":"data/details/power-plants-56.json","plant_id":"55734","capacity_mw":112.2,"status_group":"Operating","energy_sources":"WND","type":"Power plant","is_nuclear":false}},{"type":"Feature","geometry":{"type":"Point","coordinates":[-100.972,37.931]},"properties":{"key":"108-3349c145","layer":"power","name":"Holcomb","state":"KS","detail_file":"data/details/power-plants-14.json","plant_id":"108","capacity_mw":348.7,"status_group":"Operating","energy_sources":"SUB","type":"Power plant","is_nuclear":false}},{"type":"Feature","geometry":{"type":"Point","coordinates":[-101.34,37.164]},"properties":{"key":"7011-133cfc12","layer":"power","name":"Hugoton 2","state":"KS","detail_file":"data/details/power-plants-41.json","plant_id":"7011","capacity_mw":19.2,"status_group":"Operating","energy_sources":"DFO; NG","type":"Power plant","is_nuclear":false}},{"type":"Feature","geometry":{"type":"Point","coordinates":[-100.831,37.955]},"properties":{"key":"59045-0a65d6ed","layer":"power","name":"Jameson Energy Center","state":"KS","detail_file":"data/details/power-plants-01.json","plant_id":"59045","capacity_mw":27.6,"status_group":"Operating","energy_sources":"NG","type":"Power plant","is_nuclear":false}},{"type":"Feature","geometry":{"type":"Point","coordinates":[-101.751,37.567]},"properties":{"key":"6579-c4129df8","layer":"power","name":"Johnson","state":"KS","detail_file":"data/details/power-plants-23.json","plant_id":"6579","capacity_mw":6.0,"status_group":"Operating","energy_sources":"DFO","type":"Power plant","is_nuclear":false}},{"type":"Feature","geometry":{"type":"Point","coordinates":[-101.799,37.547]},"properties":{"key":"62993-3f98cd88","layer":"power","name":"Johnson Corner Solar 1","state":"KS","detail_file":"data/details/power-plants-05.json","plant_id":"62993","capacity_mw":20.0,"status_group":"Operating","energy_sources":"SUN","type":"Power plant","is_nuclear":false}},{"type":"Feature","geometry":{"type":"Point","coordinates":[-100.332,37.285]},"properties":{"key":"1306-2b86a1ca","layer":"power","name":"Meade","state":"KS","detail_file":"data/details/power-plants-45.json","plant_id":"1306","capacity_mw":8.2,"status_group":"Operating","energy_sources":"NG","type":"Power plant","is_nuclear":false}},{"type":"Feature","geometry":{"type":"Point","coordinates":[-101.039,39.407]},"properties":{"key":"59632-73821a89","layer":"power","name":"Midwest Energy Community Solar Array","state":"KS","detail_file":"data/details/power-plants-46.json","plant_id":"59632","capacity_mw":1.0,"status_group":"Operating","energy_sources":"SUN","type":"Power plant","is_nuclear":false}},{"type":"Feature","geometry":{"type":"Point","coordinates":[-100.529,39.822]},"properties":{"key":"1312-a91d1db9","layer":"power","name":"Oberlin (KS)","state":"KS","detail_file":"data/details/power-plants-45.json","plant_id":"1312","capacity_mw":6.0,"status_group":"Operating","energy_sources":"DFO","type":"Power plant","is_nuclear":false}},{"type":"Feature","geometry":{"type":"Point","coordinates":[-101.099,37.559]},"properties":{"key":"58255-aebdf918","layer":"power","name":"Rubart","state":"KS","detail_file":"data/details/power-plants-48.json","plant_id":"58255","capacity_mw":120.0,"status_group":"Operating","energy_sources":"NG","type":"Power plant","is_nuclear":false}},{"type":"Feature","geometry":{"type":"Point","coordinates":[-101.751,38.891]},"properties":{"key":"1324-23ddd837","layer":"power","name":"Sharon Spring","state":"KS","detail_file":"data/details/power-plants-54.json","plant_id":"1324","capacity_mw":3.0,"status_group":"Operating","energy_sources":"NG","type":"Power plant","is_nuclear":false}},{"type":"Feature","geometry":{"type":"Point","coordinates":[-101.074,39.306]},"properties":{"key":"61984-1fe3db41","layer":"power","name":"Solomon Forks Wind Project, LLC","state":"KS","detail_file":"data/details/power-plants-57.json","plant_id":"61984","capacity_mw":275.6,"status_group":"Operating","energy_sources":"WND","type":"Power plant","is_nuclear":false}},{"type":"Feature","geometry":{"type":"Point","coordinates":[-101.81,39.771]},"properties":{"key":"1321-a1d9060d","layer":"power","name":"St Francis","state":"KS","detail_file":"data/details/power-plants-24.json","plant_id":"1321","capacity_mw":5.1,"status_group":"Operating","energy_sources":"DFO","type":"Power plant","is_nuclear":false}},{"type":"Feature","geometry":{"type":"Point","coordinates":[-100.733,39.122]},"properties":{"key":"65484-f9bee56e","layer":"power","name":"Western Plains Wind","state":"KS","detail_file":"data/details/power-plants-54.json","plant_id":"65484","capacity_mw":2.7,"status_group":"Operating","energy_sources":"WND","type":"Power plant","is_nuclear":false}},{"type":"Feature","geometry":{"type":"Point","coordinates":[-103.849,36.58]},"properties":{"key":"59047-2f34e863","layer":"power","name":"Gallegos Wind Farm, Phase 1","state":"NM","detail_file":"data/details/power-plants-34.json","plant_id":"59047","capacity_mw":190.0,"status_group":"Planned","energy_sources":"WND","type":"Power plant","is_nuclear":false}},{"type":"Feature","geometry":{"type":"Point","coordinates":[-100.847,36.518]},"properties":{"key":"58900-fa5e3351","layer":"power","name":"Balko Wind LLC","state":"OK","detail_file":"data/details/power-plants-15.json","plant_id":"58900","capacity_mw":299.7,"status_group":"Operating","energy_sources":"WND","type":"Power plant","is_nuclear":false}},{"type":"Feature","geometry":{"type":"Point","coordinates":[-100.588,36.552]},"properties":{"key":"60256-3ece58d5","layer":"power","name":"Bluestem","state":"OK","detail_file":"data/details/power-plants-14.json","plant_id":"60256","capacity_mw":198.0,"status_group":"Operating","energy_sources":"WND","type":"Power plant","is_nuclear":false}},{"type":"Feature","geometry":{"type":"Point","coordinates":[-101.566,36.541]},"properties":{"key":"58998-c2b9b056","layer":"power","name":"Goodwell Wind Project LLC","state":"OK","detail_file":"data/details/power-plants-54.json","plant_id":"58998","capacity_mw":200.0,"status_group":"Operating","energy_sources":"WND","type":"Power plant","is_nuclear":false}},{"type":"Feature","geometry":{"type":"Point","coordinates":[-101.474,36.609]},"properties":{"key":"69969-57f0dc43","layer":"power","name":"Panhandle Solar","state":"OK","detail_file":"data/details/power-plants-37.json","plant_id":"69969","capacity_mw":102.0,"status_group":"Under construction","energy_sources":"SUN","type":"Power plant","is_nuclear":false}},{"type":"Feature","geometry":{"type":"Point","coordinates":[-100.669,36.556]},"properties":{"key":"63590-a23a1643","layer":"power","name":"Ponderosa Wind Energy Center","state":"OK","detail_file":"data/details/power-plants-14.json","plant_id":"63590","capacity_mw":200.0,"status_group":"Operating","energy_sources":"WND","type":"Power plant","is_nuclear":false}},{"type":"Feature","geometry":{"type":"Point","coordinates":[-100.804,36.589]},"properties":{"key":"66155-ca8477d9","layer":"power","name":"Ponderosa Wind II","state":"OK","detail_file":"data/details/power-plants-57.json","plant_id":"66155","capacity_mw":100.0,"status_group":"Operating","energy_sources":"WND","type":"Power plant","is_nuclear":false}},{"type":"Feature","geometry":{"type":"Point","coordinates":[-101.194,36.864]},"properties":{"key":"68725-c1f0782e","layer":"power","name":"Tri County - TenK","state":"OK","detail_file":"data/details/power-plants-55.json","plant_id":"68725","capacity_mw":1.0,"status_group":"Operating","energy_sources":"SUN","type":"Power plant","is_nuclear":false}},{"type":"Feature","geometry":{"type":"Point","coordinates":[-101.861,36.008]},"properties":{"key":"56838-9b415d01","layer":"power","name":"Brisket Wind (8) LLC","state":"TX","detail_file":"data/details/power-plants-03.json","plant_id":"56838","capacity_mw":10.0,"status_group":"Operating","energy_sources":"WND","type":"Power plant","is_nuclear":false}},{"type":"Feature","geometry":{"type":"Point","coordinates":[-101.876,36.445]},"properties":{"key":"56561-aff303dd","layer":"power","name":"Filet Wind (5) LLC","state":"TX","detail_file":"data/details/power-plants-31.json","plant_id":"56561","capacity_mw":10.0,"status_group":"Operating","energy_sources":"WND","type":"Power plant","is_nuclear":false}},{"type":"Feature","geometry":{"type":"Point","coordinates":[-101.9,36.026]},"properties":{"key":"56839-bc0c440a","layer":"power","name":"Flat Iron Wind (7) LLC","state":"TX","detail_file":"data/details/power-plants-60.json","plant_id":"56839","capacity_mw":10.0,"status_group":"Operating","energy_sources":"WND","type":"Power plant","is_nuclear":false}},{"type":"Feature","geometry":{"type":"Point","coordinates":[-101.392,36.496]},"properties":{"key":"56905-33ca4c72","layer":"power","name":"Great Plains Windpark LLC","state":"TX","detail_file":"data/details/power-plants-55.json","plant_id":"56905","capacity_mw":114.0,"status_group":"Operating","energy_sources":"WND","type":"Power plant","is_nuclear":false}},{"type":"Feature","geometry":{"type":"Point","coordinates":[-101.532,36.307]},"properties":{"key":"64665-ff6053c8","layer":"power","name":"Great Prairie Wind","state":"TX","detail_file":"data/details/power-plants-32.json","plant_id":"64665","capacity_mw":1027.0,"status_group":"Operating","energy_sources":"WND","type":"Power plant","is_nuclear":false}},{"type":"Feature","geometry":{"type":"Point","coordinates":[-101.01,36.411]},"properties":{"key":"70199-8271e87c","layer":"power","name":"Palo Duro Energy Storage","state":"TX","detail_file":"data/details/power-plants-10.json","plant_id":"70199","capacity_mw":150.0,"status_group":"Planned","energy_sources":"MWH","type":"Power plant","is_nuclear":false}},{"type":"Feature","geometry":{"type":"Point","coordinates":[-101.001,36.244]},"properties":{"key":"59475-c301e4cb","layer":"power","name":"Palo Duro Wind","state":"TX","detail_file":"data/details/power-plants-13.json","plant_id":"59475","capacity_mw":282.3,"status_group":"Operating","energy_sources":"WND","type":"Power plant","is_nuclear":false}},{"type":"Feature","geometry":{"type":"Point","coordinates":[-101.386,36.414]},"properties":{"key":"56560-f5b437b5","layer":"power","name":"Porterhouse Wind (4) LLC","state":"TX","detail_file":"data/details/power-plants-52.json","plant_id":"56560","capacity_mw":79.8,"status_group":"Operating","energy_sources":"WND","type":"Power plant","is_nuclear":false}},{"type":"Feature","geometry":{"type":"Point","coordinates":[-101.822,36.467]},"properties":{"key":"56562-16838a7a","layer":"power","name":"Tenderloin Wind (6) LLC","state":"TX","detail_file":"data/details/power-plants-40.json","plant_id":"56562","capacity_mw":10.0,"status_group":"Operating","energy_sources":"WND","type":"Power plant","is_nuclear":false}}]}