{"type":"FeatureCollection","features":[{"type":"Feature","geometry":{"type":"Point","coordinates":[-69.986,44.665]},"properties":{"key":"67032-cda7c483","layer":"power","name":"15 Glen Harris RD","state":"ME","detail_file":"data/details/power-plants-13.json","plant_id":"67032","capacity_mw":3.6,"status_group":"Operating","energy_sources":"SUN","type":"Power plant","is_nuclear":false}},{"type":"Feature","geometry":{"type":"Point","coordinates":[-68.571,47.278]},"properties":{"key":"66136-fc708a9c","layer":"power","name":"AES Daigle Solar, LLC","state":"ME","detail_file":"data/details/power-plants-23.json","plant_id":"66136","capacity_mw":5.0,"status_group":"Operating","energy_sources":"SUN","type":"Power plant","is_nuclear":false}},{"type":"Feature","geometry":{"type":"Point","coordinates":[-68.618,47.236]},"properties":{"key":"66135-8e5a3517","layer":"power","name":"AES Pelletier Solar, LLC","state":"ME","detail_file":"data/details/power-plants-17.json","plant_id":"66135","capacity_mw":4.0,"status_group":"Operating","energy_sources":"SUN","type":"Power plant","is_nuclear":false}},{"type":"Feature","geometry":{"type":"Point","coordinates":[-69.887,44.797]},"properties":{"key":"10186-38b7059c","layer":"power","name":"Anson Abenaki Hydros","state":"ME","detail_file":"data/details/power-plants-13.json","plant_id":"10186","capacity_mw":29.0,"status_group":"Operating","energy_sources":"WAT","type":"Power plant","is_nuclear":false}},{"type":"Feature","geometry":{"type":"Point","coordinates":[-70.527,44.946]},"properties":{"key":"66043-ee12c39e","layer":"power","name":"Arctaris Saddleback Solar","state":"ME","detail_file":"data/details/power-plants-19.json","plant_id":"66043","capacity_mw":4.9,"status_group":"Operating","energy_sources":"SUN","type":"Power plant","is_nuclear":false}},{"type":"Feature","geometry":{"type":"Point","coordinates":[-69.652,44.949]},"properties":{"key":"67286-159cbe71","layer":"power","name":"Athens AT01","state":"ME","detail_file":"data/details/power-plants-26.json","plant_id":"67286","capacity_mw":5.0,"status_group":"Operating","energy_sources":"SUN","type":"Power plant","is_nuclear":false}},{"type":"Feature","geometry":{"type":"Point","coordinates":[-69.661,44.946]},"properties":{"key":"60457-44b9acc0","layer":"power","name":"Athens Energy","state":"ME","detail_file":"data/details/power-plants-32.json","plant_id":"60457","capacity_mw":8.5,"status_group":"Operating","energy_sources":"WDS","type":"Power plant","is_nuclear":false}},{"type":"Feature","geometry":{"type":"Point","coordinates":[-69.671,44.918]},"properties":{"key":"66832-400503e0","layer":"power","name":"Athens Ridge","state":"ME","detail_file":"data/details/power-plants-31.json","plant_id":"66832","capacity_mw":2.9,"status_group":"Operating","energy_sources":"SUN","type":"Power plant","is_nuclear":false}},{"type":"Feature","geometry":{"type":"Point","coordinates":[-70.3,44.05]},"properties":{"key":"64067-0b2f6bce","layer":"power","name":"Auburn PV - BD Solar Auburn LLC","state":"ME","detail_file":"data/details/power-plants-25.json","plant_id":"64067","capacity_mw":5.0,"status_group":"Under construction","energy_sources":"SUN","type":"Power plant","is_nuclear":false}},{"type":"Feature","geometry":{"type":"Point","coordinates":[-69.796,44.361]},"properties":{"key":"65533-c6a608cc","layer":"power","name":"Augusta","state":"ME","detail_file":"data/details/power-plants-60.json","plant_id":"65533","capacity_mw":2.5,"status_group":"Operating","energy_sources":"SUN","type":"Power plant","is_nuclear":false}},{"type":"Feature","geometry":{"type":"Point","coordinates":[-69.731,44.328]},"properties":{"key":"63895-29808d44","layer":"power","name":"Augusta PV - BD Solar Augusta LLC","state":"ME","detail_file":"data/details/power-plants-15.json","plant_id":"63895","capacity_mw":7.2,"status_group":"Operating","energy_sources":"SUN","type":"Power plant","is_nuclear":false}},{"type":"Feature","geometry":{"type":"Point","coordinates":[-69.95,44.012]},"properties":{"key":"67920-f44ddf0d","layer":"power","name":"Augusta Road Bowdoin Solar, LLC","state":"ME","detail_file":"data/details/power-plants-35.json","plant_id":"67920","capacity_mw":3.8,"status_group":"Operating","energy_sources":"SUN","type":"Power plant","is_nuclear":false}},{"type":"Feature","geometry":{"type":"Point","coordinates":[-70.998,44.944]},"properties":{"key":"50999-fd82538e","layer":"power","name":"Aziscohos Hydroelectric Project","state":"ME","detail_file":"data/details/power-plants-04.json","plant_id":"50999","capacity_mw":6.7,"status_group":"Operating","energy_sources":"WAT","type":"Power plant","is_nuclear":false}},{"type":"Feature","geometry":{"type":"Point","coordinates":[-68.379,44.535]},"properties":{"key":"64070-18846f16","layer":"power","name":"BD Solar Ellsworth LLC","state":"ME","detail_file":"data/details/power-plants-51.json","plant_id":"64070","capacity_mw":7.0,"status_group":"Operating","energy_sources":"SUN","type":"Power plant","is_nuclear":false}},{"type":"Feature","geometry":{"type":"Point","coordinates":[-68.355,44.536]},"properties":{"key":"64068-6dabeaa7","layer":"power","name":"BD Solar Hancock LLC","state":"ME","detail_file":"data/details/power-plants-59.json","plant_id":"64068","capacity_mw":7.0,"status_group":"Operating","energy_sources":"SUN","type":"Power plant","is_nuclear":false}},{"type":"Feature","geometry":{"type":"Point","coordinates":[-68.339,46.531]},"properties":{"key":"67427-b82e0481","layer":"power","name":"BNRG Masardis (CSG)","state":"ME","detail_file":"data/details/power-plants-11.json","plant_id":"67427","capacity_mw":5.0,"status_group":"Operating","energy_sources":"SUN","type":"Power plant","is_nuclear":false}},{"type":"Feature","geometry":{"type":"Point","coordinates":[-69.811,44.716]},"properties":{"key":"67429-d5a820e3","layer":"power","name":"BNRG Norridgewock (CSG)","state":"ME","detail_file":"data/details/power-plants-31.json","plant_id":"67429","capacity_mw":2.0,"status_group":"Operating","energy_sources":"SUN","type":"Power plant","is_nuclear":false}},{"type":"Feature","geometry":{"type":"Point","coordinates":[-69.917,44.852]},"properties":{"key":"67431-bba59bbf","layer":"power","name":"BNRG North Anson (CSG)","state":"ME","detail_file":"data/details/power-plants-12.json","plant_id":"67431","capacity_mw":2.0,"status_group":"Operating","energy_sources":"SUN","type":"Power plant","is_nuclear":false}},{"type":"Feature","geometry":{"type":"Point","coordinates":[-68.509,44.621]},"properties":{"key":"67428-e5849fd9","layer":"power","name":"BRNG Nicolin (CSG)","state":"ME","detail_file":"data/details/power-plants-43.json","plant_id":"67428","capacity_mw":3.3,"status_group":"Operating","energy_sources":"SUN","type":"Power plant","is_nuclear":false}},{"type":"Feature","geometry":{"type":"Point","coordinates":[-68.845,44.751]},"properties":{"key":"67902-49a51686","layer":"power","name":"BWC Jimmie Pond","state":"ME","detail_file":"data/details/power-plants-53.json","plant_id":"67902","capacity_mw":5.0,"status_group":"Operating","energy_sources":"SUN","type":"Power plant","is_nuclear":false}},{"type":"Feature","geometry":{"type":"Point","coordinates":[-69.123,44.174]},"properties":{"key":"65370-b8076319","layer":"power","name":"BWC Maces Pond LLC","state":"ME","detail_file":"data/details/power-plants-37.json","plant_id":"65370","capacity_mw":3.5,"status_group":"Operating","energy_sources":"SUN","type":"Power plant","is_nuclear":false}},{"type":"Feature","geometry":{"type":"Point","coordinates":[-69.551,44.587]},"properties":{"key":"66370-70ea9a65","layer":"power","name":"BWC Unity Pond LLC","state":"ME","detail_file":"data/details/power-plants-04.json","plant_id":"66370","capacity_mw":4.5,"status_group":"Operating","energy_sources":"SUN","type":"Power plant","is_nuclear":false}},{"type":"Feature","geometry":{"type":"Point","coordinates":[-69.605,44.596]},"properties":{"key":"66907-b706fe40","layer":"power","name":"Barefoot Solar","state":"ME","detail_file":"data/details/power-plants-50.json","plant_id":"66907","capacity_mw":4.3,"status_group":"Operating","energy_sources":"SUN","type":"Power plant","is_nuclear":false}},{"type":"Feature","geometry":{"type":"Point","coordinates":[-70.23,44.087]},"properties":{"key":"10728-6ceecb75","layer":"power","name":"Barker Lower","state":"ME","detail_file":"data/details/power-plants-36.json","plant_id":"10728","capacity_mw":1.5,"status_group":"Operating","energy_sources":"WAT","type":"Power plant","is_nuclear":false}},{"type":"Feature","geometry":{"type":"Point","coordinates":[-69.637,44.758]},"properties":{"key":"68625-2cd41439","layer":"power","name":"Bates College Skowhegan","state":"ME","detail_file":"data/details/power-plants-29.json","plant_id":"68625","capacity_mw":5.0,"status_group":"Operating","energy_sources":"SUN","type":"Power plant","is_nuclear":false}},{"type":"Feature","geometry":{"type":"Point","coordinates":[-69.35,44.497]},"properties":{"key":"57130-31859fa2","layer":"power","name":"Beaver Ridge Wind","state":"ME","detail_file":"data/details/power-plants-35.json","plant_id":"57130","capacity_mw":4.5,"status_group":"Operating","energy_sources":"WND","type":"Power plant","is_nuclear":false}},{"type":"Feature","geometry":{"type":"Point","coordinates":[-69.555,44.58]},"properties":{"key":"10523-7c2a6974","layer":"power","name":"Benton Falls Associates","state":"ME","detail_file":"data/details/power-plants-53.json","plant_id":"10523","capacity_mw":4.2,"status_group":"Operating","energy_sources":"WAT","type":"Power plant","is_nuclear":false}},{"type":"Feature","geometry":{"type":"Point","coordinates":[-69.762,45.103]},"properties":{"key":"57531-15fd013d","layer":"power","name":"Bingham Wind","state":"ME","detail_file":"data/details/power-plants-52.json","plant_id":"57531","capacity_mw":186.0,"status_group":"Operating","energy_sources":"WND","type":"Power plant","is_nuclear":false}},{"type":"Feature","geometry":{"type":"Point","coordinates":[-69.812,45.66]},"properties":{"key":"10555-434b5a13","layer":"power","name":"Brassua Hydroelectric Project","state":"ME","detail_file":"data/details/power-plants-43.json","plant_id":"10555","capacity_mw":3.6,"status_group":"Operating","energy_sources":"WAT","type":"Power plant","is_nuclear":false}},{"type":"Feature","geometry":{"type":"Point","coordinates":[-68.715,44.798]},"properties":{"key":"67499-9da8ee22","layer":"power","name":"Brewer (CSG)","state":"ME","detail_file":"data/details/power-plants-07.json","plant_id":"67499","capacity_mw":5.0,"status_group":"Operating","energy_sources":"SUN","type":"Power plant","is_nuclear":false}},{"type":"Feature","geometry":{"type":"Point","coordinates":[-69.674,44.522]},"properties":{"key":"69546-8089c91d","layer":"power","name":"Broadhead","state":"ME","detail_file":"data/details/power-plants-43.json","plant_id":"69546","capacity_mw":4.9,"status_group":"Operating","energy_sources":"SUN","type":"Power plant","is_nuclear":false}},{"type":"Feature","geometry":{"type":"Point","coordinates":[-68.818,44.856]},"properties":{"key":"67110-7945252c","layer":"power","name":"Broadway Solar (CSG)","state":"ME","detail_file":"data/details/power-plants-26.json","plant_id":"67110","capacity_mw":4.6,"status_group":"Operating","energy_sources":"SUN","type":"Power plant","is_nuclear":false}},{"type":"Feature","geometry":{"type":"Point","coordinates":[-68.805,44.574]},"properties":{"key":"50243-6589b342","layer":"power","name":"Bucksport Generation LLC","state":"ME","detail_file":"data/details/power-plants-38.json","plant_id":"50243","capacity_mw":186.8,"status_group":"Operating","energy_sources":"NG","type":"Power plant","is_nuclear":false}},{"type":"Feature","geometry":{"type":"Point","coordinates":[-68.243,44.723]},"properties":{"key":"57083-55b13120","layer":"power","name":"Bull Hill Wind Project","state":"ME","detail_file":"data/details/power-plants-22.json","plant_id":"57083","capacity_mw":34.5,"status_group":"Operating","energy_sources":"WND","type":"Power plant","is_nuclear":false}},{"type":"Feature","geometry":{"type":"Point","coordinates":[-70.32,44.443]},"properties":{"key":"67921-1231366c","layer":"power","name":"Canton GLC Solar, LLC","state":"ME","detail_file":"data/details/power-plants-31.json","plant_id":"67921","capacity_mw":3.0,"status_group":"Operating","energy_sources":"SUN","type":"Power plant","is_nuclear":false}},{"type":"Feature","geometry":{"type":"Point","coordinates":[-70.303,44.515]},"properties":{"key":"58620-b14c9ba7","layer":"power","name":"Canton Mountain Wind","state":"ME","detail_file":"data/details/power-plants-09.json","plant_id":"58620","capacity_mw":22.8,"status_group":"Operating","energy_sources":"WND","type":"Power plant","is_nuclear":false}},{"type":"Feature","geometry":{"type":"Point","coordinates":[-68.046,46.909]},"properties":{"key":"66402-72ad33ef","layer":"power","name":"Caribou","state":"ME","detail_file":"data/details/power-plants-22.json","plant_id":"66402","capacity_mw":4.1,"status_group":"Operating","energy_sources":"SUN","type":"Power plant","is_nuclear":false}},{"type":"Feature","geometry":{"type":"Point","coordinates":[-68.659,44.312]},"properties":{"key":"67366-93655807","layer":"power","name":"Caterpillar Hill","state":"ME","detail_file":"data/details/power-plants-46.json","plant_id":"67366","capacity_mw":4.9,"status_group":"Operating","energy_sources":"SUN","type":"Power plant","is_nuclear":false}},{"type":"Feature","geometry":{"type":"Point","coordinates":[-69.892,44.963]},"properties":{"key":"66877-9135da74","layer":"power","name":"Cenergy - Kiger","state":"ME","detail_file":"data/details/power-plants-07.json","plant_id":"66877","capacity_mw":1.0,"status_group":"Operating","energy_sources":"SUN","type":"Power plant","is_nuclear":false}},{"type":"Feature","geometry":{"type":"Point","coordinates":[-70.11,44.107]},"properties":{"key":"66874-50f1ea0b","layer":"power","name":"Cenergy - Pulk","state":"ME","detail_file":"data/details/power-plants-11.json","plant_id":"66874","capacity_mw":5.0,"status_group":"Operating","energy_sources":"SUN","type":"Power plant","is_nuclear":false}},{"type":"Feature","geometry":{"type":"Point","coordinates":[-69.608,44.643]},"properties":{"key":"66875-7c25254e","layer":"power","name":"Cenergy - Richards (CSG)","state":"ME","detail_file":"data/details/power-plants-36.json","plant_id":"66875","capacity_mw":1.0,"status_group":"Operating","energy_sources":"SUN","type":"Power plant","is_nuclear":false}},{"type":"Feature","geometry":{"type":"Point","coordinates":[-69.669,44.539]},"properties":{"key":"66876-0a3be948","layer":"power","name":"Cenergy - Waterville (CSG)","state":"ME","detail_file":"data/details/power-plants-27.json","plant_id":"66876","capacity_mw":5.0,"status_group":"Operating","energy_sources":"SUN","type":"Power plant","is_nuclear":false}},{"type":"Feature","geometry":{"type":"Point","coordinates":[-70.221,44.099]},"properties":{"key":"805-b7645a87","layer":"power","name":"Charles E Monty","state":"ME","detail_file":"data/details/power-plants-09.json","plant_id":"805","capacity_mw":28.4,"status_group":"Operating","energy_sources":"WAT","type":"Power plant","is_nuclear":false}},{"type":"Feature","geometry":{"type":"Point","coordinates":[-69.704,44.371]},"properties":{"key":"67922-7ebfa8a0","layer":"power","name":"Church Hill Road Augusta Solar, LLC","state":"ME","detail_file":"data/details/power-plants-57.json","plant_id":"67922","capacity_mw":3.8,"status_group":"Operating","energy_sources":"SUN","type":"Power plant","is_nuclear":false}},{"type":"Feature","geometry":{"type":"Point","coordinates":[-68.666,45.258]},"properties":{"key":"67111-c2533592","layer":"power","name":"Corkwood Solar (CSG)","state":"ME","detail_file":"data/details/power-plants-60.json","plant_id":"67111","capacity_mw":4.6,"status_group":"Operating","energy_sources":"SUN","type":"Power plant","is_nuclear":false}},{"type":"Feature","geometry":{"type":"Point","coordinates":[-68.586,45.144]},"properties":{"key":"68416-6cc74a7a","layer":"power","name":"Crooked Trail Solar","state":"ME","detail_file":"data/details/power-plants-39.json","plant_id":"68416","capacity_mw":68.0,"status_group":"Planned","energy_sources":"SUN","type":"Power plant","is_nuclear":false}},{"type":"Feature","geometry":{"type":"Point","coordinates":[-69.884,44.837]},"properties":{"key":"68042-fb35d17f","layer":"power","name":"Dairy Farm","state":"ME","detail_file":"data/details/power-plants-04.json","plant_id":"68042","capacity_mw":4.0,"status_group":"Operating","energy_sources":"SUN","type":"Power plant","is_nuclear":false}},{"type":"Feature","geometry":{"type":"Point","coordinates":[-70.204,44.135]},"properties":{"key":"1488-d9f4d5b2","layer":"power","name":"Deer Rips","state":"ME","detail_file":"data/details/power-plants-18.json","plant_id":"1488","capacity_mw":6.5,"status_group":"Operating","energy_sources":"WAT","type":"Power plant","is_nuclear":false}},{"type":"Feature","geometry":{"type":"Point","coordinates":[-68.621,45.244]},"properties":{"key":"67016-022e82bd","layer":"power","name":"Dynamic - Enfield Hammett Road CSG","state":"ME","detail_file":"data/details/power-plants-20.json","plant_id":"67016","capacity_mw":4.9,"status_group":"Operating","energy_sources":"SUN","type":"Power plant","is_nuclear":false}},{"type":"Feature","geometry":{"type":"Point","coordinates":[-69.09,44.976]},"properties":{"key":"67015-a78dbb23","layer":"power","name":"Dynamic - Exeter Solar CSG","state":"ME","detail_file":"data/details/power-plants-18.json","plant_id":"67015","capacity_mw":4.0,"status_group":"Operating","energy_sources":"SUN","type":"Power plant","is_nuclear":false}},{"type":"Feature","geometry":{"type":"Point","coordinates":[-68.851,44.876]},"properties":{"key":"67017-658f1da0","layer":"power","name":"Dynamic - Glenburn Broadway One (CSG)","state":"ME","detail_file":"data/details/power-plants-16.json","plant_id":"67017","capacity_mw":4.9,"status_group":"Operating","energy_sources":"SUN","type":"Power plant","is_nuclear":false}},{"type":"Feature","geometry":{"type":"Point","coordinates":[-70.114,44.288]},"properties":{"key":"67013-ffdb98bc","layer":"power","name":"Dynamic - Leeds Solar (CSG)","state":"ME","detail_file":"data/details/power-plants-56.json","plant_id":"67013","capacity_mw":4.9,"status_group":"Operating","energy_sources":"SUN","type":"Power plant","is_nuclear":false}},{"type":"Feature","geometry":{"type":"Point","coordinates":[-69.787,44.694]},"properties":{"key":"67012-54a19eb8","layer":"power","name":"Dynamic - Norridgewock Martin Stream (CSG)","state":"ME","detail_file":"data/details/power-plants-00.json","plant_id":"67012","capacity_mw":4.9,"status_group":"Operating","energy_sources":"SUN","type":"Power plant","is_nuclear":false}},{"type":"Feature","geometry":{"type":"Point","coordinates":[-70.068,44.199]},"properties":{"key":"67011-64e21c3b","layer":"power","name":"Dynamic - Wales Leeds Junction Road (CSG)","state":"ME","detail_file":"data/details/power-plants-62.json","plant_id":"67011","capacity_mw":4.5,"status_group":"Operating","energy_sources":"SUN","type":"Power plant","is_nuclear":false}},{"type":"Feature","geometry":{"type":"Point","coordinates":[-69.027,45.012]},"properties":{"key":"65858-781786d4","layer":"power","name":"Dynamic Corinth (CSG)","state":"ME","detail_file":"data/details/power-plants-51.json","plant_id":"65858","capacity_mw":5.0,"status_group":"Operating","energy_sources":"SUN","type":"Power plant","is_nuclear":false}},{"type":"Feature","geometry":{"type":"Point","coordinates":[-69.737,44.792]},"properties":{"key":"65859-65c09003","layer":"power","name":"Dynamic Madison (CSG)","state":"ME","detail_file":"data/details/power-plants-46.json","plant_id":"65859","capacity_mw":5.0,"status_group":"Operating","energy_sources":"SUN","type":"Power plant","is_nuclear":false}},{"type":"Feature","geometry":{"type":"Point","coordinates":[-68.826,44.738]},"properties":{"key":"50051-84d9ac4a","layer":"power","name":"Eagle Point Energy Center","state":"ME","detail_file":"data/details/power-plants-55.json","plant_id":"50051","capacity_mw":25.3,"status_group":"Operating","energy_sources":"MSW","type":"Power plant","is_nuclear":false}},{"type":"Feature","geometry":{"type":"Point","coordinates":[-68.751,44.808]},"properties":{"key":"58153-744032ef","layer":"power","name":"Eastern Maine Medical Center","state":"ME","detail_file":"data/details/power-plants-41.json","plant_id":"58153","capacity_mw":3.8,"status_group":"Operating","energy_sources":"NG","type":"Power plant","is_nuclear":false}},{"type":"Feature","geometry":{"type":"Point","coordinates":[-68.431,44.544]},"properties":{"key":"1469-c2acc01d","layer":"power","name":"Ellsworth Hydro Station","state":"ME","detail_file":"data/details/power-plants-14.json","plant_id":"1469","capacity_mw":8.9,"status_group":"Operating","energy_sources":"WAT","type":"Power plant","is_nuclear":false}},{"type":"Feature","geometry":{"type":"Point","coordinates":[-68.864,44.536]},"properties":{"key":"65045-28f79460","layer":"power","name":"Emery Shute Solar One","state":"ME","detail_file":"data/details/power-plants-37.json","plant_id":"65045","capacity_mw":1.0,"status_group":"Planned","energy_sources":"SUN","type":"Power plant","is_nuclear":false}},{"type":"Feature","geometry":{"type":"Point","coordinates":[-69.597,44.634]},"properties":{"key":"63896-d94b897e","layer":"power","name":"Fairfield PV - BD Solar Fairfield LLC","state":"ME","detail_file":"data/details/power-plants-08.json","plant_id":"63896","capacity_mw":5.0,"status_group":"Operating","energy_sources":"SUN","type":"Power plant","is_nuclear":false}},{"type":"Feature","geometry":{"type":"Point","coordinates":[-69.8,44.247]},"properties":{"key":"67388-72fa5a9b","layer":"power","name":"Farmingdale FA01","state":"ME","detail_file":"data/details/power-plants-56.json","plant_id":"67388","capacity_mw":4.9,"status_group":"Operating","energy_sources":"SUN","type":"Power plant","is_nuclear":false}},{"type":"Feature","geometry":{"type":"Point","coordinates":[-70.151,44.655]},"properties":{"key":"67462-7e4a4ea9","layer":"power","name":"Farmington","state":"ME","detail_file":"data/details/power-plants-53.json","plant_id":"67462","capacity_mw":4.9,"status_group":"Operating","energy_sources":"SUN","type":"Power plant","is_nuclear":false}},{"type":"Feature","geometry":{"type":"Point","coordinates":[-70.101,44.655]},"properties":{"key":"64337-02d27297","layer":"power","name":"Farmington Solar","state":"ME","detail_file":"data/details/power-plants-00.json","plant_id":"64337","capacity_mw":77.0,"status_group":"Operating","energy_sources":"SUN","type":"Power plant","is_nuclear":false}},{"type":"Feature","geometry":{"type":"Point","coordinates":[-68.866,44.094]},"properties":{"key":"57354-dbd4df59","layer":"power","name":"Fox Island Wind LLC","state":"ME","detail_file":"data/details/power-plants-45.json","plant_id":"57354","capacity_mw":4.5,"status_group":"Operating","energy_sources":"WND","type":"Power plant","is_nuclear":false}},{"type":"Feature","geometry":{"type":"Point","coordinates":[-68.393,46.637]},"properties":{"key":"67802-126a53f2","layer":"power","name":"French Road Solar","state":"ME","detail_file":"data/details/power-plants-10.json","plant_id":"67802","capacity_mw":2.5,"status_group":"Operating","energy_sources":"SUN","type":"Power plant","is_nuclear":false}},{"type":"Feature","geometry":{"type":"Point","coordinates":[-70.958,44.021]},"properties":{"key":"67389-5714d889","layer":"power","name":"Fryeburg","state":"ME","detail_file":"data/details/power-plants-06.json","plant_id":"67389","capacity_mw":4.9,"status_group":"Operating","energy_sources":"SUN","type":"Power plant","is_nuclear":false}},{"type":"Feature","geometry":{"type":"Point","coordinates":[-69.786,44.222]},"properties":{"key":"50688-647f0fde","layer":"power","name":"Gardiner","state":"ME","detail_file":"data/details/power-plants-15.json","plant_id":"50688","capacity_mw":1.0,"status_group":"Operating","energy_sources":"WAT","type":"Power plant","is_nuclear":false}},{"type":"Feature","geometry":{"type":"Point","coordinates":[-69.202,44.333]},"properties":{"key":"64408-10ff77da","layer":"power","name":"Georges River Energy","state":"ME","detail_file":"data/details/power-plants-15.json","plant_id":"64408","capacity_mw":10.0,"status_group":"Operating","energy_sources":"WDS","type":"Power plant","is_nuclear":false}},{"type":"Feature","geometry":{"type":"Point","coordinates":[-68.704,45.647]},"properties":{"key":"54134-3b795be6","layer":"power","name":"Great Lakes Hydro America - ME","state":"ME","detail_file":"data/details/power-plants-25.json","plant_id":"54134","capacity_mw":158.0,"status_group":"Operating","energy_sources":"MWH; WAT","type":"Power plant","is_nuclear":false}},{"type":"Feature","geometry":{"type":"Point","coordinates":[-70.209,44.153]},"properties":{"key":"1491-dd802ff8","layer":"power","name":"Gulf Island","state":"ME","detail_file":"data/details/power-plants-26.json","plant_id":"1491","capacity_mw":19.2,"status_group":"Operating","energy_sources":"WAT","type":"Power plant","is_nuclear":false}},{"type":"Feature","geometry":{"type":"Point","coordinates":[-68.147,44.761]},"properties":{"key":"58686-928c6367","layer":"power","name":"Hancock Wind Plant","state":"ME","detail_file":"data/details/power-plants-42.json","plant_id":"58686","capacity_mw":51.0,"status_group":"Operating","energy_sources":"WND","type":"Power plant","is_nuclear":false}},{"type":"Feature","geometry":{"type":"Point","coordinates":[-69.546,44.98]},"properties":{"key":"65996-79659046","layer":"power","name":"Harmony Solar (ME)","state":"ME","detail_file":"data/details/power-plants-18.json","plant_id":"65996","capacity_mw":4.9,"status_group":"Operating","energy_sources":"SUN","type":"Power plant","is_nuclear":false}},{"type":"Feature","geometry":{"type":"Point","coordinates":[-69.866,45.459]},"properties":{"key":"1492-45be1023","layer":"power","name":"Harris Hydro","state":"ME","detail_file":"data/details/power-plants-38.json","plant_id":"1492","capacity_mw":76.4,"status_group":"Operating","energy_sources":"WAT","type":"Power plant","is_nuclear":false}},{"type":"Feature","geometry":{"type":"Point","coordinates":[-69.454,44.85]},"properties":{"key":"65460-da926b89","layer":"power","name":"Hartland Solar","state":"ME","detail_file":"data/details/power-plants-56.json","plant_id":"65460","capacity_mw":4.0,"status_group":"Operating","energy_sources":"SUN","type":"Power plant","is_nuclear":false}},{"type":"Feature","geometry":{"type":"Point","coordinates":[-68.2,44.576]},"properties":{"key":"66768-789f5bf0","layer":"power","name":"Hogs Bay","state":"ME","detail_file":"data/details/power-plants-61.json","plant_id":"66768","capacity_mw":2.0,"status_group":"Under construction","energy_sources":"SUN","type":"Power plant","is_nuclear":false}},{"type":"Feature","geometry":{"type":"Point","coordinates":[-69.619,44.563]},"properties":{"key":"54148-10fd5d13","layer":"power","name":"Hydro Kennebec Project","state":"ME","detail_file":"data/details/power-plants-07.json","plant_id":"54148","capacity_mw":15.4,"status_group":"Operating","energy_sources":"WAT","type":"Power plant","is_nuclear":false}},{"type":"Feature","geometry":{"type":"Point","coordinates":[-69.838,44.804]},"properties":{"key":"61460-a3834ddc","layer":"power","name":"IOS - MEW Phase 1","state":"ME","detail_file":"data/details/power-plants-13.json","plant_id":"61460","capacity_mw":4.1,"status_group":"Operating","energy_sources":"SUN","type":"Power plant","is_nuclear":false}},{"type":"Feature","geometry":{"type":"Point","coordinates":[-70.526,44.284]},"properties":{"key":"67903-03c7668a","layer":"power","name":"ISM Solar Shepherd Acres","state":"ME","detail_file":"data/details/power-plants-11.json","plant_id":"67903","capacity_mw":4.0,"status_group":"Operating","energy_sources":"SUN","type":"Power plant","is_nuclear":false}},{"type":"Feature","geometry":{"type":"Point","coordinates":[-70.221,44.504]},"properties":{"key":"50047-4456edf6","layer":"power","name":"International Paper Jay Hydro","state":"ME","detail_file":"data/details/power-plants-17.json","plant_id":"50047","capacity_mw":3.1,"status_group":"Operating","energy_sources":"WAT","type":"Power plant","is_nuclear":false}},{"type":"Feature","geometry":{"type":"Point","coordinates":[-70.187,44.471]},"properties":{"key":"50082-bbda0649","layer":"power","name":"International Paper Livermore Hydro","state":"ME","detail_file":"data/details/power-plants-54.json","plant_id":"50082","capacity_mw":9.2,"status_group":"Operating","energy_sources":"WAT","type":"Power plant","is_nuclear":false}},{"type":"Feature","geometry":{"type":"Point","coordinates":[-70.249,44.503]},"properties":{"key":"50081-7a58bd3c","layer":"power","name":"International Paper Riley Hydro","state":"ME","detail_file":"data/details/power-plants-10.json","plant_id":"50081","capacity_mw":6.6,"status_group":"Operating","energy_sources":"WAT","type":"Power plant","is_nuclear":false}},{"type":"Feature","geometry":{"type":"Point","coordinates":[-70.526,45.385]},"properties":{"key":"56829-95e3df69","layer":"power","name":"Kibby Wind Facility","state":"ME","detail_file":"data/details/power-plants-24.json","plant_id":"56829","capacity_mw":132.0,"status_group":"Operating","energy_sources":"WND","type":"Power plant","is_nuclear":false}},{"type":"Feature","geometry":{"type":"Point","coordinates":[-70.3,44.05]},"properties":{"key":"64071-325b2c4f","layer":"power","name":"Lewiston Jn PV - BD Solar Lewiston Jn LL","state":"ME","detail_file":"data/details/power-plants-14.json","plant_id":"64071","capacity_mw":5.0,"status_group":"Under construction","energy_sources":"SUN","type":"Power plant","is_nuclear":false}},{"type":"Feature","geometry":{"type":"Point","coordinates":[-70.307,44.051]},"properties":{"key":"66243-3ac6d89d","layer":"power","name":"Lewiston Junction Road Solar","state":"ME","detail_file":"data/details/power-plants-00.json","plant_id":"66243","capacity_mw":4.9,"status_group":"Operating","energy_sources":"SUN","type":"Power plant","is_nuclear":false}},{"type":"Feature","geometry":{"type":"Point","coordinates":[-70.094,44.031]},"properties":{"key":"69693-5c04ae2b","layer":"power","name":"Lisbon CSG LLC","state":"ME","detail_file":"data/details/power-plants-11.json","plant_id":"69693","capacity_mw":1.0,"status_group":"Operating","energy_sources":"SUN","type":"Power plant","is_nuclear":false}},{"type":"Feature","geometry":{"type":"Point","coordinates":[-70.154,44.061]},"properties":{"key":"66246-badf4e42","layer":"power","name":"Lisbon Street Solar","state":"ME","detail_file":"data/details/power-plants-02.json","plant_id":"66246","capacity_mw":2.0,"status_group":"Operating","energy_sources":"SUN","type":"Power plant","is_nuclear":false}},{"type":"Feature","geometry":{"type":"Point","coordinates":[-70.17,44.48]},"properties":{"key":"66087-ed70f1ff","layer":"power","name":"Livermore Falls CSG","state":"ME","detail_file":"data/details/power-plants-51.json","plant_id":"66087","capacity_mw":3.3,"status_group":"Operating","energy_sources":"SUN","type":"Power plant","is_nuclear":false}},{"type":"Feature","geometry":{"type":"Point","coordinates":[-69.629,44.547]},"properties":{"key":"10066-d3f7d120","layer":"power","name":"Lockwood Hydroelectric Facility","state":"ME","detail_file":"data/details/power-plants-47.json","plant_id":"10066","capacity_mw":7.2,"status_group":"Operating","energy_sources":"WAT","type":"Power plant","is_nuclear":false}},{"type":"Feature","geometry":{"type":"Point","coordinates":[-70.138,44.074]},"properties":{"key":"69019-7f052867","layer":"power","name":"MD - EDFR - Phase II - Lewiston","state":"ME","detail_file":"data/details/power-plants-50.json","plant_id":"69019","capacity_mw":5.0,"status_group":"Operating","energy_sources":"SUN","type":"Power plant","is_nuclear":false}},{"type":"Feature","geometry":{"type":"Point","coordinates":[-68.993,44.452]},"properties":{"key":"68905-5baf32b0","layer":"power","name":"ME - EDF - Phase II - Belfast","state":"ME","detail_file":"data/details/power-plants-15.json","plant_id":"68905","capacity_mw":5.0,"status_group":"Operating","energy_sources":"SUN","type":"Power plant","is_nuclear":false}},{"type":"Feature","geometry":{"type":"Point","coordinates":[-69.82,44.329]},"properties":{"key":"66512-30434ab8","layer":"power","name":"ME Augusta 13 York Farm Rd Solar","state":"ME","detail_file":"data/details/power-plants-45.json","plant_id":"66512","capacity_mw":1.0,"status_group":"Operating","energy_sources":"SUN","type":"Power plant","is_nuclear":false}},{"type":"Feature","geometry":{"type":"Point","coordinates":[-68.801,44.849]},"properties":{"key":"68781-f835c2a5","layer":"power","name":"ME CDG 004","state":"ME","detail_file":"data/details/power-plants-42.json","plant_id":"68781","capacity_mw":2.0,"status_group":"Operating","energy_sources":"SUN","type":"Power plant","is_nuclear":false}},{"type":"Feature","geometry":{"type":"Point","coordinates":[-68.706,44.842]},"properties":{"key":"68782-f68f5447","layer":"power","name":"ME CDG 005","state":"ME","detail_file":"data/details/power-plants-20.json","plant_id":"68782","capacity_mw":2.0,"status_group":"Operating","energy_sources":"SUN","type":"Power plant","is_nuclear":false}},{"type":"Feature","geometry":{"type":"Point","coordinates":[-70.341,45.101]},"properties":{"key":"66962-80198005","layer":"power","name":"ME Novel Lighthouse - Carrabassett","state":"ME","detail_file":"data/details/power-plants-00.json","plant_id":"66962","capacity_mw":5.0,"status_group":"Operating","energy_sources":"SUN","type":"Power plant","is_nuclear":false}},{"type":"Feature","geometry":{"type":"Point","coordinates":[-69.745,44.746]},"properties":{"key":"66834-2be212c6","layer":"power","name":"ME Novel Lighthouse - Front St. Solar CS","state":"ME","detail_file":"data/details/power-plants-20.json","plant_id":"66834","capacity_mw":3.2,"status_group":"Operating","energy_sources":"SUN","type":"Power plant","is_nuclear":false}},{"type":"Feature","geometry":{"type":"Point","coordinates":[-68.456,46.0]},"properties":{"key":"66961-d9e635b4","layer":"power","name":"ME Novel Lighthouse - Penobscot CSG","state":"ME","detail_file":"data/details/power-plants-46.json","plant_id":"66961","capacity_mw":3.0,"status_group":"Operating","energy_sources":"SUN","type":"Power plant","is_nuclear":false}},{"type":"Feature","geometry":{"type":"Point","coordinates":[-69.879,44.949]},"properties":{"key":"67350-f62d8717","layer":"power","name":"ME-EDFR-Phase I-Embden","state":"ME","detail_file":"data/details/power-plants-44.json","plant_id":"67350","capacity_mw":5.0,"status_group":"Operating","energy_sources":"SUN","type":"Power plant","is_nuclear":false}},{"type":"Feature","geometry":{"type":"Point","coordinates":[-69.886,45.064]},"properties":{"key":"69227-43f0b8f3","layer":"power","name":"MEVS Clark LLC","state":"ME","detail_file":"data/details/power-plants-61.json","plant_id":"69227","capacity_mw":5.0,"status_group":"Operating","energy_sources":"SUN","type":"Power plant","is_nuclear":false}},{"type":"Feature","geometry":{"type":"Point","coordinates":[-69.811,44.311]},"properties":{"key":"67290-26d654c9","layer":"power","name":"MEVS DOT 109","state":"ME","detail_file":"data/details/power-plants-02.json","plant_id":"67290","capacity_mw":2.2,"status_group":"Operating","energy_sources":"SUN","type":"Power plant","is_nuclear":false}},{"type":"Feature","geometry":{"type":"Point","coordinates":[-70.261,44.068]},"properties":{"key":"50035-179be673","layer":"power","name":"MMWAC Resource Recovery Facility","state":"ME","detail_file":"data/details/power-plants-51.json","plant_id":"50035","capacity_mw":5.0,"status_group":"Operating","energy_sources":"MSW","type":"Power plant","is_nuclear":false}},{"type":"Feature","geometry":{"type":"Point","coordinates":[-68.239,47.343]},"properties":{"key":"67807-7a6b1e96","layer":"power","name":"Madawaska Solar","state":"ME","detail_file":"data/details/power-plants-60.json","plant_id":"67807","capacity_mw":4.0,"status_group":"Operating","energy_sources":"SUN","type":"Power plant","is_nuclear":false}},{"type":"Feature","geometry":{"type":"Point","coordinates":[-69.841,44.804]},"properties":{"key":"64764-8501b17e","layer":"power","name":"Madison BTM","state":"ME","detail_file":"data/details/power-plants-42.json","plant_id":"64764","capacity_mw":1.5,"status_group":"Operating","energy_sources":"MWH","type":"Power plant","is_nuclear":false}},{"type":"Feature","geometry":{"type":"Point","coordinates":[-69.876,44.793]},"properties":{"key":"64765-ad8da0ef","layer":"power","name":"Madison ESS","state":"ME","detail_file":"data/details/power-plants-04.json","plant_id":"64765","capacity_mw":4.9,"status_group":"Operating","energy_sources":"MWH","type":"Power plant","is_nuclear":false}},{"type":"Feature","geometry":{"type":"Point","coordinates":[-68.709,44.824]},"properties":{"key":"55068-e1411dd0","layer":"power","name":"Maine Independence Station","state":"ME","detail_file":"data/details/power-plants-14.json","plant_id":"55068","capacity_mw":550.2,"status_group":"Operating","energy_sources":"NG","type":"Power plant","is_nuclear":false}},{"type":"Feature","geometry":{"type":"Point","coordinates":[-70.518,44.518]},"properties":{"key":"67402-13696773","layer":"power","name":"Mainely Solar (Wyman Hill Solar LLC)","state":"ME","detail_file":"data/details/power-plants-14.json","plant_id":"67402","capacity_mw":4.0,"status_group":"Operating","energy_sources":"SUN","type":"Power plant","is_nuclear":false}},{"type":"Feature","geometry":{"type":"Point","coordinates":[-68.45,44.584]},"properties":{"key":"67925-198eaa59","layer":"power","name":"Mariaville Road Elsworth Solar, LLC","state":"ME","detail_file":"data/details/power-plants-40.json","plant_id":"67925","capacity_mw":1.6,"status_group":"Operating","energy_sources":"SUN","type":"Power plant","is_nuclear":false}},{"type":"Feature","geometry":{"type":"Point","coordinates":[-69.819,44.182]},"properties":{"key":"67927-a324339d","layer":"power","name":"Market Street Gardiner Solar, LLC","state":"ME","detail_file":"data/details/power-plants-55.json","plant_id":"67927","capacity_mw":3.3,"status_group":"Operating","energy_sources":"SUN","type":"Power plant","is_nuclear":false}},{"type":"Feature","geometry":{"type":"Point","coordinates":[-70.391,44.111]},"properties":{"key":"54123-60ac3a5b","layer":"power","name":"Mechanic Falls","state":"ME","detail_file":"data/details/power-plants-37.json","plant_id":"54123","capacity_mw":1.4,"status_group":"Operating","energy_sources":"WAT","type":"Power plant","is_nuclear":false}},{"type":"Feature","geometry":{"type":"Point","coordinates":[-68.038,46.684]},"properties":{"key":"67396-0fffc04d","layer":"power","name":"Mechanic Street (CSG)","state":"ME","detail_file":"data/details/power-plants-30.json","plant_id":"67396","capacity_mw":3.0,"status_group":"Operating","energy_sources":"SUN","type":"Power plant","is_nuclear":false}},{"type":"Feature","geometry":{"type":"Point","coordinates":[-68.545,45.607]},"properties":{"key":"55288-4930be53","layer":"power","name":"Medway Hydro","state":"ME","detail_file":"data/details/power-plants-44.json","plant_id":"55288","capacity_mw":4.0,"status_group":"Operating","energy_sources":"WAT","type":"Power plant","is_nuclear":false}},{"type":"Feature","geometry":{"type":"Point","coordinates":[-70.197,44.158]},"properties":{"key":"66245-cf456db1","layer":"power","name":"Merrill Road Solar","state":"ME","detail_file":"data/details/power-plants-59.json","plant_id":"66245","capacity_mw":4.6,"status_group":"Operating","energy_sources":"SUN","type":"Power plant","is_nuclear":false}},{"type":"Feature","geometry":{"type":"Point","coordinates":[-69.71,44.549]},"properties":{"key":"1497-909181c5","layer":"power","name":"Messalonskee 2 (Oakland)","state":"ME","detail_file":"data/details/power-plants-20.json","plant_id":"1497","capacity_mw":2.8,"status_group":"Operating","energy_sources":"WAT","type":"Power plant","is_nuclear":false}},{"type":"Feature","geometry":{"type":"Point","coordinates":[-69.682,44.57]},"properties":{"key":"1498-69639883","layer":"power","name":"Messalonskee 3","state":"ME","detail_file":"data/details/power-plants-58.json","plant_id":"1498","capacity_mw":1.6,"status_group":"Operating","energy_sources":"WAT","type":"Power plant","is_nuclear":false}},{"type":"Feature","geometry":{"type":"Point","coordinates":[-69.652,44.534]},"properties":{"key":"1500-61c7cbad","layer":"power","name":"Messalonskee 5","state":"ME","detail_file":"data/details/power-plants-00.json","plant_id":"1500","capacity_mw":1.8,"status_group":"Operating","energy_sources":"WAT","type":"Power plant","is_nuclear":false}},{"type":"Feature","geometry":{"type":"Point","coordinates":[-68.645,44.942]},"properties":{"key":"1475-08fd65eb","layer":"power","name":"Milford Hydro Station","state":"ME","detail_file":"data/details/power-plants-36.json","plant_id":"1475","capacity_mw":7.8,"status_group":"Operating","energy_sources":"WAT","type":"Power plant","is_nuclear":false}},{"type":"Feature","geometry":{"type":"Point","coordinates":[-69.016,45.244]},"properties":{"key":"66086-d35530a1","layer":"power","name":"Milo CSG","state":"ME","detail_file":"data/details/power-plants-47.json","plant_id":"66086","capacity_mw":4.5,"status_group":"Operating","energy_sources":"SUN","type":"Power plant","is_nuclear":false}},{"type":"Feature","geometry":{"type":"Point","coordinates":[-68.991,45.267]},"properties":{"key":"63894-0b45b7a6","layer":"power","name":"Milo PV - BD Solar 1 LLC","state":"ME","detail_file":"data/details/power-plants-02.json","plant_id":"63894","capacity_mw":20.0,"status_group":"Operating","energy_sources":"SUN","type":"Power plant","is_nuclear":false}},{"type":"Feature","geometry":{"type":"Point","coordinates":[-68.044,46.706]},"properties":{"key":"67398-af4d2afc","layer":"power","name":"Missile Street (CSG)","state":"ME","detail_file":"data/details/power-plants-59.json","plant_id":"67398","capacity_mw":3.0,"status_group":"Operating","energy_sources":"SUN","type":"Power plant","is_nuclear":false}},{"type":"Feature","geometry":{"type":"Point","coordinates":[-70.022,44.192]},"properties":{"key":"65534-91040a8d","layer":"power","name":"Monmouth","state":"ME","detail_file":"data/details/power-plants-30.json","plant_id":"65534","capacity_mw":5.0,"status_group":"Operating","energy_sources":"SUN","type":"Power plant","is_nuclear":false}},{"type":"Feature","geometry":{"type":"Point","coordinates":[-69.868,45.147]},"properties":{"key":"67847-07491676","layer":"power","name":"Moscow","state":"ME","detail_file":"data/details/power-plants-07.json","plant_id":"67847","capacity_mw":58.8,"status_group":"Operating","energy_sources":"WND","type":"Power plant","is_nuclear":false}},{"type":"Feature","geometry":{"type":"Point","coordinates":[-68.628,45.254]},"properties":{"key":"10766-0faa4a66","layer":"power","name":"NE Renewable Power West Enfield","state":"ME","detail_file":"data/details/power-plants-17.json","plant_id":"10766","capacity_mw":27.5,"status_group":"Operating","energy_sources":"WDS","type":"Power plant","is_nuclear":false}},{"type":"Feature","geometry":{"type":"Point","coordinates":[-70.706,44.101]},"properties":{"key":"67400-b0baa575","layer":"power","name":"North Bridgton","state":"ME","detail_file":"data/details/power-plants-44.json","plant_id":"67400","capacity_mw":5.0,"status_group":"Operating","energy_sources":"SUN","type":"Power plant","is_nuclear":false}},{"type":"Feature","geometry":{"type":"Point","coordinates":[-69.429,44.131]},"properties":{"key":"67928-ef9da7fe","layer":"power","name":"North Nobleboro Road, LLC","state":"ME","detail_file":"data/details/power-plants-21.json","plant_id":"67928","capacity_mw":2.5,"status_group":"Operating","energy_sources":"SUN","type":"Power plant","is_nuclear":false}},{"type":"Feature","geometry":{"type":"Point","coordinates":[-70.543,44.071]},"properties":{"key":"67929-f7eae40d","layer":"power","name":"Nutting Ridge Solar, LLC","state":"ME","detail_file":"data/details/power-plants-21.json","plant_id":"67929","capacity_mw":4.0,"status_group":"Operating","energy_sources":"SUN","type":"Power plant","is_nuclear":false}},{"type":"Feature","geometry":{"type":"Point","coordinates":[-68.147,46.058]},"properties":{"key":"57002-42c1e48e","layer":"power","name":"Oakfield Wind Project","state":"ME","detail_file":"data/details/power-plants-56.json","plant_id":"57002","capacity_mw":148.0,"status_group":"Operating","energy_sources":"WND","type":"Power plant","is_nuclear":false}},{"type":"Feature","geometry":{"type":"Point","coordinates":[-69.692,44.572]},"properties":{"key":"67438-4bb8267c","layer":"power","name":"Oakland","state":"ME","detail_file":"data/details/power-plants-46.json","plant_id":"67438","capacity_mw":5.0,"status_group":"Operating","energy_sources":"SUN","type":"Power plant","is_nuclear":false}},{"type":"Feature","geometry":{"type":"Point","coordinates":[-68.664,44.884]},"properties":{"key":"59438-40134720","layer":"power","name":"Orono B","state":"ME","detail_file":"data/details/power-plants-55.json","plant_id":"59438","capacity_mw":3.9,"status_group":"Operating","energy_sources":"WAT","type":"Power plant","is_nuclear":false}},{"type":"Feature","geometry":{"type":"Point","coordinates":[-68.665,44.88]},"properties":{"key":"57184-4ad967c7","layer":"power","name":"Orono Hydro Station","state":"ME","detail_file":"data/details/power-plants-38.json","plant_id":"57184","capacity_mw":2.7,"status_group":"Operating","energy_sources":"WAT","type":"Power plant","is_nuclear":false}},{"type":"Feature","geometry":{"type":"Point","coordinates":[-70.201,44.478]},"properties":{"key":"50080-300d5e27","layer":"power","name":"Otis Hydro","state":"ME","detail_file":"data/details/power-plants-27.json","plant_id":"50080","capacity_mw":10.2,"status_group":"Operating","energy_sources":"WAT","type":"Power plant","is_nuclear":false}},{"type":"Feature","geometry":{"type":"Point","coordinates":[-68.708,45.65]},"properties":{"key":"67155-a96d53f6","layer":"power","name":"Our Katahdin","state":"ME","detail_file":"data/details/power-plants-43.json","plant_id":"67155","capacity_mw":5.0,"status_group":"Operating","energy_sources":"SUN","type":"Power plant","is_nuclear":false}},{"type":"Feature","geometry":{"type":"Point","coordinates":[-70.476,44.151]},"properties":{"key":"63897-633910d0","layer":"power","name":"Oxford PV - BD Solar Oxford LLC","state":"ME","detail_file":"data/details/power-plants-34.json","plant_id":"63897","capacity_mw":9.2,"status_group":"Operating","energy_sources":"SUN","type":"Power plant","is_nuclear":false}},{"type":"Feature","geometry":{"type":"Point","coordinates":[-69.31,44.84]},"properties":{"key":"64062-63752fb4","layer":"power","name":"Palmyra PV - BD Solar Palmyra LLC","state":"ME","detail_file":"data/details/power-plants-25.json","plant_id":"64062","capacity_mw":5.0,"status_group":"Operating","energy_sources":"SUN","type":"Power plant","is_nuclear":false}},{"type":"Feature","geometry":{"type":"Point","coordinates":[-68.21,45.07]},"properties":{"key":"59222-bd60c106","layer":"power","name":"Passadumkeag Windpark LLC","state":"ME","detail_file":"data/details/power-plants-53.json","plant_id":"59222","capacity_mw":42.9,"status_group":"Operating","energy_sources":"WND","type":"Power plant","is_nuclear":false}},{"type":"Feature","geometry":{"type":"Point","coordinates":[-68.808,44.59]},"properties":{"key":"69134-a7c53bc3","layer":"power","name":"Penobscot Narrows Solar I","state":"ME","detail_file":"data/details/power-plants-57.json","plant_id":"69134","capacity_mw":5.0,"status_group":"Operating","energy_sources":"SUN","type":"Power plant","is_nuclear":false}},{"type":"Feature","geometry":{"type":"Point","coordinates":[-68.992,44.4]},"properties":{"key":"67938-25839243","layer":"power","name":"Perkins Road Belfast Solar, LLC","state":"ME","detail_file":"data/details/power-plants-37.json","plant_id":"67938","capacity_mw":4.8,"status_group":"Operating","energy_sources":"SUN","type":"Power plant","is_nuclear":false}},{"type":"Feature","geometry":{"type":"Point","coordinates":[-68.523,44.777]},"properties":{"key":"60404-9bce445d","layer":"power","name":"Pisgah Mountain Wind","state":"ME","detail_file":"data/details/power-plants-06.json","plant_id":"60404","capacity_mw":9.1,"status_group":"Operating","energy_sources":"WND","type":"Power plant","is_nuclear":false}},{"type":"Feature","geometry":{"type":"Point","coordinates":[-69.412,44.721]},"properties":{"key":"54124-6c8a3b5e","layer":"power","name":"Pittsfield Hydro","state":"ME","detail_file":"data/details/power-plants-27.json","plant_id":"54124","capacity_mw":1.1,"status_group":"Operating","energy_sources":"WAT","type":"Power plant","is_nuclear":false}},{"type":"Feature","geometry":{"type":"Point","coordinates":[-69.362,44.782]},"properties":{"key":"66956-3e8e8c2c","layer":"power","name":"Pittsfield Solar (N. Main St)","state":"ME","detail_file":"data/details/power-plants-56.json","plant_id":"66956","capacity_mw":4.9,"status_group":"Operating","energy_sources":"SUN","type":"Power plant","is_nuclear":false}},{"type":"Feature","geometry":{"type":"Point","coordinates":[-69.45,44.814]},"properties":{"key":"64078-b399ede0","layer":"power","name":"Pittsfield Solar LLC","state":"ME","detail_file":"data/details/power-plants-53.json","plant_id":"64078","capacity_mw":9.9,"status_group":"Operating","energy_sources":"SUN","type":"Power plant","is_nuclear":false}},{"type":"Feature","geometry":{"type":"Point","coordinates":[-70.19,44.621]},"properties":{"key":"66165-722ed9ea","layer":"power","name":"Pleasant Street","state":"ME","detail_file":"data/details/power-plants-48.json","plant_id":"66165","capacity_mw":3.0,"status_group":"Operating","energy_sources":"SUN","type":"Power plant","is_nuclear":false}},{"type":"Feature","geometry":{"type":"Point","coordinates":[-68.465,45.187]},"properties":{"key":"50699-0d0307a7","layer":"power","name":"Pumpkin Hill","state":"ME","detail_file":"data/details/power-plants-19.json","plant_id":"50699","capacity_mw":1.0,"status_group":"Operating","energy_sources":"WAT","type":"Power plant","is_nuclear":false}},{"type":"Feature","geometry":{"type":"Point","coordinates":[-68.367,44.485]},"properties":{"key":"69531-edf12268","layer":"power","name":"REDP - Trenton","state":"ME","detail_file":"data/details/power-plants-60.json","plant_id":"69531","capacity_mw":5.0,"status_group":"Operating","energy_sources":"SUN","type":"Power plant","is_nuclear":false}},{"type":"Feature","geometry":{"type":"Point","coordinates":[-70.162,44.432]},"properties":{"key":"10354-5cbda7e1","layer":"power","name":"ReEnergy Livermore Falls","state":"ME","detail_file":"data/details/power-plants-50.json","plant_id":"10354","capacity_mw":39.6,"status_group":"Operating","energy_sources":"WDS","type":"Power plant","is_nuclear":false}},{"type":"Feature","geometry":{"type":"Point","coordinates":[-70.426,45.141]},"properties":{"key":"50650-47cf19c2","layer":"power","name":"ReEnergy Stratton LLC","state":"ME","detail_file":"data/details/power-plants-07.json","plant_id":"50650","capacity_mw":47.0,"status_group":"Operating","energy_sources":"WDS","type":"Power plant","is_nuclear":false}},{"type":"Feature","geometry":{"type":"Point","coordinates":[-70.628,44.634]},"properties":{"key":"57568-2a09c7d6","layer":"power","name":"Record Hill Wind","state":"ME","detail_file":"data/details/power-plants-42.json","plant_id":"57568","capacity_mw":50.6,"status_group":"Operating","energy_sources":"WND","type":"Power plant","is_nuclear":false}},{"type":"Feature","geometry":{"type":"Point","coordinates":[-68.636,44.918]},"properties":{"key":"10700-078cbe6c","layer":"power","name":"Red Shield Envir Old Town Facility","state":"ME","detail_file":"data/details/power-plants-18.json","plant_id":"10700","capacity_mw":28.5,"status_group":"Operating","energy_sources":"BLQ; WDS","type":"Power plant","is_nuclear":false}},{"type":"Feature","geometry":{"type":"Point","coordinates":[-69.796,44.092]},"properties":{"key":"66741-5388830a","layer":"power","name":"Richmond Hill","state":"ME","detail_file":"data/details/power-plants-28.json","plant_id":"66741","capacity_mw":1.8,"status_group":"Operating","energy_sources":"SUN","type":"Power plant","is_nuclear":false}},{"type":"Feature","geometry":{"type":"Point","coordinates":[-69.763,44.741]},"properties":{"key":"65112-9a1a4c1f","layer":"power","name":"River Road","state":"ME","detail_file":"data/details/power-plants-57.json","plant_id":"65112","capacity_mw":5.0,"status_group":"Operating","energy_sources":"SUN","type":"Power plant","is_nuclear":false}},{"type":"Feature","geometry":{"type":"Point","coordinates":[-69.202,44.333]},"properties":{"key":"50230-117b8dc8","layer":"power","name":"Robbins Lumber","state":"ME","detail_file":"data/details/power-plants-07.json","plant_id":"50230","capacity_mw":3.2,"status_group":"Operating","energy_sources":"DFO; WDS","type":"Power plant","is_nuclear":false}},{"type":"Feature","geometry":{"type":"Point","coordinates":[-68.38,45.346]},"properties":{"key":"56990-c95e72ae","layer":"power","name":"Rollins Wind Project","state":"ME","detail_file":"data/details/power-plants-52.json","plant_id":"56990","capacity_mw":60.0,"status_group":"Operating","energy_sources":"WND","type":"Power plant","is_nuclear":false}},{"type":"Feature","geometry":{"type":"Point","coordinates":[-69.531,44.409]},"properties":{"key":"67939-f9c8d92d","layer":"power","name":"Route 3 China Solar, LLC","state":"ME","detail_file":"data/details/power-plants-24.json","plant_id":"67939","capacity_mw":4.5,"status_group":"Operating","energy_sources":"SUN","type":"Power plant","is_nuclear":false}},{"type":"Feature","geometry":{"type":"Point","coordinates":[-70.618,44.615]},"properties":{"key":"62857-058d3d92","layer":"power","name":"RoxWind","state":"ME","detail_file":"data/details/power-plants-44.json","plant_id":"62857","capacity_mw":15.3,"status_group":"Operating","energy_sources":"WND","type":"Power plant","is_nuclear":false}},{"type":"Feature","geometry":{"type":"Point","coordinates":[-70.541,44.551]},"properties":{"key":"10495-432c42fe","layer":"power","name":"Rumford Cogeneration","state":"ME","detail_file":"data/details/power-plants-08.json","plant_id":"10495","capacity_mw":102.6,"status_group":"Operating","energy_sources":"BLQ","type":"Power plant","is_nuclear":false}},{"type":"Feature","geometry":{"type":"Point","coordinates":[-70.519,44.532]},"properties":{"key":"64763-ea2e2f0d","layer":"power","name":"Rumford ESS","state":"ME","detail_file":"data/details/power-plants-46.json","plant_id":"64763","capacity_mw":4.9,"status_group":"Operating","energy_sources":"MWH","type":"Power plant","is_nuclear":false}},{"type":"Feature","geometry":{"type":"Point","coordinates":[-70.628,44.549]},"properties":{"key":"10493-8734a590","layer":"power","name":"Rumford Falls Hydro Facility","state":"ME","detail_file":"data/details/power-plants-63.json","plant_id":"10493","capacity_mw":52.5,"status_group":"Operating","energy_sources":"MWH; WAT","type":"Power plant","is_nuclear":false}},{"type":"Feature","geometry":{"type":"Point","coordinates":[-70.522,44.53]},"properties":{"key":"55100-bf7c4cba","layer":"power","name":"Rumford Power LLC","state":"ME","detail_file":"data/details/power-plants-07.json","plant_id":"55100","capacity_mw":274.5,"status_group":"Operating","energy_sources":"NG","type":"Power plant","is_nuclear":false}},{"type":"Feature","geometry":{"type":"Point","coordinates":[-70.515,44.18]},"properties":{"key":"67449-7d4a7e6a","layer":"power","name":"Ryans Ranch","state":"ME","detail_file":"data/details/power-plants-45.json","plant_id":"67449","capacity_mw":5.0,"status_group":"Operating","energy_sources":"SUN","type":"Power plant","is_nuclear":false}},{"type":"Feature","geometry":{"type":"Point","coordinates":[-68.565,44.794]},"properties":{"key":"69074-a8cc9b30","layer":"power","name":"SP-231 Clifton","state":"ME","detail_file":"data/details/power-plants-07.json","plant_id":"69074","capacity_mw":4.9,"status_group":"Operating","energy_sources":"SUN","type":"Power plant","is_nuclear":false}},{"type":"Feature","geometry":{"type":"Point","coordinates":[-70.369,44.105]},"properties":{"key":"69084-94b866a7","layer":"power","name":"SP-339 Mechanic Falls","state":"ME","detail_file":"data/details/power-plants-15.json","plant_id":"69084","capacity_mw":1.0,"status_group":"Operating","energy_sources":"SUN","type":"Power plant","is_nuclear":false}},{"type":"Feature","geometry":{"type":"Point","coordinates":[-70.102,44.065]},"properties":{"key":"67450-d651350a","layer":"power","name":"Sabattus SB01","state":"ME","detail_file":"data/details/power-plants-44.json","plant_id":"67450","capacity_mw":4.9,"status_group":"Operating","energy_sources":"SUN","type":"Power plant","is_nuclear":false}},{"type":"Feature","geometry":{"type":"Point","coordinates":[-70.381,44.593]},"properties":{"key":"58608-7501ffdd","layer":"power","name":"Saddleback Ridge Wind Farm","state":"ME","detail_file":"data/details/power-plants-32.json","plant_id":"58608","capacity_mw":34.2,"status_group":"Operating","energy_sources":"WND","type":"Power plant","is_nuclear":false}},{"type":"Feature","geometry":{"type":"Point","coordinates":[-69.116,44.168]},"properties":{"key":"63551-77c7f952","layer":"power","name":"Samoset Solar","state":"ME","detail_file":"data/details/power-plants-29.json","plant_id":"63551","capacity_mw":2.0,"status_group":"Operating","energy_sources":"SUN","type":"Power plant","is_nuclear":false}},{"type":"Feature","geometry":{"type":"Point","coordinates":[-69.113,44.304]},"properties":{"key":"67940-72b45f14","layer":"power","name":"Searsmont Road Lincolnville Solar, LLC","state":"ME","detail_file":"data/details/power-plants-52.json","plant_id":"67940","capacity_mw":4.0,"status_group":"Operating","energy_sources":"SUN","type":"Power plant","is_nuclear":false}},{"type":"Feature","geometry":{"type":"Point","coordinates":[-69.584,44.63]},"properties":{"key":"1504-b07c7685","layer":"power","name":"Shawmut","state":"ME","detail_file":"data/details/power-plants-63.json","plant_id":"1504","capacity_mw":8.8,"status_group":"Operating","energy_sources":"WAT","type":"Power plant","is_nuclear":false}},{"type":"Feature","geometry":{"type":"Point","coordinates":[-68.408,46.644]},"properties":{"key":"67944-aa92d7a3","layer":"power","name":"Sheridan Road Solar Farm","state":"ME","detail_file":"data/details/power-plants-39.json","plant_id":"67944","capacity_mw":3.0,"status_group":"Operating","energy_sources":"SUN","type":"Power plant","is_nuclear":false}},{"type":"Feature","geometry":{"type":"Point","coordinates":[-69.726,44.451]},"properties":{"key":"67330-7530c5db","layer":"power","name":"Sidney","state":"ME","detail_file":"data/details/power-plants-51.json","plant_id":"67330","capacity_mw":1.5,"status_group":"Operating","energy_sources":"SUN","type":"Power plant","is_nuclear":false}},{"type":"Feature","geometry":{"type":"Point","coordinates":[-68.52,44.782]},"properties":{"key":"66283-8173520e","layer":"power","name":"Silver Maple","state":"ME","detail_file":"data/details/power-plants-11.json","plant_id":"66283","capacity_mw":20.0,"status_group":"Operating","energy_sources":"WND","type":"Power plant","is_nuclear":false}},{"type":"Feature","geometry":{"type":"Point","coordinates":[-68.377,47.31]},"properties":{"key":"67946-83495add","layer":"power","name":"Skyway Avenue Solar Farm","state":"ME","detail_file":"data/details/power-plants-54.json","plant_id":"67946","capacity_mw":2.5,"status_group":"Operating","energy_sources":"SUN","type":"Power plant","is_nuclear":false}},{"type":"Feature","geometry":{"type":"Point","coordinates":[-69.671,44.558]},"properties":{"key":"60640-3a8207f7","layer":"power","name":"Solar Mule, LLC","state":"ME","detail_file":"data/details/power-plants-02.json","plant_id":"60640","capacity_mw":1.5,"status_group":"Operating","energy_sources":"SUN","type":"Power plant","is_nuclear":false}},{"type":"Feature","geometry":{"type":"Point","coordinates":[-69.647,44.703]},"properties":{"key":"50406-7c115116","layer":"power","name":"Somerset Plant","state":"ME","detail_file":"data/details/power-plants-08.json","plant_id":"50406","capacity_mw":107.1,"status_group":"Operating","energy_sources":"BLQ","type":"Power plant","is_nuclear":false}},{"type":"Feature","geometry":{"type":"Point","coordinates":[-70.56,44.416]},"properties":{"key":"58026-f571c6c7","layer":"power","name":"Spruce Mountain WInd","state":"ME","detail_file":"data/details/power-plants-15.json","plant_id":"58026","capacity_mw":20.0,"status_group":"Operating","energy_sources":"WND","type":"Power plant","is_nuclear":false}},{"type":"Feature","geometry":{"type":"Point","coordinates":[-68.326,46.556]},"properties":{"key":"1516-60a6f6d9","layer":"power","name":"Squa Pan Hydro Station","state":"ME","detail_file":"data/details/power-plants-43.json","plant_id":"1516","capacity_mw":1.5,"status_group":"Operating","energy_sources":"WAT","type":"Power plant","is_nuclear":false}},{"type":"Feature","geometry":{"type":"Point","coordinates":[-68.684,44.913]},"properties":{"key":"59437-6d676467","layer":"power","name":"Stillwater B","state":"ME","detail_file":"data/details/power-plants-25.json","plant_id":"59437","capacity_mw":2.4,"status_group":"Operating","energy_sources":"WAT","type":"Power plant","is_nuclear":false}},{"type":"Feature","geometry":{"type":"Point","coordinates":[-68.683,44.909]},"properties":{"key":"1478-391f2c7f","layer":"power","name":"Stillwater Hydro Station","state":"ME","detail_file":"data/details/power-plants-39.json","plant_id":"1478","capacity_mw":1.8,"status_group":"Operating","energy_sources":"WAT","type":"Power plant","is_nuclear":false}},{"type":"Feature","geometry":{"type":"Point","coordinates":[-69.452,44.613]},"properties":{"key":"66955-852e5f7c","layer":"power","name":"Three Corners Solar","state":"ME","detail_file":"data/details/power-plants-06.json","plant_id":"66955","capacity_mw":110.0,"status_group":"Operating","energy_sources":"SUN","type":"Power plant","is_nuclear":false}},{"type":"Feature","geometry":{"type":"Point","coordinates":[-68.11,44.712]},"properties":{"key":"63386-82b6e4ba","layer":"power","name":"Three Rivers Solar Power, LLC","state":"ME","detail_file":"data/details/power-plants-54.json","plant_id":"63386","capacity_mw":100.0,"status_group":"Under construction","energy_sources":"SUN","type":"Power plant","is_nuclear":false}},{"type":"Feature","geometry":{"type":"Point","coordinates":[-69.745,44.28]},"properties":{"key":"67336-7b53493c","layer":"power","name":"Town House","state":"ME","detail_file":"data/details/power-plants-32.json","plant_id":"67336","capacity_mw":5.0,"status_group":"Operating","energy_sources":"SUN","type":"Power plant","is_nuclear":false}},{"type":"Feature","geometry":{"type":"Point","coordinates":[-69.84,44.335]},"properties":{"key":"66174-1dbd013f","layer":"power","name":"Treasure Lane Solar 1","state":"ME","detail_file":"data/details/power-plants-51.json","plant_id":"66174","capacity_mw":4.5,"status_group":"Operating","energy_sources":"SUN","type":"Power plant","is_nuclear":false}},{"type":"Feature","geometry":{"type":"Point","coordinates":[-70.271,44.278]},"properties":{"key":"69705-fe3687b3","layer":"power","name":"Turner CSG LLC","state":"ME","detail_file":"data/details/power-plants-58.json","plant_id":"69705","capacity_mw":1.0,"status_group":"Operating","energy_sources":"SUN","type":"Power plant","is_nuclear":false}},{"type":"Feature","geometry":{"type":"Point","coordinates":[-70.28,44.229]},"properties":{"key":"65709-fe8d5142","layer":"power","name":"Turner Meadow Solar Station","state":"ME","detail_file":"data/details/power-plants-26.json","plant_id":"65709","capacity_mw":19.8,"status_group":"Under construction","energy_sources":"SUN","type":"Power plant","is_nuclear":false}},{"type":"Feature","geometry":{"type":"Point","coordinates":[-68.331,47.358]},"properties":{"key":"58146-df503519","layer":"power","name":"Twin Rivers Paper Co LLC","state":"ME","detail_file":"data/details/power-plants-15.json","plant_id":"58146","capacity_mw":22.0,"status_group":"Operating","energy_sources":"PUR","type":"Power plant","is_nuclear":false}},{"type":"Feature","geometry":{"type":"Point","coordinates":[-70.307,44.63]},"properties":{"key":"69707-cc3817c7","layer":"power","name":"USS Weld Solar LLC","state":"ME","detail_file":"data/details/power-plants-21.json","plant_id":"69707","capacity_mw":1.0,"status_group":"Operating","energy_sources":"SUN","type":"Power plant","is_nuclear":false}},{"type":"Feature","geometry":{"type":"Point","coordinates":[-69.357,44.598]},"properties":{"key":"65461-a6d43a6a","layer":"power","name":"Unity Solar","state":"ME","detail_file":"data/details/power-plants-10.json","plant_id":"65461","capacity_mw":5.0,"status_group":"Operating","energy_sources":"SUN","type":"Power plant","is_nuclear":false}},{"type":"Feature","geometry":{"type":"Point","coordinates":[-70.212,44.088]},"properties":{"key":"54202-1c471c1e","layer":"power","name":"Upper Androscoggin","state":"ME","detail_file":"data/details/power-plants-24.json","plant_id":"54202","capacity_mw":1.6,"status_group":"Operating","energy_sources":"WAT","type":"Power plant","is_nuclear":false}},{"type":"Feature","geometry":{"type":"Point","coordinates":[-70.229,44.087]},"properties":{"key":"52171-cb7178a5","layer":"power","name":"Upper Barker","state":"ME","detail_file":"data/details/power-plants-50.json","plant_id":"52171","capacity_mw":1.0,"status_group":"Operating","energy_sources":"WAT","type":"Power plant","is_nuclear":false}},{"type":"Feature","geometry":{"type":"Point","coordinates":[-68.164,47.31]},"properties":{"key":"67771-d2ecf981","layer":"power","name":"Valley Sun Solar","state":"ME","detail_file":"data/details/power-plants-27.json","plant_id":"67771","capacity_mw":3.1,"status_group":"Operating","energy_sources":"SUN","type":"Power plant","is_nuclear":false}},{"type":"Feature","geometry":{"type":"Point","coordinates":[-70.13,44.345]},"properties":{"key":"68454-2cd2bbe4","layer":"power","name":"Walden Solar Maine V","state":"ME","detail_file":"data/details/power-plants-25.json","plant_id":"68454","capacity_mw":20.0,"status_group":"Operating","energy_sources":"SUN","type":"Power plant","is_nuclear":false}},{"type":"Feature","geometry":{"type":"Point","coordinates":[-69.223,44.161]},"properties":{"key":"65708-f0dfeb54","layer":"power","name":"Warren Meadow Solar Station","state":"ME","detail_file":"data/details/power-plants-54.json","plant_id":"65708","capacity_mw":74.5,"status_group":"Under construction","energy_sources":"SUN","type":"Power plant","is_nuclear":false}},{"type":"Feature","geometry":{"type":"Point","coordinates":[-69.374,44.236]},"properties":{"key":"67339-2c425ae6","layer":"power","name":"Washington WS01","state":"ME","detail_file":"data/details/power-plants-29.json","plant_id":"67339","capacity_mw":4.0,"status_group":"Operating","energy_sources":"SUN","type":"Power plant","is_nuclear":false}},{"type":"Feature","geometry":{"type":"Point","coordinates":[-69.832,44.701]},"properties":{"key":"57016-cafe41aa","layer":"power","name":"Waste Management Crossroads LFGTE","state":"ME","detail_file":"data/details/power-plants-60.json","plant_id":"57016","capacity_mw":3.2,"status_group":"Operating","energy_sources":"LFG","type":"Power plant","is_nuclear":false}},{"type":"Feature","geometry":{"type":"Point","coordinates":[-69.754,44.242]},"properties":{"key":"66100-03478c53","layer":"power","name":"Water Street Solar","state":"ME","detail_file":"data/details/power-plants-60.json","plant_id":"66100","capacity_mw":5.0,"status_group":"Operating","energy_sources":"SUN","type":"Power plant","is_nuclear":false}},{"type":"Feature","geometry":{"type":"Point","coordinates":[-68.164,44.723]},"properties":{"key":"63132-7b279a81","layer":"power","name":"Weaver Wind","state":"ME","detail_file":"data/details/power-plants-32.json","plant_id":"63132","capacity_mw":72.6,"status_group":"Operating","energy_sources":"WND","type":"Power plant","is_nuclear":false}},{"type":"Feature","geometry":{"type":"Point","coordinates":[-69.697,44.528]},"properties":{"key":"66244-f339264c","layer":"power","name":"Webb Road Solar","state":"ME","detail_file":"data/details/power-plants-05.json","plant_id":"66244","capacity_mw":4.6,"status_group":"Operating","energy_sources":"SUN","type":"Power plant","is_nuclear":false}},{"type":"Feature","geometry":{"type":"Point","coordinates":[-68.648,45.25]},"properties":{"key":"10255-dbf5e51f","layer":"power","name":"West Enfield Hydro","state":"ME","detail_file":"data/details/power-plants-60.json","plant_id":"10255","capacity_mw":13.0,"status_group":"Operating","energy_sources":"WAT","type":"Power plant","is_nuclear":false}},{"type":"Feature","geometry":{"type":"Point","coordinates":[-69.718,44.764]},"properties":{"key":"1509-51052909","layer":"power","name":"Weston Hydro","state":"ME","detail_file":"data/details/power-plants-45.json","plant_id":"1509","capacity_mw":12.0,"status_group":"Operating","energy_sources":"WAT","type":"Power plant","is_nuclear":false}},{"type":"Feature","geometry":{"type":"Point","coordinates":[-69.87,44.959]},"properties":{"key":"1510-b2cc8a1d","layer":"power","name":"Williams Hydro","state":"ME","detail_file":"data/details/power-plants-30.json","plant_id":"1510","capacity_mw":13.0,"status_group":"Operating","energy_sources":"WAT","type":"Power plant","is_nuclear":false}},{"type":"Feature","geometry":{"type":"Point","coordinates":[-69.59,44.56]},"properties":{"key":"64069-95b5a37e","layer":"power","name":"Winslow PV - BD Solar 2 LLC","state":"ME","detail_file":"data/details/power-plants-02.json","plant_id":"64069","capacity_mw":7.0,"status_group":"Operating","energy_sources":"SUN","type":"Power plant","is_nuclear":false}},{"type":"Feature","geometry":{"type":"Point","coordinates":[-69.906,45.07]},"properties":{"key":"1511-dfb1b910","layer":"power","name":"Wyman Hydro","state":"ME","detail_file":"data/details/power-plants-12.json","plant_id":"1511","capacity_mw":72.0,"status_group":"Operating","energy_sources":"WAT","type":"Power plant","is_nuclear":false}},{"type":"Feature","geometry":{"type":"Point","coordinates":[-71.165,44.389]},"properties":{"key":"54639-322221e6","layer":"power","name":"Berlin Gorham","state":"NH","detail_file":"data/details/power-plants-21.json","plant_id":"54639","capacity_mw":44.3,"status_group":"Operating","energy_sources":"MWH; WAT","type":"Power plant","is_nuclear":false}},{"type":"Feature","geometry":{"type":"Point","coordinates":[-71.175,44.472]},"properties":{"key":"58054-2e141995","layer":"power","name":"Burgess BioPower","state":"NH","detail_file":"data/details/power-plants-17.json","plant_id":"58054","capacity_mw":75.0,"status_group":"Operating","energy_sources":"WDS","type":"Power plant","is_nuclear":false}},{"type":"Feature","geometry":{"type":"Point","coordinates":[-71.124,44.787]},"properties":{"key":"10570-cbccdcf5","layer":"power","name":"Errol Hydroelectric Project","state":"NH","detail_file":"data/details/power-plants-38.json","plant_id":"10570","capacity_mw":3.0,"status_group":"Operating","energy_sources":"WAT","type":"Power plant","is_nuclear":false}},{"type":"Feature","geometry":{"type":"Point","coordinates":[-71.195,44.408]},"properties":{"key":"2358-eba3788d","layer":"power","name":"Gorham","state":"NH","detail_file":"data/details/power-plants-34.json","plant_id":"2358","capacity_mw":2.2,"status_group":"Operating","energy_sources":"WAT","type":"Power plant","is_nuclear":false}},{"type":"Feature","geometry":{"type":"Point","coordinates":[-71.293,44.704]},"properties":{"key":"58004-dab37490","layer":"power","name":"Granite Reliable Power","state":"NH","detail_file":"data/details/power-plants-04.json","plant_id":"58004","capacity_mw":99.0,"status_group":"Operating","energy_sources":"WND","type":"Power plant","is_nuclear":false}},{"type":"Feature","geometry":{"type":"Point","coordinates":[-71.225,44.467]},"properties":{"key":"59070-396202e8","layer":"power","name":"Jericho Power","state":"NH","detail_file":"data/details/power-plants-51.json","plant_id":"59070","capacity_mw":14.3,"status_group":"Operating","energy_sources":"WND","type":"Power plant","is_nuclear":false}},{"type":"Feature","geometry":{"type":"Point","coordinates":[-71.494,44.595]},"properties":{"key":"2362-9d8f1386","layer":"power","name":"Lost Nation","state":"NH","detail_file":"data/details/power-plants-46.json","plant_id":"2362","capacity_mw":18.0,"status_group":"Operating","energy_sources":"DFO","type":"Power plant","is_nuclear":false}},{"type":"Feature","geometry":{"type":"Point","coordinates":[-71.68,44.327]},"properties":{"key":"50208-f181e00d","layer":"power","name":"NE Renewable Bethlehem, LLC","state":"NH","detail_file":"data/details/power-plants-59.json","plant_id":"50208","capacity_mw":17.5,"status_group":"Operating","energy_sources":"WDS","type":"Power plant","is_nuclear":false}},{"type":"Feature","geometry":{"type":"Point","coordinates":[-71.545,44.358]},"properties":{"key":"10839-4b8bcee4","layer":"power","name":"NE Renewable Whitefield, LLC","state":"NH","detail_file":"data/details/power-plants-01.json","plant_id":"10839","capacity_mw":19.9,"status_group":"Operating","energy_sources":"WDS","type":"Power plant","is_nuclear":false}},{"type":"Feature","geometry":{"type":"Point","coordinates":[-71.247,44.633]},"properties":{"key":"50741-4c130723","layer":"power","name":"Pontook Hydro Facility","state":"NH","detail_file":"data/details/power-plants-46.json","plant_id":"50741","capacity_mw":10.5,"status_group":"Operating","energy_sources":"WAT","type":"Power plant","is_nuclear":false}},{"type":"Feature","geometry":{"type":"Point","coordinates":[-71.874,44.336]},"properties":{"key":"2351-9959687f","layer":"power","name":"S C Moore","state":"NH","detail_file":"data/details/power-plants-33.json","plant_id":"2351","capacity_mw":195.4,"status_group":"Operating","energy_sources":"WAT","type":"Power plant","is_nuclear":false}},{"type":"Feature","geometry":{"type":"Point","coordinates":[-71.178,44.469]},"properties":{"key":"2368-24e39e1b","layer":"power","name":"Smith (NH)","state":"NH","detail_file":"data/details/power-plants-12.json","plant_id":"2368","capacity_mw":15.0,"status_group":"Operating","energy_sources":"WAT","type":"Power plant","is_nuclear":false}},{"type":"Feature","geometry":{"type":"Point","coordinates":[-71.53,44.999]},"properties":{"key":"3750-0408ffe3","layer":"power","name":"Canaan","state":"VT","detail_file":"data/details/power-plants-27.json","plant_id":"3750","capacity_mw":1.1,"status_group":"Operating","energy_sources":"WAT","type":"Power plant","is_nuclear":false}},{"type":"Feature","geometry":{"type":"Point","coordinates":[-71.714,44.415]},"properties":{"key":"63368-e97054ad","layer":"power","name":"GSPP Gilman, LLC","state":"VT","detail_file":"data/details/power-plants-53.json","plant_id":"63368","capacity_mw":2.1,"status_group":"Operating","energy_sources":"SUN","type":"Power plant","is_nuclear":false}},{"type":"Feature","geometry":{"type":"Point","coordinates":[-71.723,44.412]},"properties":{"key":"10608-159e35f2","layer":"power","name":"Gilman Mill","state":"VT","detail_file":"data/details/power-plants-62.json","plant_id":"10608","capacity_mw":4.8,"status_group":"Operating","energy_sources":"WAT","type":"Power plant","is_nuclear":false}},{"type":"Feature","geometry":{"type":"Point","coordinates":[-71.971,44.434]},"properties":{"key":"64443-33009489","layer":"power","name":"Golden Solar","state":"VT","detail_file":"data/details/power-plants-13.json","plant_id":"64443","capacity_mw":2.2,"status_group":"Operating","energy_sources":"SUN","type":"Power plant","is_nuclear":false}},{"type":"Feature","geometry":{"type":"Point","coordinates":[-71.999,44.5]},"properties":{"key":"3762-188ba9ec","layer":"power","name":"Great Falls (VT)","state":"VT","detail_file":"data/details/power-plants-48.json","plant_id":"3762","capacity_mw":1.9,"status_group":"Operating","energy_sources":"WAT","type":"Power plant","is_nuclear":false}}]}