{"type":"FeatureCollection","features":[{"type":"Feature","geometry":{"type":"Point","coordinates":[-114.071,48.059]},"properties":{"key":"6459-5e70bfa0","layer":"power","name":"Big Fork","state":"MT","detail_file":"data/details/power-plants-23.json","plant_id":"6459","capacity_mw":4.1,"status_group":"Operating","energy_sources":"WAT","type":"Power plant","is_nuclear":false}},{"type":"Feature","geometry":{"type":"Point","coordinates":[-114.342,48.313]},"properties":{"key":"64505-11a6a4e5","layer":"power","name":"Flathead Landfill to Gas Energy Facility","state":"MT","detail_file":"data/details/power-plants-09.json","plant_id":"64505","capacity_mw":3.2,"status_group":"Operating","energy_sources":"LFG","type":"Power plant","is_nuclear":false}},{"type":"Feature","geometry":{"type":"Point","coordinates":[-114.014,48.342]},"properties":{"key":"2203-a05fbbb0","layer":"power","name":"Hungry Horse","state":"MT","detail_file":"data/details/power-plants-07.json","plant_id":"2203","capacity_mw":428.0,"status_group":"Operating","energy_sources":"WAT","type":"Power plant","is_nuclear":false}},{"type":"Feature","geometry":{"type":"Point","coordinates":[-115.314,48.41]},"properties":{"key":"6172-b4a85838","layer":"power","name":"Libby","state":"MT","detail_file":"data/details/power-plants-11.json","plant_id":"6172","capacity_mw":525.0,"status_group":"Operating","energy_sources":"WAT","type":"Power plant","is_nuclear":false}},{"type":"Feature","geometry":{"type":"Point","coordinates":[-112.11,48.51]},"properties":{"key":"57049-828e51b2","layer":"power","name":"NaturEner Glacier Wind Energy 1","state":"MT","detail_file":"data/details/power-plants-52.json","plant_id":"57049","capacity_mw":106.5,"status_group":"Operating","energy_sources":"WND","type":"Power plant","is_nuclear":false}},{"type":"Feature","geometry":{"type":"Point","coordinates":[-112.185,48.533]},"properties":{"key":"57050-f6218aa5","layer":"power","name":"NaturEner Glacier Wind Energy 2","state":"MT","detail_file":"data/details/power-plants-21.json","plant_id":"57050","capacity_mw":103.5,"status_group":"Operating","energy_sources":"WND","type":"Power plant","is_nuclear":false}},{"type":"Feature","geometry":{"type":"Point","coordinates":[-112.103,48.82]},"properties":{"key":"57995-0d1f8d64","layer":"power","name":"NaturEner Rim Rock Energy","state":"MT","detail_file":"data/details/power-plants-29.json","plant_id":"57995","capacity_mw":189.0,"status_group":"Operating","energy_sources":"WND","type":"Power plant","is_nuclear":false}},{"type":"Feature","geometry":{"type":"Point","coordinates":[-114.241,48.388]},"properties":{"key":"58523-57071ad3","layer":"power","name":"Stoltze CoGen1","state":"MT","detail_file":"data/details/power-plants-10.json","plant_id":"58523","capacity_mw":2.8,"status_group":"Operating","energy_sources":"WDS","type":"Power plant","is_nuclear":false}}]}