{"type":"FeatureCollection","features":[{"type":"Feature","geometry":{"type":"Point","coordinates":[-166.48,65.332]},"properties":{"key":"60260-227b30dc","layer":"power","name":"Brevig Mission","state":"AK","detail_file":"data/details/power-plants-00.json","plant_id":"60260","capacity_mw":1.0,"status_group":"Operating","energy_sources":"DFO","type":"Power plant","is_nuclear":false}},{"type":"Feature","geometry":{"type":"Point","coordinates":[-164.538,67.727]},"properties":{"key":"57065-e4f1214d","layer":"power","name":"Kivalina","state":"AK","detail_file":"data/details/power-plants-18.json","plant_id":"57065","capacity_mw":1.1,"status_group":"Operating","energy_sources":"DFO","type":"Power plant","is_nuclear":false}},{"type":"Feature","geometry":{"type":"Point","coordinates":[-166.074,66.255]},"properties":{"key":"6345-252c7e79","layer":"power","name":"Shishmaref","state":"AK","detail_file":"data/details/power-plants-43.json","plant_id":"6345","capacity_mw":1.5,"status_group":"Operating","energy_sources":"DFO","type":"Power plant","is_nuclear":false}},{"type":"Feature","geometry":{"type":"Point","coordinates":[-165.43,64.505]},"properties":{"key":"90-50c1ab79","layer":"power","name":"Snake River","state":"AK","detail_file":"data/details/power-plants-11.json","plant_id":"90","capacity_mw":18.4,"status_group":"Operating","energy_sources":"DFO; WND","type":"Power plant","is_nuclear":false}}]}