{"type":"FeatureCollection","features":[{"type":"Feature","geometry":{"type":"Point","coordinates":[-83.805,44.562]},"properties":{"key":"1693-033f0e9d","layer":"power","name":"Alcona","state":"MI","detail_file":"data/details/power-plants-42.json","plant_id":"1693","capacity_mw":8.0,"status_group":"Operating","energy_sources":"WAT","type":"Power plant","is_nuclear":false}},{"type":"Feature","geometry":{"type":"Point","coordinates":[-83.408,45.07]},"properties":{"key":"50305-6d6c4f94","layer":"power","name":"Alpena Cement Plant","state":"MI","detail_file":"data/details/power-plants-51.json","plant_id":"50305","capacity_mw":47.2,"status_group":"Operating","energy_sources":"PC","type":"Power plant","is_nuclear":false}},{"type":"Feature","geometry":{"type":"Point","coordinates":[-83.794,44.118]},"properties":{"key":"69462-1ce54ea7","layer":"power","name":"Au Gres Solar Park","state":"MI","detail_file":"data/details/power-plants-51.json","plant_id":"69462","capacity_mw":175.0,"status_group":"Under construction","energy_sources":"SUN","type":"Power plant","is_nuclear":false}},{"type":"Feature","geometry":{"type":"Point","coordinates":[-83.572,44.473]},"properties":{"key":"1700-f9b2055a","layer":"power","name":"Cooke","state":"MI","detail_file":"data/details/power-plants-62.json","plant_id":"1700","capacity_mw":9.0,"status_group":"Operating","energy_sources":"WAT","type":"Power plant","is_nuclear":false}},{"type":"Feature","geometry":{"type":"Point","coordinates":[-82.765,44.552]},"properties":{"key":"69776-9c7d161f","layer":"power","name":"Deckerville Solar Park","state":"MI","detail_file":"data/details/power-plants-34.json","plant_id":"69776","capacity_mw":200.0,"status_group":"Under construction","energy_sources":"SUN","type":"Power plant","is_nuclear":false}},{"type":"Feature","geometry":{"type":"Point","coordinates":[-83.908,45.984]},"properties":{"key":"6369-a20e0c42","layer":"power","name":"Detour","state":"MI","detail_file":"data/details/power-plants-09.json","plant_id":"6369","capacity_mw":6.0,"status_group":"Operating","energy_sources":"DFO","type":"Power plant","is_nuclear":false}},{"type":"Feature","geometry":{"type":"Point","coordinates":[-83.676,44.456]},"properties":{"key":"1704-e775e8e9","layer":"power","name":"Five Channels","state":"MI","detail_file":"data/details/power-plants-52.json","plant_id":"1704","capacity_mw":6.0,"status_group":"Operating","energy_sources":"WAT","type":"Power plant","is_nuclear":false}},{"type":"Feature","geometry":{"type":"Point","coordinates":[-83.441,44.435]},"properties":{"key":"1705-3f7dc30d","layer":"power","name":"Foote","state":"MI","detail_file":"data/details/power-plants-06.json","plant_id":"1705","capacity_mw":9.0,"status_group":"Operating","energy_sources":"WAT","type":"Power plant","is_nuclear":false}},{"type":"Feature","geometry":{"type":"Point","coordinates":[-83.502,45.093]},"properties":{"key":"54341-ca50587e","layer":"power","name":"Four Mile Hydropower Project","state":"MI","detail_file":"data/details/power-plants-37.json","plant_id":"54341","capacity_mw":2.0,"status_group":"Operating","energy_sources":"WAT","type":"Power plant","is_nuclear":false}},{"type":"Feature","geometry":{"type":"Point","coordinates":[-83.751,45.334]},"properties":{"key":"67755-7c850b57","layer":"power","name":"Little Trout Solar","state":"MI","detail_file":"data/details/power-plants-46.json","plant_id":"67755","capacity_mw":150.0,"status_group":"Under construction","energy_sources":"SUN","type":"Power plant","is_nuclear":false}},{"type":"Feature","geometry":{"type":"Point","coordinates":[-83.721,44.463]},"properties":{"key":"1712-febf28bc","layer":"power","name":"Loud","state":"MI","detail_file":"data/details/power-plants-63.json","plant_id":"1712","capacity_mw":4.0,"status_group":"Operating","energy_sources":"WAT","type":"Power plant","is_nuclear":false}},{"type":"Feature","geometry":{"type":"Point","coordinates":[-83.417,44.68]},"properties":{"key":"50772-b602bfb6","layer":"power","name":"National Energy of Lincoln","state":"MI","detail_file":"data/details/power-plants-09.json","plant_id":"50772","capacity_mw":20.0,"status_group":"Operating","energy_sources":"WDS","type":"Power plant","is_nuclear":false}},{"type":"Feature","geometry":{"type":"Point","coordinates":[-83.438,45.072]},"properties":{"key":"54342-0fd41140","layer":"power","name":"Ninth Street Hydropower Project","state":"MI","detail_file":"data/details/power-plants-10.json","plant_id":"54342","capacity_mw":1.2,"status_group":"Operating","energy_sources":"WAT","type":"Power plant","is_nuclear":false}},{"type":"Feature","geometry":{"type":"Point","coordinates":[-83.519,45.102]},"properties":{"key":"54340-84b8ea1d","layer":"power","name":"Norway Point Hydropower Project","state":"MI","detail_file":"data/details/power-plants-08.json","plant_id":"54340","capacity_mw":4.0,"status_group":"Operating","energy_sources":"WAT","type":"Power plant","is_nuclear":false}}]}