{"type":"FeatureCollection","features":[{"type":"Feature","geometry":{"type":"Point","coordinates":[-155.764,19.902]},"properties":{"key":"63900-09c676e4","layer":"power","name":"AES Waikoloa Solar Hybrid","state":"HI","detail_file":"data/details/power-plants-27.json","plant_id":"63900","capacity_mw":60.0,"status_group":"Operating","energy_sources":"MWH; SUN","type":"Power plant","is_nuclear":false}},{"type":"Feature","geometry":{"type":"Point","coordinates":[-155.679,19.937]},"properties":{"key":"62529-fd4d8a2c","layer":"power","name":"Hale Kuawehi Solar Hybrid","state":"HI","detail_file":"data/details/power-plants-27.json","plant_id":"62529","capacity_mw":74.0,"status_group":"Operating","energy_sources":"MWH; SUN","type":"Power plant","is_nuclear":false}},{"type":"Feature","geometry":{"type":"Point","coordinates":[-155.087,19.844]},"properties":{"key":"61364-32af67ce","layer":"power","name":"Hu Honua Bioenergy Facility","state":"HI","detail_file":"data/details/power-plants-63.json","plant_id":"61364","capacity_mw":36.0,"status_group":"Under construction","energy_sources":"OBS","type":"Power plant","is_nuclear":false}},{"type":"Feature","geometry":{"type":"Point","coordinates":[-155.062,19.705]},"properties":{"key":"769-00e976f9","layer":"power","name":"Kanoelehua","state":"HI","detail_file":"data/details/power-plants-58.json","plant_id":"769","capacity_mw":21.0,"status_group":"Operating","energy_sources":"DFO","type":"Power plant","is_nuclear":false}},{"type":"Feature","geometry":{"type":"Point","coordinates":[-155.737,19.88]},"properties":{"key":"69795-380b1e1a","layer":"power","name":"Keamuku","state":"HI","detail_file":"data/details/power-plants-58.json","plant_id":"69795","capacity_mw":172.0,"status_group":"Under construction","energy_sources":"MWH; SUN","type":"Power plant","is_nuclear":false}},{"type":"Feature","geometry":{"type":"Point","coordinates":[-155.009,19.657]},"properties":{"key":"68605-513fd1ef","layer":"power","name":"Mauna Loa Macadamia Nut","state":"HI","detail_file":"data/details/power-plants-42.json","plant_id":"68605","capacity_mw":1.3,"status_group":"Operating","energy_sources":"MWH; SUN","type":"Power plant","is_nuclear":false}},{"type":"Feature","geometry":{"type":"Point","coordinates":[-155.691,18.974]},"properties":{"key":"56378-30755878","layer":"power","name":"Pakini Nui Wind Farm","state":"HI","detail_file":"data/details/power-plants-19.json","plant_id":"56378","capacity_mw":21.0,"status_group":"Operating","energy_sources":"WND","type":"Power plant","is_nuclear":false}},{"type":"Feature","geometry":{"type":"Point","coordinates":[-155.031,19.632]},"properties":{"key":"7130-1d63cad6","layer":"power","name":"Puna","state":"HI","detail_file":"data/details/power-plants-00.json","plant_id":"7130","capacity_mw":39.1,"status_group":"Operating","energy_sources":"DFO; RFO","type":"Power plant","is_nuclear":false}},{"type":"Feature","geometry":{"type":"Point","coordinates":[-154.888,19.479]},"properties":{"key":"52028-cfd3bbbf","layer":"power","name":"Puna Geothermal Venture I","state":"HI","detail_file":"data/details/power-plants-28.json","plant_id":"52028","capacity_mw":51.0,"status_group":"Operating","energy_sources":"GEO","type":"Power plant","is_nuclear":false}},{"type":"Feature","geometry":{"type":"Point","coordinates":[-155.091,19.726]},"properties":{"key":"771-c02711ac","layer":"power","name":"Puueo","state":"HI","detail_file":"data/details/power-plants-06.json","plant_id":"771","capacity_mw":3.1,"status_group":"Operating","energy_sources":"WAT","type":"Power plant","is_nuclear":false}},{"type":"Feature","geometry":{"type":"Point","coordinates":[-155.061,19.704]},"properties":{"key":"772-96981ec2","layer":"power","name":"W H Hill","state":"HI","detail_file":"data/details/power-plants-20.json","plant_id":"772","capacity_mw":37.1,"status_group":"Operating","energy_sources":"RFO","type":"Power plant","is_nuclear":false}},{"type":"Feature","geometry":{"type":"Point","coordinates":[-155.119,19.72]},"properties":{"key":"774-f4d20fb2","layer":"power","name":"Waiau Hydro","state":"HI","detail_file":"data/details/power-plants-56.json","plant_id":"774","capacity_mw":1.0,"status_group":"Operating","energy_sources":"WAT","type":"Power plant","is_nuclear":false}},{"type":"Feature","geometry":{"type":"Point","coordinates":[-155.149,19.713]},"properties":{"key":"54827-806c2ace","layer":"power","name":"Wailuku River Hydroelectric","state":"HI","detail_file":"data/details/power-plants-27.json","plant_id":"54827","capacity_mw":10.4,"status_group":"Operating","energy_sources":"WAT","type":"Power plant","is_nuclear":false}}]}