{"type":"FeatureCollection","features":[{"type":"Feature","geometry":{"type":"Point","coordinates":[-166.538,53.892]},"properties":{"key":"7502-5bb27479","layer":"power","name":"Dutch Harbor","state":"AK","detail_file":"data/details/power-plants-17.json","plant_id":"7502","capacity_mw":21.9,"status_group":"Operating","energy_sources":"DFO","type":"Power plant","is_nuclear":false}},{"type":"Feature","geometry":{"type":"Point","coordinates":[-166.513,53.864]},"properties":{"key":"7503-f9cd36f2","layer":"power","name":"Unalaska Power Module","state":"AK","detail_file":"data/details/power-plants-24.json","plant_id":"7503","capacity_mw":1.1,"status_group":"Operating","energy_sources":"DFO","type":"Power plant","is_nuclear":false}},{"type":"Feature","geometry":{"type":"Point","coordinates":[-166.553,53.88]},"properties":{"key":"54422-39b4972d","layer":"power","name":"Unisea G 2","state":"AK","detail_file":"data/details/power-plants-37.json","plant_id":"54422","capacity_mw":17.5,"status_group":"Operating","energy_sources":"DFO","type":"Power plant","is_nuclear":false}},{"type":"Feature","geometry":{"type":"Point","coordinates":[-166.553,53.859]},"properties":{"key":"54305-34e63507","layer":"power","name":"Westward Seafoods","state":"AK","detail_file":"data/details/power-plants-17.json","plant_id":"54305","capacity_mw":6.6,"status_group":"Operating","energy_sources":"DFO","type":"Power plant","is_nuclear":false}}]}