{"type":"FeatureCollection","features":[{"type":"Feature","geometry":{"type":"Point","coordinates":[-123.726,40.526]},"properties":{"key":"59428-380f8f1d","layer":"power","name":"Baker Creek Hydroelectric","state":"CA","detail_file":"data/details/power-plants-08.json","plant_id":"59428","capacity_mw":1.5,"status_group":"Operating","energy_sources":"WAT","type":"Power plant","is_nuclear":false}},{"type":"Feature","geometry":{"type":"Point","coordinates":[-121.959,40.534]},"properties":{"key":"50156-edaab6ed","layer":"power","name":"Bear Creek (CA)","state":"CA","detail_file":"data/details/power-plants-47.json","plant_id":"50156","capacity_mw":3.2,"status_group":"Operating","energy_sources":"WAT","type":"Power plant","is_nuclear":false}},{"type":"Feature","geometry":{"type":"Point","coordinates":[-121.249,40.007]},"properties":{"key":"219-8431c37f","layer":"power","name":"Belden","state":"CA","detail_file":"data/details/power-plants-28.json","plant_id":"219","capacity_mw":117.9,"status_group":"Operating","energy_sources":"WAT","type":"Power plant","is_nuclear":false}},{"type":"Feature","geometry":{"type":"Point","coordinates":[-121.448,40.801]},"properties":{"key":"10880-9bd6e4f8","layer":"power","name":"Bidwell Ditch Project","state":"CA","detail_file":"data/details/power-plants-02.json","plant_id":"10880","capacity_mw":1.8,"status_group":"Operating","energy_sources":"WAT","type":"Power plant","is_nuclear":false}},{"type":"Feature","geometry":{"type":"Point","coordinates":[-123.498,40.647]},"properties":{"key":"10282-1a201735","layer":"power","name":"Big Creek Water Works","state":"CA","detail_file":"data/details/power-plants-41.json","plant_id":"10282","capacity_mw":5.0,"status_group":"Operating","energy_sources":"WAT","type":"Power plant","is_nuclear":false}},{"type":"Feature","geometry":{"type":"Point","coordinates":[-121.137,41.133]},"properties":{"key":"10288-d04eeeaa","layer":"power","name":"Big Valley Power LLC","state":"CA","detail_file":"data/details/power-plants-12.json","plant_id":"10288","capacity_mw":9.3,"status_group":"Operating","energy_sources":"WDS","type":"Power plant","is_nuclear":false}},{"type":"Feature","geometry":{"type":"Point","coordinates":[-123.994,40.879]},"properties":{"key":"10764-db230d07","layer":"power","name":"Blue Lake Power LLC","state":"CA","detail_file":"data/details/power-plants-54.json","plant_id":"10764","capacity_mw":13.8,"status_group":"Operating","energy_sources":"WDS","type":"Power plant","is_nuclear":false}},{"type":"Feature","geometry":{"type":"Point","coordinates":[-122.329,41.279]},"properties":{"key":"50179-effb0b8a","layer":"power","name":"Box Canyon Dam","state":"CA","detail_file":"data/details/power-plants-17.json","plant_id":"50179","capacity_mw":5.0,"status_group":"Operating","energy_sources":"WAT","type":"Power plant","is_nuclear":false}},{"type":"Feature","geometry":{"type":"Point","coordinates":[-121.722,40.858]},"properties":{"key":"10706-714d6e61","layer":"power","name":"Burney Creek","state":"CA","detail_file":"data/details/power-plants-42.json","plant_id":"10706","capacity_mw":3.0,"status_group":"Operating","energy_sources":"WAT","type":"Power plant","is_nuclear":false}},{"type":"Feature","geometry":{"type":"Point","coordinates":[-121.72,40.88]},"properties":{"key":"10652-07dcef62","layer":"power","name":"Burney Forest Products","state":"CA","detail_file":"data/details/power-plants-36.json","plant_id":"10652","capacity_mw":31.0,"status_group":"Operating","energy_sources":"WDS","type":"Power plant","is_nuclear":false}},{"type":"Feature","geometry":{"type":"Point","coordinates":[-121.191,40.176]},"properties":{"key":"221-79541e98","layer":"power","name":"Butt Valley","state":"CA","detail_file":"data/details/power-plants-57.json","plant_id":"221","capacity_mw":40.0,"status_group":"Operating","energy_sources":"WAT","type":"Power plant","is_nuclear":false}},{"type":"Feature","geometry":{"type":"Point","coordinates":[-121.148,40.085]},"properties":{"key":"222-251b0976","layer":"power","name":"Caribou 1","state":"CA","detail_file":"data/details/power-plants-21.json","plant_id":"222","capacity_mw":73.8,"status_group":"Operating","energy_sources":"WAT","type":"Power plant","is_nuclear":false}},{"type":"Feature","geometry":{"type":"Point","coordinates":[-121.149,40.086]},"properties":{"key":"223-1a38fac5","layer":"power","name":"Caribou 2","state":"CA","detail_file":"data/details/power-plants-35.json","plant_id":"223","capacity_mw":117.9,"status_group":"Operating","energy_sources":"WAT","type":"Power plant","is_nuclear":false}},{"type":"Feature","geometry":{"type":"Point","coordinates":[-122.122,40.405]},"properties":{"key":"227-d609ca27","layer":"power","name":"Coleman PH","state":"CA","detail_file":"data/details/power-plants-25.json","plant_id":"227","capacity_mw":12.1,"status_group":"Operating","energy_sources":"WAT","type":"Power plant","is_nuclear":false}},{"type":"Feature","geometry":{"type":"Point","coordinates":[-121.244,40.303]},"properties":{"key":"10661-d1c8484c","layer":"power","name":"Collins Pine Project","state":"CA","detail_file":"data/details/power-plants-61.json","plant_id":"10661","capacity_mw":5.0,"status_group":"Operating","energy_sources":"WDS","type":"Power plant","is_nuclear":false}},{"type":"Feature","geometry":{"type":"Point","coordinates":[-121.949,40.871]},"properties":{"key":"10707-ae0ea7c7","layer":"power","name":"Cove Hydroelectric","state":"CA","detail_file":"data/details/power-plants-40.json","plant_id":"10707","capacity_mw":5.0,"status_group":"Operating","energy_sources":"WAT","type":"Power plant","is_nuclear":false}},{"type":"Feature","geometry":{"type":"Point","coordinates":[-122.361,41.986]},"properties":{"key":"296-cfc6b15c","layer":"power","name":"Fall Creek","state":"CA","detail_file":"data/details/power-plants-28.json","plant_id":"296","capacity_mw":2.1,"status_group":"Operating","energy_sources":"WAT","type":"Power plant","is_nuclear":false}},{"type":"Feature","geometry":{"type":"Point","coordinates":[-122.194,40.111]},"properties":{"key":"58105-e28947a4","layer":"power","name":"Foundation Wal-Mart Red Bluff","state":"CA","detail_file":"data/details/power-plants-15.json","plant_id":"58105","capacity_mw":1.0,"status_group":"Operating","energy_sources":"WND","type":"Power plant","is_nuclear":false}},{"type":"Feature","geometry":{"type":"Point","coordinates":[-123.435,40.37]},"properties":{"key":"10128-2c44099d","layer":"power","name":"Gosselin Hydro Plant","state":"CA","detail_file":"data/details/power-plants-28.json","plant_id":"10128","capacity_mw":2.0,"status_group":"Operating","energy_sources":"WAT","type":"Power plant","is_nuclear":false}},{"type":"Feature","geometry":{"type":"Point","coordinates":[-120.265,40.368]},"properties":{"key":"10777-4e45a290","layer":"power","name":"HL Power","state":"CA","detail_file":"data/details/power-plants-15.json","plant_id":"10777","capacity_mw":36.2,"status_group":"Operating","energy_sources":"WDS","type":"Power plant","is_nuclear":false}},{"type":"Feature","geometry":{"type":"Point","coordinates":[-120.262,40.373]},"properties":{"key":"62655-4419078f","layer":"power","name":"HL Solar (Lassen)","state":"CA","detail_file":"data/details/power-plants-11.json","plant_id":"62655","capacity_mw":7.6,"status_group":"Operating","energy_sources":"SUN","type":"Power plant","is_nuclear":false}},{"type":"Feature","geometry":{"type":"Point","coordinates":[-121.09,40.269]},"properties":{"key":"242-6830835d","layer":"power","name":"Hamilton Branch","state":"CA","detail_file":"data/details/power-plants-45.json","plant_id":"242","capacity_mw":5.3,"status_group":"Operating","energy_sources":"WAT","type":"Power plant","is_nuclear":false}},{"type":"Feature","geometry":{"type":"Point","coordinates":[-121.544,40.929]},"properties":{"key":"243-a23a6278","layer":"power","name":"Hat Creek 1","state":"CA","detail_file":"data/details/power-plants-10.json","plant_id":"243","capacity_mw":10.0,"status_group":"Operating","energy_sources":"WAT","type":"Power plant","is_nuclear":false}},{"type":"Feature","geometry":{"type":"Point","coordinates":[-121.549,40.961]},"properties":{"key":"244-3eb2bb0e","layer":"power","name":"Hat Creek 2","state":"CA","detail_file":"data/details/power-plants-26.json","plant_id":"244","capacity_mw":10.0,"status_group":"Operating","energy_sources":"WAT","type":"Power plant","is_nuclear":false}},{"type":"Feature","geometry":{"type":"Point","coordinates":[-121.623,40.988]},"properties":{"key":"67360-3297c22c","layer":"power","name":"Hat Creek Bioenergy","state":"CA","detail_file":"data/details/power-plants-04.json","plant_id":"67360","capacity_mw":3.6,"status_group":"Operating","energy_sources":"WDS","type":"Power plant","is_nuclear":false}},{"type":"Feature","geometry":{"type":"Point","coordinates":[-121.92,40.874]},"properties":{"key":"10882-6fa20a2c","layer":"power","name":"Hatchet Creek Project","state":"CA","detail_file":"data/details/power-plants-52.json","plant_id":"10882","capacity_mw":6.8,"status_group":"Operating","energy_sources":"WAT","type":"Power plant","is_nuclear":false}},{"type":"Feature","geometry":{"type":"Point","coordinates":[-121.804,40.898]},"properties":{"key":"56654-0442f0ff","layer":"power","name":"Hatchet Ridge Wind Project","state":"CA","detail_file":"data/details/power-plants-05.json","plant_id":"56654","capacity_mw":101.2,"status_group":"Operating","energy_sources":"WND","type":"Power plant","is_nuclear":false}},{"type":"Feature","geometry":{"type":"Point","coordinates":[-120.477,40.413]},"properties":{"key":"57977-3d51bfc2","layer":"power","name":"High Sierra Cogeneration Plant","state":"CA","detail_file":"data/details/power-plants-34.json","plant_id":"57977","capacity_mw":6.2,"status_group":"Operating","energy_sources":"NG","type":"Power plant","is_nuclear":false}},{"type":"Feature","geometry":{"type":"Point","coordinates":[-121.966,40.401]},"properties":{"key":"248-72257a37","layer":"power","name":"Inskip","state":"CA","detail_file":"data/details/power-plants-25.json","plant_id":"248","capacity_mw":7.6,"status_group":"Operating","energy_sources":"WAT","type":"Power plant","is_nuclear":false}},{"type":"Feature","geometry":{"type":"Point","coordinates":[-121.975,40.992]},"properties":{"key":"249-ba82087d","layer":"power","name":"James B Black","state":"CA","detail_file":"data/details/power-plants-61.json","plant_id":"249","capacity_mw":168.6,"status_group":"Operating","energy_sources":"WAT","type":"Power plant","is_nuclear":false}},{"type":"Feature","geometry":{"type":"Point","coordinates":[-122.627,40.647]},"properties":{"key":"442-ca796c9c","layer":"power","name":"Judge F Carr","state":"CA","detail_file":"data/details/power-plants-16.json","plant_id":"442","capacity_mw":154.4,"status_group":"Operating","energy_sources":"WAT","type":"Power plant","is_nuclear":false}},{"type":"Feature","geometry":{"type":"Point","coordinates":[-123.509,40.094]},"properties":{"key":"54654-397bfd34","layer":"power","name":"Kekawaka Power House","state":"CA","detail_file":"data/details/power-plants-07.json","plant_id":"54654","capacity_mw":4.9,"status_group":"Operating","energy_sources":"WAT","type":"Power plant","is_nuclear":false}},{"type":"Feature","geometry":{"type":"Point","coordinates":[-122.446,40.612]},"properties":{"key":"443-8bef0edf","layer":"power","name":"Keswick","state":"CA","detail_file":"data/details/power-plants-09.json","plant_id":"443","capacity_mw":117.0,"status_group":"Operating","energy_sources":"WAT","type":"Power plant","is_nuclear":false}},{"type":"Feature","geometry":{"type":"Point","coordinates":[-121.415,40.758]},"properties":{"key":"10708-ba5b8ecd","layer":"power","name":"Lost Creek I","state":"CA","detail_file":"data/details/power-plants-11.json","plant_id":"10708","capacity_mw":1.1,"status_group":"Operating","energy_sources":"WAT","type":"Power plant","is_nuclear":false}},{"type":"Feature","geometry":{"type":"Point","coordinates":[-121.956,40.847]},"properties":{"key":"55009-05c0b8fd","layer":"power","name":"Montgomery Creek Hydro","state":"CA","detail_file":"data/details/power-plants-15.json","plant_id":"55009","capacity_mw":2.6,"status_group":"Operating","energy_sources":"WAT","type":"Power plant","is_nuclear":false}},{"type":"Feature","geometry":{"type":"Point","coordinates":[-121.256,40.976]},"properties":{"key":"10458-2c8b2cbe","layer":"power","name":"Muck Valley Hydroelectric","state":"CA","detail_file":"data/details/power-plants-34.json","plant_id":"10458","capacity_mw":29.9,"status_group":"Operating","energy_sources":"WAT","type":"Power plant","is_nuclear":false}},{"type":"Feature","geometry":{"type":"Point","coordinates":[-121.892,41.029]},"properties":{"key":"50223-1f6a0347","layer":"power","name":"Nelson Creek","state":"CA","detail_file":"data/details/power-plants-23.json","plant_id":"50223","capacity_mw":1.2,"status_group":"Operating","energy_sources":"WAT","type":"Power plant","is_nuclear":false}},{"type":"Feature","geometry":{"type":"Point","coordinates":[-121.161,40.075]},"properties":{"key":"626-3530d382","layer":"power","name":"Oak Flat","state":"CA","detail_file":"data/details/power-plants-35.json","plant_id":"626","capacity_mw":1.4,"status_group":"Operating","energy_sources":"WAT","type":"Power plant","is_nuclear":false}},{"type":"Feature","geometry":{"type":"Point","coordinates":[-121.928,40.637]},"properties":{"key":"50180-60d3caf7","layer":"power","name":"Olsen","state":"CA","detail_file":"data/details/power-plants-63.json","plant_id":"50180","capacity_mw":5.0,"status_group":"Operating","energy_sources":"WAT","type":"Power plant","is_nuclear":false}},{"type":"Feature","geometry":{"type":"Point","coordinates":[-120.123,40.15]},"properties":{"key":"63493-48a9d77d","layer":"power","name":"PSREC/SIAD Solar","state":"CA","detail_file":"data/details/power-plants-59.json","plant_id":"63493","capacity_mw":2.5,"status_group":"Operating","energy_sources":"SUN","type":"Power plant","is_nuclear":false}},{"type":"Feature","geometry":{"type":"Point","coordinates":[-121.498,40.991]},"properties":{"key":"265-2ebb3f4b","layer":"power","name":"Pit 1","state":"CA","detail_file":"data/details/power-plants-63.json","plant_id":"265","capacity_mw":69.2,"status_group":"Operating","energy_sources":"WAT","type":"Power plant","is_nuclear":false}},{"type":"Feature","geometry":{"type":"Point","coordinates":[-121.748,40.997]},"properties":{"key":"266-6a09e3fe","layer":"power","name":"Pit 3","state":"CA","detail_file":"data/details/power-plants-07.json","plant_id":"266","capacity_mw":80.1,"status_group":"Operating","energy_sources":"WAT","type":"Power plant","is_nuclear":false}},{"type":"Feature","geometry":{"type":"Point","coordinates":[-121.849,40.986]},"properties":{"key":"267-6734d706","layer":"power","name":"Pit 4","state":"CA","detail_file":"data/details/power-plants-11.json","plant_id":"267","capacity_mw":103.4,"status_group":"Operating","energy_sources":"WAT","type":"Power plant","is_nuclear":false}},{"type":"Feature","geometry":{"type":"Point","coordinates":[-121.978,40.986]},"properties":{"key":"268-cf58e58a","layer":"power","name":"Pit 5","state":"CA","detail_file":"data/details/power-plants-56.json","plant_id":"268","capacity_mw":141.6,"status_group":"Operating","energy_sources":"WAT","type":"Power plant","is_nuclear":false}},{"type":"Feature","geometry":{"type":"Point","coordinates":[-121.993,40.923]},"properties":{"key":"269-f321bd9b","layer":"power","name":"Pit 6","state":"CA","detail_file":"data/details/power-plants-16.json","plant_id":"269","capacity_mw":79.2,"status_group":"Operating","energy_sources":"WAT","type":"Power plant","is_nuclear":false}},{"type":"Feature","geometry":{"type":"Point","coordinates":[-121.991,40.847]},"properties":{"key":"270-551c27fa","layer":"power","name":"Pit 7","state":"CA","detail_file":"data/details/power-plants-37.json","plant_id":"270","capacity_mw":109.8,"status_group":"Operating","energy_sources":"WAT","type":"Power plant","is_nuclear":false}},{"type":"Feature","geometry":{"type":"Point","coordinates":[-121.843,40.458]},"properties":{"key":"10709-65d62f90","layer":"power","name":"Ponderosa Bailey Creek","state":"CA","detail_file":"data/details/power-plants-28.json","plant_id":"10709","capacity_mw":1.1,"status_group":"Operating","energy_sources":"WAT","type":"Power plant","is_nuclear":false}},{"type":"Feature","geometry":{"type":"Point","coordinates":[-122.212,40.15]},"properties":{"key":"56184-725da7ce","layer":"power","name":"Red Bluff","state":"CA","detail_file":"data/details/power-plants-32.json","plant_id":"56184","capacity_mw":46.4,"status_group":"Operating","energy_sources":"NG","type":"Power plant","is_nuclear":false}},{"type":"Feature","geometry":{"type":"Point","coordinates":[-122.423,40.507]},"properties":{"key":"7307-95729896","layer":"power","name":"Redding Power","state":"CA","detail_file":"data/details/power-plants-39.json","plant_id":"7307","capacity_mw":183.1,"status_group":"Operating","energy_sources":"NG","type":"Power plant","is_nuclear":false}},{"type":"Feature","geometry":{"type":"Point","coordinates":[-121.948,40.882]},"properties":{"key":"10881-988cd7c3","layer":"power","name":"Roaring Creek Water Power","state":"CA","detail_file":"data/details/power-plants-04.json","plant_id":"10881","capacity_mw":2.0,"status_group":"Operating","energy_sources":"WAT","type":"Power plant","is_nuclear":false}},{"type":"Feature","geometry":{"type":"Point","coordinates":[-122.377,41.436]},"properties":{"key":"56469-97ba591f","layer":"power","name":"Roseburg Forest Products Biomass","state":"CA","detail_file":"data/details/power-plants-31.json","plant_id":"56469","capacity_mw":13.4,"status_group":"Operating","energy_sources":"WDS","type":"Power plant","is_nuclear":false}},{"type":"Feature","geometry":{"type":"Point","coordinates":[-122.324,40.472]},"properties":{"key":"59658-ae4503be","layer":"power","name":"SPI Anderson 2","state":"CA","detail_file":"data/details/power-plants-39.json","plant_id":"59658","capacity_mw":30.2,"status_group":"Operating","energy_sources":"WDS","type":"Power plant","is_nuclear":false}},{"type":"Feature","geometry":{"type":"Point","coordinates":[-122.422,40.717]},"properties":{"key":"445-45f2919b","layer":"power","name":"Shasta","state":"CA","detail_file":"data/details/power-plants-50.json","plant_id":"445","capacity_mw":714.0,"status_group":"Operating","energy_sources":"WAT","type":"Power plant","is_nuclear":false}},{"type":"Feature","geometry":{"type":"Point","coordinates":[-122.314,40.625]},"properties":{"key":"65940-09c57a34","layer":"power","name":"Shasta College PH2 Solar Project","state":"CA","detail_file":"data/details/power-plants-11.json","plant_id":"65940","capacity_mw":2.0,"status_group":"Operating","energy_sources":"MWH; SUN","type":"Power plant","is_nuclear":false}},{"type":"Feature","geometry":{"type":"Point","coordinates":[-121.422,41.031]},"properties":{"key":"58814-7e35d825","layer":"power","name":"Shasta Solar Farm","state":"CA","detail_file":"data/details/power-plants-30.json","plant_id":"58814","capacity_mw":3.0,"status_group":"Operating","energy_sources":"SUN","type":"Power plant","is_nuclear":false}},{"type":"Feature","geometry":{"type":"Point","coordinates":[-121.702,40.877]},"properties":{"key":"50110-c474fb34","layer":"power","name":"Sierra Pacific Burney Facility","state":"CA","detail_file":"data/details/power-plants-50.json","plant_id":"50110","capacity_mw":20.0,"status_group":"Operating","energy_sources":"WDS","type":"Power plant","is_nuclear":false}},{"type":"Feature","geometry":{"type":"Point","coordinates":[-122.192,40.121]},"properties":{"key":"63416-be33595e","layer":"power","name":"Sierra Pacific Industries (2042-RD)","state":"CA","detail_file":"data/details/power-plants-40.json","plant_id":"63416","capacity_mw":8.4,"status_group":"Operating","energy_sources":"SUN","type":"Power plant","is_nuclear":false}},{"type":"Feature","geometry":{"type":"Point","coordinates":[-122.456,40.977]},"properties":{"key":"50961-918d117d","layer":"power","name":"Slate Creek","state":"CA","detail_file":"data/details/power-plants-59.json","plant_id":"50961","capacity_mw":4.2,"status_group":"Operating","energy_sources":"WAT","type":"Power plant","is_nuclear":false}},{"type":"Feature","geometry":{"type":"Point","coordinates":[-121.879,40.395]},"properties":{"key":"280-4f16343c","layer":"power","name":"South","state":"CA","detail_file":"data/details/power-plants-30.json","plant_id":"280","capacity_mw":6.7,"status_group":"Operating","energy_sources":"WAT","type":"Power plant","is_nuclear":false}},{"type":"Feature","geometry":{"type":"Point","coordinates":[-122.468,40.628]},"properties":{"key":"450-421a205a","layer":"power","name":"Spring Creek","state":"CA","detail_file":"data/details/power-plants-61.json","plant_id":"450","capacity_mw":180.0,"status_group":"Operating","energy_sources":"WAT","type":"Power plant","is_nuclear":false}},{"type":"Feature","geometry":{"type":"Point","coordinates":[-123.523,40.2]},"properties":{"key":"54308-860ef785","layer":"power","name":"Three Forks Water Power Project","state":"CA","detail_file":"data/details/power-plants-42.json","plant_id":"54308","capacity_mw":1.3,"status_group":"Operating","energy_sources":"WAT","type":"Power plant","is_nuclear":false}},{"type":"Feature","geometry":{"type":"Point","coordinates":[-122.763,40.797]},"properties":{"key":"451-f7573a24","layer":"power","name":"Trinity","state":"CA","detail_file":"data/details/power-plants-63.json","plant_id":"451","capacity_mw":140.0,"status_group":"Operating","energy_sources":"WAT","type":"Power plant","is_nuclear":false}},{"type":"Feature","geometry":{"type":"Point","coordinates":[-121.867,40.459]},"properties":{"key":"290-0c68bb7e","layer":"power","name":"Volta 1","state":"CA","detail_file":"data/details/power-plants-52.json","plant_id":"290","capacity_mw":8.5,"status_group":"Operating","energy_sources":"WAT","type":"Power plant","is_nuclear":false}},{"type":"Feature","geometry":{"type":"Point","coordinates":[-121.862,40.452]},"properties":{"key":"180-a29ba6b4","layer":"power","name":"Volta 2","state":"CA","detail_file":"data/details/power-plants-31.json","plant_id":"180","capacity_mw":1.0,"status_group":"Operating","energy_sources":"WAT","type":"Power plant","is_nuclear":false}},{"type":"Feature","geometry":{"type":"Point","coordinates":[-122.279,40.428]},"properties":{"key":"50881-59cc9bd0","layer":"power","name":"Wheelabrator Shasta","state":"CA","detail_file":"data/details/power-plants-56.json","plant_id":"50881","capacity_mw":54.9,"status_group":"Operating","energy_sources":"WDS","type":"Power plant","is_nuclear":false}},{"type":"Feature","geometry":{"type":"Point","coordinates":[-122.539,40.598]},"properties":{"key":"7189-c9ef0d8f","layer":"power","name":"Whiskeytown","state":"CA","detail_file":"data/details/power-plants-12.json","plant_id":"7189","capacity_mw":3.5,"status_group":"Operating","energy_sources":"WAT","type":"Power plant","is_nuclear":false}},{"type":"Feature","geometry":{"type":"Point","coordinates":[-120.402,42.17]},"properties":{"key":"62560-2115e0f5","layer":"power","name":"Airport Solar","state":"OR","detail_file":"data/details/power-plants-11.json","plant_id":"62560","capacity_mw":47.3,"status_group":"Operating","energy_sources":"SUN","type":"Power plant","is_nuclear":false}},{"type":"Feature","geometry":{"type":"Point","coordinates":[-121.004,43.319]},"properties":{"key":"63795-619f0fc8","layer":"power","name":"Alkali Solar, LLC","state":"OR","detail_file":"data/details/power-plants-16.json","plant_id":"63795","capacity_mw":10.0,"status_group":"Operating","energy_sources":"SUN","type":"Power plant","is_nuclear":false}},{"type":"Feature","geometry":{"type":"Point","coordinates":[-122.833,42.468]},"properties":{"key":"68444-ffbf92a2","layer":"power","name":"Antelope Creek","state":"OR","detail_file":"data/details/power-plants-46.json","plant_id":"68444","capacity_mw":2.3,"status_group":"Operating","energy_sources":"SUN","type":"Power plant","is_nuclear":false}},{"type":"Feature","geometry":{"type":"Point","coordinates":[-120.36,42.175]},"properties":{"key":"60616-45763308","layer":"power","name":"BC Solar","state":"OR","detail_file":"data/details/power-plants-63.json","plant_id":"60616","capacity_mw":8.0,"status_group":"Operating","energy_sources":"SUN","type":"Power plant","is_nuclear":false}},{"type":"Feature","geometry":{"type":"Point","coordinates":[-122.85,42.436]},"properties":{"key":"10869-bbcf272f","layer":"power","name":"Biomass One LP","state":"OR","detail_file":"data/details/power-plants-59.json","plant_id":"10869","capacity_mw":40.0,"status_group":"Operating","energy_sources":"WDS","type":"Power plant","is_nuclear":false}},{"type":"Feature","geometry":{"type":"Point","coordinates":[-120.363,42.175]},"properties":{"key":"58150-24cce5dc","layer":"power","name":"Black Cap Solar Plant","state":"OR","detail_file":"data/details/power-plants-52.json","plant_id":"58150","capacity_mw":2.0,"status_group":"Operating","energy_sources":"SUN","type":"Power plant","is_nuclear":false}},{"type":"Feature","geometry":{"type":"Point","coordinates":[-123.008,42.404]},"properties":{"key":"68320-40ab5c42","layer":"power","name":"Blackwell Creek Solar","state":"OR","detail_file":"data/details/power-plants-45.json","plant_id":"68320","capacity_mw":1.4,"status_group":"Operating","energy_sources":"SUN","type":"Power plant","is_nuclear":false}},{"type":"Feature","geometry":{"type":"Point","coordinates":[-121.025,42.392]},"properties":{"key":"62272-7a577d60","layer":"power","name":"Bly Solar Center","state":"OR","detail_file":"data/details/power-plants-46.json","plant_id":"62272","capacity_mw":8.0,"status_group":"Operating","energy_sources":"SUN","type":"Power plant","is_nuclear":false}},{"type":"Feature","geometry":{"type":"Point","coordinates":[-121.685,42.166]},"properties":{"key":"58470-8d06449e","layer":"power","name":"C-Drop Hydro","state":"OR","detail_file":"data/details/power-plants-49.json","plant_id":"58470","capacity_mw":1.1,"status_group":"Operating","energy_sources":"WAT","type":"Power plant","is_nuclear":false}},{"type":"Feature","geometry":{"type":"Point","coordinates":[-123.262,42.957]},"properties":{"key":"66340-ac8fe0bc","layer":"power","name":"Canyonville Solar LLC (CSG)","state":"OR","detail_file":"data/details/power-plants-60.json","plant_id":"66340","capacity_mw":2.5,"status_group":"Under construction","energy_sources":"SUN","type":"Power plant","is_nuclear":false}},{"type":"Feature","geometry":{"type":"Point","coordinates":[-121.861,42.611]},"properties":{"key":"61631-47eeed87","layer":"power","name":"Chiloquin Solar, LLC","state":"OR","detail_file":"data/details/power-plants-47.json","plant_id":"61631","capacity_mw":9.9,"status_group":"Operating","energy_sources":"SUN","type":"Power plant","is_nuclear":false}},{"type":"Feature","geometry":{"type":"Point","coordinates":[-122.338,43.251]},"properties":{"key":"3020-59886a5e","layer":"power","name":"Clearwater 1","state":"OR","detail_file":"data/details/power-plants-39.json","plant_id":"3020","capacity_mw":15.0,"status_group":"Operating","energy_sources":"WAT","type":"Power plant","is_nuclear":false}},{"type":"Feature","geometry":{"type":"Point","coordinates":[-122.41,43.267]},"properties":{"key":"3021-3ea51c49","layer":"power","name":"Clearwater 2","state":"OR","detail_file":"data/details/power-plants-08.json","plant_id":"3021","capacity_mw":26.0,"status_group":"Operating","energy_sources":"WAT","type":"Power plant","is_nuclear":false}},{"type":"Feature","geometry":{"type":"Point","coordinates":[-123.359,42.961]},"properties":{"key":"50993-4a2db941","layer":"power","name":"Co-Gen II LLC","state":"OR","detail_file":"data/details/power-plants-50.json","plant_id":"50993","capacity_mw":7.5,"status_group":"Operating","energy_sources":"WDS","type":"Power plant","is_nuclear":false}},{"type":"Feature","geometry":{"type":"Point","coordinates":[-122.805,43.924]},"properties":{"key":"3078-10d61308","layer":"power","name":"Dexter","state":"OR","detail_file":"data/details/power-plants-60.json","plant_id":"3078","capacity_mw":15.0,"status_group":"Operating","energy_sources":"WAT","type":"Power plant","is_nuclear":false}},{"type":"Feature","geometry":{"type":"Point","coordinates":[-123.416,43.09]},"properties":{"key":"50396-decc520e","layer":"power","name":"Dillard Complex","state":"OR","detail_file":"data/details/power-plants-19.json","plant_id":"50396","capacity_mw":51.5,"status_group":"Operating","energy_sources":"WDS","type":"Power plant","is_nuclear":false}},{"type":"Feature","geometry":{"type":"Point","coordinates":[-122.958,43.787]},"properties":{"key":"59357-bcef9800","layer":"power","name":"Dorena Hydro-Electric Facility","state":"OR","detail_file":"data/details/power-plants-44.json","plant_id":"59357","capacity_mw":7.5,"status_group":"Operating","energy_sources":"WAT","type":"Power plant","is_nuclear":false}},{"type":"Feature","geometry":{"type":"Point","coordinates":[-123.362,43.29]},"properties":{"key":"61761-ba8cc679","layer":"power","name":"Douglas County Forest Products","state":"OR","detail_file":"data/details/power-plants-60.json","plant_id":"61761","capacity_mw":6.3,"status_group":"Operating","energy_sources":"WDS","type":"Power plant","is_nuclear":false}},{"type":"Feature","geometry":{"type":"Point","coordinates":[-122.772,42.384]},"properties":{"key":"56461-37dc30fc","layer":"power","name":"Dry Creek LFG to Energy Project","state":"OR","detail_file":"data/details/power-plants-07.json","plant_id":"56461","capacity_mw":3.2,"status_group":"Operating","energy_sources":"LFG","type":"Power plant","is_nuclear":false}},{"type":"Feature","geometry":{"type":"Point","coordinates":[-122.757,42.515]},"properties":{"key":"3024-26e8ee54","layer":"power","name":"Eagle Point","state":"OR","detail_file":"data/details/power-plants-46.json","plant_id":"3024","capacity_mw":2.8,"status_group":"Operating","energy_sources":"WAT","type":"Power plant","is_nuclear":false}},{"type":"Feature","geometry":{"type":"Point","coordinates":[-122.829,42.401]},"properties":{"key":"61560-a3363dd7","layer":"power","name":"Eagle Point Solar","state":"OR","detail_file":"data/details/power-plants-53.json","plant_id":"61560","capacity_mw":9.9,"status_group":"Operating","energy_sources":"SUN","type":"Power plant","is_nuclear":false}},{"type":"Feature","geometry":{"type":"Point","coordinates":[-121.796,42.225]},"properties":{"key":"3025-592b690b","layer":"power","name":"East Side","state":"OR","detail_file":"data/details/power-plants-36.json","plant_id":"3025","capacity_mw":3.2,"status_group":"Operating","energy_sources":"WAT","type":"Power plant","is_nuclear":false}},{"type":"Feature","geometry":{"type":"Point","coordinates":[-122.449,43.274]},"properties":{"key":"3026-5f56403c","layer":"power","name":"Fish Creek","state":"OR","detail_file":"data/details/power-plants-23.json","plant_id":"3026","capacity_mw":11.0,"status_group":"Operating","energy_sources":"WAT","type":"Power plant","is_nuclear":false}},{"type":"Feature","geometry":{"type":"Point","coordinates":[-121.004,43.32]},"properties":{"key":"63636-4f052cd8","layer":"power","name":"Fort Rock I","state":"OR","detail_file":"data/details/power-plants-24.json","plant_id":"63636","capacity_mw":9.9,"status_group":"Operating","energy_sources":"SUN","type":"Power plant","is_nuclear":false}},{"type":"Feature","geometry":{"type":"Point","coordinates":[-120.956,43.39]},"properties":{"key":"63926-2dcf39b6","layer":"power","name":"Fort Rock IV","state":"OR","detail_file":"data/details/power-plants-38.json","plant_id":"63926","capacity_mw":10.0,"status_group":"Operating","energy_sources":"SUN","type":"Power plant","is_nuclear":false}},{"type":"Feature","geometry":{"type":"Point","coordinates":[-123.178,42.849]},"properties":{"key":"50938-cbe76ac7","layer":"power","name":"Galesville Project","state":"OR","detail_file":"data/details/power-plants-26.json","plant_id":"50938","capacity_mw":1.6,"status_group":"Operating","energy_sources":"WAT","type":"Power plant","is_nuclear":false}},{"type":"Feature","geometry":{"type":"Point","coordinates":[-120.4,42.16]},"properties":{"key":"63301-f412e50b","layer":"power","name":"Garrett Solar","state":"OR","detail_file":"data/details/power-plants-12.json","plant_id":"63301","capacity_mw":10.0,"status_group":"Operating","energy_sources":"SUN","type":"Power plant","is_nuclear":false}},{"type":"Feature","geometry":{"type":"Point","coordinates":[-122.548,42.121]},"properties":{"key":"6403-de2039d1","layer":"power","name":"Green Springs","state":"OR","detail_file":"data/details/power-plants-06.json","plant_id":"6403","capacity_mw":17.2,"status_group":"Operating","energy_sources":"WAT","type":"Power plant","is_nuclear":false}},{"type":"Feature","geometry":{"type":"Point","coordinates":[-122.424,43.711]},"properties":{"key":"3081-eb505d66","layer":"power","name":"Hills Creek","state":"OR","detail_file":"data/details/power-plants-01.json","plant_id":"3081","capacity_mw":30.0,"status_group":"Operating","energy_sources":"WAT","type":"Power plant","is_nuclear":false}},{"type":"Feature","geometry":{"type":"Point","coordinates":[-123.63,42.134]},"properties":{"key":"68550-31153b37","layer":"power","name":"Kelly Creek Solar","state":"OR","detail_file":"data/details/power-plants-59.json","plant_id":"68550","capacity_mw":2.3,"status_group":"Operating","energy_sources":"SUN","type":"Power plant","is_nuclear":false}},{"type":"Feature","geometry":{"type":"Point","coordinates":[-121.811,42.174]},"properties":{"key":"55103-17a7637f","layer":"power","name":"Klamath Cogeneration Plant","state":"OR","detail_file":"data/details/power-plants-36.json","plant_id":"55103","capacity_mw":501.5,"status_group":"Operating","energy_sources":"NG","type":"Power plant","is_nuclear":false}},{"type":"Feature","geometry":{"type":"Point","coordinates":[-121.814,42.173]},"properties":{"key":"55544-72f413e2","layer":"power","name":"Klamath Expansion Project","state":"OR","detail_file":"data/details/power-plants-25.json","plant_id":"55544","capacity_mw":117.6,"status_group":"Operating","energy_sources":"NG","type":"Power plant","is_nuclear":false}},{"type":"Feature","geometry":{"type":"Point","coordinates":[-121.764,42.183]},"properties":{"key":"61553-ee1abd7f","layer":"power","name":"Klamath Falls Solar 2 CSG","state":"OR","detail_file":"data/details/power-plants-35.json","plant_id":"61553","capacity_mw":2.9,"status_group":"Operating","energy_sources":"SUN","type":"Power plant","is_nuclear":false}},{"type":"Feature","geometry":{"type":"Point","coordinates":[-122.249,43.356]},"properties":{"key":"3029-b0f56ea6","layer":"power","name":"Lemolo 1","state":"OR","detail_file":"data/details/power-plants-09.json","plant_id":"3029","capacity_mw":32.0,"status_group":"Operating","energy_sources":"WAT","type":"Power plant","is_nuclear":false}},{"type":"Feature","geometry":{"type":"Point","coordinates":[-122.403,43.281]},"properties":{"key":"6421-59c20ecc","layer":"power","name":"Lemolo 2","state":"OR","detail_file":"data/details/power-plants-60.json","plant_id":"6421","capacity_mw":43.7,"status_group":"Operating","energy_sources":"WAT","type":"Power plant","is_nuclear":false}},{"type":"Feature","geometry":{"type":"Point","coordinates":[-121.815,42.208]},"properties":{"key":"65749-c0876465","layer":"power","name":"Linkville Solar (CSG)","state":"OR","detail_file":"data/details/power-plants-60.json","plant_id":"65749","capacity_mw":2.8,"status_group":"Operating","energy_sources":"SUN","type":"Power plant","is_nuclear":false}},{"type":"Feature","geometry":{"type":"Point","coordinates":[-122.753,43.915]},"properties":{"key":"3083-531373cf","layer":"power","name":"Lookout Point","state":"OR","detail_file":"data/details/power-plants-16.json","plant_id":"3083","capacity_mw":120.0,"status_group":"Operating","energy_sources":"WAT","type":"Power plant","is_nuclear":false}},{"type":"Feature","geometry":{"type":"Point","coordinates":[-122.677,42.672]},"properties":{"key":"6174-c89f7783","layer":"power","name":"Lost Creek","state":"OR","detail_file":"data/details/power-plants-17.json","plant_id":"6174","capacity_mw":49.0,"status_group":"Operating","energy_sources":"WAT","type":"Power plant","is_nuclear":false}},{"type":"Feature","geometry":{"type":"Point","coordinates":[-122.905,42.356]},"properties":{"key":"56193-5e86ea4d","layer":"power","name":"Medford Operation","state":"OR","detail_file":"data/details/power-plants-44.json","plant_id":"56193","capacity_mw":8.5,"status_group":"Operating","energy_sources":"WDS","type":"Power plant","is_nuclear":false}},{"type":"Feature","geometry":{"type":"Point","coordinates":[-121.614,42.695]},"properties":{"key":"62268-5c759426","layer":"power","name":"NorWest Energy 4, LLC","state":"OR","detail_file":"data/details/power-plants-18.json","plant_id":"62268","capacity_mw":5.6,"status_group":"Operating","energy_sources":"SUN","type":"Power plant","is_nuclear":false}},{"type":"Feature","geometry":{"type":"Point","coordinates":[-121.786,42.259]},"properties":{"key":"67741-140e1b9c","layer":"power","name":"OIT BESS","state":"OR","detail_file":"data/details/power-plants-33.json","plant_id":"67741","capacity_mw":2.0,"status_group":"Under construction","energy_sources":"MWH","type":"Power plant","is_nuclear":false}},{"type":"Feature","geometry":{"type":"Point","coordinates":[-123.624,42.153]},"properties":{"key":"68888-c7da4059","layer":"power","name":"OR - Chapman Creek - Greenkey CSG","state":"OR","detail_file":"data/details/power-plants-36.json","plant_id":"68888","capacity_mw":3.0,"status_group":"Operating","energy_sources":"SUN","type":"Power plant","is_nuclear":false}},{"type":"Feature","geometry":{"type":"Point","coordinates":[-122.781,42.542]},"properties":{"key":"61200-5b1ce8be","layer":"power","name":"OR Solar 2, LLC","state":"OR","detail_file":"data/details/power-plants-45.json","plant_id":"61200","capacity_mw":10.0,"status_group":"Operating","energy_sources":"SUN","type":"Power plant","is_nuclear":false}},{"type":"Feature","geometry":{"type":"Point","coordinates":[-121.419,42.022]},"properties":{"key":"61201-2dc3538c","layer":"power","name":"OR Solar 3, LLC","state":"OR","detail_file":"data/details/power-plants-21.json","plant_id":"61201","capacity_mw":10.0,"status_group":"Operating","energy_sources":"SUN","type":"Power plant","is_nuclear":false}},{"type":"Feature","geometry":{"type":"Point","coordinates":[-121.612,42.03]},"properties":{"key":"61423-3bd48b61","layer":"power","name":"OR Solar 5, LLC","state":"OR","detail_file":"data/details/power-plants-01.json","plant_id":"61423","capacity_mw":8.0,"status_group":"Operating","energy_sources":"SUN","type":"Power plant","is_nuclear":false}},{"type":"Feature","geometry":{"type":"Point","coordinates":[-120.368,42.209]},"properties":{"key":"61430-22662488","layer":"power","name":"OR Solar 6, LLC","state":"OR","detail_file":"data/details/power-plants-20.json","plant_id":"61430","capacity_mw":10.0,"status_group":"Operating","energy_sources":"SUN","type":"Power plant","is_nuclear":false}},{"type":"Feature","geometry":{"type":"Point","coordinates":[-121.586,42.239]},"properties":{"key":"61424-bb8880ca","layer":"power","name":"OR Solar 8, LLC","state":"OR","detail_file":"data/details/power-plants-34.json","plant_id":"61424","capacity_mw":10.0,"status_group":"Operating","energy_sources":"SUN","type":"Power plant","is_nuclear":false}},{"type":"Feature","geometry":{"type":"Point","coordinates":[-120.822,43.312]},"properties":{"key":"63488-875bd8c9","layer":"power","name":"Obsidian Solar Center","state":"OR","detail_file":"data/details/power-plants-11.json","plant_id":"63488","capacity_mw":400.0,"status_group":"Under construction","energy_sources":"SUN","type":"Power plant","is_nuclear":false}},{"type":"Feature","geometry":{"type":"Point","coordinates":[-121.046,42.203]},"properties":{"key":"59374-c5f4d26c","layer":"power","name":"Old Mill Solar","state":"OR","detail_file":"data/details/power-plants-54.json","plant_id":"59374","capacity_mw":5.0,"status_group":"Operating","energy_sources":"SUN","type":"Power plant","is_nuclear":false}},{"type":"Feature","geometry":{"type":"Point","coordinates":[-121.785,42.254]},"properties":{"key":"58961-919f94ef","layer":"power","name":"Oregon University System OIT Klamath Fal","state":"OR","detail_file":"data/details/power-plants-39.json","plant_id":"58961","capacity_mw":1.7,"status_group":"Operating","energy_sources":"SUN","type":"Power plant","is_nuclear":false}},{"type":"Feature","geometry":{"type":"Point","coordinates":[-120.49,43.237]},"properties":{"key":"58131-dd172056","layer":"power","name":"Outback Solar At Christmas Valley","state":"OR","detail_file":"data/details/power-plants-09.json","plant_id":"58131","capacity_mw":4.4,"status_group":"Operating","energy_sources":"SUN","type":"Power plant","is_nuclear":false}},{"type":"Feature","geometry":{"type":"Point","coordinates":[-120.558,42.696]},"properties":{"key":"59382-c2676381","layer":"power","name":"Paisley Geothermal Generating Plant","state":"OR","detail_file":"data/details/power-plants-27.json","plant_id":"59382","capacity_mw":3.7,"status_group":"Operating","energy_sources":"GEO","type":"Power plant","is_nuclear":false}},{"type":"Feature","geometry":{"type":"Point","coordinates":[-121.687,42.186]},"properties":{"key":"68462-42b8fffe","layer":"power","name":"Pine Grove - (OR)","state":"OR","detail_file":"data/details/power-plants-16.json","plant_id":"68462","capacity_mw":1.4,"status_group":"Operating","energy_sources":"SUN","type":"Power plant","is_nuclear":false}},{"type":"Feature","geometry":{"type":"Point","coordinates":[-122.515,42.731]},"properties":{"key":"3032-e260b8ad","layer":"power","name":"Prospect 1","state":"OR","detail_file":"data/details/power-plants-61.json","plant_id":"3032","capacity_mw":3.8,"status_group":"Operating","energy_sources":"WAT","type":"Power plant","is_nuclear":false}},{"type":"Feature","geometry":{"type":"Point","coordinates":[-122.514,42.731]},"properties":{"key":"3033-43c66900","layer":"power","name":"Prospect 2","state":"OR","detail_file":"data/details/power-plants-48.json","plant_id":"3033","capacity_mw":32.0,"status_group":"Operating","energy_sources":"WAT","type":"Power plant","is_nuclear":false}},{"type":"Feature","geometry":{"type":"Point","coordinates":[-122.418,42.731]},"properties":{"key":"3034-9b33e2d5","layer":"power","name":"Prospect 3","state":"OR","detail_file":"data/details/power-plants-02.json","plant_id":"3034","capacity_mw":7.2,"status_group":"Operating","energy_sources":"WAT","type":"Power plant","is_nuclear":false}},{"type":"Feature","geometry":{"type":"Point","coordinates":[-122.515,42.733]},"properties":{"key":"3035-3287cb9b","layer":"power","name":"Prospect 4","state":"OR","detail_file":"data/details/power-plants-45.json","plant_id":"3035","capacity_mw":1.0,"status_group":"Operating","energy_sources":"WAT","type":"Power plant","is_nuclear":false}},{"type":"Feature","geometry":{"type":"Point","coordinates":[-120.93,43.397]},"properties":{"key":"63779-3389205b","layer":"power","name":"Rock Garden Solar, LLC","state":"OR","detail_file":"data/details/power-plants-20.json","plant_id":"63779","capacity_mw":10.0,"status_group":"Operating","energy_sources":"SUN","type":"Power plant","is_nuclear":false}},{"type":"Feature","geometry":{"type":"Point","coordinates":[-123.38,43.186]},"properties":{"key":"57911-8f190440","layer":"power","name":"Roseburg LFG","state":"OR","detail_file":"data/details/power-plants-34.json","plant_id":"57911","capacity_mw":1.6,"status_group":"Operating","energy_sources":"LFG","type":"Power plant","is_nuclear":false}},{"type":"Feature","geometry":{"type":"Point","coordinates":[-121.907,42.128]},"properties":{"key":"68464-c4dbc8c0","layer":"power","name":"Round Lake","state":"OR","detail_file":"data/details/power-plants-58.json","plant_id":"68464","capacity_mw":1.0,"status_group":"Operating","energy_sources":"SUN","type":"Power plant","is_nuclear":false}},{"type":"Feature","geometry":{"type":"Point","coordinates":[-122.997,43.962]},"properties":{"key":"7413-d614637f","layer":"power","name":"Short Mountain","state":"OR","detail_file":"data/details/power-plants-11.json","plant_id":"7413","capacity_mw":3.2,"status_group":"Operating","energy_sources":"LFG","type":"Power plant","is_nuclear":false}},{"type":"Feature","geometry":{"type":"Point","coordinates":[-121.492,42.048]},"properties":{"key":"66942-eb6b9ef2","layer":"power","name":"Skysol","state":"OR","detail_file":"data/details/power-plants-07.json","plant_id":"66942","capacity_mw":61.2,"status_group":"Operating","energy_sources":"SUN","type":"Power plant","is_nuclear":false}},{"type":"Feature","geometry":{"type":"Point","coordinates":[-122.473,43.294]},"properties":{"key":"3036-69abbdb2","layer":"power","name":"Slide Creek","state":"OR","detail_file":"data/details/power-plants-21.json","plant_id":"3036","capacity_mw":18.0,"status_group":"Operating","energy_sources":"WAT","type":"Power plant","is_nuclear":false}},{"type":"Feature","geometry":{"type":"Point","coordinates":[-122.501,43.306]},"properties":{"key":"3037-7248a2ea","layer":"power","name":"Soda Springs","state":"OR","detail_file":"data/details/power-plants-24.json","plant_id":"3037","capacity_mw":11.0,"status_group":"Operating","energy_sources":"WAT","type":"Power plant","is_nuclear":false}},{"type":"Feature","geometry":{"type":"Point","coordinates":[-120.989,42.501]},"properties":{"key":"10737-f4bbfe89","layer":"power","name":"Sprague Hydro","state":"OR","detail_file":"data/details/power-plants-54.json","plant_id":"10737","capacity_mw":1.2,"status_group":"Operating","energy_sources":"WAT","type":"Power plant","is_nuclear":false}},{"type":"Feature","geometry":{"type":"Point","coordinates":[-121.812,42.281]},"properties":{"key":"68978-06f91d2e","layer":"power","name":"Sunset Ridge Solar (CSG)","state":"OR","detail_file":"data/details/power-plants-29.json","plant_id":"68978","capacity_mw":2.3,"status_group":"Operating","energy_sources":"SUN","type":"Power plant","is_nuclear":false}},{"type":"Feature","geometry":{"type":"Point","coordinates":[-122.448,43.273]},"properties":{"key":"3040-f2c60d00","layer":"power","name":"Toketee Falls","state":"OR","detail_file":"data/details/power-plants-53.json","plant_id":"3040","capacity_mw":42.6,"status_group":"Operating","energy_sources":"WAT","type":"Power plant","is_nuclear":false}},{"type":"Feature","geometry":{"type":"Point","coordinates":[-121.578,42.236]},"properties":{"key":"61559-8fc5bee7","layer":"power","name":"Woodline Solar","state":"OR","detail_file":"data/details/power-plants-33.json","plant_id":"61559","capacity_mw":8.0,"status_group":"Operating","energy_sources":"SUN","type":"Power plant","is_nuclear":false}}]}