{"type":"FeatureCollection","features":[{"type":"Feature","geometry":{"type":"Point","coordinates":[-82.026,27.723]},"properties":{"key":"61653-4014dbe4","layer":"power","name":"Alafia Solar","state":"FL","detail_file":"data/details/power-plants-02.json","plant_id":"61653","capacity_mw":60.0,"status_group":"Operating","energy_sources":"SUN","type":"Power plant","is_nuclear":false}},{"type":"Feature","geometry":{"type":"Point","coordinates":[-80.628,27.567]},"properties":{"key":"68829-162b1f13","layer":"power","name":"Ambersweet","state":"FL","detail_file":"data/details/power-plants-13.json","plant_id":"68829","capacity_mw":74.5,"status_group":"Under construction","energy_sources":"SUN","type":"Power plant","is_nuclear":false}},{"type":"Feature","geometry":{"type":"Point","coordinates":[-81.76,26.858]},"properties":{"key":"62634-e9c5eb42","layer":"power","name":"Babcock Preserve","state":"FL","detail_file":"data/details/power-plants-20.json","plant_id":"62634","capacity_mw":74.5,"status_group":"Operating","energy_sources":"SUN","type":"Power plant","is_nuclear":false}},{"type":"Feature","geometry":{"type":"Point","coordinates":[-81.751,26.862]},"properties":{"key":"59993-4043dedb","layer":"power","name":"Babcock Solar Energy Center Hybrid","state":"FL","detail_file":"data/details/power-plants-53.json","plant_id":"59993","capacity_mw":84.5,"status_group":"Operating","energy_sources":"MWH; SUN","type":"Power plant","is_nuclear":false}},{"type":"Feature","geometry":{"type":"Point","coordinates":[-82.235,27.763]},"properties":{"key":"61654-4f5f5970","layer":"power","name":"Balm Solar","state":"FL","detail_file":"data/details/power-plants-03.json","plant_id":"61654","capacity_mw":74.4,"status_group":"Operating","energy_sources":"SUN","type":"Power plant","is_nuclear":false}},{"type":"Feature","geometry":{"type":"Point","coordinates":[-80.521,27.866]},"properties":{"key":"61051-10093398","layer":"power","name":"Barefoot Bay Solar Energy Center","state":"FL","detail_file":"data/details/power-plants-37.json","plant_id":"61051","capacity_mw":74.5,"status_group":"Operating","energy_sources":"SUN","type":"Power plant","is_nuclear":false}},{"type":"Feature","geometry":{"type":"Point","coordinates":[-81.819,27.926]},"properties":{"key":"61879-42bea7f8","layer":"power","name":"Bartow Solar Energy LLC","state":"FL","detail_file":"data/details/power-plants-63.json","plant_id":"61879","capacity_mw":7.3,"status_group":"Operating","energy_sources":"SUN","type":"Power plant","is_nuclear":false}},{"type":"Feature","geometry":{"type":"Point","coordinates":[-82.635,27.758]},"properties":{"key":"627-95cdeced","layer":"power","name":"Bayboro","state":"FL","detail_file":"data/details/power-plants-43.json","plant_id":"627","capacity_mw":226.8,"status_group":"Operating","energy_sources":"DFO","type":"Power plant","is_nuclear":false}},{"type":"Feature","geometry":{"type":"Point","coordinates":[-82.411,27.908]},"properties":{"key":"69165-3462baea","layer":"power","name":"Bayside Battery Storage","state":"FL","detail_file":"data/details/power-plants-16.json","plant_id":"69165","capacity_mw":20.0,"status_group":"Operating","energy_sources":"MWH","type":"Power plant","is_nuclear":false}},{"type":"Feature","geometry":{"type":"Point","coordinates":[-81.027,26.36]},"properties":{"key":"65874-7604ebc3","layer":"power","name":"Beautyberry","state":"FL","detail_file":"data/details/power-plants-50.json","plant_id":"65874","capacity_mw":74.5,"status_group":"Operating","energy_sources":"SUN","type":"Power plant","is_nuclear":false}},{"type":"Feature","geometry":{"type":"Point","coordinates":[-82.404,27.794]},"properties":{"key":"645-97aef25f","layer":"power","name":"Big Bend","state":"FL","detail_file":"data/details/power-plants-40.json","plant_id":"645","capacity_mw":1797.0,"status_group":"Operating","energy_sources":"NG","type":"Power plant","is_nuclear":false}},{"type":"Feature","geometry":{"type":"Point","coordinates":[-82.385,27.785]},"properties":{"key":"69187-8d2b01d5","layer":"power","name":"Big Bend 1 Solar and Battery Storage","state":"FL","detail_file":"data/details/power-plants-01.json","plant_id":"69187","capacity_mw":32.4,"status_group":"Operating","energy_sources":"MWH; SUN","type":"Power plant","is_nuclear":false}},{"type":"Feature","geometry":{"type":"Point","coordinates":[-82.401,27.783]},"properties":{"key":"65771-13c101aa","layer":"power","name":"Big Bend Agrivoltaics","state":"FL","detail_file":"data/details/power-plants-26.json","plant_id":"65771","capacity_mw":1.0,"status_group":"Operating","energy_sources":"SUN","type":"Power plant","is_nuclear":false}},{"type":"Feature","geometry":{"type":"Point","coordinates":[-82.395,27.788]},"properties":{"key":"65772-e0d72cd3","layer":"power","name":"Big Bend Floating Solar I","state":"FL","detail_file":"data/details/power-plants-52.json","plant_id":"65772","capacity_mw":1.0,"status_group":"Operating","energy_sources":"SUN","type":"Power plant","is_nuclear":false}},{"type":"Feature","geometry":{"type":"Point","coordinates":[-82.39,27.782]},"properties":{"key":"64641-f910dc33","layer":"power","name":"Big Bend II Solar","state":"FL","detail_file":"data/details/power-plants-15.json","plant_id":"64641","capacity_mw":45.8,"status_group":"Operating","energy_sources":"SUN","type":"Power plant","is_nuclear":false}},{"type":"Feature","geometry":{"type":"Point","coordinates":[-80.802,27.442]},"properties":{"key":"65912-88a9f72f","layer":"power","name":"Big Water","state":"FL","detail_file":"data/details/power-plants-37.json","plant_id":"65912","capacity_mw":74.5,"status_group":"Operating","energy_sources":"SUN","type":"Power plant","is_nuclear":false}},{"type":"Feature","geometry":{"type":"Point","coordinates":[-80.537,27.609]},"properties":{"key":"61029-8415f3f7","layer":"power","name":"Blue Cypress Solar Energy Center","state":"FL","detail_file":"data/details/power-plants-23.json","plant_id":"61029","capacity_mw":74.5,"status_group":"Operating","energy_sources":"SUN","type":"Power plant","is_nuclear":false}},{"type":"Feature","geometry":{"type":"Point","coordinates":[-81.129,26.702]},"properties":{"key":"62631-92b5ab6a","layer":"power","name":"Blue Heron Solar","state":"FL","detail_file":"data/details/power-plants-58.json","plant_id":"62631","capacity_mw":74.5,"status_group":"Operating","energy_sources":"SUN","type":"Power plant","is_nuclear":false}},{"type":"Feature","geometry":{"type":"Point","coordinates":[-80.671,27.244]},"properties":{"key":"65420-b92bb0c8","layer":"power","name":"Bluefield Preserve Solar","state":"FL","detail_file":"data/details/power-plants-50.json","plant_id":"65420","capacity_mw":74.5,"status_group":"Operating","energy_sources":"SUN","type":"Power plant","is_nuclear":false}},{"type":"Feature","geometry":{"type":"Point","coordinates":[-81.468,26.484]},"properties":{"key":"65885-349dcb7d","layer":"power","name":"Boardwalk","state":"FL","detail_file":"data/details/power-plants-32.json","plant_id":"65885","capacity_mw":74.5,"status_group":"Operating","energy_sources":"SUN","type":"Power plant","is_nuclear":false}},{"type":"Feature","geometry":{"type":"Point","coordinates":[-81.987,27.89]},"properties":{"key":"61655-d8cbffb4","layer":"power","name":"Bonnie Mine Solar","state":"FL","detail_file":"data/details/power-plants-11.json","plant_id":"61655","capacity_mw":37.5,"status_group":"Operating","energy_sources":"SUN","type":"Power plant","is_nuclear":false}},{"type":"Feature","geometry":{"type":"Point","coordinates":[-81.962,27.742]},"properties":{"key":"69522-5126a459","layer":"power","name":"Brewster Solar","state":"FL","detail_file":"data/details/power-plants-17.json","plant_id":"69522","capacity_mw":42.7,"status_group":"Under construction","energy_sources":"SUN","type":"Power plant","is_nuclear":false}},{"type":"Feature","geometry":{"type":"Point","coordinates":[-82.296,27.661]},"properties":{"key":"67203-a0494fd8","layer":"power","name":"Bullfrog Creek Solar","state":"FL","detail_file":"data/details/power-plants-29.json","plant_id":"67203","capacity_mw":74.5,"status_group":"Operating","energy_sources":"SUN","type":"Power plant","is_nuclear":false}},{"type":"Feature","geometry":{"type":"Point","coordinates":[-80.671,27.55]},"properties":{"key":"65920-913ba010","layer":"power","name":"Buttonwood","state":"FL","detail_file":"data/details/power-plants-56.json","plant_id":"65920","capacity_mw":74.5,"status_group":"Operating","energy_sources":"SUN","type":"Power plant","is_nuclear":false}},{"type":"Feature","geometry":{"type":"Point","coordinates":[-80.167,26.288]},"properties":{"key":"50572-3629598f","layer":"power","name":"CSL Gas Recovery","state":"FL","detail_file":"data/details/power-plants-29.json","plant_id":"50572","capacity_mw":11.2,"status_group":"Operating","energy_sources":"LFG","type":"Power plant","is_nuclear":false}},{"type":"Feature","geometry":{"type":"Point","coordinates":[-81.186,26.754]},"properties":{"key":"65871-f5a9b65f","layer":"power","name":"Caloosahatchee","state":"FL","detail_file":"data/details/power-plants-13.json","plant_id":"65871","capacity_mw":74.5,"status_group":"Operating","energy_sources":"SUN","type":"Power plant","is_nuclear":false}},{"type":"Feature","geometry":{"type":"Point","coordinates":[-80.789,27.278]},"properties":{"key":"68830-6f6b5f8d","layer":"power","name":"Catfish","state":"FL","detail_file":"data/details/power-plants-57.json","plant_id":"68830","capacity_mw":74.5,"status_group":"Under construction","energy_sources":"SUN","type":"Power plant","is_nuclear":false}},{"type":"Feature","geometry":{"type":"Point","coordinates":[-81.809,27.322]},"properties":{"key":"62632-f4677372","layer":"power","name":"Cattle Ranch","state":"FL","detail_file":"data/details/power-plants-39.json","plant_id":"62632","capacity_mw":74.5,"status_group":"Operating","energy_sources":"SUN","type":"Power plant","is_nuclear":false}},{"type":"Feature","geometry":{"type":"Point","coordinates":[-80.153,25.749]},"properties":{"key":"54623-505c7b68","layer":"power","name":"Central District Wastewater Treat Plant","state":"FL","detail_file":"data/details/power-plants-28.json","plant_id":"54623","capacity_mw":4.8,"status_group":"Operating","energy_sources":"OBG","type":"Power plant","is_nuclear":false}},{"type":"Feature","geometry":{"type":"Point","coordinates":[-81.654,27.64]},"properties":{"key":"63982-5f2ef84e","layer":"power","name":"Charlie Creek Solar Power Plant","state":"FL","detail_file":"data/details/power-plants-23.json","plant_id":"63982","capacity_mw":74.9,"status_group":"Operating","energy_sources":"SUN","type":"Power plant","is_nuclear":false}},{"type":"Feature","geometry":{"type":"Point","coordinates":[-81.807,27.321]},"properties":{"key":"60061-f1e21ec8","layer":"power","name":"Citrus Solar Energy Center Hybrid","state":"FL","detail_file":"data/details/power-plants-17.json","plant_id":"60061","capacity_mw":78.5,"status_group":"Operating","energy_sources":"MWH; SUN","type":"Power plant","is_nuclear":false}},{"type":"Feature","geometry":{"type":"Point","coordinates":[-80.938,26.735]},"properties":{"key":"50482-f05684a6","layer":"power","name":"Clewiston Sugar House","state":"FL","detail_file":"data/details/power-plants-56.json","plant_id":"50482","capacity_mw":49.0,"status_group":"Operating","energy_sources":"AB","type":"Power plant","is_nuclear":false}},{"type":"Feature","geometry":{"type":"Point","coordinates":[-80.519,27.472]},"properties":{"key":"68821-4121ff15","layer":"power","name":"Clover FL","state":"FL","detail_file":"data/details/power-plants-55.json","plant_id":"68821","capacity_mw":74.5,"status_group":"Operating","energy_sources":"SUN","type":"Power plant","is_nuclear":false}},{"type":"Feature","geometry":{"type":"Point","coordinates":[-81.191,26.762]},"properties":{"key":"68831-a04e6815","layer":"power","name":"Cocoplum","state":"FL","detail_file":"data/details/power-plants-15.json","plant_id":"68831","capacity_mw":74.5,"status_group":"Under construction","energy_sources":"SUN","type":"Power plant","is_nuclear":false}},{"type":"Feature","geometry":{"type":"Point","coordinates":[-82.29,27.654]},"properties":{"key":"68551-d7bee4e3","layer":"power","name":"Cottonmouth Ranch Solar","state":"FL","detail_file":"data/details/power-plants-39.json","plant_id":"68551","capacity_mw":74.5,"status_group":"Operating","energy_sources":"SUN","type":"Power plant","is_nuclear":false}},{"type":"Feature","geometry":{"type":"Point","coordinates":[-81.801,27.111]},"properties":{"key":"68832-dbef92ae","layer":"power","name":"County Line","state":"FL","detail_file":"data/details/power-plants-00.json","plant_id":"68832","capacity_mw":74.5,"status_group":"Under construction","energy_sources":"SUN","type":"Power plant","is_nuclear":false}},{"type":"Feature","geometry":{"type":"Point","coordinates":[-80.198,26.069]},"properties":{"key":"65978-61555e79","layer":"power","name":"Dania Beach 7","state":"FL","detail_file":"data/details/power-plants-29.json","plant_id":"65978","capacity_mw":1447.7,"status_group":"Operating","energy_sources":"NG","type":"Power plant","is_nuclear":false}},{"type":"Feature","geometry":{"type":"Point","coordinates":[-81.802,27.323]},"properties":{"key":"56929-6550d5d4","layer":"power","name":"DeSoto Next Generation Solar Energy","state":"FL","detail_file":"data/details/power-plants-60.json","plant_id":"56929","capacity_mw":25.0,"status_group":"Operating","energy_sources":"SUN","type":"Power plant","is_nuclear":false}},{"type":"Feature","geometry":{"type":"Point","coordinates":[-82.201,27.956]},"properties":{"key":"66129-73975cb4","layer":"power","name":"Dover Solar and Battery Storage","state":"FL","detail_file":"data/details/power-plants-57.json","plant_id":"66129","capacity_mw":40.0,"status_group":"Operating","energy_sources":"MWH; SUN","type":"Power plant","is_nuclear":false}},{"type":"Feature","geometry":{"type":"Point","coordinates":[-82.062,27.586]},"properties":{"key":"63978-fa3521f2","layer":"power","name":"Duette Solar Power Plant","state":"FL","detail_file":"data/details/power-plants-41.json","plant_id":"63978","capacity_mw":74.5,"status_group":"Operating","energy_sources":"SUN","type":"Power plant","is_nuclear":false}},{"type":"Feature","geometry":{"type":"Point","coordinates":[-81.98,27.78]},"properties":{"key":"63495-d1b909ce","layer":"power","name":"Durrance","state":"FL","detail_file":"data/details/power-plants-55.json","plant_id":"63495","capacity_mw":60.0,"status_group":"Operating","energy_sources":"SUN","type":"Power plant","is_nuclear":false}},{"type":"Feature","geometry":{"type":"Point","coordinates":[-82.253,27.597]},"properties":{"key":"65041-30cb10c0","layer":"power","name":"Elder Branch","state":"FL","detail_file":"data/details/power-plants-28.json","plant_id":"65041","capacity_mw":74.5,"status_group":"Operating","energy_sources":"SUN","type":"Power plant","is_nuclear":false}},{"type":"Feature","geometry":{"type":"Point","coordinates":[-82.067,27.946]},"properties":{"key":"66921-4887f967","layer":"power","name":"English Creek Solar","state":"FL","detail_file":"data/details/power-plants-49.json","plant_id":"66921","capacity_mw":23.0,"status_group":"Operating","energy_sources":"SUN","type":"Power plant","is_nuclear":false}},{"type":"Feature","geometry":{"type":"Point","coordinates":[-80.554,25.543]},"properties":{"key":"65423-54deccc1","layer":"power","name":"Everglades Solar Energy Center","state":"FL","detail_file":"data/details/power-plants-52.json","plant_id":"65423","capacity_mw":74.5,"status_group":"Operating","energy_sources":"SUN","type":"Power plant","is_nuclear":false}},{"type":"Feature","geometry":{"type":"Point","coordinates":[-80.368,25.77]},"properties":{"key":"60006-ca322be6","layer":"power","name":"FIU Solar","state":"FL","detail_file":"data/details/power-plants-34.json","plant_id":"60006","capacity_mw":1.2,"status_group":"Operating","energy_sources":"SUN","type":"Power plant","is_nuclear":false}},{"type":"Feature","geometry":{"type":"Point","coordinates":[-80.804,27.627]},"properties":{"key":"65438-f777986f","layer":"power","name":"FPL Cavendish Solar Energy Center","state":"FL","detail_file":"data/details/power-plants-38.json","plant_id":"65438","capacity_mw":74.5,"status_group":"Operating","energy_sources":"SUN","type":"Power plant","is_nuclear":false}},{"type":"Feature","geometry":{"type":"Point","coordinates":[-80.38,27.055]},"properties":{"key":"65919-4fb66c6f","layer":"power","name":"Fawn","state":"FL","detail_file":"data/details/power-plants-24.json","plant_id":"65919","capacity_mw":74.5,"status_group":"Operating","energy_sources":"SUN","type":"Power plant","is_nuclear":false}},{"type":"Feature","geometry":{"type":"Point","coordinates":[-82.099,27.39]},"properties":{"key":"68822-0525e770","layer":"power","name":"Flatford","state":"FL","detail_file":"data/details/power-plants-60.json","plant_id":"68822","capacity_mw":74.5,"status_group":"Operating","energy_sources":"SUN","type":"Power plant","is_nuclear":false}},{"type":"Feature","geometry":{"type":"Point","coordinates":[-81.601,27.911]},"properties":{"key":"10275-8331a52f","layer":"power","name":"Florida's Natural Growers","state":"FL","detail_file":"data/details/power-plants-17.json","plant_id":"10275","capacity_mw":10.7,"status_group":"Operating","energy_sources":"NG","type":"Power plant","is_nuclear":false}},{"type":"Feature","geometry":{"type":"Point","coordinates":[-80.758,27.608]},"properties":{"key":"64300-e818ce58","layer":"power","name":"Fort Drum Energy Center","state":"FL","detail_file":"data/details/power-plants-41.json","plant_id":"64300","capacity_mw":74.5,"status_group":"Operating","energy_sources":"SUN","type":"Power plant","is_nuclear":false}},{"type":"Feature","geometry":{"type":"Point","coordinates":[-81.942,27.641]},"properties":{"key":"64533-ea41dda2","layer":"power","name":"Fort Green Solar Power Plant","state":"FL","detail_file":"data/details/power-plants-33.json","plant_id":"64533","capacity_mw":74.9,"status_group":"Operating","energy_sources":"SUN","type":"Power plant","is_nuclear":false}},{"type":"Feature","geometry":{"type":"Point","coordinates":[-81.783,26.697]},"properties":{"key":"612-9f9a0908","layer":"power","name":"Fort Myers","state":"FL","detail_file":"data/details/power-plants-32.json","plant_id":"612","capacity_mw":2680.9,"status_group":"Operating","energy_sources":"DFO; NG","type":"Power plant","is_nuclear":false}},{"type":"Feature","geometry":{"type":"Point","coordinates":[-80.674,27.846]},"properties":{"key":"65916-b04e95f0","layer":"power","name":"Fox Trail","state":"FL","detail_file":"data/details/power-plants-26.json","plant_id":"65916","capacity_mw":74.5,"status_group":"Operating","energy_sources":"SUN","type":"Power plant","is_nuclear":false}},{"type":"Feature","geometry":{"type":"Point","coordinates":[-80.47,25.476]},"properties":{"key":"665-323c197a","layer":"power","name":"G W Ivey","state":"FL","detail_file":"data/details/power-plants-11.json","plant_id":"665","capacity_mw":35.7,"status_group":"Operating","energy_sources":"DFO; NG","type":"Power plant","is_nuclear":false}},{"type":"Feature","geometry":{"type":"Point","coordinates":[-81.035,26.417]},"properties":{"key":"65038-f7229197","layer":"power","name":"Ghost Orchid Solar Energy Center","state":"FL","detail_file":"data/details/power-plants-38.json","plant_id":"65038","capacity_mw":74.5,"status_group":"Operating","energy_sources":"SUN","type":"Power plant","is_nuclear":false}},{"type":"Feature","geometry":{"type":"Point","coordinates":[-81.492,26.481]},"properties":{"key":"68823-bb4f8d6f","layer":"power","name":"Goldenrod","state":"FL","detail_file":"data/details/power-plants-15.json","plant_id":"68823","capacity_mw":74.5,"status_group":"Operating","energy_sources":"SUN","type":"Power plant","is_nuclear":false}},{"type":"Feature","geometry":{"type":"Point","coordinates":[-82.042,27.982]},"properties":{"key":"60124-6bf087c8","layer":"power","name":"Goldfinch","state":"FL","detail_file":"data/details/power-plants-39.json","plant_id":"60124","capacity_mw":3.0,"status_group":"Operating","energy_sources":"SUN","type":"Power plant","is_nuclear":false}},{"type":"Feature","geometry":{"type":"Point","coordinates":[-82.165,27.681]},"properties":{"key":"61656-82502f94","layer":"power","name":"Grange Hall Solar","state":"FL","detail_file":"data/details/power-plants-23.json","plant_id":"61656","capacity_mw":61.1,"status_group":"Operating","energy_sources":"SUN","type":"Power plant","is_nuclear":false}},{"type":"Feature","geometry":{"type":"Point","coordinates":[-81.777,27.023]},"properties":{"key":"65918-843fb27a","layer":"power","name":"Green Pasture","state":"FL","detail_file":"data/details/power-plants-23.json","plant_id":"65918","capacity_mw":74.5,"status_group":"Operating","energy_sources":"SUN","type":"Power plant","is_nuclear":false}},{"type":"Feature","geometry":{"type":"Point","coordinates":[-80.653,27.581]},"properties":{"key":"65042-c0c1c344","layer":"power","name":"Grove","state":"FL","detail_file":"data/details/power-plants-57.json","plant_id":"65042","capacity_mw":74.5,"status_group":"Operating","energy_sources":"SUN","type":"Power plant","is_nuclear":false}},{"type":"Feature","geometry":{"type":"Point","coordinates":[-82.423,27.907]},"properties":{"key":"7873-240f1097","layer":"power","name":"H L Culbreath Bayside Power Station","state":"FL","detail_file":"data/details/power-plants-47.json","plant_id":"7873","capacity_mw":2293.7,"status_group":"Operating","energy_sources":"NG","type":"Power plant","is_nuclear":false}},{"type":"Feature","geometry":{"type":"Point","coordinates":[-81.325,26.693]},"properties":{"key":"61024-46b77e6c","layer":"power","name":"Hammock Solar","state":"FL","detail_file":"data/details/power-plants-16.json","plant_id":"61024","capacity_mw":74.5,"status_group":"Operating","energy_sources":"SUN","type":"Power plant","is_nuclear":false}},{"type":"Feature","geometry":{"type":"Point","coordinates":[-81.964,27.636]},"properties":{"key":"50949-83730cf1","layer":"power","name":"Hardee Power Station","state":"FL","detail_file":"data/details/power-plants-34.json","plant_id":"50949","capacity_mw":470.1,"status_group":"Operating","energy_sources":"NG","type":"Power plant","is_nuclear":false}},{"type":"Feature","geometry":{"type":"Point","coordinates":[-81.775,27.283]},"properties":{"key":"68833-c0a6b74d","layer":"power","name":"Hardwood Hammock","state":"FL","detail_file":"data/details/power-plants-32.json","plant_id":"68833","capacity_mw":74.5,"status_group":"Under construction","energy_sources":"SUN","type":"Power plant","is_nuclear":false}},{"type":"Feature","geometry":{"type":"Point","coordinates":[-81.841,27.083]},"properties":{"key":"65926-71331355","layer":"power","name":"Hawthorne Creek","state":"FL","detail_file":"data/details/power-plants-59.json","plant_id":"65926","capacity_mw":74.5,"status_group":"Operating","energy_sources":"SUN","type":"Power plant","is_nuclear":false}},{"type":"Feature","geometry":{"type":"Point","coordinates":[-81.032,26.41]},"properties":{"key":"68834-f299b75c","layer":"power","name":"Hendry","state":"FL","detail_file":"data/details/power-plants-29.json","plant_id":"68834","capacity_mw":74.5,"status_group":"Under construction","energy_sources":"SUN","type":"Power plant","is_nuclear":false}},{"type":"Feature","geometry":{"type":"Point","coordinates":[-81.192,26.749]},"properties":{"key":"65909-dcd9a322","layer":"power","name":"Hendry Isles","state":"FL","detail_file":"data/details/power-plants-63.json","plant_id":"65909","capacity_mw":74.5,"status_group":"Operating","energy_sources":"SUN","type":"Power plant","is_nuclear":false}},{"type":"Feature","geometry":{"type":"Point","coordinates":[-80.306,26.76]},"properties":{"key":"62206-3e659d06","layer":"power","name":"Hibiscus Solar Energy Center","state":"FL","detail_file":"data/details/power-plants-59.json","plant_id":"62206","capacity_mw":74.5,"status_group":"Operating","energy_sources":"SUN","type":"Power plant","is_nuclear":false}},{"type":"Feature","geometry":{"type":"Point","coordinates":[-81.426,27.282]},"properties":{"key":"64345-531b3854","layer":"power","name":"Highland Solar North","state":"FL","detail_file":"data/details/power-plants-34.json","plant_id":"64345","capacity_mw":74.9,"status_group":"Under construction","energy_sources":"SUN","type":"Power plant","is_nuclear":false}},{"type":"Feature","geometry":{"type":"Point","coordinates":[-81.408,27.266]},"properties":{"key":"64346-80e04f05","layer":"power","name":"Highland Solar South","state":"FL","detail_file":"data/details/power-plants-16.json","plant_id":"64346","capacity_mw":74.9,"status_group":"Under construction","energy_sources":"SUN","type":"Power plant","is_nuclear":false}},{"type":"Feature","geometry":{"type":"Point","coordinates":[-82.34,27.955]},"properties":{"key":"50858-e7929afb","layer":"power","name":"Hillsborough County Resource Recovery","state":"FL","detail_file":"data/details/power-plants-42.json","plant_id":"50858","capacity_mw":47.0,"status_group":"Operating","energy_sources":"MSW","type":"Power plant","is_nuclear":false}},{"type":"Feature","geometry":{"type":"Point","coordinates":[-81.87,27.788]},"properties":{"key":"7302-4e45d85a","layer":"power","name":"Hines Energy Complex","state":"FL","detail_file":"data/details/power-plants-20.json","plant_id":"7302","capacity_mw":2266.3,"status_group":"Operating","energy_sources":"NG","type":"Power plant","is_nuclear":false}},{"type":"Feature","geometry":{"type":"Point","coordinates":[-81.832,27.078]},"properties":{"key":"65915-d729c0af","layer":"power","name":"Hog Bay","state":"FL","detail_file":"data/details/power-plants-33.json","plant_id":"65915","capacity_mw":74.5,"status_group":"Operating","energy_sources":"SUN","type":"Power plant","is_nuclear":false}},{"type":"Feature","geometry":{"type":"Point","coordinates":[-80.411,26.776]},"properties":{"key":"65922-ce9193a9","layer":"power","name":"Holopaw","state":"FL","detail_file":"data/details/power-plants-21.json","plant_id":"65922","capacity_mw":74.5,"status_group":"Operating","energy_sources":"SUN","type":"Power plant","is_nuclear":false}},{"type":"Feature","geometry":{"type":"Point","coordinates":[-80.736,27.508]},"properties":{"key":"65921-02ae29f6","layer":"power","name":"Honeybell","state":"FL","detail_file":"data/details/power-plants-02.json","plant_id":"65921","capacity_mw":74.5,"status_group":"Operating","energy_sources":"SUN","type":"Power plant","is_nuclear":false}},{"type":"Feature","geometry":{"type":"Point","coordinates":[-82.439,27.939]},"properties":{"key":"54347-4c3762b6","layer":"power","name":"Howard F Curren Advncd Wastewater Plant","state":"FL","detail_file":"data/details/power-plants-10.json","plant_id":"54347","capacity_mw":2.5,"status_group":"Operating","energy_sources":"OBG","type":"Power plant","is_nuclear":false}},{"type":"Feature","geometry":{"type":"Point","coordinates":[-80.384,25.791]},"properties":{"key":"61173-ade1ff21","layer":"power","name":"IKEA Miami 327","state":"FL","detail_file":"data/details/power-plants-27.json","plant_id":"61173","capacity_mw":1.0,"status_group":"Operating","energy_sources":"SUN","type":"Power plant","is_nuclear":false}},{"type":"Feature","geometry":{"type":"Point","coordinates":[-82.433,27.954]},"properties":{"key":"58012-1dd1db36","layer":"power","name":"IKEA Tampa 042","state":"FL","detail_file":"data/details/power-plants-06.json","plant_id":"58012","capacity_mw":1.0,"status_group":"Operating","energy_sources":"SUN","type":"Power plant","is_nuclear":false}},{"type":"Feature","geometry":{"type":"Point","coordinates":[-80.695,27.848]},"properties":{"key":"65877-23e4ac85","layer":"power","name":"Ibis","state":"FL","detail_file":"data/details/power-plants-28.json","plant_id":"65877","capacity_mw":74.5,"status_group":"Operating","energy_sources":"SUN","type":"Power plant","is_nuclear":false}},{"type":"Feature","geometry":{"type":"Point","coordinates":[-81.433,26.475]},"properties":{"key":"65040-7655aec1","layer":"power","name":"Immokalee","state":"FL","detail_file":"data/details/power-plants-15.json","plant_id":"65040","capacity_mw":74.5,"status_group":"Operating","energy_sources":"SUN","type":"Power plant","is_nuclear":false}},{"type":"Feature","geometry":{"type":"Point","coordinates":[-80.578,27.573]},"properties":{"key":"61020-e908ccef","layer":"power","name":"Indian River Solar Center","state":"FL","detail_file":"data/details/power-plants-47.json","plant_id":"61020","capacity_mw":74.5,"status_group":"Operating","energy_sources":"SUN","type":"Power plant","is_nuclear":false}},{"type":"Feature","geometry":{"type":"Point","coordinates":[-80.44,27.5]},"properties":{"key":"61768-bebba52a","layer":"power","name":"Interstate Solar Energy Center","state":"FL","detail_file":"data/details/power-plants-56.json","plant_id":"61768","capacity_mw":74.5,"status_group":"Operating","energy_sources":"SUN","type":"Power plant","is_nuclear":false}},{"type":"Feature","geometry":{"type":"Point","coordinates":[-81.956,27.807]},"properties":{"key":"64631-6b96ecc5","layer":"power","name":"Jamison Solar (FL)","state":"FL","detail_file":"data/details/power-plants-51.json","plant_id":"64631","capacity_mw":74.5,"status_group":"Operating","energy_sources":"SUN","type":"Power plant","is_nuclear":false}},{"type":"Feature","geometry":{"type":"Point","coordinates":[-82.655,27.768]},"properties":{"key":"64752-5fc504a5","layer":"power","name":"John Hopkins Middle School Microgrid","state":"FL","detail_file":"data/details/power-plants-09.json","plant_id":"64752","capacity_mw":3.3,"status_group":"Operating","energy_sources":"MWH; SUN","type":"Power plant","is_nuclear":false}},{"type":"Feature","geometry":{"type":"Point","coordinates":[-81.775,27.283]},"properties":{"key":"68835-0c248f38","layer":"power","name":"Joshua Creek","state":"FL","detail_file":"data/details/power-plants-60.json","plant_id":"68835","capacity_mw":74.5,"status_group":"Under construction","energy_sources":"SUN","type":"Power plant","is_nuclear":false}},{"type":"Feature","geometry":{"type":"Point","coordinates":[-82.266,27.659]},"properties":{"key":"69461-28c51f83","layer":"power","name":"Keene Branch Solar","state":"FL","detail_file":"data/details/power-plants-55.json","plant_id":"69461","capacity_mw":74.5,"status_group":"Under construction","energy_sources":"SUN","type":"Power plant","is_nuclear":false}},{"type":"Feature","geometry":{"type":"Point","coordinates":[-82.034,27.719]},"properties":{"key":"61657-9d839869","layer":"power","name":"Lake Hancock Solar","state":"FL","detail_file":"data/details/power-plants-50.json","plant_id":"61657","capacity_mw":49.5,"status_group":"Operating","energy_sources":"SUN","type":"Power plant","is_nuclear":false}},{"type":"Feature","geometry":{"type":"Point","coordinates":[-81.61,27.979]},"properties":{"key":"66128-0ed3689e","layer":"power","name":"Lake Mabel Solar and Battery Storage","state":"FL","detail_file":"data/details/power-plants-45.json","plant_id":"66128","capacity_mw":114.5,"status_group":"Operating","energy_sources":"MWH; SUN","type":"Power plant","is_nuclear":false}},{"type":"Feature","geometry":{"type":"Point","coordinates":[-81.364,27.331]},"properties":{"key":"62541-239aa58e","layer":"power","name":"Lake Placid Solar Power Plant","state":"FL","detail_file":"data/details/power-plants-28.json","plant_id":"62541","capacity_mw":62.3,"status_group":"Operating","energy_sources":"MWH; SUN","type":"Power plant","is_nuclear":false}},{"type":"Feature","geometry":{"type":"Point","coordinates":[-82.047,27.991]},"properties":{"key":"59754-fc81bb3d","layer":"power","name":"Lakeland Electric Co. (FL) - Airport II","state":"FL","detail_file":"data/details/power-plants-32.json","plant_id":"59754","capacity_mw":3.5,"status_group":"Operating","energy_sources":"SUN","type":"Power plant","is_nuclear":false}},{"type":"Feature","geometry":{"type":"Point","coordinates":[-82.047,27.989]},"properties":{"key":"59744-b84bf5cb","layer":"power","name":"Lakeland Electric Co. (FL)-Airport 1","state":"FL","detail_file":"data/details/power-plants-28.json","plant_id":"59744","capacity_mw":2.3,"status_group":"Operating","energy_sources":"SUN","type":"Power plant","is_nuclear":false}},{"type":"Feature","geometry":{"type":"Point","coordinates":[-80.745,27.214]},"properties":{"key":"62922-298fa3c0","layer":"power","name":"Lakeside Solar Center","state":"FL","detail_file":"data/details/power-plants-32.json","plant_id":"62922","capacity_mw":74.5,"status_group":"Operating","energy_sources":"SUN","type":"Power plant","is_nuclear":false}},{"type":"Feature","geometry":{"type":"Point","coordinates":[-80.198,26.069]},"properties":{"key":"613-9bdaeb56","layer":"power","name":"Lauderdale","state":"FL","detail_file":"data/details/power-plants-56.json","plant_id":"613","capacity_mw":1215.9,"status_group":"Operating","energy_sources":"NG","type":"Power plant","is_nuclear":false}},{"type":"Feature","geometry":{"type":"Point","coordinates":[-82.068,27.927]},"properties":{"key":"65684-4bec2220","layer":"power","name":"Laurel Oaks Solar","state":"FL","detail_file":"data/details/power-plants-27.json","plant_id":"65684","capacity_mw":61.2,"status_group":"Operating","energy_sources":"SUN","type":"Power plant","is_nuclear":false}},{"type":"Feature","geometry":{"type":"Point","coordinates":[-81.761,26.632]},"properties":{"key":"52010-4d4019a8","layer":"power","name":"Lee County Solid Waste Energy","state":"FL","detail_file":"data/details/power-plants-29.json","plant_id":"52010","capacity_mw":59.0,"status_group":"Operating","energy_sources":"MSW","type":"Power plant","is_nuclear":false}},{"type":"Feature","geometry":{"type":"Point","coordinates":[-81.69,27.986]},"properties":{"key":"60371-d34a2837","layer":"power","name":"Legoland Solar","state":"FL","detail_file":"data/details/power-plants-45.json","plant_id":"60371","capacity_mw":1.4,"status_group":"Operating","energy_sources":"SUN","type":"Power plant","is_nuclear":false}},{"type":"Feature","geometry":{"type":"Point","coordinates":[-82.165,27.753]},"properties":{"key":"61663-aca428df","layer":"power","name":"Lithia Solar","state":"FL","detail_file":"data/details/power-plants-42.json","plant_id":"61663","capacity_mw":74.5,"status_group":"Operating","energy_sources":"SUN","type":"Power plant","is_nuclear":false}},{"type":"Feature","geometry":{"type":"Point","coordinates":[-82.411,27.691]},"properties":{"key":"62750-db4fec1d","layer":"power","name":"Little Manatee River Solar","state":"FL","detail_file":"data/details/power-plants-63.json","plant_id":"62750","capacity_mw":74.5,"status_group":"Operating","energy_sources":"SUN","type":"Power plant","is_nuclear":false}},{"type":"Feature","geometry":{"type":"Point","coordinates":[-80.541,27.238]},"properties":{"key":"61052-7286b4b2","layer":"power","name":"Loggerhead Solar Energy Center","state":"FL","detail_file":"data/details/power-plants-62.json","plant_id":"61052","capacity_mw":74.5,"status_group":"Operating","energy_sources":"SUN","type":"Power plant","is_nuclear":false}},{"type":"Feature","geometry":{"type":"Point","coordinates":[-82.171,27.626]},"properties":{"key":"68472-acbb2fee","layer":"power","name":"Long Branch Solar","state":"FL","detail_file":"data/details/power-plants-38.json","plant_id":"68472","capacity_mw":74.9,"status_group":"Operating","energy_sources":"SUN","type":"Power plant","is_nuclear":false}},{"type":"Feature","geometry":{"type":"Point","coordinates":[-82.104,27.412]},"properties":{"key":"65906-aaac7a4f","layer":"power","name":"Long Creek","state":"FL","detail_file":"data/details/power-plants-27.json","plant_id":"65906","capacity_mw":74.5,"status_group":"Operating","energy_sources":"SUN","type":"Power plant","is_nuclear":false}},{"type":"Feature","geometry":{"type":"Point","coordinates":[-82.049,27.918]},"properties":{"key":"64657-edafac5f","layer":"power","name":"Magnolia Solar","state":"FL","detail_file":"data/details/power-plants-15.json","plant_id":"64657","capacity_mw":74.5,"status_group":"Operating","energy_sources":"SUN","type":"Power plant","is_nuclear":false}},{"type":"Feature","geometry":{"type":"Point","coordinates":[-80.682,27.832]},"properties":{"key":"68817-1f4ed98d","layer":"power","name":"Mallard","state":"FL","detail_file":"data/details/power-plants-21.json","plant_id":"68817","capacity_mw":74.5,"status_group":"Operating","energy_sources":"SUN","type":"Power plant","is_nuclear":false}},{"type":"Feature","geometry":{"type":"Point","coordinates":[-82.346,27.606]},"properties":{"key":"6042-acf7d87a","layer":"power","name":"Manatee","state":"FL","detail_file":"data/details/power-plants-53.json","plant_id":"6042","capacity_mw":2951.2,"status_group":"Operating","energy_sources":"NG","type":"Power plant","is_nuclear":false}},{"type":"Feature","geometry":{"type":"Point","coordinates":[-82.355,27.607]},"properties":{"key":"60014-6242e29b","layer":"power","name":"Manatee Solar Energy Center","state":"FL","detail_file":"data/details/power-plants-17.json","plant_id":"60014","capacity_mw":483.5,"status_group":"Operating","energy_sources":"MWH; SUN","type":"Power plant","is_nuclear":false}},{"type":"Feature","geometry":{"type":"Point","coordinates":[-81.767,27.304]},"properties":{"key":"65905-45bcef9e","layer":"power","name":"Mare Branch","state":"FL","detail_file":"data/details/power-plants-38.json","plant_id":"65905","capacity_mw":74.5,"status_group":"Operating","energy_sources":"SUN","type":"Power plant","is_nuclear":false}},{"type":"Feature","geometry":{"type":"Point","coordinates":[-80.563,27.054]},"properties":{"key":"6043-aa759cae","layer":"power","name":"Martin","state":"FL","detail_file":"data/details/power-plants-52.json","plant_id":"6043","capacity_mw":2448.5,"status_group":"Operating","energy_sources":"NG","type":"Power plant","is_nuclear":false}},{"type":"Feature","geometry":{"type":"Point","coordinates":[-82.046,27.893]},"properties":{"key":"69523-68e5b09d","layer":"power","name":"Mattaniah Solar","state":"FL","detail_file":"data/details/power-plants-33.json","plant_id":"69523","capacity_mw":52.0,"status_group":"Under construction","energy_sources":"SUN","type":"Power plant","is_nuclear":false}},{"type":"Feature","geometry":{"type":"Point","coordinates":[-82.421,27.95]},"properties":{"key":"50875-dcf5492e","layer":"power","name":"McKay Bay Facility","state":"FL","detail_file":"data/details/power-plants-01.json","plant_id":"50875","capacity_mw":22.1,"status_group":"Operating","energy_sources":"MSW","type":"Power plant","is_nuclear":false}},{"type":"Feature","geometry":{"type":"Point","coordinates":[-80.49,25.64]},"properties":{"key":"61766-57ff8b7b","layer":"power","name":"Miami Dade Solar Energy Center","state":"FL","detail_file":"data/details/power-plants-35.json","plant_id":"61766","capacity_mw":74.5,"status_group":"Operating","energy_sources":"SUN","type":"Power plant","is_nuclear":false}},{"type":"Feature","geometry":{"type":"Point","coordinates":[-81.963,27.642]},"properties":{"key":"7380-aa4cb6c1","layer":"power","name":"Midulla Generating Station","state":"FL","detail_file":"data/details/power-plants-27.json","plant_id":"7380","capacity_mw":853.3,"status_group":"Operating","energy_sources":"NG","type":"Power plant","is_nuclear":false}},{"type":"Feature","geometry":{"type":"Point","coordinates":[-80.525,27.031]},"properties":{"key":"65872-7d1cb1a0","layer":"power","name":"Monarch","state":"FL","detail_file":"data/details/power-plants-09.json","plant_id":"65872","capacity_mw":74.5,"status_group":"Operating","energy_sources":"SUN","type":"Power plant","is_nuclear":false}},{"type":"Feature","geometry":{"type":"Point","coordinates":[-81.918,27.908]},"properties":{"key":"50633-65b1f272","layer":"power","name":"Mosaic Co Bartow Facility","state":"FL","detail_file":"data/details/power-plants-43.json","plant_id":"50633","capacity_mw":81.9,"status_group":"Operating","energy_sources":"WH","type":"Power plant","is_nuclear":false}},{"type":"Feature","geometry":{"type":"Point","coordinates":[-82.39,27.86]},"properties":{"key":"10204-3904755e","layer":"power","name":"Mosaic Co Tampa Facility","state":"FL","detail_file":"data/details/power-plants-62.json","plant_id":"10204","capacity_mw":72.4,"status_group":"Operating","energy_sources":"WH","type":"Power plant","is_nuclear":false}},{"type":"Feature","geometry":{"type":"Point","coordinates":[-82.052,27.834]},"properties":{"key":"10434-00ca9366","layer":"power","name":"Mosaic New Wales Operations","state":"FL","detail_file":"data/details/power-plants-28.json","plant_id":"10434","capacity_mw":135.5,"status_group":"Operating","energy_sources":"WH","type":"Power plant","is_nuclear":false}},{"type":"Feature","geometry":{"type":"Point","coordinates":[-81.939,27.765]},"properties":{"key":"10004-750a1760","layer":"power","name":"Mosaic South Pierce Operations","state":"FL","detail_file":"data/details/power-plants-32.json","plant_id":"10004","capacity_mw":38.0,"status_group":"Operating","energy_sources":"WH","type":"Power plant","is_nuclear":false}},{"type":"Feature","geometry":{"type":"Point","coordinates":[-81.877,27.849]},"properties":{"key":"54426-05d7ff31","layer":"power","name":"Mulberry Cogeneration Facility","state":"FL","detail_file":"data/details/power-plants-61.json","plant_id":"54426","capacity_mw":127.7,"status_group":"Operating","energy_sources":"NG","type":"Power plant","is_nuclear":false}},{"type":"Feature","geometry":{"type":"Point","coordinates":[-80.571,27.514]},"properties":{"key":"65883-826fea96","layer":"power","name":"North Orange","state":"FL","detail_file":"data/details/power-plants-24.json","plant_id":"65883","capacity_mw":74.5,"status_group":"Operating","energy_sources":"SUN","type":"Power plant","is_nuclear":false}},{"type":"Feature","geometry":{"type":"Point","coordinates":[-80.791,27.634]},"properties":{"key":"60345-cd0d20f2","layer":"power","name":"Okeechobee Clean Energy Center","state":"FL","detail_file":"data/details/power-plants-17.json","plant_id":"60345","capacity_mw":1723.1,"status_group":"Operating","energy_sources":"NG","type":"Power plant","is_nuclear":false}},{"type":"Feature","geometry":{"type":"Point","coordinates":[-80.795,27.63]},"properties":{"key":"62491-ca731286","layer":"power","name":"Okeechobee Solar","state":"FL","detail_file":"data/details/power-plants-13.json","plant_id":"62491","capacity_mw":74.5,"status_group":"Operating","energy_sources":"SUN","type":"Power plant","is_nuclear":false}},{"type":"Feature","geometry":{"type":"Point","coordinates":[-80.747,26.577]},"properties":{"key":"54627-a6aea208","layer":"power","name":"Okeelanta Cogeneration","state":"FL","detail_file":"data/details/power-plants-27.json","plant_id":"54627","capacity_mw":128.9,"status_group":"Operating","energy_sources":"AB","type":"Power plant","is_nuclear":false}},{"type":"Feature","geometry":{"type":"Point","coordinates":[-80.571,27.597]},"properties":{"key":"62919-f181382a","layer":"power","name":"Orange Blossom Solar Center","state":"FL","detail_file":"data/details/power-plants-34.json","plant_id":"62919","capacity_mw":74.5,"status_group":"Operating","energy_sources":"SUN","type":"Power plant","is_nuclear":false}},{"type":"Feature","geometry":{"type":"Point","coordinates":[-81.825,27.871]},"properties":{"key":"54365-ab0cbf7f","layer":"power","name":"Orange Cogeneration Facility","state":"FL","detail_file":"data/details/power-plants-09.json","plant_id":"54365","capacity_mw":157.2,"status_group":"Operating","energy_sources":"NG","type":"Power plant","is_nuclear":false}},{"type":"Feature","geometry":{"type":"Point","coordinates":[-80.57,27.558]},"properties":{"key":"65925-2b38f57a","layer":"power","name":"Orchard","state":"FL","detail_file":"data/details/power-plants-61.json","plant_id":"65925","capacity_mw":74.5,"status_group":"Operating","energy_sources":"SUN","type":"Power plant","is_nuclear":false}},{"type":"Feature","geometry":{"type":"Point","coordinates":[-82.602,27.86]},"properties":{"key":"634-3e7033b1","layer":"power","name":"P L Bartow","state":"FL","detail_file":"data/details/power-plants-25.json","plant_id":"634","capacity_mw":1475.6,"status_group":"Operating","energy_sources":"DFO; NG","type":"Power plant","is_nuclear":false}},{"type":"Feature","geometry":{"type":"Point","coordinates":[-80.632,27.842]},"properties":{"key":"62921-b919539a","layer":"power","name":"Palm Bay Solar","state":"FL","detail_file":"data/details/power-plants-24.json","plant_id":"62921","capacity_mw":74.5,"status_group":"Operating","energy_sources":"SUN","type":"Power plant","is_nuclear":false}},{"type":"Feature","geometry":{"type":"Point","coordinates":[-80.142,26.771]},"properties":{"key":"50071-453cd96b","layer":"power","name":"Palm Beach Renewable Energy Facility 1","state":"FL","detail_file":"data/details/power-plants-27.json","plant_id":"50071","capacity_mw":62.3,"status_group":"Operating","energy_sources":"MSW","type":"Power plant","is_nuclear":false}},{"type":"Feature","geometry":{"type":"Point","coordinates":[-80.142,26.772]},"properties":{"key":"57898-1b55c755","layer":"power","name":"Palm Beach Renewable Energy Facility 2","state":"FL","detail_file":"data/details/power-plants-35.json","plant_id":"57898","capacity_mw":96.0,"status_group":"Operating","energy_sources":"MSW","type":"Power plant","is_nuclear":false}},{"type":"Feature","geometry":{"type":"Point","coordinates":[-81.964,27.665]},"properties":{"key":"61665-67cf4dc5","layer":"power","name":"Payne Creek Solar","state":"FL","detail_file":"data/details/power-plants-05.json","plant_id":"61665","capacity_mw":70.3,"status_group":"Operating","energy_sources":"SUN","type":"Power plant","is_nuclear":false}},{"type":"Feature","geometry":{"type":"Point","coordinates":[-81.81,27.913]},"properties":{"key":"61666-2e0d093a","layer":"power","name":"Peace Creek Solar","state":"FL","detail_file":"data/details/power-plants-44.json","plant_id":"61666","capacity_mw":55.4,"status_group":"Operating","energy_sources":"SUN","type":"Power plant","is_nuclear":false}},{"type":"Feature","geometry":{"type":"Point","coordinates":[-80.547,27.522]},"properties":{"key":"62924-71aaa6ca","layer":"power","name":"Pelican Solar Center","state":"FL","detail_file":"data/details/power-plants-09.json","plant_id":"62924","capacity_mw":74.5,"status_group":"Operating","energy_sources":"SUN","type":"Power plant","is_nuclear":false}},{"type":"Feature","geometry":{"type":"Point","coordinates":[-80.305,26.011]},"properties":{"key":"63256-606a7290","layer":"power","name":"Pembroke Lakes Mall","state":"FL","detail_file":"data/details/power-plants-30.json","plant_id":"63256","capacity_mw":1.1,"status_group":"Operating","energy_sources":"SUN","type":"Power plant","is_nuclear":false}},{"type":"Feature","geometry":{"type":"Point","coordinates":[-80.571,27.255]},"properties":{"key":"65865-1bc8dbd4","layer":"power","name":"Pineapple","state":"FL","detail_file":"data/details/power-plants-09.json","plant_id":"65865","capacity_mw":74.5,"status_group":"Operating","energy_sources":"SUN","type":"Power plant","is_nuclear":false}},{"type":"Feature","geometry":{"type":"Point","coordinates":[-82.674,27.873]},"properties":{"key":"50884-1371e132","layer":"power","name":"Pinellas County Resource Recovery","state":"FL","detail_file":"data/details/power-plants-51.json","plant_id":"50884","capacity_mw":76.5,"status_group":"Operating","energy_sources":"MSW","type":"Power plant","is_nuclear":false}},{"type":"Feature","geometry":{"type":"Point","coordinates":[-80.542,27.298]},"properties":{"key":"65428-cd144fef","layer":"power","name":"Pink Trial Solar Energy Center","state":"FL","detail_file":"data/details/power-plants-17.json","plant_id":"65428","capacity_mw":74.5,"status_group":"Operating","energy_sources":"SUN","type":"Power plant","is_nuclear":false}},{"type":"Feature","geometry":{"type":"Point","coordinates":[-81.99,27.729]},"properties":{"key":"7242-33e2a22c","layer":"power","name":"Polk","state":"FL","detail_file":"data/details/power-plants-20.json","plant_id":"7242","capacity_mw":1458.2,"status_group":"Operating","energy_sources":"NG","type":"Power plant","is_nuclear":false}},{"type":"Feature","geometry":{"type":"Point","coordinates":[-81.965,26.791]},"properties":{"key":"59240-0a0d766d","layer":"power","name":"Port Charlotte Energy LLC","state":"FL","detail_file":"data/details/power-plants-20.json","plant_id":"59240","capacity_mw":3.0,"status_group":"Operating","energy_sources":"LFG","type":"Power plant","is_nuclear":false}},{"type":"Feature","geometry":{"type":"Point","coordinates":[-80.125,26.086]},"properties":{"key":"617-01a5112c","layer":"power","name":"Port Everglades","state":"FL","detail_file":"data/details/power-plants-07.json","plant_id":"617","capacity_mw":1352.0,"status_group":"Operating","energy_sources":"NG","type":"Power plant","is_nuclear":false}},{"type":"Feature","geometry":{"type":"Point","coordinates":[-81.697,27.074]},"properties":{"key":"65868-5b891632","layer":"power","name":"Prairie Creek FL","state":"FL","detail_file":"data/details/power-plants-22.json","plant_id":"65868","capacity_mw":74.5,"status_group":"Operating","energy_sources":"SUN","type":"Power plant","is_nuclear":false}},{"type":"Feature","geometry":{"type":"Point","coordinates":[-80.547,25.543]},"properties":{"key":"65914-e9a44551","layer":"power","name":"Redlands","state":"FL","detail_file":"data/details/power-plants-13.json","plant_id":"65914","capacity_mw":74.5,"status_group":"Operating","energy_sources":"SUN","type":"Power plant","is_nuclear":false}},{"type":"Feature","geometry":{"type":"Point","coordinates":[-82.472,27.684]},"properties":{"key":"65687-2ea42fa7","layer":"power","name":"Riverside Solar","state":"FL","detail_file":"data/details/power-plants-26.json","plant_id":"65687","capacity_mw":55.2,"status_group":"Operating","energy_sources":"SUN","type":"Power plant","is_nuclear":false}},{"type":"Feature","geometry":{"type":"Point","coordinates":[-80.052,26.765]},"properties":{"key":"619-dfb20c52","layer":"power","name":"Riviera","state":"FL","detail_file":"data/details/power-plants-34.json","plant_id":"619","capacity_mw":1295.0,"status_group":"Operating","energy_sources":"NG","type":"Power plant","is_nuclear":false}},{"type":"Feature","geometry":{"type":"Point","coordinates":[-81.81,27.321]},"properties":{"key":"62917-65bce6c7","layer":"power","name":"Rodeo Solar Center","state":"FL","detail_file":"data/details/power-plants-04.json","plant_id":"62917","capacity_mw":74.5,"status_group":"Operating","energy_sources":"SUN","type":"Power plant","is_nuclear":false}},{"type":"Feature","geometry":{"type":"Point","coordinates":[-80.353,26.783]},"properties":{"key":"63110-b65fc31c","layer":"power","name":"Sabal Palm Solar Center","state":"FL","detail_file":"data/details/power-plants-53.json","plant_id":"63110","capacity_mw":74.5,"status_group":"Operating","energy_sources":"SUN","type":"Power plant","is_nuclear":false}},{"type":"Feature","geometry":{"type":"Point","coordinates":[-82.064,27.448]},"properties":{"key":"65864-9ecf0a70","layer":"power","name":"Sambucus","state":"FL","detail_file":"data/details/power-plants-39.json","plant_id":"65864","capacity_mw":74.5,"status_group":"Operating","energy_sources":"SUN","type":"Power plant","is_nuclear":false}},{"type":"Feature","geometry":{"type":"Point","coordinates":[-82.387,27.203]},"properties":{"key":"59686-659ebad8","layer":"power","name":"Sarasota County LFGTE Facility","state":"FL","detail_file":"data/details/power-plants-44.json","plant_id":"59686","capacity_mw":6.4,"status_group":"Operating","energy_sources":"LFG","type":"Power plant","is_nuclear":false}},{"type":"Feature","geometry":{"type":"Point","coordinates":[-81.054,26.381]},"properties":{"key":"65037-743bb641","layer":"power","name":"Sawgrass Solar Energy Center","state":"FL","detail_file":"data/details/power-plants-21.json","plant_id":"65037","capacity_mw":74.5,"status_group":"Operating","energy_sources":"SUN","type":"Power plant","is_nuclear":false}},{"type":"Feature","geometry":{"type":"Point","coordinates":[-80.564,27.452]},"properties":{"key":"68819-d8277e89","layer":"power","name":"Sea Grape","state":"FL","detail_file":"data/details/power-plants-14.json","plant_id":"68819","capacity_mw":74.5,"status_group":"Operating","energy_sources":"SUN","type":"Power plant","is_nuclear":false}},{"type":"Feature","geometry":{"type":"Point","coordinates":[-80.352,26.788]},"properties":{"key":"65878-f7891b81","layer":"power","name":"Silver Palm","state":"FL","detail_file":"data/details/power-plants-60.json","plant_id":"65878","capacity_mw":74.5,"status_group":"Operating","energy_sources":"SUN","type":"Power plant","is_nuclear":false}},{"type":"Feature","geometry":{"type":"Point","coordinates":[-80.336,25.55]},"properties":{"key":"54624-28cd4412","layer":"power","name":"South District Wastewater Treatment Plt","state":"FL","detail_file":"data/details/power-plants-03.json","plant_id":"54624","capacity_mw":8.0,"status_group":"Operating","energy_sources":"NG","type":"Power plant","is_nuclear":false}},{"type":"Feature","geometry":{"type":"Point","coordinates":[-82.517,27.863]},"properties":{"key":"66920-768f8b2a","layer":"power","name":"South Tampa Resilience Project","state":"FL","detail_file":"data/details/power-plants-33.json","plant_id":"66920","capacity_mw":75.2,"status_group":"Operating","energy_sources":"NG","type":"Power plant","is_nuclear":false}},{"type":"Feature","geometry":{"type":"Point","coordinates":[-82.191,27.573]},"properties":{"key":"62493-e15540d2","layer":"power","name":"Southfork Solar","state":"FL","detail_file":"data/details/power-plants-46.json","plant_id":"62493","capacity_mw":74.5,"status_group":"Operating","energy_sources":"SUN","type":"Power plant","is_nuclear":false}},{"type":"Feature","geometry":{"type":"Point","coordinates":[-80.564,27.51]},"properties":{"key":"68827-a00cb704","layer":"power","name":"Spanish Moss","state":"FL","detail_file":"data/details/power-plants-23.json","plant_id":"68827","capacity_mw":74.5,"status_group":"Under construction","energy_sources":"SUN","type":"Power plant","is_nuclear":false}},{"type":"Feature","geometry":{"type":"Point","coordinates":[-80.802,27.278]},"properties":{"key":"65913-13362768","layer":"power","name":"Speckled Perch","state":"FL","detail_file":"data/details/power-plants-34.json","plant_id":"65913","capacity_mw":74.5,"status_group":"Operating","energy_sources":"SUN","type":"Power plant","is_nuclear":false}},{"type":"Feature","geometry":{"type":"Point","coordinates":[-80.246,27.349]},"properties":{"key":"6045-ce9217d1","layer":"power","name":"St Lucie","state":"FL","detail_file":"data/details/power-plants-36.json","plant_id":"6045","capacity_mw":2160.0,"status_group":"Operating","energy_sources":"NUC","type":"Nuclear power plant","is_nuclear":true}},{"type":"Feature","geometry":{"type":"Point","coordinates":[-81.734,24.563]},"properties":{"key":"6584-f51a18fd","layer":"power","name":"Stock Island","state":"FL","detail_file":"data/details/power-plants-62.json","plant_id":"6584","capacity_mw":126.5,"status_group":"Operating","energy_sources":"DFO","type":"Power plant","is_nuclear":false}},{"type":"Feature","geometry":{"type":"Point","coordinates":[-80.547,27.264]},"properties":{"key":"65039-9da714aa","layer":"power","name":"Sundew","state":"FL","detail_file":"data/details/power-plants-62.json","plant_id":"65039","capacity_mw":74.5,"status_group":"Operating","energy_sources":"SUN","type":"Power plant","is_nuclear":false}},{"type":"Feature","geometry":{"type":"Point","coordinates":[-81.253,26.762]},"properties":{"key":"68276-52404f7a","layer":"power","name":"Swamp Cabbage","state":"FL","detail_file":"data/details/power-plants-17.json","plant_id":"68276","capacity_mw":74.5,"status_group":"Operating","energy_sources":"SUN","type":"Power plant","is_nuclear":false}},{"type":"Feature","geometry":{"type":"Point","coordinates":[-80.474,27.06]},"properties":{"key":"62394-2f0f8e16","layer":"power","name":"Sweetbay Solar Center","state":"FL","detail_file":"data/details/power-plants-57.json","plant_id":"62394","capacity_mw":74.5,"status_group":"Operating","energy_sources":"SUN","type":"Power plant","is_nuclear":false}},{"type":"Feature","geometry":{"type":"Point","coordinates":[-82.533,27.966]},"properties":{"key":"59769-72244345","layer":"power","name":"TIA Solar","state":"FL","detail_file":"data/details/power-plants-24.json","plant_id":"59769","capacity_mw":1.6,"status_group":"Operating","energy_sources":"SUN","type":"Power plant","is_nuclear":false}},{"type":"Feature","geometry":{"type":"Point","coordinates":[-80.737,27.508]},"properties":{"key":"68828-8763850d","layer":"power","name":"Tangelo","state":"FL","detail_file":"data/details/power-plants-28.json","plant_id":"68828","capacity_mw":74.5,"status_group":"Under construction","energy_sources":"SUN","type":"Power plant","is_nuclear":false}},{"type":"Feature","geometry":{"type":"Point","coordinates":[-82.261,27.579]},"properties":{"key":"65863-b3f97d17","layer":"power","name":"Three Creeks","state":"FL","detail_file":"data/details/power-plants-62.json","plant_id":"65863","capacity_mw":74.5,"status_group":"Operating","energy_sources":"SUN","type":"Power plant","is_nuclear":false}},{"type":"Feature","geometry":{"type":"Point","coordinates":[-81.849,27.746]},"properties":{"key":"7699-c48edb83","layer":"power","name":"Tiger Bay","state":"FL","detail_file":"data/details/power-plants-29.json","plant_id":"7699","capacity_mw":278.1,"status_group":"Operating","energy_sources":"NG","type":"Power plant","is_nuclear":false}},{"type":"Feature","geometry":{"type":"Point","coordinates":[-80.068,26.613]},"properties":{"key":"673-d19bff4b","layer":"power","name":"Tom G Smith","state":"FL","detail_file":"data/details/power-plants-10.json","plant_id":"673","capacity_mw":98.7,"status_group":"Operating","energy_sources":"DFO; NG","type":"Power plant","is_nuclear":false}},{"type":"Feature","geometry":{"type":"Point","coordinates":[-80.377,27.384]},"properties":{"key":"56400-a9af4ed7","layer":"power","name":"Treasure Coast Energy Center","state":"FL","detail_file":"data/details/power-plants-60.json","plant_id":"56400","capacity_mw":411.4,"status_group":"Operating","energy_sources":"NG","type":"Power plant","is_nuclear":false}},{"type":"Feature","geometry":{"type":"Point","coordinates":[-82.548,27.483]},"properties":{"key":"50971-c7218874","layer":"power","name":"Tropicana Products Bradenton","state":"FL","detail_file":"data/details/power-plants-31.json","plant_id":"50971","capacity_mw":46.8,"status_group":"Operating","energy_sources":"NG","type":"Power plant","is_nuclear":false}},{"type":"Feature","geometry":{"type":"Point","coordinates":[-80.331,25.436]},"properties":{"key":"621-47e6c1da","layer":"power","name":"Turkey Point","state":"FL","detail_file":"data/details/power-plants-14.json","plant_id":"621","capacity_mw":2978.4,"status_group":"Operating","energy_sources":"NG; NUC","type":"Nuclear power plant","is_nuclear":true}},{"type":"Feature","geometry":{"type":"Point","coordinates":[-80.645,27.567]},"properties":{"key":"65873-a096dfc7","layer":"power","name":"Turnpike","state":"FL","detail_file":"data/details/power-plants-48.json","plant_id":"65873","capacity_mw":74.5,"status_group":"Operating","energy_sources":"SUN","type":"Power plant","is_nuclear":false}},{"type":"Feature","geometry":{"type":"Point","coordinates":[-81.924,27.524]},"properties":{"key":"55415-4674f177","layer":"power","name":"Vandolah Power Station","state":"FL","detail_file":"data/details/power-plants-13.json","plant_id":"55415","capacity_mw":728.0,"status_group":"Operating","energy_sources":"NG","type":"Power plant","is_nuclear":false}},{"type":"Feature","geometry":{"type":"Point","coordinates":[-81.658,26.156]},"properties":{"key":"57168-3743e617","layer":"power","name":"Waste Management Naples LFGTE Project","state":"FL","detail_file":"data/details/power-plants-02.json","plant_id":"57168","capacity_mw":4.0,"status_group":"Operating","energy_sources":"LFG","type":"Power plant","is_nuclear":false}},{"type":"Feature","geometry":{"type":"Point","coordinates":[-80.375,26.699]},"properties":{"key":"56407-95d6ae1a","layer":"power","name":"West County Energy Center","state":"FL","detail_file":"data/details/power-plants-24.json","plant_id":"56407","capacity_mw":4263.0,"status_group":"Operating","energy_sources":"NG","type":"Power plant","is_nuclear":false}},{"type":"Feature","geometry":{"type":"Point","coordinates":[-80.199,26.069]},"properties":{"key":"50887-41effa16","layer":"power","name":"Wheelabrator South Broward","state":"FL","detail_file":"data/details/power-plants-46.json","plant_id":"50887","capacity_mw":66.0,"status_group":"Operating","energy_sources":"MSW","type":"Power plant","is_nuclear":false}},{"type":"Feature","geometry":{"type":"Point","coordinates":[-80.379,27.078]},"properties":{"key":"65869-a1b3b214","layer":"power","name":"White Tail","state":"FL","detail_file":"data/details/power-plants-48.json","plant_id":"65869","capacity_mw":74.5,"status_group":"Operating","energy_sources":"SUN","type":"Power plant","is_nuclear":false}},{"type":"Feature","geometry":{"type":"Point","coordinates":[-81.784,27.316]},"properties":{"key":"61050-9fad31aa","layer":"power","name":"Wildflower Solar Energy Center","state":"FL","detail_file":"data/details/power-plants-07.json","plant_id":"61050","capacity_mw":74.5,"status_group":"Operating","energy_sources":"SUN","type":"Power plant","is_nuclear":false}},{"type":"Feature","geometry":{"type":"Point","coordinates":[-82.081,27.448]},"properties":{"key":"64301-8b0a1e7a","layer":"power","name":"Willow Solar Energy Center","state":"FL","detail_file":"data/details/power-plants-13.json","plant_id":"64301","capacity_mw":74.5,"status_group":"Operating","energy_sources":"SUN","type":"Power plant","is_nuclear":false}},{"type":"Feature","geometry":{"type":"Point","coordinates":[-82.264,27.73]},"properties":{"key":"61667-385d854b","layer":"power","name":"Wimauma Solar and Battery Storage","state":"FL","detail_file":"data/details/power-plants-46.json","plant_id":"61667","capacity_mw":114.8,"status_group":"Operating","energy_sources":"MWH; SUN","type":"Power plant","is_nuclear":false}},{"type":"Feature","geometry":{"type":"Point","coordinates":[-81.048,26.409]},"properties":{"key":"65875-ab83fc71","layer":"power","name":"Woodyard","state":"FL","detail_file":"data/details/power-plants-42.json","plant_id":"65875","capacity_mw":74.5,"status_group":"Operating","energy_sources":"SUN","type":"Power plant","is_nuclear":false}},{"type":"Feature","geometry":{"type":"Point","coordinates":[-80.197,25.799]},"properties":{"key":"64546-f62d3d06","layer":"power","name":"Wynwood Energy Storage","state":"FL","detail_file":"data/details/power-plants-55.json","plant_id":"64546","capacity_mw":10.0,"status_group":"Operating","energy_sources":"MWH","type":"Power plant","is_nuclear":false}}]}