{"type":"FeatureCollection","features":[{"type":"Feature","geometry":{"type":"Point","coordinates":[-96.179,48.114]},"properties":{"key":"2014-c3e8ed0b","layer":"power","name":"Thief River Falls","state":"MN","detail_file":"data/details/power-plants-13.json","plant_id":"2014","capacity_mw":6.5,"status_group":"Operating","energy_sources":"DFO; WAT","type":"Power plant","is_nuclear":false}},{"type":"Feature","geometry":{"type":"Point","coordinates":[-97.176,48.593]},"properties":{"key":"54213-00647c87","layer":"power","name":"American Crystal Sugar Drayton","state":"ND","detail_file":"data/details/power-plants-10.json","plant_id":"54213","capacity_mw":6.0,"status_group":"Operating","energy_sources":"SUB","type":"Power plant","is_nuclear":false}},{"type":"Feature","geometry":{"type":"Point","coordinates":[-99.614,48.965]},"properties":{"key":"59200-11934f4f","layer":"power","name":"Border Winds Wind Farm","state":"ND","detail_file":"data/details/power-plants-15.json","plant_id":"59200","capacity_mw":150.0,"status_group":"Operating","energy_sources":"WND","type":"Power plant","is_nuclear":false}},{"type":"Feature","geometry":{"type":"Point","coordinates":[-97.403,48.43]},"properties":{"key":"2811-fe70f8d2","layer":"power","name":"Grafton","state":"ND","detail_file":"data/details/power-plants-10.json","plant_id":"2811","capacity_mw":4.0,"status_group":"Operating","energy_sources":"DFO","type":"Power plant","is_nuclear":false}},{"type":"Feature","geometry":{"type":"Point","coordinates":[-98.315,48.63]},"properties":{"key":"56605-06d24f6e","layer":"power","name":"Langdon Renewables, LLC","state":"ND","detail_file":"data/details/power-plants-22.json","plant_id":"56605","capacity_mw":118.5,"status_group":"Operating","energy_sources":"WND","type":"Power plant","is_nuclear":false}},{"type":"Feature","geometry":{"type":"Point","coordinates":[-98.317,48.63]},"properties":{"key":"57033-c7193035","layer":"power","name":"Langdon Wind Energy Center","state":"ND","detail_file":"data/details/power-plants-33.json","plant_id":"57033","capacity_mw":40.5,"status_group":"Operating","energy_sources":"WND","type":"Power plant","is_nuclear":false}},{"type":"Feature","geometry":{"type":"Point","coordinates":[-98.316,48.629]},"properties":{"key":"56912-6c4b046e","layer":"power","name":"Langdon Wind II LLC","state":"ND","detail_file":"data/details/power-plants-25.json","plant_id":"56912","capacity_mw":40.5,"status_group":"Operating","energy_sources":"WND","type":"Power plant","is_nuclear":false}},{"type":"Feature","geometry":{"type":"Point","coordinates":[-99.951,48.497]},"properties":{"key":"57097-bb1e2b20","layer":"power","name":"Rugby Wind Power Project","state":"ND","detail_file":"data/details/power-plants-48.json","plant_id":"57097","capacity_mw":149.0,"status_group":"Operating","energy_sources":"WND","type":"Power plant","is_nuclear":false}}]}