{"type":"FeatureCollection","features":[{"type":"Feature","geometry":{"type":"Point","coordinates":[-134.586,57.499]},"properties":{"key":"7462-d26dcf6c","layer":"power","name":"Angoon","state":"AK","detail_file":"data/details/power-plants-34.json","plant_id":"7462","capacity_mw":1.5,"status_group":"Operating","energy_sources":"DFO","type":"Power plant","is_nuclear":false}},{"type":"Feature","geometry":{"type":"Point","coordinates":[-134.101,58.318]},"properties":{"key":"62-2db9be48","layer":"power","name":"Annex Creek","state":"AK","detail_file":"data/details/power-plants-49.json","plant_id":"62","capacity_mw":4.0,"status_group":"Operating","energy_sources":"WAT","type":"Power plant","is_nuclear":false}},{"type":"Feature","geometry":{"type":"Point","coordinates":[-134.645,58.388]},"properties":{"key":"7250-919c2aa1","layer":"power","name":"Auke Bay","state":"AK","detail_file":"data/details/power-plants-09.json","plant_id":"7250","capacity_mw":36.2,"status_group":"Operating","energy_sources":"DFO","type":"Power plant","is_nuclear":false}},{"type":"Feature","geometry":{"type":"Point","coordinates":[-135.23,57.052]},"properties":{"key":"93-9b626b49","layer":"power","name":"Blue Lake Hydro","state":"AK","detail_file":"data/details/power-plants-49.json","plant_id":"93","capacity_mw":15.9,"status_group":"Operating","energy_sources":"WAT","type":"Power plant","is_nuclear":false}},{"type":"Feature","geometry":{"type":"Point","coordinates":[-135.212,59.536]},"properties":{"key":"7751-0373ffe3","layer":"power","name":"Goat Lake Hydro","state":"AK","detail_file":"data/details/power-plants-57.json","plant_id":"7751","capacity_mw":4.0,"status_group":"Operating","energy_sources":"WAT","type":"Power plant","is_nuclear":false}},{"type":"Feature","geometry":{"type":"Point","coordinates":[-134.417,58.311]},"properties":{"key":"63-d6ea9ad9","layer":"power","name":"Gold Creek","state":"AK","detail_file":"data/details/power-plants-55.json","plant_id":"63","capacity_mw":9.7,"status_group":"Operating","energy_sources":"DFO; WAT","type":"Power plant","is_nuclear":false}},{"type":"Feature","geometry":{"type":"Point","coordinates":[-135.123,56.986]},"properties":{"key":"313-cb1e4e9e","layer":"power","name":"Green Lake","state":"AK","detail_file":"data/details/power-plants-07.json","plant_id":"313","capacity_mw":18.6,"status_group":"Operating","energy_sources":"WAT","type":"Power plant","is_nuclear":false}},{"type":"Feature","geometry":{"type":"Point","coordinates":[-135.707,58.419]},"properties":{"key":"65767-aee7612c","layer":"power","name":"Gustavus","state":"AK","detail_file":"data/details/power-plants-00.json","plant_id":"65767","capacity_mw":2.2,"status_group":"Operating","energy_sources":"DFO; WAT","type":"Power plant","is_nuclear":false}},{"type":"Feature","geometry":{"type":"Point","coordinates":[-135.446,59.236]},"properties":{"key":"69-b19e4783","layer":"power","name":"Haines","state":"AK","detail_file":"data/details/power-plants-61.json","plant_id":"69","capacity_mw":8.4,"status_group":"Operating","energy_sources":"DFO","type":"Power plant","is_nuclear":false}},{"type":"Feature","geometry":{"type":"Point","coordinates":[-135.431,58.106]},"properties":{"key":"7463-40f6415c","layer":"power","name":"Hoonah","state":"AK","detail_file":"data/details/power-plants-62.json","plant_id":"7463","capacity_mw":2.0,"status_group":"Operating","energy_sources":"DFO","type":"Power plant","is_nuclear":false}},{"type":"Feature","geometry":{"type":"Point","coordinates":[-134.608,58.368]},"properties":{"key":"59793-58c135b6","layer":"power","name":"Industrial Plant","state":"AK","detail_file":"data/details/power-plants-04.json","plant_id":"59793","capacity_mw":41.7,"status_group":"Operating","energy_sources":"DFO","type":"Power plant","is_nuclear":false}},{"type":"Feature","geometry":{"type":"Point","coordinates":[-135.313,57.05]},"properties":{"key":"6801-8812463c","layer":"power","name":"Jarvis Street","state":"AK","detail_file":"data/details/power-plants-22.json","plant_id":"6801","capacity_mw":25.6,"status_group":"Operating","energy_sources":"DFO","type":"Power plant","is_nuclear":false}},{"type":"Feature","geometry":{"type":"Point","coordinates":[-133.923,56.963]},"properties":{"key":"7464-5e3acc2a","layer":"power","name":"Kake","state":"AK","detail_file":"data/details/power-plants-06.json","plant_id":"7464","capacity_mw":3.1,"status_group":"Operating","energy_sources":"DFO","type":"Power plant","is_nuclear":false}},{"type":"Feature","geometry":{"type":"Point","coordinates":[-135.341,59.407]},"properties":{"key":"56542-039bb14c","layer":"power","name":"Kasidaya Creek Hydro","state":"AK","detail_file":"data/details/power-plants-16.json","plant_id":"56542","capacity_mw":3.0,"status_group":"Operating","energy_sources":"WAT","type":"Power plant","is_nuclear":false}},{"type":"Feature","geometry":{"type":"Point","coordinates":[-134.053,58.233]},"properties":{"key":"57085-76c99383","layer":"power","name":"Lake Dorothy Hydroelectric Project","state":"AK","detail_file":"data/details/power-plants-11.json","plant_id":"57085","capacity_mw":14.3,"status_group":"Operating","energy_sources":"WAT","type":"Power plant","is_nuclear":false}},{"type":"Feature","geometry":{"type":"Point","coordinates":[-134.495,58.354]},"properties":{"key":"64-ee88f67e","layer":"power","name":"Lemon Creek","state":"AK","detail_file":"data/details/power-plants-04.json","plant_id":"64","capacity_mw":61.7,"status_group":"Operating","energy_sources":"DFO","type":"Power plant","is_nuclear":false}},{"type":"Feature","geometry":{"type":"Point","coordinates":[-132.957,56.811]},"properties":{"key":"91-2ec64c5a","layer":"power","name":"Petersburg","state":"AK","detail_file":"data/details/power-plants-12.json","plant_id":"91","capacity_mw":14.7,"status_group":"Operating","energy_sources":"DFO; WAT","type":"Power plant","is_nuclear":false}},{"type":"Feature","geometry":{"type":"Point","coordinates":[-134.463,58.327]},"properties":{"key":"65-7f7a6fea","layer":"power","name":"Salmon Creek 1","state":"AK","detail_file":"data/details/power-plants-59.json","plant_id":"65","capacity_mw":8.5,"status_group":"Operating","energy_sources":"WAT","type":"Power plant","is_nuclear":false}},{"type":"Feature","geometry":{"type":"Point","coordinates":[-135.313,59.455]},"properties":{"key":"66-ca1da5b5","layer":"power","name":"Skagway","state":"AK","detail_file":"data/details/power-plants-27.json","plant_id":"66","capacity_mw":5.7,"status_group":"Operating","energy_sources":"DFO; WAT","type":"Power plant","is_nuclear":false}},{"type":"Feature","geometry":{"type":"Point","coordinates":[-133.737,58.142]},"properties":{"key":"78-8955be73","layer":"power","name":"Snettisham","state":"AK","detail_file":"data/details/power-plants-18.json","plant_id":"78","capacity_mw":78.2,"status_group":"Operating","energy_sources":"WAT","type":"Power plant","is_nuclear":false}},{"type":"Feature","geometry":{"type":"Point","coordinates":[-133.687,57.945]},"properties":{"key":"60588-57b51d83","layer":"power","name":"Sweetheart Lake Hydroelectric Facility","state":"AK","detail_file":"data/details/power-plants-08.json","plant_id":"60588","capacity_mw":19.8,"status_group":"Under construction","energy_sources":"WAT","type":"Power plant","is_nuclear":false}},{"type":"Feature","geometry":{"type":"Point","coordinates":[-132.379,56.461]},"properties":{"key":"95-6c20d366","layer":"power","name":"Wrangell","state":"AK","detail_file":"data/details/power-plants-42.json","plant_id":"95","capacity_mw":12.0,"status_group":"Operating","energy_sources":"DFO","type":"Power plant","is_nuclear":false}}]}