{"type":"FeatureCollection","features":[{"type":"Feature","geometry":{"type":"Point","coordinates":[-114.738,36.016]},"properties":{"key":"8902-a5462f1b","layer":"power","name":"Hoover Dam (AZ)","state":"AZ","detail_file":"data/details/power-plants-11.json","plant_id":"8902","capacity_mw":1039.4,"status_group":"Operating","energy_sources":"WAT","type":"Power plant","is_nuclear":false}},{"type":"Feature","geometry":{"type":"Point","coordinates":[-114.961,36.416]},"properties":{"key":"55514-5e8d404b","layer":"power","name":"Apex Generating Station","state":"NV","detail_file":"data/details/power-plants-58.json","plant_id":"55514","capacity_mw":600.6,"status_group":"Operating","energy_sources":"NG","type":"Power plant","is_nuclear":false}},{"type":"Feature","geometry":{"type":"Point","coordinates":[-114.97,36.39]},"properties":{"key":"58489-ef35b3e7","layer":"power","name":"Apex Solar PV Power Project","state":"NV","detail_file":"data/details/power-plants-06.json","plant_id":"58489","capacity_mw":20.0,"status_group":"Operating","energy_sources":"SUN","type":"Power plant","is_nuclear":false}},{"type":"Feature","geometry":{"type":"Point","coordinates":[-114.844,36.459]},"properties":{"key":"62248-daeac1bf","layer":"power","name":"Arrow Canyon Solar Hybrid","state":"NV","detail_file":"data/details/power-plants-46.json","plant_id":"62248","capacity_mw":275.0,"status_group":"Operating","energy_sources":"MWH; SUN","type":"Power plant","is_nuclear":false}},{"type":"Feature","geometry":{"type":"Point","coordinates":[-115.799,36.558]},"properties":{"key":"66908-5bdbed4a","layer":"power","name":"Bonanza Solar and Storage Project","state":"NV","detail_file":"data/details/power-plants-04.json","plant_id":"66908","capacity_mw":495.0,"status_group":"Under construction","energy_sources":"MWH; SUN","type":"Power plant","is_nuclear":false}},{"type":"Feature","geometry":{"type":"Point","coordinates":[-114.922,36.384]},"properties":{"key":"55322-5253eeeb","layer":"power","name":"Chuck Lenzie Generating Station","state":"NV","detail_file":"data/details/power-plants-00.json","plant_id":"55322","capacity_mw":1465.6,"status_group":"Operating","energy_sources":"NG","type":"Power plant","is_nuclear":false}},{"type":"Feature","geometry":{"type":"Point","coordinates":[-115.179,36.104]},"properties":{"key":"57348-0c2a3723","layer":"power","name":"CityCenter Central Plant Cogen Units","state":"NV","detail_file":"data/details/power-plants-12.json","plant_id":"57348","capacity_mw":8.6,"status_group":"Operating","energy_sources":"NG","type":"Power plant","is_nuclear":false}},{"type":"Feature","geometry":{"type":"Point","coordinates":[-115.051,36.087]},"properties":{"key":"2322-5ee82508","layer":"power","name":"Clark (NVE)","state":"NV","detail_file":"data/details/power-plants-21.json","plant_id":"2322","capacity_mw":1375.6,"status_group":"Operating","energy_sources":"NG","type":"Power plant","is_nuclear":false}},{"type":"Feature","geometry":{"type":"Point","coordinates":[-115.272,36.057]},"properties":{"key":"61862-6824e775","layer":"power","name":"Dignity - San Martin","state":"NV","detail_file":"data/details/power-plants-43.json","plant_id":"61862","capacity_mw":1.7,"status_group":"Operating","energy_sources":"SUN","type":"Power plant","is_nuclear":false}},{"type":"Feature","geometry":{"type":"Point","coordinates":[-115.115,36.004]},"properties":{"key":"61825-9271cc93","layer":"power","name":"Dignity - Siena Campus","state":"NV","detail_file":"data/details/power-plants-55.json","plant_id":"61825","capacity_mw":1.4,"status_group":"Operating","energy_sources":"SUN","type":"Power plant","is_nuclear":false}},{"type":"Feature","geometry":{"type":"Point","coordinates":[-114.865,36.401]},"properties":{"key":"69549-1a58044f","layer":"power","name":"Dry Lake East Energy Center","state":"NV","detail_file":"data/details/power-plants-48.json","plant_id":"69549","capacity_mw":200.0,"status_group":"Under construction","energy_sources":"SUN","type":"Power plant","is_nuclear":false}},{"type":"Feature","geometry":{"type":"Point","coordinates":[-114.891,36.427]},"properties":{"key":"63933-9c2de522","layer":"power","name":"Dry Lake Solar Energy Center","state":"NV","detail_file":"data/details/power-plants-49.json","plant_id":"63933","capacity_mw":250.0,"status_group":"Operating","energy_sources":"MWH; SUN","type":"Power plant","is_nuclear":false}},{"type":"Feature","geometry":{"type":"Point","coordinates":[-114.684,36.63]},"properties":{"key":"61852-9cad62a6","layer":"power","name":"Eagle Shadow Mountain Solar Farm","state":"NV","detail_file":"data/details/power-plants-00.json","plant_id":"61852","capacity_mw":300.0,"status_group":"Operating","energy_sources":"SUN","type":"Power plant","is_nuclear":false}},{"type":"Feature","geometry":{"type":"Point","coordinates":[-114.088,36.894]},"properties":{"key":"67898-f5490c2d","layer":"power","name":"Escape Solar Plant","state":"NV","detail_file":"data/details/power-plants-51.json","plant_id":"67898","capacity_mw":285.0,"status_group":"Operating","energy_sources":"MWH; SUN","type":"Power plant","is_nuclear":false}},{"type":"Feature","geometry":{"type":"Point","coordinates":[-114.806,36.468]},"properties":{"key":"63352-225bb207","layer":"power","name":"Gemini Solar Hybrid","state":"NV","detail_file":"data/details/power-plants-56.json","plant_id":"63352","capacity_mw":1070.0,"status_group":"Operating","energy_sources":"MWH; SUN","type":"Power plant","is_nuclear":false}},{"type":"Feature","geometry":{"type":"Point","coordinates":[-114.902,36.431]},"properties":{"key":"7082-4d891d4d","layer":"power","name":"Harry Allen","state":"NV","detail_file":"data/details/power-plants-27.json","plant_id":"7082","capacity_mw":745.0,"status_group":"Operating","energy_sources":"NG","type":"Power plant","is_nuclear":false}},{"type":"Feature","geometry":{"type":"Point","coordinates":[-114.947,36.434]},"properties":{"key":"63080-2fd595d2","layer":"power","name":"Harry Allen Solar Energy LLC","state":"NV","detail_file":"data/details/power-plants-32.json","plant_id":"63080","capacity_mw":100.0,"status_group":"Operating","energy_sources":"SUN","type":"Power plant","is_nuclear":false}},{"type":"Feature","geometry":{"type":"Point","coordinates":[-114.738,36.016]},"properties":{"key":"154-d1823156","layer":"power","name":"Hoover Dam (NV)","state":"NV","detail_file":"data/details/power-plants-54.json","plant_id":"154","capacity_mw":1039.4,"status_group":"Operating","energy_sources":"WAT","type":"Power plant","is_nuclear":false}},{"type":"Feature","geometry":{"type":"Point","coordinates":[-115.046,36.271]},"properties":{"key":"66098-b83352d3","layer":"power","name":"IGS VGT","state":"NV","detail_file":"data/details/power-plants-41.json","plant_id":"66098","capacity_mw":1.0,"status_group":"Operating","energy_sources":"SUN","type":"Power plant","is_nuclear":false}},{"type":"Feature","geometry":{"type":"Point","coordinates":[-115.281,36.069]},"properties":{"key":"61193-cb2038a2","layer":"power","name":"IKEA Las Vegas 462","state":"NV","detail_file":"data/details/power-plants-27.json","plant_id":"61193","capacity_mw":1.0,"status_group":"Operating","energy_sources":"SUN","type":"Power plant","is_nuclear":false}},{"type":"Feature","geometry":{"type":"Point","coordinates":[-115.122,36.232]},"properties":{"key":"10761-c32878b3","layer":"power","name":"Las Vegas Generating Station","state":"NV","detail_file":"data/details/power-plants-30.json","plant_id":"10761","capacity_mw":358.9,"status_group":"Operating","energy_sources":"NG","type":"Power plant","is_nuclear":false}},{"type":"Feature","geometry":{"type":"Point","coordinates":[-115.035,36.134]},"properties":{"key":"58477-1887c119","layer":"power","name":"Las Vegas WPCF Solar Plant","state":"NV","detail_file":"data/details/power-plants-40.json","plant_id":"58477","capacity_mw":3.3,"status_group":"Operating","energy_sources":"SUN","type":"Power plant","is_nuclear":false}},{"type":"Feature","geometry":{"type":"Point","coordinates":[-115.972,36.275]},"properties":{"key":"66983-9d0f2012","layer":"power","name":"MDU / NVSS-II","state":"NV","detail_file":"data/details/power-plants-16.json","plant_id":"66983","capacity_mw":13.5,"status_group":"Operating","energy_sources":"SUN","type":"Power plant","is_nuclear":false}},{"type":"Feature","geometry":{"type":"Point","coordinates":[-114.77,36.53]},"properties":{"key":"57859-ba6ecdc7","layer":"power","name":"Moapa Southern Paiute","state":"NV","detail_file":"data/details/power-plants-30.json","plant_id":"57859","capacity_mw":250.0,"status_group":"Operating","energy_sources":"SUN","type":"Power plant","is_nuclear":false}},{"type":"Feature","geometry":{"type":"Point","coordinates":[-114.964,36.391]},"properties":{"key":"58544-822d1293","layer":"power","name":"Mountain View Solar","state":"NV","detail_file":"data/details/power-plants-51.json","plant_id":"58544","capacity_mw":20.0,"status_group":"Operating","energy_sources":"SUN","type":"Power plant","is_nuclear":false}},{"type":"Feature","geometry":{"type":"Point","coordinates":[-114.138,36.79]},"properties":{"key":"67591-01241a15","layer":"power","name":"NV - Nokomis - CHI","state":"NV","detail_file":"data/details/power-plants-19.json","plant_id":"67591","capacity_mw":3.0,"status_group":"Operating","energy_sources":"SUN","type":"Power plant","is_nuclear":false}},{"type":"Feature","geometry":{"type":"Point","coordinates":[-115.054,36.26]},"properties":{"key":"56568-807c3c0e","layer":"power","name":"Nellis Air Force Base Solar Array","state":"NV","detail_file":"data/details/power-plants-46.json","plant_id":"56568","capacity_mw":13.2,"status_group":"Operating","energy_sources":"SUN","type":"Power plant","is_nuclear":false}},{"type":"Feature","geometry":{"type":"Point","coordinates":[-115.048,36.207]},"properties":{"key":"59919-ba63194b","layer":"power","name":"Nellis Solar PV II","state":"NV","detail_file":"data/details/power-plants-15.json","plant_id":"59919","capacity_mw":15.0,"status_group":"Operating","energy_sources":"SUN","type":"Power plant","is_nuclear":false}},{"type":"Feature","geometry":{"type":"Point","coordinates":[-114.921,36.343]},"properties":{"key":"54350-d2180e00","layer":"power","name":"Nevada Cogen Assoc#1 GarnetVly","state":"NV","detail_file":"data/details/power-plants-34.json","plant_id":"54350","capacity_mw":94.8,"status_group":"Operating","energy_sources":"NG","type":"Power plant","is_nuclear":false}},{"type":"Feature","geometry":{"type":"Point","coordinates":[-114.878,36.225]},"properties":{"key":"54349-febe0ebb","layer":"power","name":"Nevada Cogen Associates 2 Black Mountain","state":"NV","detail_file":"data/details/power-plants-52.json","plant_id":"54349","capacity_mw":96.3,"status_group":"Operating","energy_sources":"NG","type":"Power plant","is_nuclear":false}},{"type":"Feature","geometry":{"type":"Point","coordinates":[-114.908,36.408]},"properties":{"key":"59827-a4dedcdf","layer":"power","name":"Playa Solar 1, LLC","state":"NV","detail_file":"data/details/power-plants-13.json","plant_id":"59827","capacity_mw":79.0,"status_group":"Operating","energy_sources":"SUN","type":"Power plant","is_nuclear":false}},{"type":"Feature","geometry":{"type":"Point","coordinates":[-114.908,36.408]},"properties":{"key":"60261-44550b2f","layer":"power","name":"Playa Solar 2","state":"NV","detail_file":"data/details/power-plants-58.json","plant_id":"60261","capacity_mw":100.0,"status_group":"Operating","energy_sources":"SUN","type":"Power plant","is_nuclear":false}},{"type":"Feature","geometry":{"type":"Point","coordinates":[-115.806,36.029]},"properties":{"key":"68209-7b42cbe9","layer":"power","name":"Purple Sage Energy Center","state":"NV","detail_file":"data/details/power-plants-19.json","plant_id":"68209","capacity_mw":800.0,"status_group":"Planned","energy_sources":"MWH; SUN","type":"Power plant","is_nuclear":false}},{"type":"Feature","geometry":{"type":"Point","coordinates":[-114.633,36.657]},"properties":{"key":"2324-6a114380","layer":"power","name":"Reid Gardner","state":"NV","detail_file":"data/details/power-plants-32.json","plant_id":"2324","capacity_mw":220.0,"status_group":"Operating","energy_sources":"MWH","type":"Power plant","is_nuclear":false}},{"type":"Feature","geometry":{"type":"Point","coordinates":[-114.875,36.359]},"properties":{"key":"60792-5793a245","layer":"power","name":"Republic Services Renewable Energy, LLC","state":"NV","detail_file":"data/details/power-plants-37.json","plant_id":"60792","capacity_mw":12.0,"status_group":"Operating","energy_sources":"LFG","type":"Power plant","is_nuclear":false}},{"type":"Feature","geometry":{"type":"Point","coordinates":[-114.929,36.032]},"properties":{"key":"59747-1deaac87","layer":"power","name":"River Mountains Solar","state":"NV","detail_file":"data/details/power-plants-11.json","plant_id":"59747","capacity_mw":14.4,"status_group":"Operating","energy_sources":"SUN","type":"Power plant","is_nuclear":false}},{"type":"Feature","geometry":{"type":"Point","coordinates":[-115.219,39.299]},"properties":{"key":"67819-c24041fb","layer":"power","name":"Robinson Solar","state":"NV","detail_file":"data/details/power-plants-06.json","plant_id":"67819","capacity_mw":600.0,"status_group":"Planned","energy_sources":"MWH; SUN","type":"Power plant","is_nuclear":false}},{"type":"Feature","geometry":{"type":"Point","coordinates":[-115.834,36.099]},"properties":{"key":"63782-a5687c09","layer":"power","name":"Rough Hat","state":"NV","detail_file":"data/details/power-plants-17.json","plant_id":"63782","capacity_mw":400.0,"status_group":"Under construction","energy_sources":"SUN","type":"Power plant","is_nuclear":false}},{"type":"Feature","geometry":{"type":"Point","coordinates":[-115.012,36.042]},"properties":{"key":"54271-cbc84db1","layer":"power","name":"Saguaro Power","state":"NV","detail_file":"data/details/power-plants-02.json","plant_id":"54271","capacity_mw":127.2,"status_group":"Operating","energy_sources":"NG","type":"Power plant","is_nuclear":false}},{"type":"Feature","geometry":{"type":"Point","coordinates":[-114.961,36.408]},"properties":{"key":"55841-d5abfa5d","layer":"power","name":"Silverhawk","state":"NV","detail_file":"data/details/power-plants-37.json","plant_id":"55841","capacity_mw":1120.3,"status_group":"Operating","energy_sources":"NG","type":"Power plant","is_nuclear":false}},{"type":"Feature","geometry":{"type":"Point","coordinates":[-115.175,36.087]},"properties":{"key":"60350-38d1c294","layer":"power","name":"Solar Las Vegas MB 2, LLC","state":"NV","detail_file":"data/details/power-plants-48.json","plant_id":"60350","capacity_mw":1.5,"status_group":"Operating","energy_sources":"SUN","type":"Power plant","is_nuclear":false}},{"type":"Feature","geometry":{"type":"Point","coordinates":[-115.178,36.089]},"properties":{"key":"59430-63faf7dd","layer":"power","name":"Solar Las Vegas MB-1","state":"NV","detail_file":"data/details/power-plants-11.json","plant_id":"59430","capacity_mw":4.9,"status_group":"Operating","energy_sources":"SUN","type":"Power plant","is_nuclear":false}},{"type":"Feature","geometry":{"type":"Point","coordinates":[-114.741,36.561]},"properties":{"key":"69762-8f0965ae","layer":"power","name":"Southern Bighorn Solar 2","state":"NV","detail_file":"data/details/power-plants-60.json","plant_id":"69762","capacity_mw":200.0,"status_group":"Under construction","energy_sources":"MWH; SUN","type":"Power plant","is_nuclear":false}},{"type":"Feature","geometry":{"type":"Point","coordinates":[-114.473,36.305]},"properties":{"key":"63113-2b8d9cd3","layer":"power","name":"Southern Bighorn Solar Hybrid","state":"NV","detail_file":"data/details/power-plants-15.json","plant_id":"63113","capacity_mw":600.0,"status_group":"Planned","energy_sources":"MWH; SUN","type":"Power plant","is_nuclear":false}},{"type":"Feature","geometry":{"type":"Point","coordinates":[-114.87,36.23]},"properties":{"key":"58490-d131b523","layer":"power","name":"Spectrum Solar PV Power Project","state":"NV","detail_file":"data/details/power-plants-38.json","plant_id":"58490","capacity_mw":30.2,"status_group":"Operating","energy_sources":"SUN","type":"Power plant","is_nuclear":false}},{"type":"Feature","geometry":{"type":"Point","coordinates":[-115.12,36.202]},"properties":{"key":"69248-9428a940","layer":"power","name":"Speedway North Bldg 1-sllas701","state":"NV","detail_file":"data/details/power-plants-30.json","plant_id":"69248","capacity_mw":1.0,"status_group":"Operating","energy_sources":"SUN","type":"Power plant","is_nuclear":false}},{"type":"Feature","geometry":{"type":"Point","coordinates":[-114.492,39.104]},"properties":{"key":"57192-42f7def6","layer":"power","name":"Spring Valley Wind Project","state":"NV","detail_file":"data/details/power-plants-57.json","plant_id":"57192","capacity_mw":150.0,"status_group":"Operating","energy_sources":"WND","type":"Power plant","is_nuclear":false}},{"type":"Feature","geometry":{"type":"Point","coordinates":[-115.034,36.138]},"properties":{"key":"54854-15489623","layer":"power","name":"Sun Peak Generating Station","state":"NV","detail_file":"data/details/power-plants-37.json","plant_id":"54854","capacity_mw":222.0,"status_group":"Operating","energy_sources":"NG","type":"Power plant","is_nuclear":false}},{"type":"Feature","geometry":{"type":"Point","coordinates":[-115.082,36.251]},"properties":{"key":"67825-bafe1a93","layer":"power","name":"TJX Las Vegas","state":"NV","detail_file":"data/details/power-plants-02.json","plant_id":"67825","capacity_mw":1.0,"status_group":"Operating","energy_sources":"SUN","type":"Power plant","is_nuclear":false}},{"type":"Feature","geometry":{"type":"Point","coordinates":[-114.91,36.382]},"properties":{"key":"68813-b999d963","layer":"power","name":"Vitex Storage","state":"NV","detail_file":"data/details/power-plants-20.json","plant_id":"68813","capacity_mw":300.0,"status_group":"Under construction","energy_sources":"MWH","type":"Power plant","is_nuclear":false}},{"type":"Feature","geometry":{"type":"Point","coordinates":[-115.791,36.076]},"properties":{"key":"67091-fcf17de2","layer":"power","name":"Yellow Pine II","state":"NV","detail_file":"data/details/power-plants-35.json","plant_id":"67091","capacity_mw":210.0,"status_group":"Operating","energy_sources":"MWH; SUN","type":"Power plant","is_nuclear":false}},{"type":"Feature","geometry":{"type":"Point","coordinates":[-115.775,36.066]},"properties":{"key":"66357-ef968763","layer":"power","name":"Yellow Pine Solar","state":"NV","detail_file":"data/details/power-plants-00.json","plant_id":"66357","capacity_mw":190.0,"status_group":"Operating","energy_sources":"MWH; SUN","type":"Power plant","is_nuclear":false}},{"type":"Feature","geometry":{"type":"Point","coordinates":[-113.136,37.84]},"properties":{"key":"65678-0efba38a","layer":"power","name":"Appaloosa Solar I","state":"UT","detail_file":"data/details/power-plants-03.json","plant_id":"65678","capacity_mw":200.0,"status_group":"Operating","energy_sources":"SUN","type":"Power plant","is_nuclear":false}},{"type":"Feature","geometry":{"type":"Point","coordinates":[-113.646,37.639]},"properties":{"key":"58598-c44fb6d9","layer":"power","name":"Beryl Solar Plant","state":"UT","detail_file":"data/details/power-plants-41.json","plant_id":"58598","capacity_mw":3.0,"status_group":"Operating","energy_sources":"SUN","type":"Power plant","is_nuclear":false}},{"type":"Feature","geometry":{"type":"Point","coordinates":[-113.627,37.042]},"properties":{"key":"7767-308d5bc2","layer":"power","name":"Bloomington Power Plant","state":"UT","detail_file":"data/details/power-plants-59.json","plant_id":"7767","capacity_mw":10.2,"status_group":"Operating","energy_sources":"DFO","type":"Power plant","is_nuclear":false}},{"type":"Feature","geometry":{"type":"Point","coordinates":[-113.627,37.044]},"properties":{"key":"62805-23085d2b","layer":"power","name":"Bloomington Solar I","state":"UT","detail_file":"data/details/power-plants-17.json","plant_id":"62805","capacity_mw":2.0,"status_group":"Operating","energy_sources":"SUN","type":"Power plant","is_nuclear":false}},{"type":"Feature","geometry":{"type":"Point","coordinates":[-113.297,38.174]},"properties":{"key":"58130-c58421b7","layer":"power","name":"Blue Mountain Biogas","state":"UT","detail_file":"data/details/power-plants-57.json","plant_id":"58130","capacity_mw":3.2,"status_group":"Operating","energy_sources":"OBG","type":"Power plant","is_nuclear":false}},{"type":"Feature","geometry":{"type":"Point","coordinates":[-112.853,38.489]},"properties":{"key":"299-7b5a0558","layer":"power","name":"Blundell","state":"UT","detail_file":"data/details/power-plants-44.json","plant_id":"299","capacity_mw":38.1,"status_group":"Operating","energy_sources":"GEO","type":"Power plant","is_nuclear":false}},{"type":"Feature","geometry":{"type":"Point","coordinates":[-112.732,38.023]},"properties":{"key":"58600-6e29c8e7","layer":"power","name":"Buckhorn Solar Plant","state":"UT","detail_file":"data/details/power-plants-00.json","plant_id":"58600","capacity_mw":3.0,"status_group":"Operating","energy_sources":"SUN","type":"Power plant","is_nuclear":false}},{"type":"Feature","geometry":{"type":"Point","coordinates":[-112.918,38.507]},"properties":{"key":"68068-e89faf9c","layer":"power","name":"Cape Generating Station","state":"UT","detail_file":"data/details/power-plants-47.json","plant_id":"68068","capacity_mw":129.0,"status_group":"Under construction","energy_sources":"GEO","type":"Power plant","is_nuclear":false}},{"type":"Feature","geometry":{"type":"Point","coordinates":[-113.09,37.808]},"properties":{"key":"58599-0ef224c6","layer":"power","name":"Cedar Valley Solar Plant","state":"UT","detail_file":"data/details/power-plants-18.json","plant_id":"58599","capacity_mw":3.0,"status_group":"Operating","energy_sources":"SUN","type":"Power plant","is_nuclear":false}},{"type":"Feature","geometry":{"type":"Point","coordinates":[-112.581,38.56]},"properties":{"key":"58570-501754bd","layer":"power","name":"Cove Fort","state":"UT","detail_file":"data/details/power-plants-22.json","plant_id":"58570","capacity_mw":25.0,"status_group":"Operating","energy_sources":"GEO","type":"Power plant","is_nuclear":false}},{"type":"Feature","geometry":{"type":"Point","coordinates":[-113.619,37.623]},"properties":{"key":"62469-9a68dbc1","layer":"power","name":"Cove Mountain Solar","state":"UT","detail_file":"data/details/power-plants-52.json","plant_id":"62469","capacity_mw":58.0,"status_group":"Operating","energy_sources":"SUN","type":"Power plant","is_nuclear":false}},{"type":"Feature","geometry":{"type":"Point","coordinates":[-113.637,37.639]},"properties":{"key":"62470-2a4b28ee","layer":"power","name":"Cove Mountain Solar 2","state":"UT","detail_file":"data/details/power-plants-45.json","plant_id":"62470","capacity_mw":122.0,"status_group":"Operating","energy_sources":"SUN","type":"Power plant","is_nuclear":false}},{"type":"Feature","geometry":{"type":"Point","coordinates":[-113.612,37.641]},"properties":{"key":"59386-7ea262dd","layer":"power","name":"Enterprise Solar, LLC","state":"UT","detail_file":"data/details/power-plants-11.json","plant_id":"59386","capacity_mw":80.0,"status_group":"Operating","energy_sources":"SUN","type":"Power plant","is_nuclear":false}},{"type":"Feature","geometry":{"type":"Point","coordinates":[-113.602,37.635]},"properties":{"key":"69678-52cba6c9","layer":"power","name":"Enterprise Storage","state":"UT","detail_file":"data/details/power-plants-53.json","plant_id":"69678","capacity_mw":80.0,"status_group":"Operating","energy_sources":"MWH","type":"Power plant","is_nuclear":false}},{"type":"Feature","geometry":{"type":"Point","coordinates":[-113.028,38.519]},"properties":{"key":"69677-5b49bf0f","layer":"power","name":"Escalante BESS I","state":"UT","detail_file":"data/details/power-plants-49.json","plant_id":"69677","capacity_mw":80.0,"status_group":"Operating","energy_sources":"MWH","type":"Power plant","is_nuclear":false}},{"type":"Feature","geometry":{"type":"Point","coordinates":[-113.034,38.524]},"properties":{"key":"59387-47fd8b9a","layer":"power","name":"Escalante Solar I, LLC","state":"UT","detail_file":"data/details/power-plants-46.json","plant_id":"59387","capacity_mw":80.0,"status_group":"Operating","energy_sources":"SUN","type":"Power plant","is_nuclear":false}},{"type":"Feature","geometry":{"type":"Point","coordinates":[-113.03,38.501]},"properties":{"key":"59388-b3c67037","layer":"power","name":"Escalante Solar II, LLC","state":"UT","detail_file":"data/details/power-plants-02.json","plant_id":"59388","capacity_mw":80.0,"status_group":"Operating","energy_sources":"SUN","type":"Power plant","is_nuclear":false}},{"type":"Feature","geometry":{"type":"Point","coordinates":[-112.987,38.498]},"properties":{"key":"59389-d9ccd2d6","layer":"power","name":"Escalante Solar III, LLC","state":"UT","detail_file":"data/details/power-plants-10.json","plant_id":"59389","capacity_mw":80.0,"status_group":"Operating","energy_sources":"SUN","type":"Power plant","is_nuclear":false}},{"type":"Feature","geometry":{"type":"Point","coordinates":[-113.254,37.75]},"properties":{"key":"59787-118c58be","layer":"power","name":"Fiddler's Canyon #1","state":"UT","detail_file":"data/details/power-plants-27.json","plant_id":"59787","capacity_mw":3.0,"status_group":"Operating","energy_sources":"SUN","type":"Power plant","is_nuclear":false}},{"type":"Feature","geometry":{"type":"Point","coordinates":[-113.284,37.795]},"properties":{"key":"59786-7e3d75f9","layer":"power","name":"Fiddler's Canyon #2","state":"UT","detail_file":"data/details/power-plants-24.json","plant_id":"59786","capacity_mw":3.0,"status_group":"Operating","energy_sources":"SUN","type":"Power plant","is_nuclear":false}},{"type":"Feature","geometry":{"type":"Point","coordinates":[-113.217,37.731]},"properties":{"key":"59932-a61c9f76","layer":"power","name":"Fiddler's Canyon 3","state":"UT","detail_file":"data/details/power-plants-02.json","plant_id":"59932","capacity_mw":3.0,"status_group":"Operating","energy_sources":"SUN","type":"Power plant","is_nuclear":false}},{"type":"Feature","geometry":{"type":"Point","coordinates":[-112.776,37.979]},"properties":{"key":"68153-a727f19c","layer":"power","name":"Fremont Solar","state":"UT","detail_file":"data/details/power-plants-60.json","plant_id":"68153","capacity_mw":297.0,"status_group":"Under construction","energy_sources":"MWH; SUN","type":"Power plant","is_nuclear":false}},{"type":"Feature","geometry":{"type":"Point","coordinates":[-112.546,39.523]},"properties":{"key":"61170-98d7d08d","layer":"power","name":"Gale 1 Solar","state":"UT","detail_file":"data/details/power-plants-30.json","plant_id":"61170","capacity_mw":450.0,"status_group":"Planned","energy_sources":"MWH; SUN","type":"Power plant","is_nuclear":false}},{"type":"Feature","geometry":{"type":"Point","coordinates":[-113.249,37.774]},"properties":{"key":"69679-f0fa7a50","layer":"power","name":"Granite Mountain BESS East","state":"UT","detail_file":"data/details/power-plants-23.json","plant_id":"69679","capacity_mw":80.0,"status_group":"Operating","energy_sources":"MWH","type":"Power plant","is_nuclear":false}},{"type":"Feature","geometry":{"type":"Point","coordinates":[-113.226,37.775]},"properties":{"key":"59946-92fcf3de","layer":"power","name":"Granite Mountain Solar East, LLC","state":"UT","detail_file":"data/details/power-plants-13.json","plant_id":"59946","capacity_mw":80.0,"status_group":"Operating","energy_sources":"SUN","type":"Power plant","is_nuclear":false}},{"type":"Feature","geometry":{"type":"Point","coordinates":[-113.322,37.799]},"properties":{"key":"59945-7e587d0a","layer":"power","name":"Granite Mountain Solar West, LLC","state":"UT","detail_file":"data/details/power-plants-05.json","plant_id":"59945","capacity_mw":50.4,"status_group":"Operating","energy_sources":"SUN","type":"Power plant","is_nuclear":false}},{"type":"Feature","geometry":{"type":"Point","coordinates":[-112.989,38.403]},"properties":{"key":"58604-66641839","layer":"power","name":"Granite Peak Solar Plant","state":"UT","detail_file":"data/details/power-plants-51.json","plant_id":"58604","capacity_mw":3.0,"status_group":"Operating","energy_sources":"SUN","type":"Power plant","is_nuclear":false}},{"type":"Feature","geometry":{"type":"Point","coordinates":[-112.736,38.256]},"properties":{"key":"58603-d1eb096d","layer":"power","name":"Greenville Solar Plant","state":"UT","detail_file":"data/details/power-plants-30.json","plant_id":"58603","capacity_mw":2.2,"status_group":"Operating","energy_sources":"SUN","type":"Power plant","is_nuclear":false}},{"type":"Feature","geometry":{"type":"Point","coordinates":[-113.297,37.186]},"properties":{"key":"57899-16e3b3ca","layer":"power","name":"Hurricane City Power","state":"UT","detail_file":"data/details/power-plants-55.json","plant_id":"57899","capacity_mw":15.1,"status_group":"Operating","energy_sources":"DFO; NG","type":"Power plant","is_nuclear":false}},{"type":"Feature","geometry":{"type":"Point","coordinates":[-112.58,39.51]},"properties":{"key":"6481-abfc36e7","layer":"power","name":"Intermountain Power Project","state":"UT","detail_file":"data/details/power-plants-16.json","plant_id":"6481","capacity_mw":1093.2,"status_group":"Operating","energy_sources":"NG","type":"Power plant","is_nuclear":false}},{"type":"Feature","geometry":{"type":"Point","coordinates":[-112.44,39.415]},"properties":{"key":"66684-65876444","layer":"power","name":"Intermountain Pumped Storage Project","state":"UT","detail_file":"data/details/power-plants-36.json","plant_id":"66684","capacity_mw":1000.0,"status_group":"Planned","energy_sources":"WAT","type":"Power plant","is_nuclear":false}},{"type":"Feature","geometry":{"type":"Point","coordinates":[-113.15,37.729]},"properties":{"key":"69041-11c11c43","layer":"power","name":"Iron Springs BESS","state":"UT","detail_file":"data/details/power-plants-14.json","plant_id":"69041","capacity_mw":80.0,"status_group":"Operating","energy_sources":"MWH","type":"Power plant","is_nuclear":false}},{"type":"Feature","geometry":{"type":"Point","coordinates":[-113.152,37.721]},"properties":{"key":"59941-f74f231e","layer":"power","name":"Iron Springs Solar, LLC","state":"UT","detail_file":"data/details/power-plants-44.json","plant_id":"59941","capacity_mw":80.0,"status_group":"Operating","energy_sources":"SUN","type":"Power plant","is_nuclear":false}},{"type":"Feature","geometry":{"type":"Point","coordinates":[-113.036,38.291]},"properties":{"key":"58602-816e3153","layer":"power","name":"Laho Solar Plant","state":"UT","detail_file":"data/details/power-plants-08.json","plant_id":"58602","capacity_mw":3.0,"status_group":"Operating","energy_sources":"SUN","type":"Power plant","is_nuclear":false}},{"type":"Feature","geometry":{"type":"Point","coordinates":[-112.991,38.388]},"properties":{"key":"59958-e33c1d8c","layer":"power","name":"Milford 2","state":"UT","detail_file":"data/details/power-plants-27.json","plant_id":"59958","capacity_mw":3.0,"status_group":"Operating","energy_sources":"SUN","type":"Power plant","is_nuclear":false}},{"type":"Feature","geometry":{"type":"Point","coordinates":[-113.008,38.291]},"properties":{"key":"58601-0abbc603","layer":"power","name":"Milford Flat Solar Plant","state":"UT","detail_file":"data/details/power-plants-59.json","plant_id":"58601","capacity_mw":3.0,"status_group":"Operating","energy_sources":"SUN","type":"Power plant","is_nuclear":false}},{"type":"Feature","geometry":{"type":"Point","coordinates":[-113.018,38.491]},"properties":{"key":"62812-7e701c30","layer":"power","name":"Milford Solar 1","state":"UT","detail_file":"data/details/power-plants-24.json","plant_id":"62812","capacity_mw":99.0,"status_group":"Operating","energy_sources":"SUN","type":"Power plant","is_nuclear":false}},{"type":"Feature","geometry":{"type":"Point","coordinates":[-113.015,38.522]},"properties":{"key":"69930-e779bfa6","layer":"power","name":"Milford Solar Phase II","state":"UT","detail_file":"data/details/power-plants-26.json","plant_id":"69930","capacity_mw":310.0,"status_group":"Under construction","energy_sources":"SUN","type":"Power plant","is_nuclear":false}},{"type":"Feature","geometry":{"type":"Point","coordinates":[-112.935,38.536]},"properties":{"key":"57079-4058d304","layer":"power","name":"Milford Wind Corridor I LLC","state":"UT","detail_file":"data/details/power-plants-06.json","plant_id":"57079","capacity_mw":203.5,"status_group":"Operating","energy_sources":"WND","type":"Power plant","is_nuclear":false}},{"type":"Feature","geometry":{"type":"Point","coordinates":[-112.931,38.585]},"properties":{"key":"57107-c60fbd0e","layer":"power","name":"Milford Wind Corridor Stage II LLC","state":"UT","detail_file":"data/details/power-plants-48.json","plant_id":"57107","capacity_mw":102.0,"status_group":"Operating","energy_sources":"WND","type":"Power plant","is_nuclear":false}},{"type":"Feature","geometry":{"type":"Point","coordinates":[-113.517,37.112]},"properties":{"key":"56253-913c9a95","layer":"power","name":"Millcreek Power Generation","state":"UT","detail_file":"data/details/power-plants-34.json","plant_id":"56253","capacity_mw":80.0,"status_group":"Operating","energy_sources":"NG","type":"Power plant","is_nuclear":false}},{"type":"Feature","geometry":{"type":"Point","coordinates":[-112.66,39.52]},"properties":{"key":"64669-ff731862","layer":"power","name":"Notch Peak Solar LLC","state":"UT","detail_file":"data/details/power-plants-41.json","plant_id":"64669","capacity_mw":324.0,"status_group":"Under construction","energy_sources":"SUN","type":"Power plant","is_nuclear":false}},{"type":"Feature","geometry":{"type":"Point","coordinates":[-112.888,37.876]},"properties":{"key":"65823-b3fd1e36","layer":"power","name":"Parowan Solar","state":"UT","detail_file":"data/details/power-plants-58.json","plant_id":"65823","capacity_mw":116.0,"status_group":"Planned","energy_sources":"MWH; SUN","type":"Power plant","is_nuclear":false}},{"type":"Feature","geometry":{"type":"Point","coordinates":[-112.343,39.163]},"properties":{"key":"60449-a2f466e3","layer":"power","name":"Pavant Solar II LLC","state":"UT","detail_file":"data/details/power-plants-23.json","plant_id":"60449","capacity_mw":50.0,"status_group":"Operating","energy_sources":"SUN","type":"Power plant","is_nuclear":false}},{"type":"Feature","geometry":{"type":"Point","coordinates":[-112.36,39.154]},"properties":{"key":"60886-b2206970","layer":"power","name":"Pavant Solar III","state":"UT","detail_file":"data/details/power-plants-46.json","plant_id":"60886","capacity_mw":20.0,"status_group":"Operating","energy_sources":"SUN","type":"Power plant","is_nuclear":false}},{"type":"Feature","geometry":{"type":"Point","coordinates":[-112.363,38.961]},"properties":{"key":"59702-e58f38e5","layer":"power","name":"Pavant Solar, LLC","state":"UT","detail_file":"data/details/power-plants-27.json","plant_id":"59702","capacity_mw":50.0,"status_group":"Operating","energy_sources":"SUN","type":"Power plant","is_nuclear":false}},{"type":"Feature","geometry":{"type":"Point","coordinates":[-113.358,37.185]},"properties":{"key":"52039-080f6148","layer":"power","name":"Quail Creek Hydro Plant #1","state":"UT","detail_file":"data/details/power-plants-06.json","plant_id":"52039","capacity_mw":2.3,"status_group":"Operating","energy_sources":"WAT","type":"Power plant","is_nuclear":false}},{"type":"Feature","geometry":{"type":"Point","coordinates":[-113.217,37.658]},"properties":{"key":"61119-10726491","layer":"power","name":"Quichapa 1","state":"UT","detail_file":"data/details/power-plants-03.json","plant_id":"61119","capacity_mw":3.0,"status_group":"Operating","energy_sources":"SUN","type":"Power plant","is_nuclear":false}},{"type":"Feature","geometry":{"type":"Point","coordinates":[-113.189,37.667]},"properties":{"key":"61120-d238d4e3","layer":"power","name":"Quichapa 2","state":"UT","detail_file":"data/details/power-plants-57.json","plant_id":"61120","capacity_mw":3.0,"status_group":"Operating","energy_sources":"SUN","type":"Power plant","is_nuclear":false}},{"type":"Feature","geometry":{"type":"Point","coordinates":[-113.237,37.65]},"properties":{"key":"61121-2c6f05d4","layer":"power","name":"Quichapa 3","state":"UT","detail_file":"data/details/power-plants-28.json","plant_id":"61121","capacity_mw":3.0,"status_group":"Operating","energy_sources":"SUN","type":"Power plant","is_nuclear":false}},{"type":"Feature","geometry":{"type":"Point","coordinates":[-113.644,37.613]},"properties":{"key":"68371-2c12f371","layer":"power","name":"Red Butte Solar and Storage","state":"UT","detail_file":"data/details/power-plants-40.json","plant_id":"68371","capacity_mw":600.0,"status_group":"Under construction","energy_sources":"MWH; SUN","type":"Power plant","is_nuclear":false}},{"type":"Feature","geometry":{"type":"Point","coordinates":[-112.979,38.573]},"properties":{"key":"68044-3c9b1767","layer":"power","name":"Rodatherm Milford 1","state":"UT","detail_file":"data/details/power-plants-57.json","plant_id":"68044","capacity_mw":1.8,"status_group":"Under construction","energy_sources":"GEO","type":"Power plant","is_nuclear":false}},{"type":"Feature","geometry":{"type":"Point","coordinates":[-112.005,38.851]},"properties":{"key":"62666-6580d1a0","layer":"power","name":"Sigurd Solar LLC","state":"UT","detail_file":"data/details/power-plants-25.json","plant_id":"62666","capacity_mw":80.0,"status_group":"Operating","energy_sources":"SUN","type":"Power plant","is_nuclear":false}},{"type":"Feature","geometry":{"type":"Point","coordinates":[-112.995,38.388]},"properties":{"key":"66144-51a1eb6b","layer":"power","name":"Smithfield 1","state":"UT","detail_file":"data/details/power-plants-07.json","plant_id":"66144","capacity_mw":5.0,"status_group":"Operating","energy_sources":"SUN","type":"Power plant","is_nuclear":false}},{"type":"Feature","geometry":{"type":"Point","coordinates":[-113.105,38.224]},"properties":{"key":"66147-5f76c015","layer":"power","name":"Smithfield 3","state":"UT","detail_file":"data/details/power-plants-58.json","plant_id":"66147","capacity_mw":2.0,"status_group":"Operating","energy_sources":"SUN","type":"Power plant","is_nuclear":false}},{"type":"Feature","geometry":{"type":"Point","coordinates":[-113.563,37.03]},"properties":{"key":"65380-ff05ff34","layer":"power","name":"Solomon Generating Facility","state":"UT","detail_file":"data/details/power-plants-35.json","plant_id":"65380","capacity_mw":14.9,"status_group":"Operating","energy_sources":"NG","type":"Power plant","is_nuclear":false}},{"type":"Feature","geometry":{"type":"Point","coordinates":[-113.054,38.311]},"properties":{"key":"59620-33040966","layer":"power","name":"South Milford Solar Plant","state":"UT","detail_file":"data/details/power-plants-38.json","plant_id":"59620","capacity_mw":2.9,"status_group":"Operating","energy_sources":"SUN","type":"Power plant","is_nuclear":false}},{"type":"Feature","geometry":{"type":"Point","coordinates":[-113.569,37.114]},"properties":{"key":"7080-7092dbeb","layer":"power","name":"St George Red Rock","state":"UT","detail_file":"data/details/power-plants-48.json","plant_id":"7080","capacity_mw":14.0,"status_group":"Operating","energy_sources":"DFO","type":"Power plant","is_nuclear":false}},{"type":"Feature","geometry":{"type":"Point","coordinates":[-113.195,38.161]},"properties":{"key":"57353-fb881fcc","layer":"power","name":"Thermo No 1","state":"UT","detail_file":"data/details/power-plants-32.json","plant_id":"57353","capacity_mw":14.0,"status_group":"Operating","energy_sources":"GEO","type":"Power plant","is_nuclear":false}},{"type":"Feature","geometry":{"type":"Point","coordinates":[-113.137,37.827]},"properties":{"key":"60432-e9456ef3","layer":"power","name":"Three Peaks Power","state":"UT","detail_file":"data/details/power-plants-34.json","plant_id":"60432","capacity_mw":80.0,"status_group":"Operating","energy_sources":"SUN","type":"Power plant","is_nuclear":false}},{"type":"Feature","geometry":{"type":"Point","coordinates":[-112.481,38.268]},"properties":{"key":"3643-f3f3492a","layer":"power","name":"Upper Beaver","state":"UT","detail_file":"data/details/power-plants-24.json","plant_id":"3643","capacity_mw":2.5,"status_group":"Operating","energy_sources":"WAT","type":"Power plant","is_nuclear":false}},{"type":"Feature","geometry":{"type":"Point","coordinates":[-112.904,37.883]},"properties":{"key":"58660-ac07a480","layer":"power","name":"Utah Red Hills Renewable Energy Park","state":"UT","detail_file":"data/details/power-plants-46.json","plant_id":"58660","capacity_mw":80.0,"status_group":"Operating","energy_sources":"SUN","type":"Power plant","is_nuclear":false}},{"type":"Feature","geometry":{"type":"Point","coordinates":[-112.508,39.505]},"properties":{"key":"66426-0800a2fd","layer":"power","name":"Utah Solar 1","state":"UT","detail_file":"data/details/power-plants-45.json","plant_id":"66426","capacity_mw":300.0,"status_group":"Planned","energy_sources":"SUN","type":"Power plant","is_nuclear":false}},{"type":"Feature","geometry":{"type":"Point","coordinates":[-113.765,37.348]},"properties":{"key":"60421-ddafdfa1","layer":"power","name":"Veyo Heat Recovery Project","state":"UT","detail_file":"data/details/power-plants-02.json","plant_id":"60421","capacity_mw":9.5,"status_group":"Operating","energy_sources":"WH","type":"Power plant","is_nuclear":false}},{"type":"Feature","geometry":{"type":"Point","coordinates":[-113.439,37.155]},"properties":{"key":"59660-78296b6c","layer":"power","name":"Washington City Electric Generation","state":"UT","detail_file":"data/details/power-plants-59.json","plant_id":"59660","capacity_mw":6.0,"status_group":"Operating","energy_sources":"NG","type":"Power plant","is_nuclear":false}}]}