{"type":"FeatureCollection","features":[{"type":"Feature","geometry":{"type":"Point","coordinates":[-119.416,36.67]},"properties":{"key":"58918-6c904997","layer":"power","name":"2081 Terzian Solar Project","state":"CA","detail_file":"data/details/power-plants-52.json","plant_id":"58918","capacity_mw":1.2,"status_group":"Operating","energy_sources":"SUN","type":"Power plant","is_nuclear":false}},{"type":"Feature","geometry":{"type":"Point","coordinates":[-119.505,37.151]},"properties":{"key":"293-ba641699","layer":"power","name":"A G Wishon","state":"CA","detail_file":"data/details/power-plants-43.json","plant_id":"293","capacity_mw":12.8,"status_group":"Operating","energy_sources":"WAT","type":"Power plant","is_nuclear":false}},{"type":"Feature","geometry":{"type":"Point","coordinates":[-119.74,36.691]},"properties":{"key":"66659-da549b69","layer":"power","name":"Acid BESS","state":"CA","detail_file":"data/details/power-plants-54.json","plant_id":"66659","capacity_mw":97.0,"status_group":"Operating","energy_sources":"MWH","type":"Power plant","is_nuclear":false}},{"type":"Feature","geometry":{"type":"Point","coordinates":[-119.467,36.495]},"properties":{"key":"66797-9a14c894","layer":"power","name":"Agriculture Capital - Legacy Packing","state":"CA","detail_file":"data/details/power-plants-52.json","plant_id":"66797","capacity_mw":1.6,"status_group":"Operating","energy_sources":"SUN","type":"Power plant","is_nuclear":false}},{"type":"Feature","geometry":{"type":"Point","coordinates":[-119.552,36.684]},"properties":{"key":"57564-9da126bb","layer":"power","name":"Algonquin Power Sanger LLC","state":"CA","detail_file":"data/details/power-plants-15.json","plant_id":"57564","capacity_mw":61.5,"status_group":"Operating","energy_sources":"NG","type":"Power plant","is_nuclear":false}},{"type":"Feature","geometry":{"type":"Point","coordinates":[-119.91,36.212]},"properties":{"key":"62546-76022314","layer":"power","name":"Almond","state":"CA","detail_file":"data/details/power-plants-54.json","plant_id":"62546","capacity_mw":19.9,"status_group":"Operating","energy_sources":"SUN","type":"Power plant","is_nuclear":false}},{"type":"Feature","geometry":{"type":"Point","coordinates":[-119.387,36.359]},"properties":{"key":"69114-026c0652","layer":"power","name":"Amazon Visalia (FAT2)","state":"CA","detail_file":"data/details/power-plants-55.json","plant_id":"69114","capacity_mw":3.5,"status_group":"Operating","energy_sources":"SUN","type":"Power plant","is_nuclear":false}},{"type":"Feature","geometry":{"type":"Point","coordinates":[-119.898,36.24]},"properties":{"key":"60777-0ea73ac1","layer":"power","name":"American Kings Solar, LLC","state":"CA","detail_file":"data/details/power-plants-10.json","plant_id":"60777","capacity_mw":128.0,"status_group":"Operating","energy_sources":"SUN","type":"Power plant","is_nuclear":false}},{"type":"Feature","geometry":{"type":"Point","coordinates":[-118.941,36.108]},"properties":{"key":"65458-e77b4e16","layer":"power","name":"Anode (Springville) BESS","state":"CA","detail_file":"data/details/power-plants-08.json","plant_id":"65458","capacity_mw":225.0,"status_group":"Under construction","energy_sources":"MWH","type":"Power plant","is_nuclear":false}},{"type":"Feature","geometry":{"type":"Point","coordinates":[-119.904,36.19]},"properties":{"key":"62547-5a4ee7c3","layer":"power","name":"Aquamarine","state":"CA","detail_file":"data/details/power-plants-62.json","plant_id":"62547","capacity_mw":250.0,"status_group":"Operating","energy_sources":"SUN","type":"Power plant","is_nuclear":false}},{"type":"Feature","geometry":{"type":"Point","coordinates":[-119.088,36.909]},"properties":{"key":"217-d5eaacd1","layer":"power","name":"Balch 1","state":"CA","detail_file":"data/details/power-plants-39.json","plant_id":"217","capacity_mw":31.0,"status_group":"Operating","energy_sources":"WAT","type":"Power plant","is_nuclear":false}},{"type":"Feature","geometry":{"type":"Point","coordinates":[-119.088,36.909]},"properties":{"key":"218-020bb9d2","layer":"power","name":"Balch 2","state":"CA","detail_file":"data/details/power-plants-04.json","plant_id":"218","capacity_mw":97.2,"status_group":"Operating","energy_sources":"WAT","type":"Power plant","is_nuclear":false}},{"type":"Feature","geometry":{"type":"Point","coordinates":[-119.24,37.204]},"properties":{"key":"317-1a378d6e","layer":"power","name":"Big Creek 1","state":"CA","detail_file":"data/details/power-plants-09.json","plant_id":"317","capacity_mw":88.4,"status_group":"Operating","energy_sources":"WAT","type":"Power plant","is_nuclear":false}},{"type":"Feature","geometry":{"type":"Point","coordinates":[-119.307,37.2]},"properties":{"key":"318-fc1141c1","layer":"power","name":"Big Creek 2","state":"CA","detail_file":"data/details/power-plants-36.json","plant_id":"318","capacity_mw":66.6,"status_group":"Operating","energy_sources":"WAT","type":"Power plant","is_nuclear":false}},{"type":"Feature","geometry":{"type":"Point","coordinates":[-119.307,37.2]},"properties":{"key":"322-bb01bda9","layer":"power","name":"Big Creek 2A","state":"CA","detail_file":"data/details/power-plants-63.json","plant_id":"322","capacity_mw":110.0,"status_group":"Operating","energy_sources":"WAT","type":"Power plant","is_nuclear":false}},{"type":"Feature","geometry":{"type":"Point","coordinates":[-119.387,37.149]},"properties":{"key":"319-38d85087","layer":"power","name":"Big Creek 3","state":"CA","detail_file":"data/details/power-plants-30.json","plant_id":"319","capacity_mw":174.5,"status_group":"Operating","energy_sources":"WAT","type":"Power plant","is_nuclear":false}},{"type":"Feature","geometry":{"type":"Point","coordinates":[-119.49,37.139]},"properties":{"key":"320-d304ab39","layer":"power","name":"Big Creek 4","state":"CA","detail_file":"data/details/power-plants-24.json","plant_id":"320","capacity_mw":100.0,"status_group":"Operating","energy_sources":"WAT","type":"Power plant","is_nuclear":false}},{"type":"Feature","geometry":{"type":"Point","coordinates":[-119.329,37.21]},"properties":{"key":"321-cac35827","layer":"power","name":"Big Creek 8","state":"CA","detail_file":"data/details/power-plants-53.json","plant_id":"321","capacity_mw":75.0,"status_group":"Operating","energy_sources":"WAT","type":"Power plant","is_nuclear":false}},{"type":"Feature","geometry":{"type":"Point","coordinates":[-118.324,37.143]},"properties":{"key":"391-f02432ac","layer":"power","name":"Big Pine Creek","state":"CA","detail_file":"data/details/power-plants-13.json","plant_id":"391","capacity_mw":3.2,"status_group":"Operating","energy_sources":"WAT","type":"Power plant","is_nuclear":false}},{"type":"Feature","geometry":{"type":"Point","coordinates":[-118.573,37.274]},"properties":{"key":"323-d09a4548","layer":"power","name":"Bishop Creek 2","state":"CA","detail_file":"data/details/power-plants-15.json","plant_id":"323","capacity_mw":7.3,"status_group":"Operating","energy_sources":"WAT","type":"Power plant","is_nuclear":false}},{"type":"Feature","geometry":{"type":"Point","coordinates":[-118.532,37.302]},"properties":{"key":"324-687d1541","layer":"power","name":"Bishop Creek 3","state":"CA","detail_file":"data/details/power-plants-20.json","plant_id":"324","capacity_mw":8.4,"status_group":"Operating","energy_sources":"WAT","type":"Power plant","is_nuclear":false}},{"type":"Feature","geometry":{"type":"Point","coordinates":[-118.502,37.323]},"properties":{"key":"325-9114c28d","layer":"power","name":"Bishop Creek 4","state":"CA","detail_file":"data/details/power-plants-10.json","plant_id":"325","capacity_mw":8.2,"status_group":"Operating","energy_sources":"WAT","type":"Power plant","is_nuclear":false}},{"type":"Feature","geometry":{"type":"Point","coordinates":[-118.48,37.334]},"properties":{"key":"326-2b210d9f","layer":"power","name":"Bishop Creek 5","state":"CA","detail_file":"data/details/power-plants-06.json","plant_id":"326","capacity_mw":4.5,"status_group":"Operating","energy_sources":"WAT","type":"Power plant","is_nuclear":false}},{"type":"Feature","geometry":{"type":"Point","coordinates":[-118.463,37.35]},"properties":{"key":"327-e259d4c6","layer":"power","name":"Bishop Creek 6","state":"CA","detail_file":"data/details/power-plants-05.json","plant_id":"327","capacity_mw":1.6,"status_group":"Operating","energy_sources":"WAT","type":"Power plant","is_nuclear":false}},{"type":"Feature","geometry":{"type":"Point","coordinates":[-119.401,36.029]},"properties":{"key":"68533-b6374ae5","layer":"power","name":"Blue Moon Farms","state":"CA","detail_file":"data/details/power-plants-30.json","plant_id":"68533","capacity_mw":1.0,"status_group":"Operating","energy_sources":"SUN","type":"Power plant","is_nuclear":false}},{"type":"Feature","geometry":{"type":"Point","coordinates":[-119.312,36.454]},"properties":{"key":"68269-ac27c11c","layer":"power","name":"Bob Wiley Detention Center","state":"CA","detail_file":"data/details/power-plants-18.json","plant_id":"68269","capacity_mw":1.8,"status_group":"Operating","energy_sources":"SUN","type":"Power plant","is_nuclear":false}},{"type":"Feature","geometry":{"type":"Point","coordinates":[-119.96,36.941]},"properties":{"key":"59531-a33722ae","layer":"power","name":"Borden Solar Farm","state":"CA","detail_file":"data/details/power-plants-20.json","plant_id":"59531","capacity_mw":50.0,"status_group":"Operating","energy_sources":"SUN","type":"Power plant","is_nuclear":false}},{"type":"Feature","geometry":{"type":"Point","coordinates":[-119.726,36.661]},"properties":{"key":"65528-a8229caf","layer":"power","name":"CA - Fresno County - Juvenile Hall","state":"CA","detail_file":"data/details/power-plants-26.json","plant_id":"65528","capacity_mw":2.8,"status_group":"Operating","energy_sources":"SUN","type":"Power plant","is_nuclear":false}},{"type":"Feature","geometry":{"type":"Point","coordinates":[-119.65,36.75]},"properties":{"key":"69068-16dbc2ce","layer":"power","name":"CA - Fresno, City of - SE Surface WTP","state":"CA","detail_file":"data/details/power-plants-53.json","plant_id":"69068","capacity_mw":3.0,"status_group":"Operating","energy_sources":"SUN","type":"Power plant","is_nuclear":false}},{"type":"Feature","geometry":{"type":"Point","coordinates":[-118.916,37.646]},"properties":{"key":"63490-b6fb8569","layer":"power","name":"CD4","state":"CA","detail_file":"data/details/power-plants-19.json","plant_id":"63490","capacity_mw":44.4,"status_group":"Operating","energy_sources":"GEO","type":"Power plant","is_nuclear":false}},{"type":"Feature","geometry":{"type":"Point","coordinates":[-119.558,36.065]},"properties":{"key":"61620-c96a8b62","layer":"power","name":"CDCR (CA) - Corcoran State Prison","state":"CA","detail_file":"data/details/power-plants-07.json","plant_id":"61620","capacity_mw":5.0,"status_group":"Operating","energy_sources":"SUN","type":"Power plant","is_nuclear":false}},{"type":"Feature","geometry":{"type":"Point","coordinates":[-119.565,36.138]},"properties":{"key":"59183-5766d95b","layer":"power","name":"CID Solar, LLC","state":"CA","detail_file":"data/details/power-plants-58.json","plant_id":"59183","capacity_mw":20.0,"status_group":"Operating","energy_sources":"SUN","type":"Power plant","is_nuclear":false}},{"type":"Feature","geometry":{"type":"Point","coordinates":[-119.742,36.81]},"properties":{"key":"56813-67c9e526","layer":"power","name":"CSU Fresno Solar Project","state":"CA","detail_file":"data/details/power-plants-08.json","plant_id":"56813","capacity_mw":1.0,"status_group":"Operating","energy_sources":"SUN","type":"Power plant","is_nuclear":false}},{"type":"Feature","geometry":{"type":"Point","coordinates":[-119.56,36.176]},"properties":{"key":"65740-e8c88d10","layer":"power","name":"Canal Energy S23, LLC","state":"CA","detail_file":"data/details/power-plants-18.json","plant_id":"65740","capacity_mw":4.1,"status_group":"Operating","energy_sources":"SUN","type":"Power plant","is_nuclear":false}},{"type":"Feature","geometry":{"type":"Point","coordinates":[-119.374,36.183]},"properties":{"key":"63439-2456eb5f","layer":"power","name":"Central CA Fuel Cell 1, LLC","state":"CA","detail_file":"data/details/power-plants-36.json","plant_id":"63439","capacity_mw":2.8,"status_group":"Operating","energy_sources":"NG","type":"Power plant","is_nuclear":false}},{"type":"Feature","geometry":{"type":"Point","coordinates":[-119.923,36.122]},"properties":{"key":"63850-2517de6f","layer":"power","name":"Cherry","state":"CA","detail_file":"data/details/power-plants-55.json","plant_id":"63850","capacity_mw":40.0,"status_group":"Operating","energy_sources":"MWH","type":"Power plant","is_nuclear":false}},{"type":"Feature","geometry":{"type":"Point","coordinates":[-119.923,36.122]},"properties":{"key":"63850-4ecd765e","layer":"power","name":"Cherry","state":"CA","detail_file":"data/details/power-plants-26.json","plant_id":"63850","capacity_mw":359.7,"status_group":"Under construction","energy_sources":"MWH; SUN","type":"Power plant","is_nuclear":false}},{"type":"Feature","geometry":{"type":"Point","coordinates":[-119.905,36.16]},"properties":{"key":"63849-9855f855","layer":"power","name":"Chestnut","state":"CA","detail_file":"data/details/power-plants-14.json","plant_id":"63849","capacity_mw":285.6,"status_group":"Operating","energy_sources":"MWH; SUN","type":"Power plant","is_nuclear":false}},{"type":"Feature","geometry":{"type":"Point","coordinates":[-119.375,36.185]},"properties":{"key":"59395-28377657","layer":"power","name":"City of Tulare Water Facility","state":"CA","detail_file":"data/details/power-plants-53.json","plant_id":"59395","capacity_mw":9.2,"status_group":"Operating","energy_sources":"NG; OBG; SUN","type":"Power plant","is_nuclear":false}},{"type":"Feature","geometry":{"type":"Point","coordinates":[-119.317,36.33]},"properties":{"key":"68270-3223a295","layer":"power","name":"Civic Center East","state":"CA","detail_file":"data/details/power-plants-13.json","plant_id":"68270","capacity_mw":1.5,"status_group":"Operating","energy_sources":"SUN","type":"Power plant","is_nuclear":false}},{"type":"Feature","geometry":{"type":"Point","coordinates":[-119.641,36.8]},"properties":{"key":"66469-76507723","layer":"power","name":"Clovis East High School","state":"CA","detail_file":"data/details/power-plants-62.json","plant_id":"66469","capacity_mw":1.0,"status_group":"Operating","energy_sources":"SUN","type":"Power plant","is_nuclear":false}},{"type":"Feature","geometry":{"type":"Point","coordinates":[-119.682,36.817]},"properties":{"key":"66468-31f6443c","layer":"power","name":"Clovis High School","state":"CA","detail_file":"data/details/power-plants-43.json","plant_id":"66468","capacity_mw":1.0,"status_group":"Operating","energy_sources":"SUN","type":"Power plant","is_nuclear":false}},{"type":"Feature","geometry":{"type":"Point","coordinates":[-119.737,36.89]},"properties":{"key":"66470-ab5dcd28","layer":"power","name":"Clovis North High School","state":"CA","detail_file":"data/details/power-plants-02.json","plant_id":"66470","capacity_mw":1.0,"status_group":"Operating","energy_sources":"SUN","type":"Power plant","is_nuclear":false}},{"type":"Feature","geometry":{"type":"Point","coordinates":[-118.557,37.438]},"properties":{"key":"393-419c119e","layer":"power","name":"Control Gorge","state":"CA","detail_file":"data/details/power-plants-22.json","plant_id":"393","capacity_mw":37.5,"status_group":"Operating","energy_sources":"WAT","type":"Power plant","is_nuclear":false}},{"type":"Feature","geometry":{"type":"Point","coordinates":[-119.567,36.102]},"properties":{"key":"60450-887d3e56","layer":"power","name":"Corcoran","state":"CA","detail_file":"data/details/power-plants-63.json","plant_id":"60450","capacity_mw":1.1,"status_group":"Operating","energy_sources":"SUN","type":"Power plant","is_nuclear":false}},{"type":"Feature","geometry":{"type":"Point","coordinates":[-119.567,36.141]},"properties":{"key":"63204-5ab3d80d","layer":"power","name":"Corcoran Irrigation District","state":"CA","detail_file":"data/details/power-plants-57.json","plant_id":"63204","capacity_mw":2.0,"status_group":"Operating","energy_sources":"SUN","type":"Power plant","is_nuclear":false}},{"type":"Feature","geometry":{"type":"Point","coordinates":[-119.564,36.138]},"properties":{"key":"67818-1a7ce600","layer":"power","name":"Corcoran Irrigation District Floating So","state":"CA","detail_file":"data/details/power-plants-30.json","plant_id":"67818","capacity_mw":3.1,"status_group":"Operating","energy_sources":"SUN","type":"Power plant","is_nuclear":false}},{"type":"Feature","geometry":{"type":"Point","coordinates":[-119.573,36.138]},"properties":{"key":"58374-3a7d94f5","layer":"power","name":"Corcoran Solar","state":"CA","detail_file":"data/details/power-plants-34.json","plant_id":"58374","capacity_mw":20.0,"status_group":"Operating","energy_sources":"SUN","type":"Power plant","is_nuclear":false}},{"type":"Feature","geometry":{"type":"Point","coordinates":[-119.582,36.142]},"properties":{"key":"59413-330dcba2","layer":"power","name":"Corcoran Solar 2","state":"CA","detail_file":"data/details/power-plants-37.json","plant_id":"59413","capacity_mw":19.8,"status_group":"Operating","energy_sources":"SUN","type":"Power plant","is_nuclear":false}},{"type":"Feature","geometry":{"type":"Point","coordinates":[-119.585,36.15]},"properties":{"key":"59900-4dbfb5f9","layer":"power","name":"Corcoran Solar 3","state":"CA","detail_file":"data/details/power-plants-40.json","plant_id":"59900","capacity_mw":20.0,"status_group":"Operating","energy_sources":"SUN","type":"Power plant","is_nuclear":false}},{"type":"Feature","geometry":{"type":"Point","coordinates":[-117.811,36.007]},"properties":{"key":"63943-706bf33f","layer":"power","name":"Coso Battery Storage","state":"CA","detail_file":"data/details/power-plants-14.json","plant_id":"63943","capacity_mw":60.0,"status_group":"Operating","energy_sources":"MWH","type":"Power plant","is_nuclear":false}},{"type":"Feature","geometry":{"type":"Point","coordinates":[-117.789,36.002]},"properties":{"key":"10875-140e7b0f","layer":"power","name":"Coso Energy Developers","state":"CA","detail_file":"data/details/power-plants-39.json","plant_id":"10875","capacity_mw":90.0,"status_group":"Operating","energy_sources":"GEO","type":"Power plant","is_nuclear":false}},{"type":"Feature","geometry":{"type":"Point","coordinates":[-117.798,36.037]},"properties":{"key":"10873-bf5b9f85","layer":"power","name":"Coso Finance Partners","state":"CA","detail_file":"data/details/power-plants-32.json","plant_id":"10873","capacity_mw":92.2,"status_group":"Operating","energy_sources":"GEO","type":"Power plant","is_nuclear":false}},{"type":"Feature","geometry":{"type":"Point","coordinates":[-117.792,36.019]},"properties":{"key":"10874-f53cd32f","layer":"power","name":"Coso Power Developers","state":"CA","detail_file":"data/details/power-plants-02.json","plant_id":"10874","capacity_mw":90.0,"status_group":"Operating","energy_sources":"GEO","type":"Power plant","is_nuclear":false}},{"type":"Feature","geometry":{"type":"Point","coordinates":[-118.044,36.443]},"properties":{"key":"394-127c0a25","layer":"power","name":"Cottonwood","state":"CA","detail_file":"data/details/power-plants-42.json","plant_id":"394","capacity_mw":1.6,"status_group":"Operating","energy_sources":"WAT","type":"Power plant","is_nuclear":false}},{"type":"Feature","geometry":{"type":"Point","coordinates":[-119.554,36.134]},"properties":{"key":"59087-31f9fd58","layer":"power","name":"Cottonwood Solar, LLC (City of Corcoran)","state":"CA","detail_file":"data/details/power-plants-42.json","plant_id":"59087","capacity_mw":12.0,"status_group":"Operating","energy_sources":"SUN","type":"Power plant","is_nuclear":false}},{"type":"Feature","geometry":{"type":"Point","coordinates":[-119.632,36.268]},"properties":{"key":"65364-69af5f9a","layer":"power","name":"Danell Bros Inc","state":"CA","detail_file":"data/details/power-plants-58.json","plant_id":"65364","capacity_mw":2.6,"status_group":"Operating","energy_sources":"SUN","type":"Power plant","is_nuclear":false}},{"type":"Feature","geometry":{"type":"Point","coordinates":[-119.426,36.538]},"properties":{"key":"57827-1d74b427","layer":"power","name":"Dinuba Wastewater Treatment Plant","state":"CA","detail_file":"data/details/power-plants-23.json","plant_id":"57827","capacity_mw":1.0,"status_group":"Operating","energy_sources":"SUN","type":"Power plant","is_nuclear":false}},{"type":"Feature","geometry":{"type":"Point","coordinates":[-119.968,37.897]},"properties":{"key":"380-a534d47b","layer":"power","name":"Dion R Holm","state":"CA","detail_file":"data/details/power-plants-02.json","plant_id":"380","capacity_mw":180.2,"status_group":"Operating","energy_sources":"WAT","type":"Power plant","is_nuclear":false}},{"type":"Feature","geometry":{"type":"Point","coordinates":[-119.5,36.299]},"properties":{"key":"67820-d2d0ceab","layer":"power","name":"Dixie Creek Dairy Solar","state":"CA","detail_file":"data/details/power-plants-61.json","plant_id":"67820","capacity_mw":2.9,"status_group":"Operating","energy_sources":"SUN","type":"Power plant","is_nuclear":false}},{"type":"Feature","geometry":{"type":"Point","coordinates":[-119.426,36.363]},"properties":{"key":"67432-4f033e67","layer":"power","name":"Double J Dairy Array","state":"CA","detail_file":"data/details/power-plants-35.json","plant_id":"67432","capacity_mw":4.0,"status_group":"Operating","energy_sources":"SUN","type":"Power plant","is_nuclear":false}},{"type":"Feature","geometry":{"type":"Point","coordinates":[-119.554,36.416]},"properties":{"key":"65766-75cf6ab1","layer":"power","name":"Dover Dairy","state":"CA","detail_file":"data/details/power-plants-47.json","plant_id":"65766","capacity_mw":1.1,"status_group":"Operating","energy_sources":"SUN","type":"Power plant","is_nuclear":false}},{"type":"Feature","geometry":{"type":"Point","coordinates":[-119.904,36.24]},"properties":{"key":"66661-25318fe3","layer":"power","name":"Electrolyte BESS","state":"CA","detail_file":"data/details/power-plants-09.json","plant_id":"66661","capacity_mw":99.4,"status_group":"Operating","energy_sources":"MWH","type":"Power plant","is_nuclear":false}},{"type":"Feature","geometry":{"type":"Point","coordinates":[-119.347,36.472]},"properties":{"key":"67030-4e8511f3","layer":"power","name":"Elkhorn Dairy","state":"CA","detail_file":"data/details/power-plants-60.json","plant_id":"67030","capacity_mw":1.0,"status_group":"Operating","energy_sources":"SUN","type":"Power plant","is_nuclear":false}},{"type":"Feature","geometry":{"type":"Point","coordinates":[-119.129,36.267]},"properties":{"key":"58306-10d259e6","layer":"power","name":"Exeter Solar","state":"CA","detail_file":"data/details/power-plants-22.json","plant_id":"58306","capacity_mw":3.5,"status_group":"Operating","energy_sources":"SUN","type":"Power plant","is_nuclear":false}},{"type":"Feature","geometry":{"type":"Point","coordinates":[-119.43,36.547]},"properties":{"key":"63993-60b43ade","layer":"power","name":"FTF-PackingShed","state":"CA","detail_file":"data/details/power-plants-16.json","plant_id":"63993","capacity_mw":1.0,"status_group":"Operating","energy_sources":"SUN","type":"Power plant","is_nuclear":false}},{"type":"Feature","geometry":{"type":"Point","coordinates":[-119.12,36.19]},"properties":{"key":"59203-c18c4afb","layer":"power","name":"Farmersville","state":"CA","detail_file":"data/details/power-plants-40.json","plant_id":"59203","capacity_mw":4.5,"status_group":"Operating","energy_sources":"SUN","type":"Power plant","is_nuclear":false}},{"type":"Feature","geometry":{"type":"Point","coordinates":[-119.81,36.819]},"properties":{"key":"63420-b1894246","layer":"power","name":"Fresno Bullard High School Hybrid","state":"CA","detail_file":"data/details/power-plants-20.json","plant_id":"63420","capacity_mw":1.6,"status_group":"Operating","energy_sources":"MWH; SUN","type":"Power plant","is_nuclear":false}},{"type":"Feature","geometry":{"type":"Point","coordinates":[-119.885,36.696]},"properties":{"key":"66715-378b65c6","layer":"power","name":"Fresno Community Solar","state":"CA","detail_file":"data/details/power-plants-29.json","plant_id":"66715","capacity_mw":10.0,"status_group":"Operating","energy_sources":"SUN","type":"Power plant","is_nuclear":false}},{"type":"Feature","geometry":{"type":"Point","coordinates":[-119.771,36.818]},"properties":{"key":"63421-040ae8f1","layer":"power","name":"Fresno Hoover High School Hybrid","state":"CA","detail_file":"data/details/power-plants-37.json","plant_id":"63421","capacity_mw":1.4,"status_group":"Operating","energy_sources":"MWH; SUN","type":"Power plant","is_nuclear":false}},{"type":"Feature","geometry":{"type":"Point","coordinates":[-119.718,36.734]},"properties":{"key":"63422-3cf62182","layer":"power","name":"Fresno Sunnyside High School Hybrid","state":"CA","detail_file":"data/details/power-plants-00.json","plant_id":"63422","capacity_mw":1.8,"status_group":"Operating","energy_sources":"MWH; SUN","type":"Power plant","is_nuclear":false}},{"type":"Feature","geometry":{"type":"Point","coordinates":[-119.892,36.703]},"properties":{"key":"69072-eac35250","layer":"power","name":"Fresno-Clovis RWRF","state":"CA","detail_file":"data/details/power-plants-53.json","plant_id":"69072","capacity_mw":16.5,"status_group":"Operating","energy_sources":"MWH; SUN","type":"Power plant","is_nuclear":false}},{"type":"Feature","geometry":{"type":"Point","coordinates":[-119.704,36.998]},"properties":{"key":"50393-ce513e64","layer":"power","name":"Friant Hydro Facility","state":"CA","detail_file":"data/details/power-plants-43.json","plant_id":"50393","capacity_mw":37.5,"status_group":"Operating","energy_sources":"WAT","type":"Power plant","is_nuclear":false}},{"type":"Feature","geometry":{"type":"Point","coordinates":[-119.707,36.782]},"properties":{"key":"56909-826c8ef2","layer":"power","name":"Gap Pacific Distribution Center","state":"CA","detail_file":"data/details/power-plants-18.json","plant_id":"56909","capacity_mw":2.4,"status_group":"Operating","energy_sources":"SUN","type":"Power plant","is_nuclear":false}},{"type":"Feature","geometry":{"type":"Point","coordinates":[-119.317,36.278]},"properties":{"key":"68267-cae555a2","layer":"power","name":"Government Plaza Solar","state":"CA","detail_file":"data/details/power-plants-30.json","plant_id":"68267","capacity_mw":1.1,"status_group":"Operating","energy_sources":"SUN","type":"Power plant","is_nuclear":false}},{"type":"Feature","geometry":{"type":"Point","coordinates":[-119.905,36.146]},"properties":{"key":"63851-6783c4f5","layer":"power","name":"Grape","state":"CA","detail_file":"data/details/power-plants-49.json","plant_id":"63851","capacity_mw":246.4,"status_group":"Under construction","energy_sources":"SUN","type":"Power plant","is_nuclear":false}},{"type":"Feature","geometry":{"type":"Point","coordinates":[-119.651,36.164]},"properties":{"key":"57891-3faf17bc","layer":"power","name":"Guernsey Solar Station","state":"CA","detail_file":"data/details/power-plants-27.json","plant_id":"57891","capacity_mw":20.0,"status_group":"Operating","energy_sources":"SUN","type":"Power plant","is_nuclear":false}},{"type":"Feature","geometry":{"type":"Point","coordinates":[-119.02,36.927]},"properties":{"key":"240-e7e7c34b","layer":"power","name":"Haas","state":"CA","detail_file":"data/details/power-plants-32.json","plant_id":"240","capacity_mw":135.0,"status_group":"Operating","energy_sources":"WAT","type":"Power plant","is_nuclear":false}},{"type":"Feature","geometry":{"type":"Point","coordinates":[-117.957,36.11]},"properties":{"key":"398-f6c610be","layer":"power","name":"Haiwee","state":"CA","detail_file":"data/details/power-plants-58.json","plant_id":"398","capacity_mw":5.6,"status_group":"Operating","energy_sources":"WAT","type":"Power plant","is_nuclear":false}},{"type":"Feature","geometry":{"type":"Point","coordinates":[-117.963,36.233]},"properties":{"key":"66686-8295634a","layer":"power","name":"Haiwee Pumped Storage Project","state":"CA","detail_file":"data/details/power-plants-22.json","plant_id":"66686","capacity_mw":1000.0,"status_group":"Planned","energy_sources":"WAT","type":"Power plant","is_nuclear":false}},{"type":"Feature","geometry":{"type":"Point","coordinates":[-119.629,36.307]},"properties":{"key":"59300-9cb3fbf9","layer":"power","name":"Hanford 1 and 2","state":"CA","detail_file":"data/details/power-plants-19.json","plant_id":"59300","capacity_mw":3.0,"status_group":"Operating","energy_sources":"SUN","type":"Power plant","is_nuclear":false}},{"type":"Feature","geometry":{"type":"Point","coordinates":[-119.648,36.27]},"properties":{"key":"55698-930896f0","layer":"power","name":"Hanford Energy Park Peaker","state":"CA","detail_file":"data/details/power-plants-63.json","plant_id":"55698","capacity_mw":92.2,"status_group":"Operating","energy_sources":"NG","type":"Power plant","is_nuclear":false}},{"type":"Feature","geometry":{"type":"Point","coordinates":[-118.968,37.029]},"properties":{"key":"6100-07012d08","layer":"power","name":"Helms Pumped Storage","state":"CA","detail_file":"data/details/power-plants-20.json","plant_id":"6100","capacity_mw":1053.0,"status_group":"Operating","energy_sources":"WAT","type":"Power plant","is_nuclear":false}},{"type":"Feature","geometry":{"type":"Point","coordinates":[-119.905,36.229]},"properties":{"key":"60641-c43bb9c0","layer":"power","name":"Henrietta D Energy Storage LLC","state":"CA","detail_file":"data/details/power-plants-51.json","plant_id":"60641","capacity_mw":10.0,"status_group":"Operating","energy_sources":"MWH","type":"Power plant","is_nuclear":false}},{"type":"Feature","geometry":{"type":"Point","coordinates":[-119.904,36.24]},"properties":{"key":"55807-9c8c199c","layer":"power","name":"Henrietta Peaker","state":"CA","detail_file":"data/details/power-plants-34.json","plant_id":"55807","capacity_mw":98.0,"status_group":"Operating","energy_sources":"NG","type":"Power plant","is_nuclear":false}},{"type":"Feature","geometry":{"type":"Point","coordinates":[-119.806,36.219]},"properties":{"key":"58975-3a229886","layer":"power","name":"Henrietta Solar Project","state":"CA","detail_file":"data/details/power-plants-37.json","plant_id":"58975","capacity_mw":102.0,"status_group":"Operating","energy_sources":"SUN","type":"Power plant","is_nuclear":false}},{"type":"Feature","geometry":{"type":"Point","coordinates":[-119.255,36.388]},"properties":{"key":"58307-63ef8d9c","layer":"power","name":"Ivanhoe Solar","state":"CA","detail_file":"data/details/power-plants-19.json","plant_id":"58307","capacity_mw":3.5,"status_group":"Operating","energy_sources":"SUN","type":"Power plant","is_nuclear":false}},{"type":"Feature","geometry":{"type":"Point","coordinates":[-119.257,37.148]},"properties":{"key":"104-5677849d","layer":"power","name":"J S Eastwood","state":"CA","detail_file":"data/details/power-plants-61.json","plant_id":"104","capacity_mw":199.8,"status_group":"Operating","energy_sources":"WAT","type":"Power plant","is_nuclear":false}},{"type":"Feature","geometry":{"type":"Point","coordinates":[-119.746,36.702]},"properties":{"key":"68521-d150a922","layer":"power","name":"JD Foods - JD Foods","state":"CA","detail_file":"data/details/power-plants-15.json","plant_id":"68521","capacity_mw":1.5,"status_group":"Operating","energy_sources":"SUN","type":"Power plant","is_nuclear":false}},{"type":"Feature","geometry":{"type":"Point","coordinates":[-119.981,37.057]},"properties":{"key":"70106-8127a703","layer":"power","name":"Jade Solar 3","state":"CA","detail_file":"data/details/power-plants-59.json","plant_id":"70106","capacity_mw":3.0,"status_group":"Planned","energy_sources":"MWH; SUN","type":"Power plant","is_nuclear":false}},{"type":"Feature","geometry":{"type":"Point","coordinates":[-119.816,36.234]},"properties":{"key":"65965-846d2e02","layer":"power","name":"Java Solar, LLC","state":"CA","detail_file":"data/details/power-plants-18.json","plant_id":"65965","capacity_mw":13.5,"status_group":"Operating","energy_sources":"SUN","type":"Power plant","is_nuclear":false}},{"type":"Feature","geometry":{"type":"Point","coordinates":[-118.862,36.465]},"properties":{"key":"337-fbb09a5d","layer":"power","name":"Kaweah 1","state":"CA","detail_file":"data/details/power-plants-48.json","plant_id":"337","capacity_mw":2.3,"status_group":"Operating","energy_sources":"WAT","type":"Power plant","is_nuclear":false}},{"type":"Feature","geometry":{"type":"Point","coordinates":[-118.88,36.461]},"properties":{"key":"336-bfa27276","layer":"power","name":"Kaweah 2","state":"CA","detail_file":"data/details/power-plants-12.json","plant_id":"336","capacity_mw":1.8,"status_group":"Operating","energy_sources":"WAT","type":"Power plant","is_nuclear":false}},{"type":"Feature","geometry":{"type":"Point","coordinates":[-118.836,36.486]},"properties":{"key":"338-10a77627","layer":"power","name":"Kaweah 3","state":"CA","detail_file":"data/details/power-plants-57.json","plant_id":"338","capacity_mw":4.8,"status_group":"Operating","energy_sources":"WAT","type":"Power plant","is_nuclear":false}},{"type":"Feature","geometry":{"type":"Point","coordinates":[-119.295,36.328]},"properties":{"key":"10042-538f0e47","layer":"power","name":"Kaweah Delta District Hospital","state":"CA","detail_file":"data/details/power-plants-07.json","plant_id":"10042","capacity_mw":3.5,"status_group":"Operating","energy_sources":"NG","type":"Power plant","is_nuclear":false}},{"type":"Feature","geometry":{"type":"Point","coordinates":[-119.553,37.092]},"properties":{"key":"250-65a7b950","layer":"power","name":"Kerckhoff","state":"CA","detail_file":"data/details/power-plants-19.json","plant_id":"250","capacity_mw":22.6,"status_group":"Operating","energy_sources":"WAT","type":"Power plant","is_nuclear":false}},{"type":"Feature","geometry":{"type":"Point","coordinates":[-119.558,37.072]},"properties":{"key":"682-3c66f5da","layer":"power","name":"Kerckhoff 2","state":"CA","detail_file":"data/details/power-plants-46.json","plant_id":"682","capacity_mw":139.5,"status_group":"Operating","energy_sources":"WAT","type":"Power plant","is_nuclear":false}},{"type":"Feature","geometry":{"type":"Point","coordinates":[-119.948,36.051]},"properties":{"key":"59633-e83133d4","layer":"power","name":"Kettleman Solar -Centaurus","state":"CA","detail_file":"data/details/power-plants-22.json","plant_id":"59633","capacity_mw":20.0,"status_group":"Operating","energy_sources":"SUN","type":"Power plant","is_nuclear":false}},{"type":"Feature","geometry":{"type":"Point","coordinates":[-119.885,36.249]},"properties":{"key":"66676-e3ec5ea9","layer":"power","name":"Kings CSG 3 LLC Community Solar","state":"CA","detail_file":"data/details/power-plants-51.json","plant_id":"66676","capacity_mw":3.0,"status_group":"Operating","energy_sources":"SUN","type":"Power plant","is_nuclear":false}},{"type":"Feature","geometry":{"type":"Point","coordinates":[-119.159,36.888]},"properties":{"key":"254-3cc68295","layer":"power","name":"Kings River PH","state":"CA","detail_file":"data/details/power-plants-32.json","plant_id":"254","capacity_mw":48.6,"status_group":"Operating","energy_sources":"WAT","type":"Power plant","is_nuclear":false}},{"type":"Feature","geometry":{"type":"Point","coordinates":[-119.579,36.54]},"properties":{"key":"10405-a45aeccf","layer":"power","name":"Kingsburg Cogen","state":"CA","detail_file":"data/details/power-plants-04.json","plant_id":"10405","capacity_mw":36.2,"status_group":"Operating","energy_sources":"NG","type":"Power plant","is_nuclear":false}},{"type":"Feature","geometry":{"type":"Point","coordinates":[-119.54,36.505]},"properties":{"key":"58304-c6d45c12","layer":"power","name":"Kingsburg Solar","state":"CA","detail_file":"data/details/power-plants-17.json","plant_id":"58304","capacity_mw":3.7,"status_group":"Operating","energy_sources":"SUN","type":"Power plant","is_nuclear":false}},{"type":"Feature","geometry":{"type":"Point","coordinates":[-119.797,36.679]},"properties":{"key":"58118-cde27bdc","layer":"power","name":"La Joya Del Sol","state":"CA","detail_file":"data/details/power-plants-53.json","plant_id":"58118","capacity_mw":1.5,"status_group":"Operating","energy_sources":"SUN","type":"Power plant","is_nuclear":false}},{"type":"Feature","geometry":{"type":"Point","coordinates":[-119.583,36.245]},"properties":{"key":"69898-2b5bfff7","layer":"power","name":"Lakeside Pipeline","state":"CA","detail_file":"data/details/power-plants-04.json","plant_id":"69898","capacity_mw":4.1,"status_group":"Operating","energy_sources":"SUN","type":"Power plant","is_nuclear":false}},{"type":"Feature","geometry":{"type":"Point","coordinates":[-119.649,36.27]},"properties":{"key":"66660-9488665d","layer":"power","name":"Lead BESS 1","state":"CA","detail_file":"data/details/power-plants-14.json","plant_id":"66660","capacity_mw":99.4,"status_group":"Operating","energy_sources":"MWH","type":"Power plant","is_nuclear":false}},{"type":"Feature","geometry":{"type":"Point","coordinates":[-119.649,36.27]},"properties":{"key":"66662-446f344e","layer":"power","name":"Lead BESS 2","state":"CA","detail_file":"data/details/power-plants-35.json","plant_id":"66662","capacity_mw":32.0,"status_group":"Operating","energy_sources":"MWH","type":"Power plant","is_nuclear":false}},{"type":"Feature","geometry":{"type":"Point","coordinates":[-119.798,36.258]},"properties":{"key":"60142-baef5c10","layer":"power","name":"Lemoore 1","state":"CA","detail_file":"data/details/power-plants-35.json","plant_id":"60142","capacity_mw":1.5,"status_group":"Operating","energy_sources":"SUN","type":"Power plant","is_nuclear":false}},{"type":"Feature","geometry":{"type":"Point","coordinates":[-119.821,36.3]},"properties":{"key":"68027-4e12dd22","layer":"power","name":"Lemoore West","state":"CA","detail_file":"data/details/power-plants-51.json","plant_id":"68027","capacity_mw":7.9,"status_group":"Operating","energy_sources":"SUN","type":"Power plant","is_nuclear":false}},{"type":"Feature","geometry":{"type":"Point","coordinates":[-119.134,36.212]},"properties":{"key":"58308-e327cdcb","layer":"power","name":"Lindsay Solar","state":"CA","detail_file":"data/details/power-plants-40.json","plant_id":"58308","capacity_mw":4.0,"status_group":"Operating","energy_sources":"SUN","type":"Power plant","is_nuclear":false}},{"type":"Feature","geometry":{"type":"Point","coordinates":[-119.518,36.271]},"properties":{"key":"67512-9652d5ab","layer":"power","name":"Lone Oak","state":"CA","detail_file":"data/details/power-plants-47.json","plant_id":"67512","capacity_mw":2.9,"status_group":"Operating","energy_sources":"SUN","type":"Power plant","is_nuclear":false}},{"type":"Feature","geometry":{"type":"Point","coordinates":[-118.789,36.136]},"properties":{"key":"365-aa6be9bc","layer":"power","name":"Lower Tule River","state":"CA","detail_file":"data/details/power-plants-59.json","plant_id":"365","capacity_mw":2.6,"status_group":"Operating","energy_sources":"WAT","type":"Power plant","is_nuclear":false}},{"type":"Feature","geometry":{"type":"Point","coordinates":[-119.172,38.043]},"properties":{"key":"342-fe76e764","layer":"power","name":"Lundy","state":"CA","detail_file":"data/details/power-plants-25.json","plant_id":"342","capacity_mw":3.0,"status_group":"Operating","energy_sources":"WAT","type":"Power plant","is_nuclear":false}},{"type":"Feature","geometry":{"type":"Point","coordinates":[-119.394,36.388]},"properties":{"key":"55160-ee66e749","layer":"power","name":"MM Tulare Energy","state":"CA","detail_file":"data/details/power-plants-16.json","plant_id":"55160","capacity_mw":1.8,"status_group":"Operating","energy_sources":"LFG","type":"Power plant","is_nuclear":false}},{"type":"Feature","geometry":{"type":"Point","coordinates":[-119.74,36.69]},"properties":{"key":"56239-33c8e0db","layer":"power","name":"Malaga Power LLC","state":"CA","detail_file":"data/details/power-plants-49.json","plant_id":"56239","capacity_mw":121.0,"status_group":"Operating","energy_sources":"NG","type":"Power plant","is_nuclear":false}},{"type":"Feature","geometry":{"type":"Point","coordinates":[-118.914,37.645]},"properties":{"key":"10480-7ca2a2bd","layer":"power","name":"Mammoth G1","state":"CA","detail_file":"data/details/power-plants-38.json","plant_id":"10480","capacity_mw":10.0,"status_group":"Operating","energy_sources":"GEO","type":"Power plant","is_nuclear":false}},{"type":"Feature","geometry":{"type":"Point","coordinates":[-118.909,37.646]},"properties":{"key":"10481-4151bfb2","layer":"power","name":"Mammoth G2","state":"CA","detail_file":"data/details/power-plants-34.json","plant_id":"10481","capacity_mw":15.0,"status_group":"Operating","energy_sources":"GEO","type":"Power plant","is_nuclear":false}},{"type":"Feature","geometry":{"type":"Point","coordinates":[-118.91,37.645]},"properties":{"key":"10479-bdc54604","layer":"power","name":"Mammoth G3","state":"CA","detail_file":"data/details/power-plants-38.json","plant_id":"10479","capacity_mw":15.0,"status_group":"Operating","energy_sources":"GEO","type":"Power plant","is_nuclear":false}},{"type":"Feature","geometry":{"type":"Point","coordinates":[-119.338,37.22]},"properties":{"key":"344-254d028a","layer":"power","name":"Mammoth Pool","state":"CA","detail_file":"data/details/power-plants-22.json","plant_id":"344","capacity_mw":190.0,"status_group":"Operating","energy_sources":"WAT","type":"Power plant","is_nuclear":false}},{"type":"Feature","geometry":{"type":"Point","coordinates":[-118.569,37.51]},"properties":{"key":"401-fc78beed","layer":"power","name":"Middle Gorge","state":"CA","detail_file":"data/details/power-plants-39.json","plant_id":"401","capacity_mw":37.5,"status_group":"Operating","energy_sources":"WAT","type":"Power plant","is_nuclear":false}},{"type":"Feature","geometry":{"type":"Point","coordinates":[-119.47,36.586]},"properties":{"key":"63514-0e4ed71e","layer":"power","name":"Moonlight Packing - Phase 2","state":"CA","detail_file":"data/details/power-plants-42.json","plant_id":"63514","capacity_mw":1.4,"status_group":"Operating","energy_sources":"SUN","type":"Power plant","is_nuclear":false}},{"type":"Feature","geometry":{"type":"Point","coordinates":[-117.814,36.009]},"properties":{"key":"67828-851da8d3","layer":"power","name":"Mordor ES1","state":"CA","detail_file":"data/details/power-plants-44.json","plant_id":"67828","capacity_mw":25.0,"status_group":"Operating","energy_sources":"MWH","type":"Power plant","is_nuclear":false}},{"type":"Feature","geometry":{"type":"Point","coordinates":[-117.815,36.009]},"properties":{"key":"67829-9947ecd9","layer":"power","name":"Mordor ES2","state":"CA","detail_file":"data/details/power-plants-58.json","plant_id":"67829","capacity_mw":20.0,"status_group":"Operating","energy_sources":"MWH","type":"Power plant","is_nuclear":false}},{"type":"Feature","geometry":{"type":"Point","coordinates":[-117.996,36.265]},"properties":{"key":"60412-6476f7f7","layer":"power","name":"Munro Valley Solar","state":"CA","detail_file":"data/details/power-plants-11.json","plant_id":"60412","capacity_mw":4.0,"status_group":"Operating","energy_sources":"SUN","type":"Power plant","is_nuclear":false}},{"type":"Feature","geometry":{"type":"Point","coordinates":[-119.896,36.217]},"properties":{"key":"62015-d29edd88","layer":"power","name":"Mustang Two","state":"CA","detail_file":"data/details/power-plants-07.json","plant_id":"62015","capacity_mw":150.0,"status_group":"Operating","energy_sources":"SUN","type":"Power plant","is_nuclear":false}},{"type":"Feature","geometry":{"type":"Point","coordinates":[-119.673,36.625]},"properties":{"key":"61894-75e836d9","layer":"power","name":"National Raisin","state":"CA","detail_file":"data/details/power-plants-40.json","plant_id":"61894","capacity_mw":2.9,"status_group":"Operating","energy_sources":"SUN","type":"Power plant","is_nuclear":false}},{"type":"Feature","geometry":{"type":"Point","coordinates":[-119.32,36.461]},"properties":{"key":"68266-b114c584","layer":"power","name":"North Juvenile Detention Center Solar","state":"CA","detail_file":"data/details/power-plants-40.json","plant_id":"68266","capacity_mw":1.4,"status_group":"Operating","energy_sources":"MWH; SUN","type":"Power plant","is_nuclear":false}},{"type":"Feature","geometry":{"type":"Point","coordinates":[-119.774,36.723]},"properties":{"key":"65229-f2272697","layer":"power","name":"OK Produce Fresno Carport","state":"CA","detail_file":"data/details/power-plants-37.json","plant_id":"65229","capacity_mw":2.0,"status_group":"Operating","energy_sources":"SUN","type":"Power plant","is_nuclear":false}},{"type":"Feature","geometry":{"type":"Point","coordinates":[-118.012,36.275]},"properties":{"key":"60953-32cc4ea6","layer":"power","name":"Owens Valley Solar Project 11","state":"CA","detail_file":"data/details/power-plants-07.json","plant_id":"60953","capacity_mw":1.0,"status_group":"Operating","energy_sources":"SUN","type":"Power plant","is_nuclear":false}},{"type":"Feature","geometry":{"type":"Point","coordinates":[-119.358,36.39]},"properties":{"key":"65707-5658ba77","layer":"power","name":"POM Beverage Solar","state":"CA","detail_file":"data/details/power-plants-07.json","plant_id":"65707","capacity_mw":1.8,"status_group":"Operating","energy_sources":"SUN","type":"Power plant","is_nuclear":false}},{"type":"Feature","geometry":{"type":"Point","coordinates":[-119.351,36.392]},"properties":{"key":"65706-c03a6230","layer":"power","name":"POM Juice Solar","state":"CA","detail_file":"data/details/power-plants-39.json","plant_id":"65706","capacity_mw":1.5,"status_group":"Operating","energy_sources":"SUN","type":"Power plant","is_nuclear":false}},{"type":"Feature","geometry":{"type":"Point","coordinates":[-119.586,36.657]},"properties":{"key":"66188-3940c602","layer":"power","name":"POM Plant 1","state":"CA","detail_file":"data/details/power-plants-16.json","plant_id":"66188","capacity_mw":2.4,"status_group":"Operating","energy_sources":"SUN","type":"Power plant","is_nuclear":false}},{"type":"Feature","geometry":{"type":"Point","coordinates":[-119.592,36.657]},"properties":{"key":"66189-9f85f6a4","layer":"power","name":"POM Plant 2","state":"CA","detail_file":"data/details/power-plants-20.json","plant_id":"66189","capacity_mw":1.6,"status_group":"Operating","energy_sources":"SUN","type":"Power plant","is_nuclear":false}},{"type":"Feature","geometry":{"type":"Point","coordinates":[-119.971,36.916]},"properties":{"key":"61989-b4023918","layer":"power","name":"Pacific Ethanol Madera Solar Array","state":"CA","detail_file":"data/details/power-plants-48.json","plant_id":"61989","capacity_mw":4.3,"status_group":"Operating","energy_sources":"SUN","type":"Power plant","is_nuclear":false}},{"type":"Feature","geometry":{"type":"Point","coordinates":[-119.327,36.833]},"properties":{"key":"7907-57f2d3ca","layer":"power","name":"Pine Flat","state":"CA","detail_file":"data/details/power-plants-35.json","plant_id":"7907","capacity_mw":165.0,"status_group":"Operating","energy_sources":"WAT","type":"Power plant","is_nuclear":false}},{"type":"Feature","geometry":{"type":"Point","coordinates":[-119.327,36.833]},"properties":{"key":"7907-bf3fc9a3","layer":"power","name":"Pine Flat","state":"CA","detail_file":"data/details/power-plants-04.json","plant_id":"7907","capacity_mw":3.8,"status_group":"Under construction","energy_sources":"WAT","type":"Power plant","is_nuclear":false}},{"type":"Feature","geometry":{"type":"Point","coordinates":[-119.396,36.347]},"properties":{"key":"68532-6062e827","layer":"power","name":"Pivot Energy PPA 22","state":"CA","detail_file":"data/details/power-plants-18.json","plant_id":"68532","capacity_mw":1.3,"status_group":"Operating","energy_sources":"SUN","type":"Power plant","is_nuclear":false}},{"type":"Feature","geometry":{"type":"Point","coordinates":[-118.524,37.414]},"properties":{"key":"402-9a1dfff7","layer":"power","name":"Pleasant Valley Hydro","state":"CA","detail_file":"data/details/power-plants-28.json","plant_id":"402","capacity_mw":3.2,"status_group":"Operating","energy_sources":"WAT","type":"Power plant","is_nuclear":false}},{"type":"Feature","geometry":{"type":"Point","coordinates":[-119.216,37.944]},"properties":{"key":"353-f461d56a","layer":"power","name":"Poole","state":"CA","detail_file":"data/details/power-plants-08.json","plant_id":"353","capacity_mw":11.3,"status_group":"Operating","energy_sources":"WAT","type":"Power plant","is_nuclear":false}},{"type":"Feature","geometry":{"type":"Point","coordinates":[-119.159,37.257]},"properties":{"key":"354-690849b4","layer":"power","name":"Portal","state":"CA","detail_file":"data/details/power-plants-47.json","plant_id":"354","capacity_mw":10.8,"status_group":"Operating","energy_sources":"WAT","type":"Power plant","is_nuclear":false}},{"type":"Feature","geometry":{"type":"Point","coordinates":[-119.02,36.05]},"properties":{"key":"59219-3a1979db","layer":"power","name":"Porterville 6 and 7","state":"CA","detail_file":"data/details/power-plants-21.json","plant_id":"59219","capacity_mw":3.0,"status_group":"Operating","energy_sources":"SUN","type":"Power plant","is_nuclear":false}},{"type":"Feature","geometry":{"type":"Point","coordinates":[-119.04,36.103]},"properties":{"key":"58309-0ac88d21","layer":"power","name":"Porterville Solar","state":"CA","detail_file":"data/details/power-plants-00.json","plant_id":"58309","capacity_mw":3.5,"status_group":"Operating","energy_sources":"SUN","type":"Power plant","is_nuclear":false}},{"type":"Feature","geometry":{"type":"Point","coordinates":[-119.953,37.878]},"properties":{"key":"382-86d5e274","layer":"power","name":"R C Kirkwood","state":"CA","detail_file":"data/details/power-plants-38.json","plant_id":"382","capacity_mw":132.8,"status_group":"Operating","energy_sources":"WAT","type":"Power plant","is_nuclear":false}},{"type":"Feature","geometry":{"type":"Point","coordinates":[-119.834,36.248]},"properties":{"key":"58985-9ece40df","layer":"power","name":"RE Kansas Solar, LLC","state":"CA","detail_file":"data/details/power-plants-52.json","plant_id":"58985","capacity_mw":20.0,"status_group":"Operating","energy_sources":"SUN","type":"Power plant","is_nuclear":false}},{"type":"Feature","geometry":{"type":"Point","coordinates":[-119.834,36.226]},"properties":{"key":"58148-72ee9b75","layer":"power","name":"RE Kansas South LLC","state":"CA","detail_file":"data/details/power-plants-21.json","plant_id":"58148","capacity_mw":20.0,"status_group":"Operating","energy_sources":"SUN","type":"Power plant","is_nuclear":false}},{"type":"Feature","geometry":{"type":"Point","coordinates":[-119.905,36.226]},"properties":{"key":"58991-532c410a","layer":"power","name":"RE Kent South, LLC","state":"CA","detail_file":"data/details/power-plants-56.json","plant_id":"58991","capacity_mw":20.0,"status_group":"Operating","energy_sources":"SUN","type":"Power plant","is_nuclear":false}},{"type":"Feature","geometry":{"type":"Point","coordinates":[-119.903,36.222]},"properties":{"key":"59150-091a8d9c","layer":"power","name":"RE Mustang LLC","state":"CA","detail_file":"data/details/power-plants-43.json","plant_id":"59150","capacity_mw":175.0,"status_group":"Operating","energy_sources":"MWH; SUN","type":"Power plant","is_nuclear":false}},{"type":"Feature","geometry":{"type":"Point","coordinates":[-119.401,36.354]},"properties":{"key":"63455-9e64a395","layer":"power","name":"RE-VFO LLC","state":"CA","detail_file":"data/details/power-plants-44.json","plant_id":"63455","capacity_mw":1.0,"status_group":"Operating","energy_sources":"SUN","type":"Power plant","is_nuclear":false}},{"type":"Feature","geometry":{"type":"Point","coordinates":[-119.458,36.606]},"properties":{"key":"63074-5b207d64","layer":"power","name":"Reedley Community College Solar","state":"CA","detail_file":"data/details/power-plants-54.json","plant_id":"63074","capacity_mw":2.6,"status_group":"Operating","energy_sources":"SUN","type":"Power plant","is_nuclear":false}},{"type":"Feature","geometry":{"type":"Point","coordinates":[-119.583,36.249]},"properties":{"key":"67603-c4d445d9","layer":"power","name":"River Ranch Dairy","state":"CA","detail_file":"data/details/power-plants-26.json","plant_id":"67603","capacity_mw":4.0,"status_group":"Operating","energy_sources":"SUN","type":"Power plant","is_nuclear":false}},{"type":"Feature","geometry":{"type":"Point","coordinates":[-119.123,37.767]},"properties":{"key":"357-829618ee","layer":"power","name":"Rush Creek","state":"CA","detail_file":"data/details/power-plants-33.json","plant_id":"357","capacity_mw":13.1,"status_group":"Operating","energy_sources":"WAT","type":"Power plant","is_nuclear":false}},{"type":"Feature","geometry":{"type":"Point","coordinates":[-119.732,36.885]},"properties":{"key":"63021-be104ced","layer":"power","name":"SCCCD - Clovis Community College","state":"CA","detail_file":"data/details/power-plants-24.json","plant_id":"63021","capacity_mw":1.2,"status_group":"Operating","energy_sources":"SUN","type":"Power plant","is_nuclear":false}},{"type":"Feature","geometry":{"type":"Point","coordinates":[-119.799,36.767]},"properties":{"key":"63068-58360b59","layer":"power","name":"SCCCD - Fresno Community College","state":"CA","detail_file":"data/details/power-plants-20.json","plant_id":"63068","capacity_mw":2.2,"status_group":"Operating","energy_sources":"SUN","type":"Power plant","is_nuclear":false}},{"type":"Feature","geometry":{"type":"Point","coordinates":[-119.767,36.835]},"properties":{"key":"54800-144c172b","layer":"power","name":"Saint Agnes Medical Center","state":"CA","detail_file":"data/details/power-plants-54.json","plant_id":"54800","capacity_mw":7.0,"status_group":"Operating","energy_sources":"NG","type":"Power plant","is_nuclear":false}},{"type":"Feature","geometry":{"type":"Point","coordinates":[-119.498,37.203]},"properties":{"key":"276-d2ab51ed","layer":"power","name":"San Joaquin 2","state":"CA","detail_file":"data/details/power-plants-49.json","plant_id":"276","capacity_mw":2.8,"status_group":"Operating","energy_sources":"WAT","type":"Power plant","is_nuclear":false}},{"type":"Feature","geometry":{"type":"Point","coordinates":[-119.519,37.254]},"properties":{"key":"277-c70bef76","layer":"power","name":"San Joaquin 3","state":"CA","detail_file":"data/details/power-plants-08.json","plant_id":"277","capacity_mw":4.0,"status_group":"Operating","energy_sources":"WAT","type":"Power plant","is_nuclear":false}},{"type":"Feature","geometry":{"type":"Point","coordinates":[-119.681,36.709]},"properties":{"key":"69713-c59a6beb","layer":"power","name":"Sanger USD - Sanger West HS","state":"CA","detail_file":"data/details/power-plants-62.json","plant_id":"69713","capacity_mw":1.4,"status_group":"Under construction","energy_sources":"MWH; SUN","type":"Power plant","is_nuclear":false}},{"type":"Feature","geometry":{"type":"Point","coordinates":[-119.374,36.351]},"properties":{"key":"68494-f6715d6c","layer":"power","name":"Shirk Energy Storage","state":"CA","detail_file":"data/details/power-plants-07.json","plant_id":"68494","capacity_mw":80.0,"status_group":"Operating","energy_sources":"MWH","type":"Power plant","is_nuclear":false}},{"type":"Feature","geometry":{"type":"Point","coordinates":[-119.9,37.057]},"properties":{"key":"50322-97085a31","layer":"power","name":"Site 980 65","state":"CA","detail_file":"data/details/power-plants-03.json","plant_id":"50322","capacity_mw":2.1,"status_group":"Operating","energy_sources":"WAT","type":"Power plant","is_nuclear":false}},{"type":"Feature","geometry":{"type":"Point","coordinates":[-119.895,36.227]},"properties":{"key":"63727-05f94c27","layer":"power","name":"Slate Hybrid","state":"CA","detail_file":"data/details/power-plants-52.json","plant_id":"63727","capacity_mw":440.3,"status_group":"Operating","energy_sources":"MWH; SUN","type":"Power plant","is_nuclear":false}},{"type":"Feature","geometry":{"type":"Point","coordinates":[-119.904,36.174]},"properties":{"key":"63848-1db8299b","layer":"power","name":"Solar Blue","state":"CA","detail_file":"data/details/power-plants-58.json","plant_id":"63848","capacity_mw":475.0,"status_group":"Operating","energy_sources":"MWH; SUN","type":"Power plant","is_nuclear":false}},{"type":"Feature","geometry":{"type":"Point","coordinates":[-119.075,36.028]},"properties":{"key":"57441-c41bf476","layer":"power","name":"Solar Photovoltaic Project #42","state":"CA","detail_file":"data/details/power-plants-39.json","plant_id":"57441","capacity_mw":5.0,"status_group":"Operating","energy_sources":"SUN","type":"Power plant","is_nuclear":false}},{"type":"Feature","geometry":{"type":"Point","coordinates":[-119.061,36.039]},"properties":{"key":"68265-bdd55616","layer":"power","name":"South County Detention Center Solar","state":"CA","detail_file":"data/details/power-plants-37.json","plant_id":"68265","capacity_mw":1.1,"status_group":"Operating","energy_sources":"SUN","type":"Power plant","is_nuclear":false}},{"type":"Feature","geometry":{"type":"Point","coordinates":[-119.524,36.399]},"properties":{"key":"64141-e5e8e672","layer":"power","name":"Still Water Power","state":"CA","detail_file":"data/details/power-plants-48.json","plant_id":"64141","capacity_mw":1.0,"status_group":"Operating","energy_sources":"OBG","type":"Power plant","is_nuclear":false}},{"type":"Feature","geometry":{"type":"Point","coordinates":[-119.448,36.123]},"properties":{"key":"67863-4a5fe673","layer":"power","name":"TWC","state":"CA","detail_file":"data/details/power-plants-56.json","plant_id":"67863","capacity_mw":1.2,"status_group":"Operating","energy_sources":"SUN","type":"Power plant","is_nuclear":false}},{"type":"Feature","geometry":{"type":"Point","coordinates":[-119.007,36.416]},"properties":{"key":"54343-28b21c65","layer":"power","name":"Terminus Hydroelectric Project","state":"CA","detail_file":"data/details/power-plants-51.json","plant_id":"54343","capacity_mw":20.1,"status_group":"Operating","energy_sources":"WAT","type":"Power plant","is_nuclear":false}},{"type":"Feature","geometry":{"type":"Point","coordinates":[-119.315,36.05]},"properties":{"key":"68547-e32d4a07","layer":"power","name":"Tipton 1 - (CA)","state":"CA","detail_file":"data/details/power-plants-06.json","plant_id":"68547","capacity_mw":5.2,"status_group":"Operating","energy_sources":"MWH; SUN","type":"Power plant","is_nuclear":false}},{"type":"Feature","geometry":{"type":"Point","coordinates":[-119.315,36.05]},"properties":{"key":"68548-650ad91a","layer":"power","name":"Tipton 2 - (CA)","state":"CA","detail_file":"data/details/power-plants-63.json","plant_id":"68548","capacity_mw":2.8,"status_group":"Operating","energy_sources":"MWH; SUN","type":"Power plant","is_nuclear":false}},{"type":"Feature","geometry":{"type":"Point","coordinates":[-119.42,36.2]},"properties":{"key":"58642-9780235f","layer":"power","name":"Tulare 1 and 2","state":"CA","detail_file":"data/details/power-plants-58.json","plant_id":"58642","capacity_mw":3.0,"status_group":"Operating","energy_sources":"SUN","type":"Power plant","is_nuclear":false}},{"type":"Feature","geometry":{"type":"Point","coordinates":[-119.351,36.322]},"properties":{"key":"68268-d30acfeb","layer":"power","name":"Tulare Akers Professional Center","state":"CA","detail_file":"data/details/power-plants-58.json","plant_id":"68268","capacity_mw":1.0,"status_group":"Operating","energy_sources":"SUN","type":"Power plant","is_nuclear":false}},{"type":"Feature","geometry":{"type":"Point","coordinates":[-119.375,36.187]},"properties":{"key":"61846-b1146dac","layer":"power","name":"Tulare BioMAT Fuel Cell","state":"CA","detail_file":"data/details/power-plants-28.json","plant_id":"61846","capacity_mw":2.8,"status_group":"Operating","energy_sources":"OBG","type":"Power plant","is_nuclear":false}},{"type":"Feature","geometry":{"type":"Point","coordinates":[-118.924,36.059]},"properties":{"key":"10222-692da426","layer":"power","name":"Tulare Success Power Project","state":"CA","detail_file":"data/details/power-plants-47.json","plant_id":"10222","capacity_mw":1.4,"status_group":"Operating","energy_sources":"WAT","type":"Power plant","is_nuclear":false}},{"type":"Feature","geometry":{"type":"Point","coordinates":[-118.707,36.163]},"properties":{"key":"289-d2c3f14c","layer":"power","name":"Tule River","state":"CA","detail_file":"data/details/power-plants-44.json","plant_id":"289","capacity_mw":8.4,"status_group":"Operating","energy_sources":"WAT","type":"Power plant","is_nuclear":false}},{"type":"Feature","geometry":{"type":"Point","coordinates":[-118.59,37.546]},"properties":{"key":"407-bf113128","layer":"power","name":"Upper Gorge","state":"CA","detail_file":"data/details/power-plants-50.json","plant_id":"407","capacity_mw":37.5,"status_group":"Operating","energy_sources":"WAT","type":"Power plant","is_nuclear":false}},{"type":"Feature","geometry":{"type":"Point","coordinates":[-119.681,36.185]},"properties":{"key":"60918-a5528a8b","layer":"power","name":"Verwey-Hanford Dairy Digester #1","state":"CA","detail_file":"data/details/power-plants-63.json","plant_id":"60918","capacity_mw":1.0,"status_group":"Operating","energy_sources":"OBG","type":"Power plant","is_nuclear":false}},{"type":"Feature","geometry":{"type":"Point","coordinates":[-119.681,36.185]},"properties":{"key":"62418-1ca690d9","layer":"power","name":"Verwey-Hanford Dairy Digester #2","state":"CA","detail_file":"data/details/power-plants-36.json","plant_id":"62418","capacity_mw":1.0,"status_group":"Operating","energy_sources":"OBG","type":"Power plant","is_nuclear":false}},{"type":"Feature","geometry":{"type":"Point","coordinates":[-119.681,36.185]},"properties":{"key":"62419-8b3e6e96","layer":"power","name":"Verwey-Hanford Dairy Digester #3","state":"CA","detail_file":"data/details/power-plants-04.json","plant_id":"62419","capacity_mw":1.0,"status_group":"Operating","energy_sources":"OBG","type":"Power plant","is_nuclear":false}},{"type":"Feature","geometry":{"type":"Point","coordinates":[-119.298,36.459]},"properties":{"key":"68891-862051d0","layer":"power","name":"Visalia - (CA)","state":"CA","detail_file":"data/details/power-plants-03.json","plant_id":"68891","capacity_mw":5.2,"status_group":"Operating","energy_sources":"MWH; SUN","type":"Power plant","is_nuclear":false}},{"type":"Feature","geometry":{"type":"Point","coordinates":[-119.24,36.307]},"properties":{"key":"66677-354b7a37","layer":"power","name":"Visalia CSG LLC","state":"CA","detail_file":"data/details/power-plants-17.json","plant_id":"66677","capacity_mw":3.0,"status_group":"Operating","energy_sources":"SUN","type":"Power plant","is_nuclear":false}},{"type":"Feature","geometry":{"type":"Point","coordinates":[-119.393,36.361]},"properties":{"key":"68575-4946984b","layer":"power","name":"Visalia Solar","state":"CA","detail_file":"data/details/power-plants-36.json","plant_id":"68575","capacity_mw":3.6,"status_group":"Operating","energy_sources":"MWH; SUN","type":"Power plant","is_nuclear":false}},{"type":"Feature","geometry":{"type":"Point","coordinates":[-119.72,36.69]},"properties":{"key":"58053-0ab96227","layer":"power","name":"Vitro Flat Glass LLC","state":"CA","detail_file":"data/details/power-plants-16.json","plant_id":"58053","capacity_mw":3.3,"status_group":"Operating","energy_sources":"DFO","type":"Power plant","is_nuclear":false}},{"type":"Feature","geometry":{"type":"Point","coordinates":[-119.907,36.219]},"properties":{"key":"60275-d0b4c76f","layer":"power","name":"Westside Solar Power PV1","state":"CA","detail_file":"data/details/power-plants-30.json","plant_id":"60275","capacity_mw":2.0,"status_group":"Operating","energy_sources":"SUN","type":"Power plant","is_nuclear":false}},{"type":"Feature","geometry":{"type":"Point","coordinates":[-119.764,36.457]},"properties":{"key":"67602-0bb462f0","layer":"power","name":"Zonneveld Oak Grove","state":"CA","detail_file":"data/details/power-plants-53.json","plant_id":"67602","capacity_mw":1.5,"status_group":"Operating","energy_sources":"SUN","type":"Power plant","is_nuclear":false}},{"type":"Feature","geometry":{"type":"Point","coordinates":[-119.01,39.796]},"properties":{"key":"55991-57a672b8","layer":"power","name":"Brady","state":"NV","detail_file":"data/details/power-plants-08.json","plant_id":"55991","capacity_mw":29.5,"status_group":"Operating","energy_sources":"GEO; SUN","type":"Power plant","is_nuclear":false}},{"type":"Feature","geometry":{"type":"Point","coordinates":[-119.748,39.152]},"properties":{"key":"6510-d9e325bd","layer":"power","name":"Brunswick","state":"NV","detail_file":"data/details/power-plants-22.json","plant_id":"6510","capacity_mw":6.0,"status_group":"Operating","energy_sources":"DFO","type":"Power plant","is_nuclear":false}},{"type":"Feature","geometry":{"type":"Point","coordinates":[-119.437,39.556]},"properties":{"key":"65472-f13611cc","layer":"power","name":"Chukar Battery Energy Storage System","state":"NV","detail_file":"data/details/power-plants-63.json","plant_id":"65472","capacity_mw":10.0,"status_group":"Operating","energy_sources":"MWH","type":"Power plant","is_nuclear":false}},{"type":"Feature","geometry":{"type":"Point","coordinates":[-117.364,38.239]},"properties":{"key":"57275-7a9937e9","layer":"power","name":"Crescent Dunes Solar Energy","state":"NV","detail_file":"data/details/power-plants-49.json","plant_id":"57275","capacity_mw":125.0,"status_group":"Operating","energy_sources":"SUN","type":"Power plant","is_nuclear":false}},{"type":"Feature","geometry":{"type":"Point","coordinates":[-118.954,39.754]},"properties":{"key":"10018-9e767b1b","layer":"power","name":"Desert Peak Power Plant","state":"NV","detail_file":"data/details/power-plants-61.json","plant_id":"10018","capacity_mw":26.0,"status_group":"Operating","energy_sources":"GEO","type":"Power plant","is_nuclear":false}},{"type":"Feature","geometry":{"type":"Point","coordinates":[-117.856,39.966]},"properties":{"key":"52015-25af0834","layer":"power","name":"Dixie Valley","state":"NV","detail_file":"data/details/power-plants-39.json","plant_id":"52015","capacity_mw":70.9,"status_group":"Operating","energy_sources":"GEO","type":"Power plant","is_nuclear":false}},{"type":"Feature","geometry":{"type":"Point","coordinates":[-118.324,38.837]},"properties":{"key":"58533-a37f72ff","layer":"power","name":"Don A Campbell 1 Geothermal","state":"NV","detail_file":"data/details/power-plants-38.json","plant_id":"58533","capacity_mw":20.0,"status_group":"Operating","energy_sources":"GEO","type":"Power plant","is_nuclear":false}},{"type":"Feature","geometry":{"type":"Point","coordinates":[-118.325,38.836]},"properties":{"key":"60419-478f8693","layer":"power","name":"Don A Campbell 2 Geothermal","state":"NV","detail_file":"data/details/power-plants-51.json","plant_id":"60419","capacity_mw":20.0,"status_group":"Operating","energy_sources":"GEO","type":"Power plant","is_nuclear":false}},{"type":"Feature","geometry":{"type":"Point","coordinates":[-118.034,37.861]},"properties":{"key":"66618-cbde39d5","layer":"power","name":"Fish Lake Geothermal","state":"NV","detail_file":"data/details/power-plants-37.json","plant_id":"66618","capacity_mw":26.5,"status_group":"Planned","energy_sources":"GEO","type":"Power plant","is_nuclear":false}},{"type":"Feature","geometry":{"type":"Point","coordinates":[-119.593,39.285]},"properties":{"key":"6513-eff7ed92","layer":"power","name":"Fleish","state":"NV","detail_file":"data/details/power-plants-21.json","plant_id":"6513","capacity_mw":2.5,"status_group":"Operating","energy_sources":"WAT","type":"Power plant","is_nuclear":false}},{"type":"Feature","geometry":{"type":"Point","coordinates":[-119.132,39.128]},"properties":{"key":"2330-39ae3017","layer":"power","name":"Fort Churchill","state":"NV","detail_file":"data/details/power-plants-24.json","plant_id":"2330","capacity_mw":230.0,"status_group":"Operating","energy_sources":"NG","type":"Power plant","is_nuclear":false}},{"type":"Feature","geometry":{"type":"Point","coordinates":[-119.14,39.128]},"properties":{"key":"59472-19fd34d7","layer":"power","name":"Ft. Churchill PV","state":"NV","detail_file":"data/details/power-plants-24.json","plant_id":"59472","capacity_mw":19.9,"status_group":"Operating","energy_sources":"SUN","type":"Power plant","is_nuclear":false}},{"type":"Feature","geometry":{"type":"Point","coordinates":[-119.764,39.373]},"properties":{"key":"56540-cacd1d6e","layer":"power","name":"Galena 2 Geothermal Power Plant","state":"NV","detail_file":"data/details/power-plants-54.json","plant_id":"56540","capacity_mw":16.5,"status_group":"Operating","energy_sources":"GEO; SUN","type":"Power plant","is_nuclear":false}},{"type":"Feature","geometry":{"type":"Point","coordinates":[-119.749,39.389]},"properties":{"key":"56541-39df8047","layer":"power","name":"Galena 3 Geothermal Power Plant","state":"NV","detail_file":"data/details/power-plants-04.json","plant_id":"56541","capacity_mw":31.6,"status_group":"Operating","energy_sources":"GEO","type":"Power plant","is_nuclear":false}},{"type":"Feature","geometry":{"type":"Point","coordinates":[-119.067,39.462]},"properties":{"key":"6521-65905c66","layer":"power","name":"Lahontan","state":"NV","detail_file":"data/details/power-plants-42.json","plant_id":"6521","capacity_mw":1.8,"status_group":"Operating","energy_sources":"WAT","type":"Power plant","is_nuclear":false}},{"type":"Feature","geometry":{"type":"Point","coordinates":[-118.961,38.902]},"properties":{"key":"69857-e9e0801d","layer":"power","name":"Libra Solar","state":"NV","detail_file":"data/details/power-plants-11.json","plant_id":"69857","capacity_mw":1400.0,"status_group":"Under construction","energy_sources":"MWH; SUN","type":"Power plant","is_nuclear":false}},{"type":"Feature","geometry":{"type":"Point","coordinates":[-118.192,38.547]},"properties":{"key":"61084-648945ee","layer":"power","name":"Luning Energy","state":"NV","detail_file":"data/details/power-plants-46.json","plant_id":"61084","capacity_mw":50.0,"status_group":"Operating","energy_sources":"SUN","type":"Power plant","is_nuclear":false}},{"type":"Feature","geometry":{"type":"Point","coordinates":[-116.912,39.591]},"properties":{"key":"57446-72ec190e","layer":"power","name":"McGinness Hills","state":"NV","detail_file":"data/details/power-plants-53.json","plant_id":"57446","capacity_mw":104.0,"status_group":"Operating","energy_sources":"GEO","type":"Power plant","is_nuclear":false}},{"type":"Feature","geometry":{"type":"Point","coordinates":[-116.894,39.596]},"properties":{"key":"61912-635f9e73","layer":"power","name":"McGinness Hills 3","state":"NV","detail_file":"data/details/power-plants-38.json","plant_id":"61912","capacity_mw":98.8,"status_group":"Operating","energy_sources":"GEO","type":"Power plant","is_nuclear":false}},{"type":"Feature","geometry":{"type":"Point","coordinates":[-116.894,39.596]},"properties":{"key":"61912-d782bf17","layer":"power","name":"McGinness Hills 3","state":"NV","detail_file":"data/details/power-plants-46.json","plant_id":"61912","capacity_mw":14.0,"status_group":"Under construction","energy_sources":"SUN","type":"Power plant","is_nuclear":false}},{"type":"Feature","geometry":{"type":"Point","coordinates":[-119.065,39.464]},"properties":{"key":"50261-96727c7b","layer":"power","name":"New Lahontan","state":"NV","detail_file":"data/details/power-plants-50.json","plant_id":"50261","capacity_mw":4.0,"status_group":"Operating","energy_sources":"WAT","type":"Power plant","is_nuclear":false}},{"type":"Feature","geometry":{"type":"Point","coordinates":[-119.073,39.586]},"properties":{"key":"58319-d640b194","layer":"power","name":"Patua Acquisition Project, LLC","state":"NV","detail_file":"data/details/power-plants-22.json","plant_id":"58319","capacity_mw":58.6,"status_group":"Operating","energy_sources":"GEO; SUN","type":"Power plant","is_nuclear":false}},{"type":"Feature","geometry":{"type":"Point","coordinates":[-119.755,39.391]},"properties":{"key":"56321-8618f238","layer":"power","name":"Richard Burdette Geothermal","state":"NV","detail_file":"data/details/power-plants-63.json","plant_id":"56321","capacity_mw":26.0,"status_group":"Operating","energy_sources":"GEO","type":"Power plant","is_nuclear":false}},{"type":"Feature","geometry":{"type":"Point","coordinates":[-118.573,39.294]},"properties":{"key":"57213-cb13817d","layer":"power","name":"Salt Wells","state":"NV","detail_file":"data/details/power-plants-21.json","plant_id":"57213","capacity_mw":23.6,"status_group":"Operating","energy_sources":"GEO","type":"Power plant","is_nuclear":false}},{"type":"Feature","geometry":{"type":"Point","coordinates":[-119.039,39.854]},"properties":{"key":"67978-45ab9f82","layer":"power","name":"Sierra Solar Hybrid","state":"NV","detail_file":"data/details/power-plants-40.json","plant_id":"67978","capacity_mw":800.0,"status_group":"Under construction","energy_sources":"MWH; SUN","type":"Power plant","is_nuclear":false}},{"type":"Feature","geometry":{"type":"Point","coordinates":[-118.85,39.554]},"properties":{"key":"63365-6e4425b4","layer":"power","name":"Soda Lake 3","state":"NV","detail_file":"data/details/power-plants-52.json","plant_id":"63365","capacity_mw":26.0,"status_group":"Operating","energy_sources":"GEO","type":"Power plant","is_nuclear":false}},{"type":"Feature","geometry":{"type":"Point","coordinates":[-119.767,39.37]},"properties":{"key":"50654-0b2b95b8","layer":"power","name":"Steamboat Hills LP","state":"NV","detail_file":"data/details/power-plants-05.json","plant_id":"50654","capacity_mw":37.2,"status_group":"Operating","energy_sources":"GEO; SUN","type":"Power plant","is_nuclear":false}},{"type":"Feature","geometry":{"type":"Point","coordinates":[-119.747,39.396]},"properties":{"key":"54665-0484dcfd","layer":"power","name":"Steamboat II","state":"NV","detail_file":"data/details/power-plants-31.json","plant_id":"54665","capacity_mw":26.1,"status_group":"Operating","energy_sources":"GEO; SUN","type":"Power plant","is_nuclear":false}},{"type":"Feature","geometry":{"type":"Point","coordinates":[-119.748,39.394]},"properties":{"key":"54666-d47338f6","layer":"power","name":"Steamboat III","state":"NV","detail_file":"data/details/power-plants-59.json","plant_id":"54666","capacity_mw":26.1,"status_group":"Operating","energy_sources":"GEO; SUN","type":"Power plant","is_nuclear":false}},{"type":"Feature","geometry":{"type":"Point","coordinates":[-118.556,39.548]},"properties":{"key":"50765-62b06b10","layer":"power","name":"Stillwater Facility","state":"NV","detail_file":"data/details/power-plants-43.json","plant_id":"50765","capacity_mw":69.2,"status_group":"Operating","energy_sources":"GEO; SUN","type":"Power plant","is_nuclear":false}},{"type":"Feature","geometry":{"type":"Point","coordinates":[-118.56,39.542]},"properties":{"key":"61809-5fb38e09","layer":"power","name":"Stillwater Solar PV II","state":"NV","detail_file":"data/details/power-plants-34.json","plant_id":"61809","capacity_mw":20.0,"status_group":"Operating","energy_sources":"SUN","type":"Power plant","is_nuclear":false}},{"type":"Feature","geometry":{"type":"Point","coordinates":[-116.497,36.518]},"properties":{"key":"59826-d08ec85a","layer":"power","name":"Sunshine Valley Solar","state":"NV","detail_file":"data/details/power-plants-22.json","plant_id":"59826","capacity_mw":103.5,"status_group":"Operating","energy_sources":"SUN","type":"Power plant","is_nuclear":false}},{"type":"Feature","geometry":{"type":"Point","coordinates":[-119.439,39.54]},"properties":{"key":"64098-c2b3f24e","layer":"power","name":"Tesla Reno GigaFactory","state":"NV","detail_file":"data/details/power-plants-10.json","plant_id":"64098","capacity_mw":6.7,"status_group":"Operating","energy_sources":"SUN","type":"Power plant","is_nuclear":false}},{"type":"Feature","geometry":{"type":"Point","coordinates":[-119.439,39.54]},"properties":{"key":"64098-052fc98d","layer":"power","name":"Tesla Reno GigaFactory","state":"NV","detail_file":"data/details/power-plants-02.json","plant_id":"64098","capacity_mw":1.0,"status_group":"Under construction","energy_sources":"SUN","type":"Power plant","is_nuclear":false}},{"type":"Feature","geometry":{"type":"Point","coordinates":[-119.525,39.562]},"properties":{"key":"2336-020b02cf","layer":"power","name":"Tracy","state":"NV","detail_file":"data/details/power-plants-56.json","plant_id":"2336","capacity_mw":1032.9,"status_group":"Operating","energy_sources":"NG","type":"Power plant","is_nuclear":false}},{"type":"Feature","geometry":{"type":"Point","coordinates":[-117.694,39.667]},"properties":{"key":"60785-1cd136a4","layer":"power","name":"Tungsten Mountain","state":"NV","detail_file":"data/details/power-plants-54.json","plant_id":"60785","capacity_mw":74.8,"status_group":"Operating","energy_sources":"GEO; SUN","type":"Power plant","is_nuclear":false}},{"type":"Feature","geometry":{"type":"Point","coordinates":[-119.52,39.59]},"properties":{"key":"62980-8e052583","layer":"power","name":"Turquoise Liberty Solar","state":"NV","detail_file":"data/details/power-plants-15.json","plant_id":"62980","capacity_mw":10.0,"status_group":"Operating","energy_sources":"SUN","type":"Power plant","is_nuclear":false}},{"type":"Feature","geometry":{"type":"Point","coordinates":[-119.524,39.574]},"properties":{"key":"63906-2487d719","layer":"power","name":"Turquoise Nevada, LLC","state":"NV","detail_file":"data/details/power-plants-51.json","plant_id":"63906","capacity_mw":60.0,"status_group":"Operating","energy_sources":"SUN","type":"Power plant","is_nuclear":false}},{"type":"Feature","geometry":{"type":"Point","coordinates":[-119.585,39.312]},"properties":{"key":"6531-2d3f0179","layer":"power","name":"Verdi","state":"NV","detail_file":"data/details/power-plants-49.json","plant_id":"6531","capacity_mw":2.4,"status_group":"Operating","energy_sources":"WAT","type":"Power plant","is_nuclear":false}},{"type":"Feature","geometry":{"type":"Point","coordinates":[-119.56,39.302]},"properties":{"key":"6532-f78d4de1","layer":"power","name":"Washoe","state":"NV","detail_file":"data/details/power-plants-00.json","plant_id":"6532","capacity_mw":2.6,"status_group":"Operating","energy_sources":"WAT","type":"Power plant","is_nuclear":false}},{"type":"Feature","geometry":{"type":"Point","coordinates":[-119.62,39.493]},"properties":{"key":"57166-4b702004","layer":"power","name":"Waste Management Lockwood LFGTE","state":"NV","detail_file":"data/details/power-plants-32.json","plant_id":"57166","capacity_mw":3.2,"status_group":"Operating","energy_sources":"LFG","type":"Power plant","is_nuclear":false}},{"type":"Feature","geometry":{"type":"Point","coordinates":[-119.511,39.56]},"properties":{"key":"56500-84d6dab5","layer":"power","name":"Western 102 Power Plant","state":"NV","detail_file":"data/details/power-plants-00.json","plant_id":"56500","capacity_mw":118.6,"status_group":"Operating","energy_sources":"NG; SUN","type":"Power plant","is_nuclear":false}},{"type":"Feature","geometry":{"type":"Point","coordinates":[-119.18,39.163]},"properties":{"key":"63001-2f063756","layer":"power","name":"Whitegrass No. 1","state":"NV","detail_file":"data/details/power-plants-50.json","plant_id":"63001","capacity_mw":6.4,"status_group":"Operating","energy_sources":"GEO","type":"Power plant","is_nuclear":false}}]}