{"type":"FeatureCollection","features":[{"type":"Feature","geometry":{"type":"Point","coordinates":[-67.992,46.82]},"properties":{"key":"67826-717ee8ab","layer":"power","name":"Caribou Solar","state":"ME","detail_file":"data/details/power-plants-52.json","plant_id":"67826","capacity_mw":5.0,"status_group":"Operating","energy_sources":"SUN","type":"Power plant","is_nuclear":false}},{"type":"Feature","geometry":{"type":"Point","coordinates":[-67.917,44.757]},"properties":{"key":"68185-592c2ea6","layer":"power","name":"Downeast Wind","state":"ME","detail_file":"data/details/power-plants-06.json","plant_id":"68185","capacity_mw":126.0,"status_group":"Operating","energy_sources":"WND","type":"Power plant","is_nuclear":false}},{"type":"Feature","geometry":{"type":"Point","coordinates":[-67.47,44.7]},"properties":{"key":"66664-aff3322a","layer":"power","name":"Dublin Street LLC","state":"ME","detail_file":"data/details/power-plants-53.json","plant_id":"66664","capacity_mw":4.9,"status_group":"Operating","energy_sources":"SUN","type":"Power plant","is_nuclear":false}},{"type":"Feature","geometry":{"type":"Point","coordinates":[-67.909,46.643]},"properties":{"key":"65798-3175908f","layer":"power","name":"Easton CSG 1 LLC","state":"ME","detail_file":"data/details/power-plants-11.json","plant_id":"65798","capacity_mw":3.3,"status_group":"Operating","energy_sources":"SUN","type":"Power plant","is_nuclear":false}},{"type":"Feature","geometry":{"type":"Point","coordinates":[-67.851,46.773]},"properties":{"key":"67061-88cc5541","layer":"power","name":"Fort Fairfield","state":"ME","detail_file":"data/details/power-plants-06.json","plant_id":"67061","capacity_mw":5.0,"status_group":"Operating","energy_sources":"SUN","type":"Power plant","is_nuclear":false}},{"type":"Feature","geometry":{"type":"Point","coordinates":[-67.869,46.756]},"properties":{"key":"67923-cfe14acf","layer":"power","name":"Houlton Road Solar Farm (CSG)","state":"ME","detail_file":"data/details/power-plants-44.json","plant_id":"67923","capacity_mw":2.0,"status_group":"Operating","energy_sources":"SUN","type":"Power plant","is_nuclear":false}},{"type":"Feature","geometry":{"type":"Point","coordinates":[-67.896,46.943]},"properties":{"key":"70042-81bc5f67","layer":"power","name":"Limestone - (ME)","state":"ME","detail_file":"data/details/power-plants-35.json","plant_id":"70042","capacity_mw":4.0,"status_group":"Operating","energy_sources":"SUN","type":"Power plant","is_nuclear":false}},{"type":"Feature","geometry":{"type":"Point","coordinates":[-67.855,46.916]},"properties":{"key":"65801-52dd5970","layer":"power","name":"Limestone CSG 1 LLC","state":"ME","detail_file":"data/details/power-plants-44.json","plant_id":"65801","capacity_mw":3.8,"status_group":"Operating","energy_sources":"SUN","type":"Power plant","is_nuclear":false}},{"type":"Feature","geometry":{"type":"Point","coordinates":[-67.836,46.929]},"properties":{"key":"65802-ed70ec68","layer":"power","name":"Limestone CSG 2 LLC","state":"ME","detail_file":"data/details/power-plants-36.json","plant_id":"65802","capacity_mw":2.9,"status_group":"Operating","energy_sources":"SUN","type":"Power plant","is_nuclear":false}},{"type":"Feature","geometry":{"type":"Point","coordinates":[-67.929,46.939]},"properties":{"key":"66403-36155608","layer":"power","name":"Loring","state":"ME","detail_file":"data/details/power-plants-58.json","plant_id":"66403","capacity_mw":4.1,"status_group":"Operating","energy_sources":"SUN","type":"Power plant","is_nuclear":false}},{"type":"Feature","geometry":{"type":"Point","coordinates":[-67.911,46.574]},"properties":{"key":"68484-62a99705","layer":"power","name":"ME - Novel (Lighthouse Ph I) Mars Hill","state":"ME","detail_file":"data/details/power-plants-14.json","plant_id":"68484","capacity_mw":2.5,"status_group":"Operating","energy_sources":"SUN","type":"Power plant","is_nuclear":false}},{"type":"Feature","geometry":{"type":"Point","coordinates":[-67.969,46.695]},"properties":{"key":"67842-4462e34f","layer":"power","name":"ME Fort Fairfield Solar Plant","state":"ME","detail_file":"data/details/power-plants-20.json","plant_id":"67842","capacity_mw":2.8,"status_group":"Operating","energy_sources":"SUN","type":"Power plant","is_nuclear":false}},{"type":"Feature","geometry":{"type":"Point","coordinates":[-67.838,46.91]},"properties":{"key":"66833-df5035e1","layer":"power","name":"ME Novel Lighthouse - Huggard Ave Solar","state":"ME","detail_file":"data/details/power-plants-37.json","plant_id":"66833","capacity_mw":2.5,"status_group":"Operating","energy_sources":"SUN","type":"Power plant","is_nuclear":false}},{"type":"Feature","geometry":{"type":"Point","coordinates":[-67.883,46.517]},"properties":{"key":"67154-541163b3","layer":"power","name":"Mars Hill","state":"ME","detail_file":"data/details/power-plants-56.json","plant_id":"67154","capacity_mw":2.6,"status_group":"Operating","energy_sources":"SUN","type":"Power plant","is_nuclear":false}},{"type":"Feature","geometry":{"type":"Point","coordinates":[-67.811,46.544]},"properties":{"key":"56448-9431622f","layer":"power","name":"Mars Hill Wind Farm Project","state":"ME","detail_file":"data/details/power-plants-13.json","plant_id":"56448","capacity_mw":42.0,"status_group":"Operating","energy_sources":"WND","type":"Power plant","is_nuclear":false}},{"type":"Feature","geometry":{"type":"Point","coordinates":[-67.548,44.678]},"properties":{"key":"10765-d9fba1b0","layer":"power","name":"NE Renewable Power Jonesboro","state":"ME","detail_file":"data/details/power-plants-23.json","plant_id":"10765","capacity_mw":27.5,"status_group":"Operating","energy_sources":"WDS","type":"Power plant","is_nuclear":false}},{"type":"Feature","geometry":{"type":"Point","coordinates":[-67.994,45.482]},"properties":{"key":"56989-47fc9732","layer":"power","name":"Stetson Wind I","state":"ME","detail_file":"data/details/power-plants-58.json","plant_id":"56989","capacity_mw":57.0,"status_group":"Operating","energy_sources":"WND","type":"Power plant","is_nuclear":false}},{"type":"Feature","geometry":{"type":"Point","coordinates":[-67.971,45.615]},"properties":{"key":"56991-ccf63133","layer":"power","name":"Stetson Wind II","state":"ME","detail_file":"data/details/power-plants-26.json","plant_id":"56991","capacity_mw":25.5,"status_group":"Operating","energy_sources":"WND","type":"Power plant","is_nuclear":false}},{"type":"Feature","geometry":{"type":"Point","coordinates":[-67.401,45.155]},"properties":{"key":"10613-fe0da594","layer":"power","name":"Woodland Pulp, LLC","state":"ME","detail_file":"data/details/power-plants-50.json","plant_id":"10613","capacity_mw":68.3,"status_group":"Operating","energy_sources":"BLQ; WAT","type":"Power plant","is_nuclear":false}},{"type":"Feature","geometry":{"type":"Point","coordinates":[-67.964,44.71]},"properties":{"key":"68632-ac704f41","layer":"power","name":"Wymans Deblois","state":"ME","detail_file":"data/details/power-plants-35.json","plant_id":"68632","capacity_mw":4.9,"status_group":"Operating","energy_sources":"SUN","type":"Power plant","is_nuclear":false}}]}