{"type":"FeatureCollection","features":[{"type":"Feature","geometry":{"type":"Point","coordinates":[-152.404,57.799]},"properties":{"key":"58405-fb3f856a","layer":"power","name":"ESS Battery Microgrid","state":"AK","detail_file":"data/details/power-plants-25.json","plant_id":"58405","capacity_mw":3.0,"status_group":"Operating","energy_sources":"MWH","type":"Power plant","is_nuclear":false}},{"type":"Feature","geometry":{"type":"Point","coordinates":[-152.444,57.78]},"properties":{"key":"60563-410f2fbe","layer":"power","name":"Flywheel Energy Storage System Microgrid","state":"AK","detail_file":"data/details/power-plants-34.json","plant_id":"60563","capacity_mw":2.0,"status_group":"Operating","energy_sources":"MWH","type":"Power plant","is_nuclear":false}},{"type":"Feature","geometry":{"type":"Point","coordinates":[-152.397,57.79]},"properties":{"key":"6281-79151b83","layer":"power","name":"Kodiak Microgrid","state":"AK","detail_file":"data/details/power-plants-49.json","plant_id":"6281","capacity_mw":18.3,"status_group":"Operating","energy_sources":"DFO","type":"Power plant","is_nuclear":false}},{"type":"Feature","geometry":{"type":"Point","coordinates":[-154.699,59.899]},"properties":{"key":"7183-47e9aa98","layer":"power","name":"Newhalen","state":"AK","detail_file":"data/details/power-plants-63.json","plant_id":"7183","capacity_mw":1.7,"status_group":"Operating","energy_sources":"DFO; WAT","type":"Power plant","is_nuclear":false}},{"type":"Feature","geometry":{"type":"Point","coordinates":[-152.507,57.732]},"properties":{"key":"7723-461b3f5d","layer":"power","name":"Nymans Plant Microgrid","state":"AK","detail_file":"data/details/power-plants-17.json","plant_id":"7723","capacity_mw":10.0,"status_group":"Operating","energy_sources":"DFO","type":"Power plant","is_nuclear":false}},{"type":"Feature","geometry":{"type":"Point","coordinates":[-152.441,57.787]},"properties":{"key":"57187-1c291f50","layer":"power","name":"Pillar Mountain Wind Project Microgrid","state":"AK","detail_file":"data/details/power-plants-33.json","plant_id":"57187","capacity_mw":9.0,"status_group":"Operating","energy_sources":"WND","type":"Power plant","is_nuclear":false}},{"type":"Feature","geometry":{"type":"Point","coordinates":[-152.855,57.865]},"properties":{"key":"6282-4053f731","layer":"power","name":"Port Lions Microgrid","state":"AK","detail_file":"data/details/power-plants-55.json","plant_id":"6282","capacity_mw":0.5,"status_group":"Operating","energy_sources":"DFO","type":"Power plant","is_nuclear":false}},{"type":"Feature","geometry":{"type":"Point","coordinates":[-152.48,57.776]},"properties":{"key":"60250-c18ad4fe","layer":"power","name":"Swampy Acres Microgrid","state":"AK","detail_file":"data/details/power-plants-25.json","plant_id":"60250","capacity_mw":8.4,"status_group":"Operating","energy_sources":"DFO","type":"Power plant","is_nuclear":false}},{"type":"Feature","geometry":{"type":"Point","coordinates":[-152.895,57.686]},"properties":{"key":"71-3910a705","layer":"power","name":"Terror Lake Microgrid","state":"AK","detail_file":"data/details/power-plants-44.json","plant_id":"71","capacity_mw":33.6,"status_group":"Operating","energy_sources":"WAT","type":"Power plant","is_nuclear":false}}]}