{"type":"FeatureCollection","features":[{"type":"Feature","geometry":{"type":"Point","coordinates":[-131.47,55.38]},"properties":{"key":"6580-fa7faa31","layer":"power","name":"Beaver Falls","state":"AK","detail_file":"data/details/power-plants-42.json","plant_id":"6580","capacity_mw":5.4,"status_group":"Operating","energy_sources":"WAT","type":"Power plant","is_nuclear":false}},{"type":"Feature","geometry":{"type":"Point","coordinates":[-131.56,55.121]},"properties":{"key":"7112-8bfbe4a0","layer":"power","name":"Centennial","state":"AK","detail_file":"data/details/power-plants-26.json","plant_id":"7112","capacity_mw":1.8,"status_group":"Operating","energy_sources":"DFO","type":"Power plant","is_nuclear":false}},{"type":"Feature","geometry":{"type":"Point","coordinates":[-131.546,55.117]},"properties":{"key":"7168-d20d44ec","layer":"power","name":"Chester Lake","state":"AK","detail_file":"data/details/power-plants-50.json","plant_id":"7168","capacity_mw":1.3,"status_group":"Operating","energy_sources":"WAT","type":"Power plant","is_nuclear":false}},{"type":"Feature","geometry":{"type":"Point","coordinates":[-131.633,55.345]},"properties":{"key":"84-9fb9dd50","layer":"power","name":"Ketchikan","state":"AK","detail_file":"data/details/power-plants-26.json","plant_id":"84","capacity_mw":4.2,"status_group":"Operating","energy_sources":"WAT","type":"Power plant","is_nuclear":false}},{"type":"Feature","geometry":{"type":"Point","coordinates":[-131.538,55.419]},"properties":{"key":"59027-d816771b","layer":"power","name":"Mahoney Lake Hydroelectric","state":"AK","detail_file":"data/details/power-plants-58.json","plant_id":"59027","capacity_mw":9.6,"status_group":"Planned","energy_sources":"WAT","type":"Power plant","is_nuclear":false}},{"type":"Feature","geometry":{"type":"Point","coordinates":[-131.545,55.091]},"properties":{"key":"6302-ac33d3c0","layer":"power","name":"Purple Lake","state":"AK","detail_file":"data/details/power-plants-37.json","plant_id":"6302","capacity_mw":3.9,"status_group":"Operating","energy_sources":"WAT","type":"Power plant","is_nuclear":false}},{"type":"Feature","geometry":{"type":"Point","coordinates":[-131.697,55.357]},"properties":{"key":"85-2455a868","layer":"power","name":"S W Bailey","state":"AK","detail_file":"data/details/power-plants-54.json","plant_id":"85","capacity_mw":25.9,"status_group":"Operating","energy_sources":"DFO","type":"Power plant","is_nuclear":false}},{"type":"Feature","geometry":{"type":"Point","coordinates":[-131.518,55.381]},"properties":{"key":"6581-1d6110f3","layer":"power","name":"Silvis","state":"AK","detail_file":"data/details/power-plants-25.json","plant_id":"6581","capacity_mw":2.1,"status_group":"Operating","energy_sources":"WAT","type":"Power plant","is_nuclear":false}},{"type":"Feature","geometry":{"type":"Point","coordinates":[-131.356,55.615]},"properties":{"key":"70-b188aec4","layer":"power","name":"Swan Lake","state":"AK","detail_file":"data/details/power-plants-29.json","plant_id":"70","capacity_mw":22.6,"status_group":"Operating","energy_sources":"WAT","type":"Power plant","is_nuclear":false}},{"type":"Feature","geometry":{"type":"Point","coordinates":[-131.531,55.328]},"properties":{"key":"58977-a7b58816","layer":"power","name":"Whitman","state":"AK","detail_file":"data/details/power-plants-37.json","plant_id":"58977","capacity_mw":4.8,"status_group":"Operating","energy_sources":"WAT","type":"Power plant","is_nuclear":false}}]}