{"type":"FeatureCollection","features":[{"type":"Feature","geometry":{"type":"Point","coordinates":[-110.413,31.657]},"properties":{"key":"67797-8ec041df","layer":"power","name":"Babacomari Solar","state":"AZ","detail_file":"data/details/power-plants-29.json","plant_id":"67797","capacity_mw":160.0,"status_group":"Operating","energy_sources":"SUN","type":"Power plant","is_nuclear":false}},{"type":"Feature","geometry":{"type":"Point","coordinates":[-109.554,31.364]},"properties":{"key":"114-4350a171","layer":"power","name":"Douglas","state":"AZ","detail_file":"data/details/power-plants-10.json","plant_id":"114","capacity_mw":26.1,"status_group":"Operating","energy_sources":"DFO","type":"Power plant","is_nuclear":false}},{"type":"Feature","geometry":{"type":"Point","coordinates":[-110.35,31.555]},"properties":{"key":"58972-0209db0a","layer":"power","name":"Fort Huachuca Solar PV Project","state":"AZ","detail_file":"data/details/power-plants-63.json","plant_id":"58972","capacity_mw":17.7,"status_group":"Operating","energy_sources":"SUN","type":"Power plant","is_nuclear":false}},{"type":"Feature","geometry":{"type":"Point","coordinates":[-111.008,31.5]},"properties":{"key":"59044-c9b80af3","layer":"power","name":"Rio Rico Solar","state":"AZ","detail_file":"data/details/power-plants-25.json","plant_id":"59044","capacity_mw":6.0,"status_group":"Operating","energy_sources":"SUN","type":"Power plant","is_nuclear":false}},{"type":"Feature","geometry":{"type":"Point","coordinates":[-109.701,31.555]},"properties":{"key":"66925-3d9db4a0","layer":"power","name":"SR McNeal","state":"AZ","detail_file":"data/details/power-plants-24.json","plant_id":"66925","capacity_mw":40.0,"status_group":"Operating","energy_sources":"MWH; SUN","type":"Power plant","is_nuclear":false}},{"type":"Feature","geometry":{"type":"Point","coordinates":[-110.931,31.363]},"properties":{"key":"6515-315940b9","layer":"power","name":"Valencia","state":"AZ","detail_file":"data/details/power-plants-38.json","plant_id":"6515","capacity_mw":108.0,"status_group":"Operating","energy_sources":"NG","type":"Power plant","is_nuclear":false}},{"type":"Feature","geometry":{"type":"Point","coordinates":[-110.501,31.592]},"properties":{"key":"69254-11a06434","layer":"power","name":"Wilmot Energy Center II","state":"AZ","detail_file":"data/details/power-plants-12.json","plant_id":"69254","capacity_mw":200.0,"status_group":"Operating","energy_sources":"MWH; SUN","type":"Power plant","is_nuclear":false}}]}