{"type":"FeatureCollection","features":[{"type":"Feature","geometry":{"type":"Point","coordinates":[-111.497,44.079]},"properties":{"key":"825-30051fc5","layer":"power","name":"Ashton","state":"ID","detail_file":"data/details/power-plants-20.json","plant_id":"825","capacity_mw":6.7,"status_group":"Operating","energy_sources":"WAT","type":"Power plant","is_nuclear":false}},{"type":"Feature","geometry":{"type":"Point","coordinates":[-111.584,44.018]},"properties":{"key":"56893-94f10432","layer":"power","name":"Chester Diversion Hydroelectric Project","state":"ID","detail_file":"data/details/power-plants-31.json","plant_id":"56893","capacity_mw":3.6,"status_group":"Operating","energy_sources":"WAT","type":"Power plant","is_nuclear":false}},{"type":"Feature","geometry":{"type":"Point","coordinates":[-111.353,44.06]},"properties":{"key":"54668-277ee793","layer":"power","name":"Falls River Hydro","state":"ID","detail_file":"data/details/power-plants-56.json","plant_id":"54668","capacity_mw":9.0,"status_group":"Operating","energy_sources":"WAT","type":"Power plant","is_nuclear":false}},{"type":"Feature","geometry":{"type":"Point","coordinates":[-111.396,44.418]},"properties":{"key":"4204-36782669","layer":"power","name":"Island Park","state":"ID","detail_file":"data/details/power-plants-06.json","plant_id":"4204","capacity_mw":4.8,"status_group":"Operating","energy_sources":"WAT","type":"Power plant","is_nuclear":false}},{"type":"Feature","geometry":{"type":"Point","coordinates":[-108.718,45.784]},"properties":{"key":"65407-064a80cd","layer":"power","name":"Beartooth Energy Storage LLC","state":"MT","detail_file":"data/details/power-plants-25.json","plant_id":"65407","capacity_mw":50.0,"status_group":"Under construction","energy_sources":"MWH","type":"Power plant","is_nuclear":false}},{"type":"Feature","geometry":{"type":"Point","coordinates":[-109.497,45.956]},"properties":{"key":"65019-b1dc5e27","layer":"power","name":"Beaver Creek Wind Facility","state":"MT","detail_file":"data/details/power-plants-06.json","plant_id":"65019","capacity_mw":62.0,"status_group":"Operating","energy_sources":"WND","type":"Power plant","is_nuclear":false}},{"type":"Feature","geometry":{"type":"Point","coordinates":[-109.649,45.855]},"properties":{"key":"61155-3dccadc2","layer":"power","name":"Big Timber Wind Farm","state":"MT","detail_file":"data/details/power-plants-07.json","plant_id":"61155","capacity_mw":25.0,"status_group":"Operating","energy_sources":"WND","type":"Power plant","is_nuclear":false}},{"type":"Feature","geometry":{"type":"Point","coordinates":[-111.261,47.521]},"properties":{"key":"2181-94c0ed2e","layer":"power","name":"Black Eagle","state":"MT","detail_file":"data/details/power-plants-32.json","plant_id":"2181","capacity_mw":26.7,"status_group":"Operating","energy_sources":"WAT","type":"Power plant","is_nuclear":false}},{"type":"Feature","geometry":{"type":"Point","coordinates":[-111.254,47.547]},"properties":{"key":"61336-e8cfe176","layer":"power","name":"Black Eagle Solar, LLC","state":"MT","detail_file":"data/details/power-plants-10.json","plant_id":"61336","capacity_mw":3.0,"status_group":"Operating","energy_sources":"SUN","type":"Power plant","is_nuclear":false}},{"type":"Feature","geometry":{"type":"Point","coordinates":[-111.408,46.121]},"properties":{"key":"54006-c6e5f474","layer":"power","name":"Broadwater Power Project","state":"MT","detail_file":"data/details/power-plants-05.json","plant_id":"54006","capacity_mw":9.7,"status_group":"Operating","energy_sources":"WAT","type":"Power plant","is_nuclear":false}},{"type":"Feature","geometry":{"type":"Point","coordinates":[-111.728,46.649]},"properties":{"key":"6400-875161bd","layer":"power","name":"Canyon Ferry","state":"MT","detail_file":"data/details/power-plants-01.json","plant_id":"6400","capacity_mw":57.6,"status_group":"Operating","energy_sources":"WAT","type":"Power plant","is_nuclear":false}},{"type":"Feature","geometry":{"type":"Point","coordinates":[-111.195,47.538]},"properties":{"key":"2182-575c9264","layer":"power","name":"Cochrane","state":"MT","detail_file":"data/details/power-plants-60.json","plant_id":"2182","capacity_mw":59.4,"status_group":"Operating","energy_sources":"WAT","type":"Power plant","is_nuclear":false}},{"type":"Feature","geometry":{"type":"Point","coordinates":[-111.965,47.723]},"properties":{"key":"58966-eeaf2b72","layer":"power","name":"Fairfield Wind","state":"MT","detail_file":"data/details/power-plants-22.json","plant_id":"58966","capacity_mw":10.0,"status_group":"Operating","energy_sources":"WND","type":"Power plant","is_nuclear":false}},{"type":"Feature","geometry":{"type":"Point","coordinates":[-111.464,45.937]},"properties":{"key":"68260-f0969c00","layer":"power","name":"GCC Trident Solar Project","state":"MT","detail_file":"data/details/power-plants-16.json","plant_id":"68260","capacity_mw":4.0,"status_group":"Operating","energy_sources":"SUN","type":"Power plant","is_nuclear":false}},{"type":"Feature","geometry":{"type":"Point","coordinates":[-110.338,46.412]},"properties":{"key":"57748-af16f707","layer":"power","name":"Gordon Butte Wind LLC","state":"MT","detail_file":"data/details/power-plants-12.json","plant_id":"57748","capacity_mw":17.7,"status_group":"Operating","energy_sources":"WND","type":"Power plant","is_nuclear":false}},{"type":"Feature","geometry":{"type":"Point","coordinates":[-111.963,47.723]},"properties":{"key":"60486-48480c98","layer":"power","name":"Greenfield Wind - MT","state":"MT","detail_file":"data/details/power-plants-38.json","plant_id":"60486","capacity_mw":25.0,"status_group":"Operating","energy_sources":"WND","type":"Power plant","is_nuclear":false}},{"type":"Feature","geometry":{"type":"Point","coordinates":[-111.887,46.766]},"properties":{"key":"2185-cf5738c2","layer":"power","name":"Hauser","state":"MT","detail_file":"data/details/power-plants-50.json","plant_id":"2185","capacity_mw":16.8,"status_group":"Operating","energy_sources":"WAT","type":"Power plant","is_nuclear":false}},{"type":"Feature","geometry":{"type":"Point","coordinates":[-111.887,46.766]},"properties":{"key":"2185-6653a8f9","layer":"power","name":"Hauser","state":"MT","detail_file":"data/details/power-plants-36.json","plant_id":"2185","capacity_mw":7.0,"status_group":"Planned","energy_sources":"WAT","type":"Power plant","is_nuclear":false}},{"type":"Feature","geometry":{"type":"Point","coordinates":[-110.396,46.357]},"properties":{"key":"63878-027be19b","layer":"power","name":"Haymaker Hybrid","state":"MT","detail_file":"data/details/power-plants-18.json","plant_id":"63878","capacity_mw":630.0,"status_group":"Planned","energy_sources":"WND","type":"Power plant","is_nuclear":false}},{"type":"Feature","geometry":{"type":"Point","coordinates":[-111.439,47.498]},"properties":{"key":"56591-275d60e3","layer":"power","name":"Horseshoe Bend Wind Park","state":"MT","detail_file":"data/details/power-plants-22.json","plant_id":"56591","capacity_mw":9.7,"status_group":"Operating","energy_sources":"WND","type":"Power plant","is_nuclear":false}},{"type":"Feature","geometry":{"type":"Point","coordinates":[-109.728,46.508]},"properties":{"key":"58175-07383f93","layer":"power","name":"Jawbone Wind Project","state":"MT","detail_file":"data/details/power-plants-55.json","plant_id":"58175","capacity_mw":80.0,"status_group":"Under construction","energy_sources":"WND","type":"Power plant","is_nuclear":false}},{"type":"Feature","geometry":{"type":"Point","coordinates":[-109.753,46.572]},"properties":{"key":"56377-7d4458b0","layer":"power","name":"Judith Gap Wind Energy Center","state":"MT","detail_file":"data/details/power-plants-15.json","plant_id":"56377","capacity_mw":135.0,"status_group":"Operating","energy_sources":"WND","type":"Power plant","is_nuclear":false}},{"type":"Feature","geometry":{"type":"Point","coordinates":[-108.602,45.856]},"properties":{"key":"64032-486b29ca","layer":"power","name":"MTSUN","state":"MT","detail_file":"data/details/power-plants-40.json","plant_id":"64032","capacity_mw":80.0,"status_group":"Operating","energy_sources":"SUN","type":"Power plant","is_nuclear":false}},{"type":"Feature","geometry":{"type":"Point","coordinates":[-111.634,45.488]},"properties":{"key":"6422-433ee21c","layer":"power","name":"Madison Dam","state":"MT","detail_file":"data/details/power-plants-19.json","plant_id":"6422","capacity_mw":16.4,"status_group":"Operating","energy_sources":"WAT","type":"Power plant","is_nuclear":false}},{"type":"Feature","geometry":{"type":"Point","coordinates":[-108.938,46.291]},"properties":{"key":"61337-ca88282f","layer":"power","name":"Magpie Solar, LLC","state":"MT","detail_file":"data/details/power-plants-40.json","plant_id":"61337","capacity_mw":3.0,"status_group":"Operating","energy_sources":"SUN","type":"Power plant","is_nuclear":false}},{"type":"Feature","geometry":{"type":"Point","coordinates":[-111.061,47.582]},"properties":{"key":"2191-28a4e67b","layer":"power","name":"Morony","state":"MT","detail_file":"data/details/power-plants-52.json","plant_id":"2191","capacity_mw":63.0,"status_group":"Operating","energy_sources":"WAT","type":"Power plant","is_nuclear":false}},{"type":"Feature","geometry":{"type":"Point","coordinates":[-109.483,46.275]},"properties":{"key":"57963-a704419c","layer":"power","name":"Musselshell Wind Project","state":"MT","detail_file":"data/details/power-plants-15.json","plant_id":"57963","capacity_mw":10.0,"status_group":"Operating","energy_sources":"WND","type":"Power plant","is_nuclear":false}},{"type":"Feature","geometry":{"type":"Point","coordinates":[-109.483,46.275]},"properties":{"key":"57965-cb9af73c","layer":"power","name":"Musselshell Wind Project Two LLC","state":"MT","detail_file":"data/details/power-plants-57.json","plant_id":"57965","capacity_mw":10.0,"status_group":"Operating","energy_sources":"WND","type":"Power plant","is_nuclear":false}},{"type":"Feature","geometry":{"type":"Point","coordinates":[-109.763,45.226]},"properties":{"key":"2192-09c37af4","layer":"power","name":"Mystic","state":"MT","detail_file":"data/details/power-plants-26.json","plant_id":"2192","capacity_mw":12.0,"status_group":"Operating","energy_sources":"WAT","type":"Power plant","is_nuclear":false}},{"type":"Feature","geometry":{"type":"Point","coordinates":[-108.491,45.777]},"properties":{"key":"56496-7784b2ab","layer":"power","name":"Phillips 66 Billings Refinery","state":"MT","detail_file":"data/details/power-plants-23.json","plant_id":"56496","capacity_mw":1.6,"status_group":"Operating","energy_sources":"OG","type":"Power plant","is_nuclear":false}},{"type":"Feature","geometry":{"type":"Point","coordinates":[-108.693,45.166]},"properties":{"key":"59757-2b9880b5","layer":"power","name":"Pryor Mountain Wind","state":"MT","detail_file":"data/details/power-plants-12.json","plant_id":"59757","capacity_mw":239.8,"status_group":"Operating","energy_sources":"WND","type":"Power plant","is_nuclear":false}},{"type":"Feature","geometry":{"type":"Point","coordinates":[-111.204,47.534]},"properties":{"key":"2193-a5a887f1","layer":"power","name":"Rainbow (MT)","state":"MT","detail_file":"data/details/power-plants-09.json","plant_id":"2193","capacity_mw":59.0,"status_group":"Operating","energy_sources":"WAT","type":"Power plant","is_nuclear":false}},{"type":"Feature","geometry":{"type":"Point","coordinates":[-109.565,45.704]},"properties":{"key":"61289-0ac92cac","layer":"power","name":"River Bend Solar, LLC (MT)","state":"MT","detail_file":"data/details/power-plants-62.json","plant_id":"61289","capacity_mw":2.0,"status_group":"Operating","energy_sources":"SUN","type":"Power plant","is_nuclear":false}},{"type":"Feature","geometry":{"type":"Point","coordinates":[-111.123,47.57]},"properties":{"key":"2194-71ebd674","layer":"power","name":"Ryan","state":"MT","detail_file":"data/details/power-plants-03.json","plant_id":"2194","capacity_mw":55.2,"status_group":"Operating","energy_sources":"WAT","type":"Power plant","is_nuclear":false}},{"type":"Feature","geometry":{"type":"Point","coordinates":[-109.165,45.206]},"properties":{"key":"10138-621c2a48","layer":"power","name":"South Dry Creek Hydro","state":"MT","detail_file":"data/details/power-plants-58.json","plant_id":"10138","capacity_mw":2.0,"status_group":"Operating","energy_sources":"WAT","type":"Power plant","is_nuclear":false}},{"type":"Feature","geometry":{"type":"Point","coordinates":[-110.615,47.33]},"properties":{"key":"62939-8142f79f","layer":"power","name":"South Peak Wind","state":"MT","detail_file":"data/details/power-plants-54.json","plant_id":"62939","capacity_mw":80.0,"status_group":"Operating","energy_sources":"WND","type":"Power plant","is_nuclear":false}},{"type":"Feature","geometry":{"type":"Point","coordinates":[-110.639,47.333]},"properties":{"key":"58218-b61bc102","layer":"power","name":"Spion Kop Wind Farm","state":"MT","detail_file":"data/details/power-plants-54.json","plant_id":"58218","capacity_mw":40.0,"status_group":"Operating","energy_sources":"WND","type":"Power plant","is_nuclear":false}},{"type":"Feature","geometry":{"type":"Point","coordinates":[-109.477,45.866]},"properties":{"key":"61858-774e3a9c","layer":"power","name":"Stillwater Wind, LLC","state":"MT","detail_file":"data/details/power-plants-17.json","plant_id":"61858","capacity_mw":79.7,"status_group":"Operating","energy_sources":"WND","type":"Power plant","is_nuclear":false}},{"type":"Feature","geometry":{"type":"Point","coordinates":[-108.807,46.103]},"properties":{"key":"64332-1186ef1a","layer":"power","name":"Two Dot Wind Broadview East LLC","state":"MT","detail_file":"data/details/power-plants-30.json","plant_id":"64332","capacity_mw":1.8,"status_group":"Operating","energy_sources":"WND","type":"Power plant","is_nuclear":false}},{"type":"Feature","geometry":{"type":"Point","coordinates":[-110.087,46.449]},"properties":{"key":"59003-e4ca366c","layer":"power","name":"Two Dot Wind Farm","state":"MT","detail_file":"data/details/power-plants-32.json","plant_id":"59003","capacity_mw":9.7,"status_group":"Operating","energy_sources":"WND","type":"Power plant","is_nuclear":false}},{"type":"Feature","geometry":{"type":"Point","coordinates":[-108.499,45.765]},"properties":{"key":"62319-3cf41b73","layer":"power","name":"Western Sugar Cooperative - Billings","state":"MT","detail_file":"data/details/power-plants-39.json","plant_id":"62319","capacity_mw":1.5,"status_group":"Operating","energy_sources":"SUB","type":"Power plant","is_nuclear":false}},{"type":"Feature","geometry":{"type":"Point","coordinates":[-108.761,45.66]},"properties":{"key":"67766-da476f6a","layer":"power","name":"Yellowstone County Generating Station","state":"MT","detail_file":"data/details/power-plants-30.json","plant_id":"67766","capacity_mw":207.0,"status_group":"Operating","energy_sources":"NG","type":"Power plant","is_nuclear":false}},{"type":"Feature","geometry":{"type":"Point","coordinates":[-108.428,45.812]},"properties":{"key":"50931-185beaa4","layer":"power","name":"Yellowstone Energy LP","state":"MT","detail_file":"data/details/power-plants-27.json","plant_id":"50931","capacity_mw":68.0,"status_group":"Operating","energy_sources":"PC","type":"Power plant","is_nuclear":false}},{"type":"Feature","geometry":{"type":"Point","coordinates":[-109.171,44.508]},"properties":{"key":"7317-aa5927ec","layer":"power","name":"Buffalo Bill","state":"WY","detail_file":"data/details/power-plants-36.json","plant_id":"7317","capacity_mw":18.0,"status_group":"Operating","energy_sources":"WAT","type":"Power plant","is_nuclear":false}},{"type":"Feature","geometry":{"type":"Point","coordinates":[-108.843,44.981]},"properties":{"key":"52127-f8b2eb06","layer":"power","name":"Elk Basin Gasoline Plant","state":"WY","detail_file":"data/details/power-plants-39.json","plant_id":"52127","capacity_mw":1.0,"status_group":"Operating","energy_sources":"OG","type":"Power plant","is_nuclear":false}},{"type":"Feature","geometry":{"type":"Point","coordinates":[-108.864,44.726]},"properties":{"key":"57551-7f5f79cd","layer":"power","name":"Garland Canal Power Plant","state":"WY","detail_file":"data/details/power-plants-36.json","plant_id":"57551","capacity_mw":2.9,"status_group":"Operating","energy_sources":"WAT","type":"Power plant","is_nuclear":false}},{"type":"Feature","geometry":{"type":"Point","coordinates":[-109.13,44.514]},"properties":{"key":"6408-c9a5863d","layer":"power","name":"Heart Mountain","state":"WY","detail_file":"data/details/power-plants-00.json","plant_id":"6408","capacity_mw":5.0,"status_group":"Operating","energy_sources":"WAT","type":"Power plant","is_nuclear":false}},{"type":"Feature","geometry":{"type":"Point","coordinates":[-110.574,44.415]},"properties":{"key":"7039-5ef6ae10","layer":"power","name":"Lake (WY)","state":"WY","detail_file":"data/details/power-plants-58.json","plant_id":"7039","capacity_mw":2.7,"status_group":"Operating","energy_sources":"DFO","type":"Power plant","is_nuclear":false}},{"type":"Feature","geometry":{"type":"Point","coordinates":[-110.835,44.453]},"properties":{"key":"2196-0b54a529","layer":"power","name":"Old Faithful","state":"WY","detail_file":"data/details/power-plants-21.json","plant_id":"2196","capacity_mw":2.0,"status_group":"Operating","energy_sources":"DFO","type":"Power plant","is_nuclear":false}},{"type":"Feature","geometry":{"type":"Point","coordinates":[-109.181,44.503]},"properties":{"key":"4183-94fb4701","layer":"power","name":"Shoshone (WY)","state":"WY","detail_file":"data/details/power-plants-00.json","plant_id":"4183","capacity_mw":3.0,"status_group":"Operating","energy_sources":"WAT","type":"Power plant","is_nuclear":false}},{"type":"Feature","geometry":{"type":"Point","coordinates":[-109.13,44.513]},"properties":{"key":"7541-a48b7210","layer":"power","name":"Spirit Mountain","state":"WY","detail_file":"data/details/power-plants-12.json","plant_id":"7541","capacity_mw":4.5,"status_group":"Operating","energy_sources":"WAT","type":"Power plant","is_nuclear":false}}]}