{"type":"FeatureCollection","features":[{"type":"Feature","geometry":{"type":"Point","coordinates":[-93.86,33.927]},"properties":{"key":"67507-40cbf209","layer":"power","name":"ACC","state":"AR","detail_file":"data/details/power-plants-27.json","plant_id":"67507","capacity_mw":2.0,"status_group":"Operating","energy_sources":"SUN","type":"Power plant","is_nuclear":false}},{"type":"Feature","geometry":{"type":"Point","coordinates":[-93.448,33.045]},"properties":{"key":"69642-5c45a53a","layer":"power","name":"Arkana Solar","state":"AR","detail_file":"data/details/power-plants-47.json","plant_id":"69642","capacity_mw":100.0,"status_group":"Planned","energy_sources":"SUN","type":"Power plant","is_nuclear":false}},{"type":"Feature","geometry":{"type":"Point","coordinates":[-92.08,34.42]},"properties":{"key":"69989-1deb32ef","layer":"power","name":"Arkansas Cypress Solar Station","state":"AR","detail_file":"data/details/power-plants-05.json","plant_id":"69989","capacity_mw":950.0,"status_group":"Planned","energy_sources":"MWH; SUN","type":"Power plant","is_nuclear":false}},{"type":"Feature","geometry":{"type":"Point","coordinates":[-93.235,35.311]},"properties":{"key":"8055-d34c99fa","layer":"power","name":"Arkansas Nuclear One","state":"AR","detail_file":"data/details/power-plants-48.json","plant_id":"8055","capacity_mw":1845.0,"status_group":"Operating","energy_sources":"NUC","type":"Nuclear power plant","is_nuclear":true}},{"type":"Feature","geometry":{"type":"Point","coordinates":[-93.835,35.51]},"properties":{"key":"68688-46d6f1b1","layer":"power","name":"Arkansas Valley","state":"AR","detail_file":"data/details/power-plants-06.json","plant_id":"68688","capacity_mw":1.0,"status_group":"Operating","energy_sources":"SUN","type":"Power plant","is_nuclear":false}},{"type":"Feature","geometry":{"type":"Point","coordinates":[-94.108,33.642]},"properties":{"key":"54104-0c36d971","layer":"power","name":"Ashdown","state":"AR","detail_file":"data/details/power-plants-30.json","plant_id":"54104","capacity_mw":156.5,"status_group":"Operating","energy_sources":"BLQ","type":"Power plant","is_nuclear":false}},{"type":"Feature","geometry":{"type":"Point","coordinates":[-93.194,34.571]},"properties":{"key":"197-45360820","layer":"power","name":"Blakely Mountain","state":"AR","detail_file":"data/details/power-plants-13.json","plant_id":"197","capacity_mw":75.0,"status_group":"Operating","energy_sources":"WAT","type":"Power plant","is_nuclear":false}},{"type":"Feature","geometry":{"type":"Point","coordinates":[-93.926,35.306]},"properties":{"key":"64392-44bf8274","layer":"power","name":"Branch Solar Farm","state":"AR","detail_file":"data/details/power-plants-33.json","plant_id":"64392","capacity_mw":5.0,"status_group":"Operating","energy_sources":"SUN","type":"Power plant","is_nuclear":false}},{"type":"Feature","geometry":{"type":"Point","coordinates":[-93.026,34.443]},"properties":{"key":"166-7f550193","layer":"power","name":"Carpenter","state":"AR","detail_file":"data/details/power-plants-46.json","plant_id":"166","capacity_mw":56.0,"status_group":"Operating","energy_sources":"WAT","type":"Power plant","is_nuclear":false}},{"type":"Feature","geometry":{"type":"Point","coordinates":[-93.515,35.467]},"properties":{"key":"68706-8ca9f1ef","layer":"power","name":"City of Clarksville","state":"AR","detail_file":"data/details/power-plants-02.json","plant_id":"68706","capacity_mw":10.0,"status_group":"Operating","energy_sources":"SUN","type":"Power plant","is_nuclear":false}},{"type":"Feature","geometry":{"type":"Point","coordinates":[-92.214,34.698]},"properties":{"key":"68208-f5ab3062","layer":"power","name":"City of Little Rock Solar Array","state":"AR","detail_file":"data/details/power-plants-36.json","plant_id":"68208","capacity_mw":4.9,"status_group":"Under construction","energy_sources":"SUN","type":"Power plant","is_nuclear":false}},{"type":"Feature","geometry":{"type":"Point","coordinates":[-93.734,35.301]},"properties":{"key":"64444-2142db20","layer":"power","name":"City of Paris Solar","state":"AR","detail_file":"data/details/power-plants-54.json","plant_id":"64444","capacity_mw":1.5,"status_group":"Operating","energy_sources":"SUN","type":"Power plant","is_nuclear":false}},{"type":"Feature","geometry":{"type":"Point","coordinates":[-92.103,34.412]},"properties":{"key":"69695-00837e8e","layer":"power","name":"Colonel Charles D. Maynard Project","state":"AR","detail_file":"data/details/power-plants-43.json","plant_id":"69695","capacity_mw":25.8,"status_group":"Under construction","energy_sources":"WAT","type":"Power plant","is_nuclear":false}},{"type":"Feature","geometry":{"type":"Point","coordinates":[-93.169,35.25]},"properties":{"key":"199-bd5948fa","layer":"power","name":"Dardanelle","state":"AR","detail_file":"data/details/power-plants-34.json","plant_id":"199","capacity_mw":160.8,"status_group":"Operating","energy_sources":"WAT","type":"Power plant","is_nuclear":false}},{"type":"Feature","geometry":{"type":"Point","coordinates":[-93.111,34.212]},"properties":{"key":"187-da46cd64","layer":"power","name":"Degray","state":"AR","detail_file":"data/details/power-plants-10.json","plant_id":"187","capacity_mw":70.0,"status_group":"Operating","energy_sources":"WAT","type":"Power plant","is_nuclear":false}},{"type":"Feature","geometry":{"type":"Point","coordinates":[-92.622,33.213]},"properties":{"key":"67517-1b69c1d2","layer":"power","name":"El Dorado AR","state":"AR","detail_file":"data/details/power-plants-56.json","plant_id":"67517","capacity_mw":1.8,"status_group":"Operating","energy_sources":"SUN","type":"Power plant","is_nuclear":false}},{"type":"Feature","geometry":{"type":"Point","coordinates":[-94.001,35.971]},"properties":{"key":"56489-66d752eb","layer":"power","name":"Elkins Generating Center","state":"AR","detail_file":"data/details/power-plants-11.json","plant_id":"56489","capacity_mw":66.0,"status_group":"Operating","energy_sources":"NG","type":"Power plant","is_nuclear":false}},{"type":"Feature","geometry":{"type":"Point","coordinates":[-94.294,35.351]},"properties":{"key":"7040-e52bc559","layer":"power","name":"Ellis Hydro","state":"AR","detail_file":"data/details/power-plants-52.json","plant_id":"7040","capacity_mw":32.4,"status_group":"Operating","energy_sources":"WAT","type":"Power plant","is_nuclear":false}},{"type":"Feature","geometry":{"type":"Point","coordinates":[-93.871,35.147]},"properties":{"key":"67519-b97ed7d8","layer":"power","name":"Fayetteville Public Schools (SWEPCO)","state":"AR","detail_file":"data/details/power-plants-50.json","plant_id":"67519","capacity_mw":4.0,"status_group":"Operating","energy_sources":"SUN","type":"Power plant","is_nuclear":false}},{"type":"Feature","geometry":{"type":"Point","coordinates":[-92.165,34.697]},"properties":{"key":"10050-b06d1e80","layer":"power","name":"Fourche Creek Wastewater","state":"AR","detail_file":"data/details/power-plants-35.json","plant_id":"10050","capacity_mw":1.3,"status_group":"Operating","energy_sources":"NG","type":"Power plant","is_nuclear":false}},{"type":"Feature","geometry":{"type":"Point","coordinates":[-93.792,33.609]},"properties":{"key":"7825-c57adaf8","layer":"power","name":"Fulton (AR)","state":"AR","detail_file":"data/details/power-plants-22.json","plant_id":"7825","capacity_mw":154.8,"status_group":"Operating","energy_sources":"NG","type":"Power plant","is_nuclear":false}},{"type":"Feature","geometry":{"type":"Point","coordinates":[-92.541,33.602]},"properties":{"key":"65351-b8878c00","layer":"power","name":"General Dynamics","state":"AR","detail_file":"data/details/power-plants-49.json","plant_id":"65351","capacity_mw":7.0,"status_group":"Operating","energy_sources":"MWH; SUN","type":"Power plant","is_nuclear":false}},{"type":"Feature","geometry":{"type":"Point","coordinates":[-92.217,34.592]},"properties":{"key":"55221-eb9a3dc7","layer":"power","name":"Harry L. Oswald","state":"AR","detail_file":"data/details/power-plants-02.json","plant_id":"55221","capacity_mw":599.5,"status_group":"Operating","energy_sources":"NG","type":"Power plant","is_nuclear":false}},{"type":"Feature","geometry":{"type":"Point","coordinates":[-92.868,34.298]},"properties":{"key":"55418-8a6bfcfb","layer":"power","name":"Hot Spring Generating Facility","state":"AR","detail_file":"data/details/power-plants-05.json","plant_id":"55418","capacity_mw":714.8,"status_group":"Operating","energy_sources":"NG","type":"Power plant","is_nuclear":false}},{"type":"Feature","geometry":{"type":"Point","coordinates":[-93.195,34.421]},"properties":{"key":"64263-477064ac","layer":"power","name":"Hot Springs 2020","state":"AR","detail_file":"data/details/power-plants-00.json","plant_id":"64263","capacity_mw":1.0,"status_group":"Operating","energy_sources":"SUN","type":"Power plant","is_nuclear":false}},{"type":"Feature","geometry":{"type":"Point","coordinates":[-92.904,34.434]},"properties":{"key":"69750-d36fd308","layer":"power","name":"Ironwood Power Station","state":"AR","detail_file":"data/details/power-plants-63.json","plant_id":"69750","capacity_mw":467.3,"status_group":"Under construction","energy_sources":"NG","type":"Power plant","is_nuclear":false}},{"type":"Feature","geometry":{"type":"Point","coordinates":[-92.14,34.428]},"properties":{"key":"69185-d36fd2c4","layer":"power","name":"Jefferson Power Station","state":"AR","detail_file":"data/details/power-plants-17.json","plant_id":"69185","capacity_mw":820.0,"status_group":"Under construction","energy_sources":"NG","type":"Power plant","is_nuclear":false}},{"type":"Feature","geometry":{"type":"Point","coordinates":[-93.812,33.65]},"properties":{"key":"56564-06c70d96","layer":"power","name":"John W Turk Jr Power Plant","state":"AR","detail_file":"data/details/power-plants-47.json","plant_id":"56564","capacity_mw":609.0,"status_group":"Operating","energy_sources":"SUB","type":"Power plant","is_nuclear":false}},{"type":"Feature","geometry":{"type":"Point","coordinates":[-93.871,35.147]},"properties":{"key":"67520-e6e6f10f","layer":"power","name":"LRWRA","state":"AR","detail_file":"data/details/power-plants-31.json","plant_id":"67520","capacity_mw":4.0,"status_group":"Operating","energy_sources":"SUN","type":"Power plant","is_nuclear":false}},{"type":"Feature","geometry":{"type":"Point","coordinates":[-92.905,34.434]},"properties":{"key":"170-be656e92","layer":"power","name":"Lake Catherine","state":"AR","detail_file":"data/details/power-plants-53.json","plant_id":"170","capacity_mw":552.5,"status_group":"Operating","energy_sources":"NG","type":"Power plant","is_nuclear":false}},{"type":"Feature","geometry":{"type":"Point","coordinates":[-94.393,35.484]},"properties":{"key":"54283-a24dda42","layer":"power","name":"Lee Creek Water Treatment Facility","state":"AR","detail_file":"data/details/power-plants-60.json","plant_id":"54283","capacity_mw":1.3,"status_group":"Operating","energy_sources":"WAT","type":"Power plant","is_nuclear":false}},{"type":"Feature","geometry":{"type":"Point","coordinates":[-92.832,34.43]},"properties":{"key":"55714-9f37e147","layer":"power","name":"Magnet Cove","state":"AR","detail_file":"data/details/power-plants-18.json","plant_id":"55714","capacity_mw":746.0,"status_group":"Operating","energy_sources":"NG","type":"Power plant","is_nuclear":false}},{"type":"Feature","geometry":{"type":"Point","coordinates":[-92.792,33.565]},"properties":{"key":"203-bb84a163","layer":"power","name":"McClellan (AR)","state":"AR","detail_file":"data/details/power-plants-55.json","plant_id":"203","capacity_mw":136.0,"status_group":"Operating","energy_sources":"NG","type":"Power plant","is_nuclear":false}},{"type":"Feature","geometry":{"type":"Point","coordinates":[-92.357,34.796]},"properties":{"key":"7166-f6c57480","layer":"power","name":"Murray","state":"AR","detail_file":"data/details/power-plants-62.json","plant_id":"7166","capacity_mw":45.4,"status_group":"Operating","energy_sources":"WAT","type":"Power plant","is_nuclear":false}},{"type":"Feature","geometry":{"type":"Point","coordinates":[-92.182,34.741]},"properties":{"key":"68701-e500cf7c","layer":"power","name":"NLRED 2MW","state":"AR","detail_file":"data/details/power-plants-43.json","plant_id":"68701","capacity_mw":2.0,"status_group":"Operating","energy_sources":"SUN","type":"Power plant","is_nuclear":false}},{"type":"Feature","geometry":{"type":"Point","coordinates":[-92.18,34.743]},"properties":{"key":"68702-542cbbdf","layer":"power","name":"NLRED 5MW","state":"AR","detail_file":"data/details/power-plants-11.json","plant_id":"68702","capacity_mw":5.0,"status_group":"Operating","energy_sources":"SUN","type":"Power plant","is_nuclear":false}},{"type":"Feature","geometry":{"type":"Point","coordinates":[-93.715,34.148]},"properties":{"key":"195-673edec5","layer":"power","name":"Narrows (AR)","state":"AR","detail_file":"data/details/power-plants-24.json","plant_id":"195","capacity_mw":25.5,"status_group":"Operating","energy_sources":"WAT","type":"Power plant","is_nuclear":false}},{"type":"Feature","geometry":{"type":"Point","coordinates":[-93.817,35.469]},"properties":{"key":"6142-773de708","layer":"power","name":"Ozark","state":"AR","detail_file":"data/details/power-plants-33.json","plant_id":"6142","capacity_mw":100.0,"status_group":"Operating","energy_sources":"WAT","type":"Power plant","is_nuclear":false}},{"type":"Feature","geometry":{"type":"Point","coordinates":[-94.398,35.967]},"properties":{"key":"68710-1e990558","layer":"power","name":"Ozark Solar Park","state":"AR","detail_file":"data/details/power-plants-54.json","plant_id":"68710","capacity_mw":2.4,"status_group":"Operating","energy_sources":"SUN","type":"Power plant","is_nuclear":false}},{"type":"Feature","geometry":{"type":"Point","coordinates":[-92.457,35.568]},"properties":{"key":"68712-0920bc87","layer":"power","name":"Petit Jean","state":"AR","detail_file":"data/details/power-plants-42.json","plant_id":"68712","capacity_mw":1.0,"status_group":"Operating","energy_sources":"SUN","type":"Power plant","is_nuclear":false}},{"type":"Feature","geometry":{"type":"Point","coordinates":[-92.232,34.271]},"properties":{"key":"69394-5b763f07","layer":"power","name":"Redfield Solar","state":"AR","detail_file":"data/details/power-plants-27.json","plant_id":"69394","capacity_mw":100.0,"status_group":"Operating","energy_sources":"SUN","type":"Power plant","is_nuclear":false}},{"type":"Feature","geometry":{"type":"Point","coordinates":[-92.894,34.427]},"properties":{"key":"174-3fa620d3","layer":"power","name":"Remmel","state":"AR","detail_file":"data/details/power-plants-00.json","plant_id":"174","capacity_mw":9.0,"status_group":"Operating","energy_sources":"WAT","type":"Power plant","is_nuclear":false}},{"type":"Feature","geometry":{"type":"Point","coordinates":[-94.2,34.586]},"properties":{"key":"68713-b61f8595","layer":"power","name":"Rich Mountain Electric Cooperative","state":"AR","detail_file":"data/details/power-plants-02.json","plant_id":"68713","capacity_mw":1.0,"status_group":"Operating","energy_sources":"SUN","type":"Power plant","is_nuclear":false}},{"type":"Feature","geometry":{"type":"Point","coordinates":[-92.696,33.782]},"properties":{"key":"68715-0c28a26f","layer":"power","name":"SAU Tech","state":"AR","detail_file":"data/details/power-plants-61.json","plant_id":"68715","capacity_mw":1.0,"status_group":"Operating","energy_sources":"SUN","type":"Power plant","is_nuclear":false}},{"type":"Feature","geometry":{"type":"Point","coordinates":[-92.704,33.632]},"properties":{"key":"59947-8cecfe97","layer":"power","name":"SR Camden","state":"AR","detail_file":"data/details/power-plants-56.json","plant_id":"59947","capacity_mw":12.0,"status_group":"Operating","energy_sources":"SUN","type":"Power plant","is_nuclear":false}},{"type":"Feature","geometry":{"type":"Point","coordinates":[-93.515,35.467]},"properties":{"key":"61869-a8f53a8b","layer":"power","name":"Scenic Hill Solar III","state":"AR","detail_file":"data/details/power-plants-30.json","plant_id":"61869","capacity_mw":5.0,"status_group":"Operating","energy_sources":"SUN","type":"Power plant","is_nuclear":false}},{"type":"Feature","geometry":{"type":"Point","coordinates":[-93.446,35.471]},"properties":{"key":"63627-23022fd7","layer":"power","name":"Scenic Hill Solar IV, LLC","state":"AR","detail_file":"data/details/power-plants-24.json","plant_id":"63627","capacity_mw":2.2,"status_group":"Operating","energy_sources":"SUN","type":"Power plant","is_nuclear":false}},{"type":"Feature","geometry":{"type":"Point","coordinates":[-93.087,34.163]},"properties":{"key":"68717-0eeeca4d","layer":"power","name":"South Central Electric Cooperative","state":"AR","detail_file":"data/details/power-plants-27.json","plant_id":"68717","capacity_mw":1.0,"status_group":"Operating","energy_sources":"SUN","type":"Power plant","is_nuclear":false}},{"type":"Feature","geometry":{"type":"Point","coordinates":[-92.197,34.724]},"properties":{"key":"67524-00ce7c03","layer":"power","name":"Southside SD","state":"AR","detail_file":"data/details/power-plants-23.json","plant_id":"67524","capacity_mw":1.0,"status_group":"Operating","energy_sources":"SUN","type":"Power plant","is_nuclear":false}},{"type":"Feature","geometry":{"type":"Point","coordinates":[-94.028,33.518]},"properties":{"key":"68718-a45f5119","layer":"power","name":"Southwest Arkansas Electric","state":"AR","detail_file":"data/details/power-plants-19.json","plant_id":"68718","capacity_mw":1.0,"status_group":"Operating","energy_sources":"SUN","type":"Power plant","is_nuclear":false}},{"type":"Feature","geometry":{"type":"Point","coordinates":[-93.805,35.462]},"properties":{"key":"201-8b86dd1e","layer":"power","name":"Thomas Fitzhugh","state":"AR","detail_file":"data/details/power-plants-02.json","plant_id":"201","capacity_mw":256.2,"status_group":"Operating","energy_sources":"NG","type":"Power plant","is_nuclear":false}},{"type":"Feature","geometry":{"type":"Point","coordinates":[-93.805,35.462]},"properties":{"key":"201-d9397577","layer":"power","name":"Thomas Fitzhugh","state":"AR","detail_file":"data/details/power-plants-47.json","plant_id":"201","capacity_mw":69.3,"status_group":"Under construction","energy_sources":"NG","type":"Power plant","is_nuclear":false}},{"type":"Feature","geometry":{"type":"Point","coordinates":[-92.157,34.833]},"properties":{"key":"56523-8a5569c4","layer":"power","name":"Two Pine Landfill Gas Recovery","state":"AR","detail_file":"data/details/power-plants-27.json","plant_id":"56523","capacity_mw":4.8,"status_group":"Operating","energy_sources":"LFG","type":"Power plant","is_nuclear":false}},{"type":"Feature","geometry":{"type":"Point","coordinates":[-93.859,33.927]},"properties":{"key":"67526-8136f44f","layer":"power","name":"UADA","state":"AR","detail_file":"data/details/power-plants-04.json","plant_id":"67526","capacity_mw":2.8,"status_group":"Operating","energy_sources":"SUN","type":"Power plant","is_nuclear":false}},{"type":"Feature","geometry":{"type":"Point","coordinates":[-92.589,33.296]},"properties":{"key":"55380-b9e66c38","layer":"power","name":"Union Power Station","state":"AR","detail_file":"data/details/power-plants-25.json","plant_id":"55380","capacity_mw":2428.0,"status_group":"Operating","energy_sources":"NG","type":"Power plant","is_nuclear":false}},{"type":"Feature","geometry":{"type":"Point","coordinates":[-93.086,34.061]},"properties":{"key":"68727-18ccfbda","layer":"power","name":"Veolia (Gum Springs)","state":"AR","detail_file":"data/details/power-plants-36.json","plant_id":"68727","capacity_mw":5.0,"status_group":"Operating","energy_sources":"SUN","type":"Power plant","is_nuclear":false}},{"type":"Feature","geometry":{"type":"Point","coordinates":[-92.79,35.128]},"properties":{"key":"7135-9567137c","layer":"power","name":"Whillock","state":"AR","detail_file":"data/details/power-plants-21.json","plant_id":"7135","capacity_mw":32.4,"status_group":"Operating","energy_sources":"WAT","type":"Power plant","is_nuclear":false}},{"type":"Feature","geometry":{"type":"Point","coordinates":[-92.141,34.423]},"properties":{"key":"6009-c69d07df","layer":"power","name":"White Bluff","state":"AR","detail_file":"data/details/power-plants-24.json","plant_id":"6009","capacity_mw":1800.0,"status_group":"Operating","energy_sources":"SUB","type":"Power plant","is_nuclear":false}},{"type":"Feature","geometry":{"type":"Point","coordinates":[-92.212,34.699]},"properties":{"key":"68740-5c4d14b3","layer":"power","name":"Zeuber","state":"AR","detail_file":"data/details/power-plants-31.json","plant_id":"68740","capacity_mw":4.6,"status_group":"Operating","energy_sources":"SUN","type":"Power plant","is_nuclear":false}},{"type":"Feature","geometry":{"type":"Point","coordinates":[-93.391,32.004]},"properties":{"key":"57938-c62d9f6f","layer":"power","name":"Arq Solutions Red River","state":"LA","detail_file":"data/details/power-plants-01.json","plant_id":"57938","capacity_mw":20.8,"status_group":"Operating","energy_sources":"WH","type":"Power plant","is_nuclear":false}},{"type":"Feature","geometry":{"type":"Point","coordinates":[-93.761,32.518]},"properties":{"key":"1416-915ed116","layer":"power","name":"Arsenal Hill","state":"LA","detail_file":"data/details/power-plants-20.json","plant_id":"1416","capacity_mw":125.0,"status_group":"Operating","energy_sources":"NG","type":"Power plant","is_nuclear":false}},{"type":"Feature","geometry":{"type":"Point","coordinates":[-93.76,32.519]},"properties":{"key":"56565-9b09f817","layer":"power","name":"J Lamar Stall Unit","state":"LA","detail_file":"data/details/power-plants-27.json","plant_id":"56565","capacity_mw":624.0,"status_group":"Operating","energy_sources":"NG","type":"Power plant","is_nuclear":false}},{"type":"Feature","geometry":{"type":"Point","coordinates":[-92.108,32.401]},"properties":{"key":"69676-d4621385","layer":"power","name":"Lafitte Solar, LLC","state":"LA","detail_file":"data/details/power-plants-08.json","plant_id":"69676","capacity_mw":100.0,"status_group":"Operating","energy_sources":"SUN","type":"Power plant","is_nuclear":false}},{"type":"Feature","geometry":{"type":"Point","coordinates":[-93.96,32.705]},"properties":{"key":"1417-b699f273","layer":"power","name":"Lieberman","state":"LA","detail_file":"data/details/power-plants-12.json","plant_id":"1417","capacity_mw":228.0,"status_group":"Operating","energy_sources":"NG","type":"Power plant","is_nuclear":false}},{"type":"Feature","geometry":{"type":"Point","coordinates":[-92.65,32.526]},"properties":{"key":"54240-6c6dc8c7","layer":"power","name":"Louisiana Tech University Power Plant","state":"LA","detail_file":"data/details/power-plants-58.json","plant_id":"54240","capacity_mw":7.5,"status_group":"Operating","energy_sources":"NG","type":"Power plant","is_nuclear":false}},{"type":"Feature","geometry":{"type":"Point","coordinates":[-93.556,32.157]},"properties":{"key":"54091-e44aa8d5","layer":"power","name":"Mansfield Mill","state":"LA","detail_file":"data/details/power-plants-31.json","plant_id":"54091","capacity_mw":172.0,"status_group":"Operating","energy_sources":"BLQ; NG","type":"Power plant","is_nuclear":false}},{"type":"Feature","geometry":{"type":"Point","coordinates":[-92.068,32.706]},"properties":{"key":"55467-4633f877","layer":"power","name":"Ouachita","state":"LA","detail_file":"data/details/power-plants-57.json","plant_id":"55467","capacity_mw":903.9,"status_group":"Operating","energy_sources":"NG","type":"Power plant","is_nuclear":false}},{"type":"Feature","geometry":{"type":"Point","coordinates":[-92.018,32.691]},"properties":{"key":"55620-a8b7873f","layer":"power","name":"Perryville Power Station","state":"LA","detail_file":"data/details/power-plants-56.json","plant_id":"55620","capacity_mw":824.1,"status_group":"Operating","energy_sources":"NG","type":"Power plant","is_nuclear":false}},{"type":"Feature","geometry":{"type":"Point","coordinates":[-92.15,32.487]},"properties":{"key":"50028-e9c51b61","layer":"power","name":"Plant 31 Paper Mill","state":"LA","detail_file":"data/details/power-plants-40.json","plant_id":"50028","capacity_mw":84.2,"status_group":"Operating","energy_sources":"BLQ; NG; WDS","type":"Power plant","is_nuclear":false}},{"type":"Feature","geometry":{"type":"Point","coordinates":[-93.883,32.884]},"properties":{"key":"65941-5a44d1fa","layer":"power","name":"Rocking R Solar, LLC","state":"LA","detail_file":"data/details/power-plants-24.json","plant_id":"65941","capacity_mw":72.5,"status_group":"Operating","energy_sources":"SUN","type":"Power plant","is_nuclear":false}},{"type":"Feature","geometry":{"type":"Point","coordinates":[-92.925,32.565]},"properties":{"key":"68094-76050bb9","layer":"power","name":"SR Arcadia","state":"LA","detail_file":"data/details/power-plants-05.json","plant_id":"68094","capacity_mw":4.5,"status_group":"Under construction","energy_sources":"SUN","type":"Power plant","is_nuclear":false}},{"type":"Feature","geometry":{"type":"Point","coordinates":[-92.079,32.705]},"properties":{"key":"1404-5b98b8f8","layer":"power","name":"Sterlington","state":"LA","detail_file":"data/details/power-plants-63.json","plant_id":"1404","capacity_mw":59.3,"status_group":"Operating","energy_sources":"NG","type":"Power plant","is_nuclear":false}},{"type":"Feature","geometry":{"type":"Point","coordinates":[-92.066,32.693]},"properties":{"key":"66681-7ed51df0","layer":"power","name":"Sterlington Solar","state":"LA","detail_file":"data/details/power-plants-18.json","plant_id":"66681","capacity_mw":49.0,"status_group":"Operating","energy_sources":"SUN","type":"Power plant","is_nuclear":false}},{"type":"Feature","geometry":{"type":"Point","coordinates":[-92.728,32.275]},"properties":{"key":"50810-fef0012e","layer":"power","name":"Westrock Hodge (LA)","state":"LA","detail_file":"data/details/power-plants-41.json","plant_id":"50810","capacity_mw":66.4,"status_group":"Operating","energy_sources":"BLQ","type":"Power plant","is_nuclear":false}},{"type":"Feature","geometry":{"type":"Point","coordinates":[-94.684,34.139]},"properties":{"key":"6415-c410503d","layer":"power","name":"Broken Bow Dam","state":"OK","detail_file":"data/details/power-plants-51.json","plant_id":"6415","capacity_mw":100.0,"status_group":"Operating","energy_sources":"WAT","type":"Power plant","is_nuclear":false}},{"type":"Feature","geometry":{"type":"Point","coordinates":[-95.322,34.031]},"properties":{"key":"68786-8047d389","layer":"power","name":"Choctaw Fields Solar Project","state":"OK","detail_file":"data/details/power-plants-07.json","plant_id":"68786","capacity_mw":85.0,"status_group":"Under construction","energy_sources":"SUN","type":"Power plant","is_nuclear":false}},{"type":"Feature","geometry":{"type":"Point","coordinates":[-95.357,35.307]},"properties":{"key":"6419-14929234","layer":"power","name":"Eufaula Dam","state":"OK","detail_file":"data/details/power-plants-47.json","plant_id":"6419","capacity_mw":90.0,"status_group":"Operating","energy_sources":"WAT","type":"Power plant","is_nuclear":false}},{"type":"Feature","geometry":{"type":"Point","coordinates":[-95.227,35.869]},"properties":{"key":"3003-23f028a4","layer":"power","name":"Fort Gibson","state":"OK","detail_file":"data/details/power-plants-50.json","plant_id":"3003","capacity_mw":44.8,"status_group":"Operating","energy_sources":"WAT","type":"Power plant","is_nuclear":false}},{"type":"Feature","geometry":{"type":"Point","coordinates":[-95.294,35.732]},"properties":{"key":"10362-b39dfc90","layer":"power","name":"Georgia-Pacific Muskogee","state":"OK","detail_file":"data/details/power-plants-12.json","plant_id":"10362","capacity_mw":114.0,"status_group":"Operating","energy_sources":"NG","type":"Power plant","is_nuclear":false}},{"type":"Feature","geometry":{"type":"Point","coordinates":[-95.935,35.983]},"properties":{"key":"55146-c5ecdf2a","layer":"power","name":"Green Country Power Station","state":"OK","detail_file":"data/details/power-plants-61.json","plant_id":"55146","capacity_mw":903.9,"status_group":"Operating","energy_sources":"NG","type":"Power plant","is_nuclear":false}},{"type":"Feature","geometry":{"type":"Point","coordinates":[-95.658,35.577]},"properties":{"key":"69239-03a75a0a","layer":"power","name":"High Spring Solar Energy","state":"OK","detail_file":"data/details/power-plants-17.json","plant_id":"69239","capacity_mw":400.0,"status_group":"Planned","energy_sources":"SUN","type":"Power plant","is_nuclear":false}},{"type":"Feature","geometry":{"type":"Point","coordinates":[-95.321,34.016]},"properties":{"key":"6772-d36f2b61","layer":"power","name":"Hugo","state":"OK","detail_file":"data/details/power-plants-05.json","plant_id":"6772","capacity_mw":446.0,"status_group":"Operating","energy_sources":"SUB","type":"Power plant","is_nuclear":false}},{"type":"Feature","geometry":{"type":"Point","coordinates":[-95.111,33.996]},"properties":{"key":"50192-313f7cf0","layer":"power","name":"International Paper Valliant OK","state":"OK","detail_file":"data/details/power-plants-51.json","plant_id":"50192","capacity_mw":68.0,"status_group":"Operating","energy_sources":"BLQ","type":"Power plant","is_nuclear":false}},{"type":"Feature","geometry":{"type":"Point","coordinates":[-95.935,34.683]},"properties":{"key":"55501-60c877e2","layer":"power","name":"Kiamichi Energy Facility","state":"OK","detail_file":"data/details/power-plants-46.json","plant_id":"55501","capacity_mw":1370.0,"status_group":"Operating","energy_sources":"NG","type":"Power plant","is_nuclear":false}},{"type":"Feature","geometry":{"type":"Point","coordinates":[-95.287,35.761]},"properties":{"key":"2952-87b62306","layer":"power","name":"Muskogee","state":"OK","detail_file":"data/details/power-plants-51.json","plant_id":"2952","capacity_mw":1716.0,"status_group":"Operating","energy_sources":"NG; SUB","type":"Power plant","is_nuclear":false}},{"type":"Feature","geometry":{"type":"Point","coordinates":[-94.646,35.193]},"properties":{"key":"10671-967253a5","layer":"power","name":"River Valley","state":"OK","detail_file":"data/details/power-plants-25.json","plant_id":"10671","capacity_mw":350.0,"status_group":"Operating","energy_sources":"SUB","type":"Power plant","is_nuclear":false}},{"type":"Feature","geometry":{"type":"Point","coordinates":[-95.957,35.998]},"properties":{"key":"4940-794bcb40","layer":"power","name":"Riverside (OK)","state":"OK","detail_file":"data/details/power-plants-33.json","plant_id":"4940","capacity_mw":1121.7,"status_group":"Operating","energy_sources":"DFO; NG","type":"Power plant","is_nuclear":false}},{"type":"Feature","geometry":{"type":"Point","coordinates":[-94.775,35.344]},"properties":{"key":"2985-c7e14f5a","layer":"power","name":"Robert S Kerr","state":"OK","detail_file":"data/details/power-plants-19.json","plant_id":"2985","capacity_mw":110.0,"status_group":"Operating","energy_sources":"WAT","type":"Power plant","is_nuclear":false}},{"type":"Feature","geometry":{"type":"Point","coordinates":[-95.051,35.595]},"properties":{"key":"3004-0909ceca","layer":"power","name":"Tenkiller Ferry","state":"OK","detail_file":"data/details/power-plants-12.json","plant_id":"3004","capacity_mw":39.0,"status_group":"Operating","energy_sources":"WAT","type":"Power plant","is_nuclear":false}},{"type":"Feature","geometry":{"type":"Point","coordinates":[-95.171,35.553]},"properties":{"key":"2987-67dce53c","layer":"power","name":"Webbers Falls","state":"OK","detail_file":"data/details/power-plants-29.json","plant_id":"2987","capacity_mw":75.0,"status_group":"Operating","energy_sources":"WAT","type":"Power plant","is_nuclear":false}},{"type":"Feature","geometry":{"type":"Point","coordinates":[-95.192,34.591]},"properties":{"key":"61866-ff965635","layer":"power","name":"Wildhorse Mountain Wind Facility","state":"OK","detail_file":"data/details/power-plants-48.json","plant_id":"61866","capacity_mw":100.0,"status_group":"Operating","energy_sources":"WND","type":"Power plant","is_nuclear":false}},{"type":"Feature","geometry":{"type":"Point","coordinates":[-95.903,32.952]},"properties":{"key":"69359-1d0190a7","layer":"power","name":"Barrett Solar Project","state":"TX","detail_file":"data/details/power-plants-59.json","plant_id":"69359","capacity_mw":125.0,"status_group":"Operating","energy_sources":"SUN","type":"Power plant","is_nuclear":false}},{"type":"Feature","geometry":{"type":"Point","coordinates":[-95.731,33.224]},"properties":{"key":"66688-33a6089c","layer":"power","name":"Bright Arrow Solar, LLC","state":"TX","detail_file":"data/details/power-plants-17.json","plant_id":"66688","capacity_mw":403.6,"status_group":"Operating","energy_sources":"MWH; SUN","type":"Power plant","is_nuclear":false}},{"type":"Feature","geometry":{"type":"Point","coordinates":[-95.615,33.091]},"properties":{"key":"68513-f52c9e9a","layer":"power","name":"Cartwheel 1 - Storage, LLC","state":"TX","detail_file":"data/details/power-plants-62.json","plant_id":"68513","capacity_mw":300.0,"status_group":"Operating","energy_sources":"MWH","type":"Power plant","is_nuclear":false}},{"type":"Feature","geometry":{"type":"Point","coordinates":[-95.391,33.633]},"properties":{"key":"61810-086f2f2e","layer":"power","name":"Chisum","state":"TX","detail_file":"data/details/power-plants-49.json","plant_id":"61810","capacity_mw":10.0,"status_group":"Operating","energy_sources":"SUN","type":"Power plant","is_nuclear":false}},{"type":"Feature","geometry":{"type":"Point","coordinates":[-95.827,33.057]},"properties":{"key":"68901-dcf51855","layer":"power","name":"Claxton Solar","state":"TX","detail_file":"data/details/power-plants-00.json","plant_id":"68901","capacity_mw":226.3,"status_group":"Under construction","energy_sources":"MWH; SUN","type":"Power plant","is_nuclear":false}},{"type":"Feature","geometry":{"type":"Point","coordinates":[-95.269,33.482]},"properties":{"key":"63884-1c1c2147","layer":"power","name":"Delilah Solar Energy II LLC","state":"TX","detail_file":"data/details/power-plants-10.json","plant_id":"63884","capacity_mw":310.0,"status_group":"Operating","energy_sources":"SUN","type":"Power plant","is_nuclear":false}},{"type":"Feature","geometry":{"type":"Point","coordinates":[-95.164,33.284]},"properties":{"key":"63194-a8ce08ab","layer":"power","name":"Delilah Solar Energy LLC","state":"TX","detail_file":"data/details/power-plants-03.json","plant_id":"63194","capacity_mw":300.0,"status_group":"Operating","energy_sources":"SUN","type":"Power plant","is_nuclear":false}},{"type":"Feature","geometry":{"type":"Point","coordinates":[-95.574,33.433]},"properties":{"key":"66341-beaa5eff","layer":"power","name":"Eagle Springs Hybrid","state":"TX","detail_file":"data/details/power-plants-18.json","plant_id":"66341","capacity_mw":165.2,"status_group":"Under construction","energy_sources":"MWH; SUN","type":"Power plant","is_nuclear":false}},{"type":"Feature","geometry":{"type":"Point","coordinates":[-94.69,32.448]},"properties":{"key":"55176-d05f5547","layer":"power","name":"Eastman Cogeneration Facility","state":"TX","detail_file":"data/details/power-plants-15.json","plant_id":"55176","capacity_mw":467.7,"status_group":"Operating","energy_sources":"NG","type":"Power plant","is_nuclear":false}},{"type":"Feature","geometry":{"type":"Point","coordinates":[-95.458,33.616]},"properties":{"key":"68902-ccf2aa05","layer":"power","name":"Echols Creek Solar","state":"TX","detail_file":"data/details/power-plants-63.json","plant_id":"68902","capacity_mw":301.8,"status_group":"Under construction","energy_sources":"MWH; SUN","type":"Power plant","is_nuclear":false}},{"type":"Feature","geometry":{"type":"Point","coordinates":[-95.525,33.599]},"properties":{"key":"66471-01ad7206","layer":"power","name":"Eiffel Solar Project","state":"TX","detail_file":"data/details/power-plants-50.json","plant_id":"66471","capacity_mw":240.0,"status_group":"Operating","energy_sources":"SUN","type":"Power plant","is_nuclear":false}},{"type":"Feature","geometry":{"type":"Point","coordinates":[-95.668,33.457]},"properties":{"key":"66872-4aac0dbb","layer":"power","name":"Estonian Solar Project, LLC","state":"TX","detail_file":"data/details/power-plants-30.json","plant_id":"66872","capacity_mw":304.5,"status_group":"Operating","energy_sources":"MWH; SUN","type":"Power plant","is_nuclear":false}},{"type":"Feature","geometry":{"type":"Point","coordinates":[-94.485,32.461]},"properties":{"key":"68417-bbdb51a3","layer":"power","name":"Hallsville","state":"TX","detail_file":"data/details/power-plants-57.json","plant_id":"68417","capacity_mw":450.0,"status_group":"Planned","energy_sources":"NG","type":"Power plant","is_nuclear":false}},{"type":"Feature","geometry":{"type":"Point","coordinates":[-94.437,32.396]},"properties":{"key":"55664-7a13239d","layer":"power","name":"Harrison County Power Project","state":"TX","detail_file":"data/details/power-plants-56.json","plant_id":"55664","capacity_mw":570.0,"status_group":"Operating","energy_sources":"NG","type":"Power plant","is_nuclear":false}},{"type":"Feature","geometry":{"type":"Point","coordinates":[-94.732,32.843]},"properties":{"key":"65946-8c76f022","layer":"power","name":"Hecate Energy Upshur Rural LLC","state":"TX","detail_file":"data/details/power-plants-32.json","plant_id":"65946","capacity_mw":3.0,"status_group":"Operating","energy_sources":"SUN","type":"Power plant","is_nuclear":false}},{"type":"Feature","geometry":{"type":"Point","coordinates":[-95.462,33.217]},"properties":{"key":"67424-095e7c25","layer":"power","name":"Hopkins Energy LLC","state":"TX","detail_file":"data/details/power-plants-38.json","plant_id":"67424","capacity_mw":250.0,"status_group":"Operating","energy_sources":"SUN","type":"Power plant","is_nuclear":false}},{"type":"Feature","geometry":{"type":"Point","coordinates":[-95.371,33.468]},"properties":{"key":"63222-fde6a4bc","layer":"power","name":"Impact Solar 1","state":"TX","detail_file":"data/details/power-plants-36.json","plant_id":"63222","capacity_mw":198.5,"status_group":"Operating","energy_sources":"SUN","type":"Power plant","is_nuclear":false}},{"type":"Feature","geometry":{"type":"Point","coordinates":[-94.07,33.255]},"properties":{"key":"54097-1c0de221","layer":"power","name":"International Paper Texarkana Mill","state":"TX","detail_file":"data/details/power-plants-32.json","plant_id":"54097","capacity_mw":65.0,"status_group":"Operating","energy_sources":"BLQ","type":"Power plant","is_nuclear":false}},{"type":"Feature","geometry":{"type":"Point","coordinates":[-95.716,32.474]},"properties":{"key":"62774-6f843644","layer":"power","name":"Kellam Solar","state":"TX","detail_file":"data/details/power-plants-31.json","plant_id":"62774","capacity_mw":59.0,"status_group":"Operating","energy_sources":"SUN","type":"Power plant","is_nuclear":false}},{"type":"Feature","geometry":{"type":"Point","coordinates":[-94.641,32.377]},"properties":{"key":"3476-8b771f49","layer":"power","name":"Knox Lee","state":"TX","detail_file":"data/details/power-plants-30.json","plant_id":"3476","capacity_mw":351.0,"status_group":"Operating","energy_sources":"NG","type":"Power plant","is_nuclear":false}},{"type":"Feature","geometry":{"type":"Point","coordinates":[-95.59,33.631]},"properties":{"key":"55097-6fbe1762","layer":"power","name":"Lamar Power Project","state":"TX","detail_file":"data/details/power-plants-51.json","plant_id":"55097","capacity_mw":1112.6,"status_group":"Operating","energy_sources":"NG","type":"Power plant","is_nuclear":false}},{"type":"Feature","geometry":{"type":"Point","coordinates":[-95.721,33.082]},"properties":{"key":"69687-9fe87d5d","layer":"power","name":"Lucky 7 Solar Farm LLC","state":"TX","detail_file":"data/details/power-plants-13.json","plant_id":"69687","capacity_mw":100.0,"status_group":"Under construction","energy_sources":"SUN","type":"Power plant","is_nuclear":false}},{"type":"Feature","geometry":{"type":"Point","coordinates":[-95.255,33.301]},"properties":{"key":"67674-873ade47","layer":"power","name":"Lupinus Storage 3","state":"TX","detail_file":"data/details/power-plants-02.json","plant_id":"67674","capacity_mw":50.9,"status_group":"Planned","energy_sources":"MWH","type":"Power plant","is_nuclear":false}},{"type":"Feature","geometry":{"type":"Point","coordinates":[-95.629,33.639]},"properties":{"key":"66390-84e6d130","layer":"power","name":"MRG Goody Solar Project Hybrid","state":"TX","detail_file":"data/details/power-plants-63.json","plant_id":"66390","capacity_mw":221.2,"status_group":"Under construction","energy_sources":"MWH; SUN","type":"Power plant","is_nuclear":false}},{"type":"Feature","geometry":{"type":"Point","coordinates":[-94.571,32.261]},"properties":{"key":"6146-c52381d5","layer":"power","name":"Martin Lake","state":"TX","detail_file":"data/details/power-plants-45.json","plant_id":"6146","capacity_mw":2379.6,"status_group":"Operating","energy_sources":"SUB","type":"Power plant","is_nuclear":false}},{"type":"Feature","geometry":{"type":"Point","coordinates":[-95.809,33.18]},"properties":{"key":"68171-5fbe1295","layer":"power","name":"Mcmurtre Storage","state":"TX","detail_file":"data/details/power-plants-21.json","plant_id":"68171","capacity_mw":176.1,"status_group":"Under construction","energy_sources":"MWH","type":"Power plant","is_nuclear":false}},{"type":"Feature","geometry":{"type":"Point","coordinates":[-95.425,33.392]},"properties":{"key":"64347-b911bc3e","layer":"power","name":"Mockingbird Solar Center","state":"TX","detail_file":"data/details/power-plants-38.json","plant_id":"64347","capacity_mw":471.0,"status_group":"Operating","energy_sources":"SUN","type":"Power plant","is_nuclear":false}},{"type":"Feature","geometry":{"type":"Point","coordinates":[-95.58,32.17]},"properties":{"key":"68903-8fabc63f","layer":"power","name":"Musgravite Solar","state":"TX","detail_file":"data/details/power-plants-56.json","plant_id":"68903","capacity_mw":100.6,"status_group":"Under construction","energy_sources":"SUN","type":"Power plant","is_nuclear":false}},{"type":"Feature","geometry":{"type":"Point","coordinates":[-94.706,33.22]},"properties":{"key":"68273-ec774460","layer":"power","name":"Naples Power Plant","state":"TX","detail_file":"data/details/power-plants-32.json","plant_id":"68273","capacity_mw":900.0,"status_group":"Planned","energy_sources":"NG","type":"Power plant","is_nuclear":false}},{"type":"Feature","geometry":{"type":"Point","coordinates":[-94.736,32.212]},"properties":{"key":"64132-08b5dd89","layer":"power","name":"Oak Hill - Dry Creek","state":"TX","detail_file":"data/details/power-plants-38.json","plant_id":"64132","capacity_mw":200.0,"status_group":"Operating","energy_sources":"SUN","type":"Power plant","is_nuclear":false}},{"type":"Feature","geometry":{"type":"Point","coordinates":[-95.558,33.697]},"properties":{"key":"50109-9e54f5ac","layer":"power","name":"Paris Energy Center","state":"TX","detail_file":"data/details/power-plants-22.json","plant_id":"50109","capacity_mw":265.6,"status_group":"Operating","energy_sources":"NG","type":"Power plant","is_nuclear":false}},{"type":"Feature","geometry":{"type":"Point","coordinates":[-95.392,33.101]},"properties":{"key":"68906-125d2cfb","layer":"power","name":"Pine Forest Solar I","state":"TX","detail_file":"data/details/power-plants-29.json","plant_id":"68906","capacity_mw":500.0,"status_group":"Operating","energy_sources":"MWH; SUN","type":"Power plant","is_nuclear":false}},{"type":"Feature","geometry":{"type":"Point","coordinates":[-95.392,33.101]},"properties":{"key":"68906-64f78576","layer":"power","name":"Pine Forest Solar I","state":"TX","detail_file":"data/details/power-plants-50.json","plant_id":"68906","capacity_mw":200.0,"status_group":"Under construction","energy_sources":"MWH","type":"Power plant","is_nuclear":false}},{"type":"Feature","geometry":{"type":"Point","coordinates":[-95.696,33.632]},"properties":{"key":"67566-a89975ce","layer":"power","name":"Roscommon Solar Park","state":"TX","detail_file":"data/details/power-plants-41.json","plant_id":"67566","capacity_mw":82.8,"status_group":"Under construction","energy_sources":"SUN","type":"Power plant","is_nuclear":false}},{"type":"Feature","geometry":{"type":"Point","coordinates":[-95.646,33.757]},"properties":{"key":"65854-988de12e","layer":"power","name":"Rowdy Creek Solar and BESS","state":"TX","detail_file":"data/details/power-plants-63.json","plant_id":"65854","capacity_mw":700.0,"status_group":"Under construction","energy_sources":"SUN","type":"Power plant","is_nuclear":false}},{"type":"Feature","geometry":{"type":"Point","coordinates":[-95.338,33.631]},"properties":{"key":"67341-81933dcb","layer":"power","name":"SGT Hoskins Solar Project Hybrid","state":"TX","detail_file":"data/details/power-plants-02.json","plant_id":"67341","capacity_mw":306.2,"status_group":"Planned","energy_sources":"MWH; SUN","type":"Power plant","is_nuclear":false}},{"type":"Feature","geometry":{"type":"Point","coordinates":[-95.193,33.251]},"properties":{"key":"63211-f0271268","layer":"power","name":"Samson Solar Energy","state":"TX","detail_file":"data/details/power-plants-13.json","plant_id":"63211","capacity_mw":250.0,"status_group":"Operating","energy_sources":"SUN","type":"Power plant","is_nuclear":false}},{"type":"Feature","geometry":{"type":"Point","coordinates":[-95.349,33.458]},"properties":{"key":"63882-0a499e3f","layer":"power","name":"Samson Solar Energy II LLC","state":"TX","detail_file":"data/details/power-plants-49.json","plant_id":"63882","capacity_mw":200.0,"status_group":"Operating","energy_sources":"SUN","type":"Power plant","is_nuclear":false}},{"type":"Feature","geometry":{"type":"Point","coordinates":[-95.357,33.426]},"properties":{"key":"63883-a668ff5a","layer":"power","name":"Samson Solar Energy III LLC","state":"TX","detail_file":"data/details/power-plants-20.json","plant_id":"63883","capacity_mw":250.0,"status_group":"Operating","energy_sources":"SUN","type":"Power plant","is_nuclear":false}},{"type":"Feature","geometry":{"type":"Point","coordinates":[-94.374,32.575]},"properties":{"key":"50141-f0001768","layer":"power","name":"Snider Industries","state":"TX","detail_file":"data/details/power-plants-17.json","plant_id":"50141","capacity_mw":5.0,"status_group":"Operating","energy_sources":"WDS","type":"Power plant","is_nuclear":false}},{"type":"Feature","geometry":{"type":"Point","coordinates":[-95.319,33.201]},"properties":{"key":"67762-3871d874","layer":"power","name":"Stampede Solar Hybrid","state":"TX","detail_file":"data/details/power-plants-21.json","plant_id":"67762","capacity_mw":328.1,"status_group":"Operating","energy_sources":"MWH; SUN","type":"Power plant","is_nuclear":false}},{"type":"Feature","geometry":{"type":"Point","coordinates":[-95.173,33.352]},"properties":{"key":"69265-2224a7b3","layer":"power","name":"Talco Solar Project","state":"TX","detail_file":"data/details/power-plants-33.json","plant_id":"69265","capacity_mw":7.5,"status_group":"Operating","energy_sources":"SUN","type":"Power plant","is_nuclear":false}},{"type":"Feature","geometry":{"type":"Point","coordinates":[-95.838,32.231]},"properties":{"key":"69026-31933a81","layer":"power","name":"Tanzanite Storage","state":"TX","detail_file":"data/details/power-plants-13.json","plant_id":"69026","capacity_mw":283.2,"status_group":"Operating","energy_sources":"MWH","type":"Power plant","is_nuclear":false}},{"type":"Feature","geometry":{"type":"Point","coordinates":[-94.62,32.018]},"properties":{"key":"55132-6368c8b6","layer":"power","name":"Tenaska Gateway Generating Station","state":"TX","detail_file":"data/details/power-plants-35.json","plant_id":"55132","capacity_mw":939.6,"status_group":"Operating","energy_sources":"NG","type":"Power plant","is_nuclear":false}},{"type":"Feature","geometry":{"type":"Point","coordinates":[-95.627,33.645]},"properties":{"key":"68856-f93f811e","layer":"power","name":"Tyson Nick","state":"TX","detail_file":"data/details/power-plants-30.json","plant_id":"68856","capacity_mw":90.5,"status_group":"Operating","energy_sources":"SUN","type":"Power plant","is_nuclear":false}},{"type":"Feature","geometry":{"type":"Point","coordinates":[-94.84,33.055]},"properties":{"key":"6139-4204954f","layer":"power","name":"Welsh","state":"TX","detail_file":"data/details/power-plants-39.json","plant_id":"6139","capacity_mw":1116.0,"status_group":"Operating","energy_sources":"SUB","type":"Power plant","is_nuclear":false}},{"type":"Feature","geometry":{"type":"Point","coordinates":[-94.548,32.848]},"properties":{"key":"3478-4ec7ade9","layer":"power","name":"Wilkes","state":"TX","detail_file":"data/details/power-plants-13.json","plant_id":"3478","capacity_mw":882.0,"status_group":"Operating","energy_sources":"NG","type":"Power plant","is_nuclear":false}},{"type":"Feature","geometry":{"type":"Point","coordinates":[-95.748,32.87]},"properties":{"key":"68176-251c696e","layer":"power","name":"Willis Storage","state":"TX","detail_file":"data/details/power-plants-06.json","plant_id":"68176","capacity_mw":176.1,"status_group":"Under construction","energy_sources":"MWH","type":"Power plant","is_nuclear":false}}]}