{"type":"FeatureCollection","features":[{"type":"Feature","geometry":{"type":"Point","coordinates":[-83.993,41.891]},"properties":{"key":"54903-0749dc05","layer":"power","name":"Adrian Energy Associates LLC","state":"MI","detail_file":"data/details/power-plants-22.json","plant_id":"54903","capacity_mw":2.4,"status_group":"Operating","energy_sources":"LFG","type":"Power plant","is_nuclear":false}},{"type":"Feature","geometry":{"type":"Point","coordinates":[-83.315,43.815]},"properties":{"key":"58690-2fdc2513","layer":"power","name":"Apple Blossom Wind Farm","state":"MI","detail_file":"data/details/power-plants-07.json","plant_id":"58690","capacity_mw":100.0,"status_group":"Operating","energy_sources":"WND","type":"Power plant","is_nuclear":false}},{"type":"Feature","geometry":{"type":"Point","coordinates":[-83.96,43.044]},"properties":{"key":"63538-e767e3cd","layer":"power","name":"Assembly Solar II LLC","state":"MI","detail_file":"data/details/power-plants-12.json","plant_id":"63538","capacity_mw":110.0,"status_group":"Operating","energy_sources":"SUN","type":"Power plant","is_nuclear":false}},{"type":"Feature","geometry":{"type":"Point","coordinates":[-83.943,43.023]},"properties":{"key":"64196-5233f282","layer":"power","name":"Assembly Solar III","state":"MI","detail_file":"data/details/power-plants-14.json","plant_id":"64196","capacity_mw":79.0,"status_group":"Operating","energy_sources":"SUN","type":"Power plant","is_nuclear":false}},{"type":"Feature","geometry":{"type":"Point","coordinates":[-83.945,43.023]},"properties":{"key":"62422-069d55c9","layer":"power","name":"Assembly Solar Project","state":"MI","detail_file":"data/details/power-plants-35.json","plant_id":"62422","capacity_mw":50.0,"status_group":"Operating","energy_sources":"SUN","type":"Power plant","is_nuclear":false}},{"type":"Feature","geometry":{"type":"Point","coordinates":[-83.917,41.923]},"properties":{"key":"69463-cc16e843","layer":"power","name":"Beecher Solar Park","state":"MI","detail_file":"data/details/power-plants-16.json","plant_id":"69463","capacity_mw":80.0,"status_group":"Under construction","energy_sources":"SUN","type":"Power plant","is_nuclear":false}},{"type":"Feature","geometry":{"type":"Point","coordinates":[-82.495,42.776]},"properties":{"key":"6034-4ae7132a","layer":"power","name":"Belle River","state":"MI","detail_file":"data/details/power-plants-37.json","plant_id":"6034","capacity_mw":1664.4,"status_group":"Operating","energy_sources":"DFO; NG; SUB","type":"Power plant","is_nuclear":false}},{"type":"Feature","geometry":{"type":"Point","coordinates":[-82.794,43.92]},"properties":{"key":"65143-6d10c881","layer":"power","name":"Big Turtle Wind Farm 2","state":"MI","detail_file":"data/details/power-plants-55.json","plant_id":"65143","capacity_mw":29.4,"status_group":"Operating","energy_sources":"WND","type":"Power plant","is_nuclear":false}},{"type":"Feature","geometry":{"type":"Point","coordinates":[-82.782,43.851]},"properties":{"key":"58891-03801070","layer":"power","name":"Big Turtle Wind Farm, LLC","state":"MI","detail_file":"data/details/power-plants-59.json","plant_id":"58891","capacity_mw":20.0,"status_group":"Operating","energy_sources":"WND","type":"Power plant","is_nuclear":false}},{"type":"Feature","geometry":{"type":"Point","coordinates":[-83.996,41.919]},"properties":{"key":"66107-710e40d5","layer":"power","name":"Blue Elk I Solar, LLC","state":"MI","detail_file":"data/details/power-plants-03.json","plant_id":"66107","capacity_mw":20.0,"status_group":"Operating","energy_sources":"SUN","type":"Power plant","is_nuclear":false}},{"type":"Feature","geometry":{"type":"Point","coordinates":[-83.567,43.087]},"properties":{"key":"66104-97b161e9","layer":"power","name":"Blue Elk VII Solar, LLC","state":"MI","detail_file":"data/details/power-plants-16.json","plant_id":"66104","capacity_mw":12.5,"status_group":"Operating","energy_sources":"SUN","type":"Power plant","is_nuclear":false}},{"type":"Feature","geometry":{"type":"Point","coordinates":[-82.479,42.774]},"properties":{"key":"62192-743756e1","layer":"power","name":"Blue Water Energy Center","state":"MI","detail_file":"data/details/power-plants-60.json","plant_id":"62192","capacity_mw":1267.4,"status_group":"Operating","energy_sources":"NG","type":"Power plant","is_nuclear":false}},{"type":"Feature","geometry":{"type":"Point","coordinates":[-82.595,42.916]},"properties":{"key":"57706-6a1b886b","layer":"power","name":"Blue Water Renewables Inc","state":"MI","detail_file":"data/details/power-plants-61.json","plant_id":"57706","capacity_mw":3.2,"status_group":"Operating","energy_sources":"LFG","type":"Power plant","is_nuclear":false}},{"type":"Feature","geometry":{"type":"Point","coordinates":[-83.848,43.176]},"properties":{"key":"54910-28205846","layer":"power","name":"Brent Run Generating Station","state":"MI","detail_file":"data/details/power-plants-51.json","plant_id":"54910","capacity_mw":7.0,"status_group":"Operating","energy_sources":"LFG","type":"Power plant","is_nuclear":false}},{"type":"Feature","geometry":{"type":"Point","coordinates":[-83.298,43.758]},"properties":{"key":"58719-1f100b71","layer":"power","name":"Brookfield","state":"MI","detail_file":"data/details/power-plants-53.json","plant_id":"58719","capacity_mw":74.8,"status_group":"Operating","energy_sources":"WND","type":"Power plant","is_nuclear":false}},{"type":"Feature","geometry":{"type":"Point","coordinates":[-83.782,43.101]},"properties":{"key":"64457-81e421a7","layer":"power","name":"Captain Solar, LLC","state":"MI","detail_file":"data/details/power-plants-32.json","plant_id":"64457","capacity_mw":2.0,"status_group":"Operating","energy_sources":"SUN","type":"Power plant","is_nuclear":false}},{"type":"Feature","geometry":{"type":"Point","coordinates":[-82.486,42.818]},"properties":{"key":"54965-1c9e7ed8","layer":"power","name":"Cargill Salt","state":"MI","detail_file":"data/details/power-plants-41.json","plant_id":"54965","capacity_mw":4.2,"status_group":"Operating","energy_sources":"NG","type":"Power plant","is_nuclear":false}},{"type":"Feature","geometry":{"type":"Point","coordinates":[-83.328,43.466]},"properties":{"key":"1874-3664225c","layer":"power","name":"Caro","state":"MI","detail_file":"data/details/power-plants-16.json","plant_id":"1874","capacity_mw":9.4,"status_group":"Operating","energy_sources":"DFO","type":"Power plant","is_nuclear":false}},{"type":"Feature","geometry":{"type":"Point","coordinates":[-83.019,42.411]},"properties":{"key":"69465-8c8d7658","layer":"power","name":"City of Detroit Castle Solar","state":"MI","detail_file":"data/details/power-plants-14.json","plant_id":"69465","capacity_mw":10.0,"status_group":"Under construction","energy_sources":"SUN","type":"Power plant","is_nuclear":false}},{"type":"Feature","geometry":{"type":"Point","coordinates":[-83.099,42.421]},"properties":{"key":"69466-28475906","layer":"power","name":"City of Detroit Greenfield","state":"MI","detail_file":"data/details/power-plants-39.json","plant_id":"69466","capacity_mw":7.0,"status_group":"Under construction","energy_sources":"SUN","type":"Power plant","is_nuclear":false}},{"type":"Feature","geometry":{"type":"Point","coordinates":[-83.777,43.093]},"properties":{"key":"64458-3263135c","layer":"power","name":"Coldwater Solar, LLC","state":"MI","detail_file":"data/details/power-plants-29.json","plant_id":"64458","capacity_mw":2.0,"status_group":"Operating","energy_sources":"SUN","type":"Power plant","is_nuclear":false}},{"type":"Feature","geometry":{"type":"Point","coordinates":[-83.212,42.292]},"properties":{"key":"50260-f40b359f","layer":"power","name":"Corewell Health Dearborn Campus","state":"MI","detail_file":"data/details/power-plants-11.json","plant_id":"50260","capacity_mw":4.5,"status_group":"Operating","energy_sources":"DFO","type":"Power plant","is_nuclear":false}},{"type":"Feature","geometry":{"type":"Point","coordinates":[-83.486,43.61]},"properties":{"key":"58830-ac7cdd40","layer":"power","name":"Cross Winds Energy Park","state":"MI","detail_file":"data/details/power-plants-45.json","plant_id":"58830","capacity_mw":230.9,"status_group":"Operating","energy_sources":"WND","type":"Power plant","is_nuclear":false}},{"type":"Feature","geometry":{"type":"Point","coordinates":[-82.614,43.272]},"properties":{"key":"7497-36edb090","layer":"power","name":"Croswell","state":"MI","detail_file":"data/details/power-plants-15.json","plant_id":"7497","capacity_mw":5.1,"status_group":"Operating","energy_sources":"DFO","type":"Power plant","is_nuclear":false}},{"type":"Feature","geometry":{"type":"Point","coordinates":[-83.84,43.645]},"properties":{"key":"1702-257ed347","layer":"power","name":"Dan E Karn","state":"MI","detail_file":"data/details/power-plants-02.json","plant_id":"1702","capacity_mw":1402.3,"status_group":"Operating","energy_sources":"NG","type":"Power plant","is_nuclear":false}},{"type":"Feature","geometry":{"type":"Point","coordinates":[-82.482,42.774]},"properties":{"key":"55718-59b0c72d","layer":"power","name":"Dean","state":"MI","detail_file":"data/details/power-plants-26.json","plant_id":"55718","capacity_mw":357.6,"status_group":"Operating","energy_sources":"NG","type":"Power plant","is_nuclear":false}},{"type":"Feature","geometry":{"type":"Point","coordinates":[-83.231,42.297]},"properties":{"key":"62289-b5ba783b","layer":"power","name":"Dearborn Energy Center","state":"MI","detail_file":"data/details/power-plants-63.json","plant_id":"62289","capacity_mw":35.0,"status_group":"Operating","energy_sources":"NG","type":"Power plant","is_nuclear":false}},{"type":"Feature","geometry":{"type":"Point","coordinates":[-83.154,42.303]},"properties":{"key":"55088-edbea118","layer":"power","name":"Dearborn Industrial Generation","state":"MI","detail_file":"data/details/power-plants-53.json","plant_id":"55088","capacity_mw":747.9,"status_group":"Operating","energy_sources":"BFG; NG","type":"Power plant","is_nuclear":false}},{"type":"Feature","geometry":{"type":"Point","coordinates":[-82.874,43.929]},"properties":{"key":"65742-9ce7a496","layer":"power","name":"Deerfield Wind Energy 2","state":"MI","detail_file":"data/details/power-plants-45.json","plant_id":"65742","capacity_mw":112.1,"status_group":"Operating","energy_sources":"WND","type":"Power plant","is_nuclear":false}},{"type":"Feature","geometry":{"type":"Point","coordinates":[-82.899,43.942]},"properties":{"key":"60883-2daba516","layer":"power","name":"Deerfield Wind Energy, LLC","state":"MI","detail_file":"data/details/power-plants-34.json","plant_id":"60883","capacity_mw":149.0,"status_group":"Operating","energy_sources":"WND","type":"Power plant","is_nuclear":false}},{"type":"Feature","geometry":{"type":"Point","coordinates":[-83.102,42.295]},"properties":{"key":"1728-df7983b4","layer":"power","name":"Delray","state":"MI","detail_file":"data/details/power-plants-29.json","plant_id":"1728","capacity_mw":142.2,"status_group":"Operating","energy_sources":"NG","type":"Power plant","is_nuclear":false}},{"type":"Feature","geometry":{"type":"Point","coordinates":[-83.333,43.04]},"properties":{"key":"60346-3da3da11","layer":"power","name":"Demille Solar Farm","state":"MI","detail_file":"data/details/power-plants-24.json","plant_id":"60346","capacity_mw":28.4,"status_group":"Operating","energy_sources":"SUN","type":"Power plant","is_nuclear":false}},{"type":"Feature","geometry":{"type":"Point","coordinates":[-83.68,42.323]},"properties":{"key":"60017-763aeee0","layer":"power","name":"Domino Farms Solar","state":"MI","detail_file":"data/details/power-plants-50.json","plant_id":"60017","capacity_mw":1.0,"status_group":"Operating","energy_sources":"SUN","type":"Power plant","is_nuclear":false}},{"type":"Feature","geometry":{"type":"Point","coordinates":[-82.438,42.99]},"properties":{"key":"58222-d949b19d","layer":"power","name":"E.B. Eddy Paper Inc","state":"MI","detail_file":"data/details/power-plants-27.json","plant_id":"58222","capacity_mw":5.0,"status_group":"Operating","energy_sources":"NG","type":"Power plant","is_nuclear":false}},{"type":"Feature","geometry":{"type":"Point","coordinates":[-83.263,42.722]},"properties":{"key":"57405-5e52cf9f","layer":"power","name":"Eagle Valley (MI)","state":"MI","detail_file":"data/details/power-plants-08.json","plant_id":"57405","capacity_mw":3.2,"status_group":"Operating","energy_sources":"LFG","type":"Power plant","is_nuclear":false}},{"type":"Feature","geometry":{"type":"Point","coordinates":[-83.629,42.249]},"properties":{"key":"59452-e01fe9be","layer":"power","name":"East. Michigan Univ. Heating Plant","state":"MI","detail_file":"data/details/power-plants-20.json","plant_id":"59452","capacity_mw":7.8,"status_group":"Operating","energy_sources":"NG","type":"Power plant","is_nuclear":false}},{"type":"Feature","geometry":{"type":"Point","coordinates":[-83.161,43.883]},"properties":{"key":"58121-122aa1ce","layer":"power","name":"Echo Wind Park","state":"MI","detail_file":"data/details/power-plants-23.json","plant_id":"58121","capacity_mw":162.0,"status_group":"Operating","energy_sources":"WND","type":"Power plant","is_nuclear":false}},{"type":"Feature","geometry":{"type":"Point","coordinates":[-83.258,41.963]},"properties":{"key":"1729-104f20ff","layer":"power","name":"Fermi","state":"MI","detail_file":"data/details/power-plants-09.json","plant_id":"1729","capacity_mw":1281.0,"status_group":"Operating","energy_sources":"DFO; NUC","type":"Nuclear power plant","is_nuclear":true}},{"type":"Feature","geometry":{"type":"Point","coordinates":[-83.441,42.214]},"properties":{"key":"50437-376d8f35","layer":"power","name":"French Landing Dam","state":"MI","detail_file":"data/details/power-plants-43.json","plant_id":"50437","capacity_mw":1.6,"status_group":"Operating","energy_sources":"WAT","type":"Power plant","is_nuclear":false}},{"type":"Feature","geometry":{"type":"Point","coordinates":[-83.558,42.395]},"properties":{"key":"55596-5d38ac7c","layer":"power","name":"GRS Arbor Hills","state":"MI","detail_file":"data/details/power-plants-27.json","plant_id":"55596","capacity_mw":30.3,"status_group":"Operating","energy_sources":"LFG","type":"Power plant","is_nuclear":false}},{"type":"Feature","geometry":{"type":"Point","coordinates":[-83.669,43.085]},"properties":{"key":"54751-c89c0f8a","layer":"power","name":"Genesee Power Station LP","state":"MI","detail_file":"data/details/power-plants-39.json","plant_id":"54751","capacity_mw":39.5,"status_group":"Operating","energy_sources":"WDS","type":"Power plant","is_nuclear":false}},{"type":"Feature","geometry":{"type":"Point","coordinates":[-83.665,43.086]},"properties":{"key":"66756-83e1a2fc","layer":"power","name":"Genesee Solar Project","state":"MI","detail_file":"data/details/power-plants-19.json","plant_id":"66756","capacity_mw":40.8,"status_group":"Operating","energy_sources":"SUN","type":"Power plant","is_nuclear":false}},{"type":"Feature","geometry":{"type":"Point","coordinates":[-83.725,42.909]},"properties":{"key":"54757-c9d3de40","layer":"power","name":"Grand Blanc Generating Station","state":"MI","detail_file":"data/details/power-plants-05.json","plant_id":"54757","capacity_mw":7.2,"status_group":"Operating","energy_sources":"LFG","type":"Power plant","is_nuclear":false}},{"type":"Feature","geometry":{"type":"Point","coordinates":[-82.696,43.106]},"properties":{"key":"6035-073f12a0","layer":"power","name":"Greenwood (MI)","state":"MI","detail_file":"data/details/power-plants-26.json","plant_id":"6035","capacity_mw":1071.3,"status_group":"Operating","energy_sources":"NG","type":"Power plant","is_nuclear":false}},{"type":"Feature","geometry":{"type":"Point","coordinates":[-82.696,43.106]},"properties":{"key":"60019-ff15dfbe","layer":"power","name":"Greenwood Solar Farm","state":"MI","detail_file":"data/details/power-plants-54.json","plant_id":"60019","capacity_mw":1.4,"status_group":"Operating","energy_sources":"SUN","type":"Power plant","is_nuclear":false}},{"type":"Feature","geometry":{"type":"Point","coordinates":[-83.442,42.55]},"properties":{"key":"1730-7a349384","layer":"power","name":"Hancock","state":"MI","detail_file":"data/details/power-plants-17.json","plant_id":"1730","capacity_mw":121.6,"status_group":"Operating","energy_sources":"NG","type":"Power plant","is_nuclear":false}},{"type":"Feature","geometry":{"type":"Point","coordinates":[-83.206,43.83]},"properties":{"key":"56635-31f7e5c4","layer":"power","name":"Harvest","state":"MI","detail_file":"data/details/power-plants-25.json","plant_id":"56635","capacity_mw":52.8,"status_group":"Operating","energy_sources":"WND","type":"Power plant","is_nuclear":false}},{"type":"Feature","geometry":{"type":"Point","coordinates":[-83.167,43.856]},"properties":{"key":"57888-eee72b69","layer":"power","name":"Harvest 2","state":"MI","detail_file":"data/details/power-plants-33.json","plant_id":"57888","capacity_mw":59.4,"status_group":"Operating","energy_sources":"WND","type":"Power plant","is_nuclear":false}},{"type":"Feature","geometry":{"type":"Point","coordinates":[-83.889,41.983]},"properties":{"key":"64496-79faceaa","layer":"power","name":"Hendershot Solar, LLC","state":"MI","detail_file":"data/details/power-plants-48.json","plant_id":"64496","capacity_mw":2.0,"status_group":"Operating","energy_sources":"SUN","type":"Power plant","is_nuclear":false}},{"type":"Feature","geometry":{"type":"Point","coordinates":[-83.9,43.595]},"properties":{"key":"7399-fbe52ca7","layer":"power","name":"Henry Station","state":"MI","detail_file":"data/details/power-plants-35.json","plant_id":"7399","capacity_mw":15.4,"status_group":"Operating","energy_sources":"NG","type":"Power plant","is_nuclear":false}},{"type":"Feature","geometry":{"type":"Point","coordinates":[-83.429,42.323]},"properties":{"key":"62677-fcfd1d2b","layer":"power","name":"IKEA Canton Rooftop PV System","state":"MI","detail_file":"data/details/power-plants-29.json","plant_id":"62677","capacity_mw":1.0,"status_group":"Operating","energy_sources":"SUN","type":"Power plant","is_nuclear":false}},{"type":"Feature","geometry":{"type":"Point","coordinates":[-83.771,43.1]},"properties":{"key":"64470-a9a6ae59","layer":"power","name":"Interchange Solar, LLC","state":"MI","detail_file":"data/details/power-plants-20.json","plant_id":"64470","capacity_mw":2.0,"status_group":"Operating","energy_sources":"SUN","type":"Power plant","is_nuclear":false}},{"type":"Feature","geometry":{"type":"Point","coordinates":[-83.679,43.149]},"properties":{"key":"64460-23906559","layer":"power","name":"Jack Francis Solar, LLC","state":"MI","detail_file":"data/details/power-plants-62.json","plant_id":"64460","capacity_mw":2.0,"status_group":"Operating","energy_sources":"SUN","type":"Power plant","is_nuclear":false}},{"type":"Feature","geometry":{"type":"Point","coordinates":[-83.84,43.645]},"properties":{"key":"67998-fcc11e55","layer":"power","name":"Karn Solar Energy Center","state":"MI","detail_file":"data/details/power-plants-06.json","plant_id":"67998","capacity_mw":80.0,"status_group":"Under construction","energy_sources":"SUN","type":"Power plant","is_nuclear":false}},{"type":"Feature","geometry":{"type":"Point","coordinates":[-82.687,43.085]},"properties":{"key":"66745-015a1dbd","layer":"power","name":"Lake Iris Solar Project","state":"MI","detail_file":"data/details/power-plants-03.json","plant_id":"66745","capacity_mw":95.6,"status_group":"Under construction","energy_sources":"SUN","type":"Power plant","is_nuclear":false}},{"type":"Feature","geometry":{"type":"Point","coordinates":[-83.979,42.982]},"properties":{"key":"59436-7d810585","layer":"power","name":"Lennon Generating","state":"MI","detail_file":"data/details/power-plants-52.json","plant_id":"59436","capacity_mw":6.4,"status_group":"Operating","energy_sources":"LFG","type":"Power plant","is_nuclear":false}},{"type":"Feature","geometry":{"type":"Point","coordinates":[-82.619,43.266]},"properties":{"key":"57950-adfcb7e4","layer":"power","name":"MSC Croswell","state":"MI","detail_file":"data/details/power-plants-10.json","plant_id":"57950","capacity_mw":1.3,"status_group":"Operating","energy_sources":"NG","type":"Power plant","is_nuclear":false}},{"type":"Feature","geometry":{"type":"Point","coordinates":[-83.447,43.741]},"properties":{"key":"57949-a5f7217e","layer":"power","name":"MSC Sebewaing","state":"MI","detail_file":"data/details/power-plants-59.json","plant_id":"57949","capacity_mw":2.5,"status_group":"Operating","energy_sources":"BIT","type":"Power plant","is_nuclear":false}},{"type":"Feature","geometry":{"type":"Point","coordinates":[-83.453,43.733]},"properties":{"key":"1853-9a979432","layer":"power","name":"Main Street (MI)","state":"MI","detail_file":"data/details/power-plants-07.json","plant_id":"1853","capacity_mw":6.0,"status_group":"Operating","energy_sources":"DFO","type":"Power plant","is_nuclear":false}},{"type":"Feature","geometry":{"type":"Point","coordinates":[-83.691,43.151]},"properties":{"key":"64461-bfd04632","layer":"power","name":"May Shannon Solar, LLC","state":"MI","detail_file":"data/details/power-plants-58.json","plant_id":"64461","capacity_mw":2.0,"status_group":"Operating","energy_sources":"SUN","type":"Power plant","is_nuclear":false}},{"type":"Feature","geometry":{"type":"Point","coordinates":[-83.241,43.872]},"properties":{"key":"57853-8b492d0b","layer":"power","name":"McKinley Wind Park","state":"MI","detail_file":"data/details/power-plants-13.json","plant_id":"57853","capacity_mw":14.4,"status_group":"Operating","energy_sources":"WND","type":"Power plant","is_nuclear":false}},{"type":"Feature","geometry":{"type":"Point","coordinates":[-82.963,43.709]},"properties":{"key":"56416-c06cbd8e","layer":"power","name":"Michigan Wind 1","state":"MI","detail_file":"data/details/power-plants-49.json","plant_id":"56416","capacity_mw":69.0,"status_group":"Operating","energy_sources":"WND","type":"Power plant","is_nuclear":false}},{"type":"Feature","geometry":{"type":"Point","coordinates":[-82.747,43.663]},"properties":{"key":"56659-b0976105","layer":"power","name":"Michigan Wind 2","state":"MI","detail_file":"data/details/power-plants-45.json","plant_id":"56659","capacity_mw":90.0,"status_group":"Operating","energy_sources":"WND","type":"Power plant","is_nuclear":false}},{"type":"Feature","geometry":{"type":"Point","coordinates":[-82.759,43.67]},"properties":{"key":"57852-fc782034","layer":"power","name":"Minden Wind Park","state":"MI","detail_file":"data/details/power-plants-22.json","plant_id":"57852","capacity_mw":32.0,"status_group":"Operating","energy_sources":"WND","type":"Power plant","is_nuclear":false}},{"type":"Feature","geometry":{"type":"Point","coordinates":[-83.346,41.891]},"properties":{"key":"1733-73b4af9c","layer":"power","name":"Monroe (MI)","state":"MI","detail_file":"data/details/power-plants-11.json","plant_id":"1733","capacity_mw":3293.1,"status_group":"Operating","energy_sources":"DFO; SUB","type":"Power plant","is_nuclear":false}},{"type":"Feature","geometry":{"type":"Point","coordinates":[-83.038,42.45]},"properties":{"key":"1734-d0d6af59","layer":"power","name":"Northeast (MI)","state":"MI","detail_file":"data/details/power-plants-31.json","plant_id":"1734","capacity_mw":113.8,"status_group":"Operating","energy_sources":"DFO; NG","type":"Power plant","is_nuclear":false}},{"type":"Feature","geometry":{"type":"Point","coordinates":[-83.2,42.378]},"properties":{"key":"60348-4ccaf755","layer":"power","name":"O'Shea Solar Farm","state":"MI","detail_file":"data/details/power-plants-25.json","plant_id":"60348","capacity_mw":2.0,"status_group":"Operating","energy_sources":"SUN","type":"Power plant","is_nuclear":false}},{"type":"Feature","geometry":{"type":"Point","coordinates":[-83.238,43.826]},"properties":{"key":"1735-59064bb6","layer":"power","name":"Oliver","state":"MI","detail_file":"data/details/power-plants-38.json","plant_id":"1735","capacity_mw":13.5,"status_group":"Operating","energy_sources":"DFO","type":"Power plant","is_nuclear":false}},{"type":"Feature","geometry":{"type":"Point","coordinates":[-83.412,43.473]},"properties":{"key":"63831-e4f3ee4e","layer":"power","name":"POET Biorefining Caro, LLC","state":"MI","detail_file":"data/details/power-plants-19.json","plant_id":"63831","capacity_mw":3.8,"status_group":"Operating","energy_sources":"NG","type":"Power plant","is_nuclear":false}},{"type":"Feature","geometry":{"type":"Point","coordinates":[-82.8,43.64]},"properties":{"key":"69467-6bb385ff","layer":"power","name":"Peatville Solar Park","state":"MI","detail_file":"data/details/power-plants-39.json","plant_id":"69467","capacity_mw":185.0,"status_group":"Under construction","energy_sources":"SUN","type":"Power plant","is_nuclear":false}},{"type":"Feature","geometry":{"type":"Point","coordinates":[-83.507,43.452]},"properties":{"key":"61916-f4ac0da0","layer":"power","name":"Pegasus Wind","state":"MI","detail_file":"data/details/power-plants-07.json","plant_id":"61916","capacity_mw":178.0,"status_group":"Operating","energy_sources":"WND","type":"Power plant","is_nuclear":false}},{"type":"Feature","geometry":{"type":"Point","coordinates":[-83.865,43.28]},"properties":{"key":"54890-a626bbc2","layer":"power","name":"Peoples Generating Station","state":"MI","detail_file":"data/details/power-plants-29.json","plant_id":"54890","capacity_mw":3.2,"status_group":"Operating","energy_sources":"LFG","type":"Power plant","is_nuclear":false}},{"type":"Feature","geometry":{"type":"Point","coordinates":[-83.298,43.758]},"properties":{"key":"58580-8e029f4f","layer":"power","name":"Pheasant Run Wind LLC","state":"MI","detail_file":"data/details/power-plants-30.json","plant_id":"58580","capacity_mw":74.8,"status_group":"Operating","energy_sources":"WND","type":"Power plant","is_nuclear":false}},{"type":"Feature","geometry":{"type":"Point","coordinates":[-83.949,43.898]},"properties":{"key":"56852-b118087c","layer":"power","name":"Pinconning White Feather","state":"MI","detail_file":"data/details/power-plants-48.json","plant_id":"56852","capacity_mw":3.2,"status_group":"Operating","energy_sources":"LFG","type":"Power plant","is_nuclear":false}},{"type":"Feature","geometry":{"type":"Point","coordinates":[-83.45,43.74]},"properties":{"key":"7806-2ca8cc84","layer":"power","name":"Pine Street","state":"MI","detail_file":"data/details/power-plants-07.json","plant_id":"7806","capacity_mw":7.7,"status_group":"Operating","energy_sources":"NG","type":"Power plant","is_nuclear":false}},{"type":"Feature","geometry":{"type":"Point","coordinates":[-82.747,42.764]},"properties":{"key":"54989-60c3a176","layer":"power","name":"Pine Tree Acres","state":"MI","detail_file":"data/details/power-plants-26.json","plant_id":"54989","capacity_mw":8.8,"status_group":"Operating","energy_sources":"LFG","type":"Power plant","is_nuclear":false}},{"type":"Feature","geometry":{"type":"Point","coordinates":[-82.746,42.765]},"properties":{"key":"57443-3720c47b","layer":"power","name":"Pine Tree Acres WM LFGTE","state":"MI","detail_file":"data/details/power-plants-35.json","plant_id":"57443","capacity_mw":12.8,"status_group":"Operating","energy_sources":"LFG","type":"Power plant","is_nuclear":false}},{"type":"Feature","geometry":{"type":"Point","coordinates":[-83.457,42.711]},"properties":{"key":"1737-59edadaf","layer":"power","name":"Placid 12","state":"MI","detail_file":"data/details/power-plants-02.json","plant_id":"1737","capacity_mw":13.5,"status_group":"Operating","energy_sources":"DFO","type":"Power plant","is_nuclear":false}},{"type":"Feature","geometry":{"type":"Point","coordinates":[-83.456,42.711]},"properties":{"key":"1739-b4482af7","layer":"power","name":"Putnam (MI)","state":"MI","detail_file":"data/details/power-plants-09.json","plant_id":"1739","capacity_mw":13.5,"status_group":"Operating","energy_sources":"DFO","type":"Power plant","is_nuclear":false}},{"type":"Feature","geometry":{"type":"Point","coordinates":[-83.213,42.166]},"properties":{"key":"54057-66629b40","layer":"power","name":"Riverview Energy Systems","state":"MI","detail_file":"data/details/power-plants-49.json","plant_id":"54057","capacity_mw":6.6,"status_group":"Operating","energy_sources":"LFG","type":"Power plant","is_nuclear":false}},{"type":"Feature","geometry":{"type":"Point","coordinates":[-82.784,43.851]},"properties":{"key":"57851-53c1aed0","layer":"power","name":"Sigel Wind Park","state":"MI","detail_file":"data/details/power-plants-23.json","plant_id":"57851","capacity_mw":64.0,"status_group":"Operating","energy_sources":"WND","type":"Power plant","is_nuclear":false}},{"type":"Feature","geometry":{"type":"Point","coordinates":[-83.055,43.837]},"properties":{"key":"69470-37d53b51","layer":"power","name":"Silver Creek Solar Park","state":"MI","detail_file":"data/details/power-plants-42.json","plant_id":"69470","capacity_mw":200.0,"status_group":"Under construction","energy_sources":"SUN","type":"Power plant","is_nuclear":false}},{"type":"Feature","geometry":{"type":"Point","coordinates":[-83.187,42.123]},"properties":{"key":"67758-e21d87fa","layer":"power","name":"Slocum Energy Storage","state":"MI","detail_file":"data/details/power-plants-26.json","plant_id":"67758","capacity_mw":14.0,"status_group":"Operating","energy_sources":"MWH","type":"Power plant","is_nuclear":false}},{"type":"Feature","geometry":{"type":"Point","coordinates":[-82.472,42.764]},"properties":{"key":"1743-04a44bd0","layer":"power","name":"St Clair","state":"MI","detail_file":"data/details/power-plants-30.json","plant_id":"1743","capacity_mw":18.5,"status_group":"Operating","energy_sources":"NG","type":"Power plant","is_nuclear":false}},{"type":"Feature","geometry":{"type":"Point","coordinates":[-83.997,43.507]},"properties":{"key":"64462-aa098469","layer":"power","name":"Stoneheart Solar, LLC","state":"MI","detail_file":"data/details/power-plants-03.json","plant_id":"64462","capacity_mw":2.0,"status_group":"Operating","energy_sources":"SUN","type":"Power plant","is_nuclear":false}},{"type":"Feature","geometry":{"type":"Point","coordinates":[-83.46,41.972]},"properties":{"key":"69775-ce160747","layer":"power","name":"Strasburg Solar Park","state":"MI","detail_file":"data/details/power-plants-60.json","plant_id":"69775","capacity_mw":100.0,"status_group":"Under construction","energy_sources":"SUN","type":"Power plant","is_nuclear":false}},{"type":"Feature","geometry":{"type":"Point","coordinates":[-83.532,42.167]},"properties":{"key":"7972-e766546f","layer":"power","name":"Sumpter","state":"MI","detail_file":"data/details/power-plants-43.json","plant_id":"7972","capacity_mw":340.0,"status_group":"Operating","energy_sources":"NG","type":"Power plant","is_nuclear":false}},{"type":"Feature","geometry":{"type":"Point","coordinates":[-83.499,42.106]},"properties":{"key":"54536-99f4ae7f","layer":"power","name":"Sumpter Energy Associates","state":"MI","detail_file":"data/details/power-plants-58.json","plant_id":"54536","capacity_mw":11.2,"status_group":"Operating","energy_sources":"LFG","type":"Power plant","is_nuclear":false}},{"type":"Feature","geometry":{"type":"Point","coordinates":[-83.642,42.264]},"properties":{"key":"1744-8538c141","layer":"power","name":"Superior","state":"MI","detail_file":"data/details/power-plants-43.json","plant_id":"1744","capacity_mw":64.0,"status_group":"Operating","energy_sources":"DFO","type":"Power plant","is_nuclear":false}},{"type":"Feature","geometry":{"type":"Point","coordinates":[-83.524,41.753]},"properties":{"key":"63322-06d7b0af","layer":"power","name":"Temperance Solar, LLC","state":"MI","detail_file":"data/details/power-plants-04.json","plant_id":"63322","capacity_mw":20.0,"status_group":"Operating","energy_sources":"SUN","type":"Power plant","is_nuclear":false}},{"type":"Feature","geometry":{"type":"Point","coordinates":[-83.186,42.124]},"properties":{"key":"67759-ee10f811","layer":"power","name":"Trenton Channel Energy Center","state":"MI","detail_file":"data/details/power-plants-43.json","plant_id":"67759","capacity_mw":220.0,"status_group":"Under construction","energy_sources":"MWH","type":"Power plant","is_nuclear":false}},{"type":"Feature","geometry":{"type":"Point","coordinates":[-83.309,43.035]},"properties":{"key":"60347-3409d865","layer":"power","name":"Turrill Solar Farm","state":"MI","detail_file":"data/details/power-plants-20.json","plant_id":"60347","capacity_mw":19.6,"status_group":"Operating","energy_sources":"SUN","type":"Power plant","is_nuclear":false}},{"type":"Feature","geometry":{"type":"Point","coordinates":[-83.65,43.525]},"properties":{"key":"58351-a5e0f072","layer":"power","name":"Tuscola Bay Wind","state":"MI","detail_file":"data/details/power-plants-18.json","plant_id":"58351","capacity_mw":120.0,"status_group":"Operating","energy_sources":"WND","type":"Power plant","is_nuclear":false}},{"type":"Feature","geometry":{"type":"Point","coordinates":[-83.567,43.527]},"properties":{"key":"58587-5fbf8083","layer":"power","name":"Tuscola Wind II LLC","state":"MI","detail_file":"data/details/power-plants-05.json","plant_id":"58587","capacity_mw":100.3,"status_group":"Operating","energy_sources":"WND","type":"Power plant","is_nuclear":false}},{"type":"Feature","geometry":{"type":"Point","coordinates":[-82.939,43.722]},"properties":{"key":"1875-b70cd797","layer":"power","name":"Ubly","state":"MI","detail_file":"data/details/power-plants-19.json","plant_id":"1875","capacity_mw":12.4,"status_group":"Operating","energy_sources":"DFO","type":"Power plant","is_nuclear":false}},{"type":"Feature","geometry":{"type":"Point","coordinates":[-83.735,42.281]},"properties":{"key":"50431-11493460","layer":"power","name":"University of Michigan","state":"MI","detail_file":"data/details/power-plants-57.json","plant_id":"50431","capacity_mw":60.0,"status_group":"Operating","energy_sources":"NG","type":"Power plant","is_nuclear":false}},{"type":"Feature","geometry":{"type":"Point","coordinates":[-83.976,42.985]},"properties":{"key":"54539-9ac3d676","layer":"power","name":"Venice Resources Gas Recovery","state":"MI","detail_file":"data/details/power-plants-33.json","plant_id":"54539","capacity_mw":1.6,"status_group":"Operating","energy_sources":"LFG","type":"Power plant","is_nuclear":false}},{"type":"Feature","geometry":{"type":"Point","coordinates":[-83.833,42.153]},"properties":{"key":"68426-bbf1bb52","layer":"power","name":"Voyager Energy Storage","state":"MI","detail_file":"data/details/power-plants-17.json","plant_id":"68426","capacity_mw":100.0,"status_group":"Under construction","energy_sources":"MWH","type":"Power plant","is_nuclear":false}},{"type":"Feature","geometry":{"type":"Point","coordinates":[-83.705,42.299]},"properties":{"key":"54604-81777169","layer":"power","name":"Warner Lambert","state":"MI","detail_file":"data/details/power-plants-35.json","plant_id":"54604","capacity_mw":12.4,"status_group":"Operating","energy_sources":"DFO; NG","type":"Power plant","is_nuclear":false}},{"type":"Feature","geometry":{"type":"Point","coordinates":[-83.897,43.583]},"properties":{"key":"7398-19ee43fc","layer":"power","name":"Water Street Station","state":"MI","detail_file":"data/details/power-plants-27.json","plant_id":"7398","capacity_mw":12.6,"status_group":"Operating","energy_sources":"NG","type":"Power plant","is_nuclear":false}},{"type":"Feature","geometry":{"type":"Point","coordinates":[-82.814,43.4]},"properties":{"key":"69945-12a87bef","layer":"power","name":"Watertown Solar","state":"MI","detail_file":"data/details/power-plants-34.json","plant_id":"69945","capacity_mw":154.0,"status_group":"Under construction","energy_sources":"SUN","type":"Power plant","is_nuclear":false}},{"type":"Feature","geometry":{"type":"Point","coordinates":[-83.654,42.126]},"properties":{"key":"67678-c2f79e8b","layer":"power","name":"White Tail Solar","state":"MI","detail_file":"data/details/power-plants-33.json","plant_id":"67678","capacity_mw":140.0,"status_group":"Operating","energy_sources":"SUN","type":"Power plant","is_nuclear":false}},{"type":"Feature","geometry":{"type":"Point","coordinates":[-83.189,43.457]},"properties":{"key":"1746-5ebc68e9","layer":"power","name":"Wilmot","state":"MI","detail_file":"data/details/power-plants-28.json","plant_id":"1746","capacity_mw":13.5,"status_group":"Operating","energy_sources":"DFO","type":"Power plant","is_nuclear":false}},{"type":"Feature","geometry":{"type":"Point","coordinates":[-83.145,42.208]},"properties":{"key":"1866-34f1bb05","layer":"power","name":"Wyandotte","state":"MI","detail_file":"data/details/power-plants-39.json","plant_id":"1866","capacity_mw":5.4,"status_group":"Operating","energy_sources":"DFO","type":"Power plant","is_nuclear":false}},{"type":"Feature","geometry":{"type":"Point","coordinates":[-83.483,40.438]},"properties":{"key":"64660-28d321d0","layer":"power","name":"AEUG Union Solar, LLC","state":"OH","detail_file":"data/details/power-plants-03.json","plant_id":"64660","capacity_mw":325.0,"status_group":"Operating","energy_sources":"SUN","type":"Power plant","is_nuclear":false}},{"type":"Feature","geometry":{"type":"Point","coordinates":[-81.569,41.153]},"properties":{"key":"58980-1d7ad01f","layer":"power","name":"Akron WRF","state":"OH","detail_file":"data/details/power-plants-49.json","plant_id":"58980","capacity_mw":1.8,"status_group":"Operating","energy_sources":"OBG","type":"Power plant","is_nuclear":false}},{"type":"Feature","geometry":{"type":"Point","coordinates":[-83.575,41.627]},"properties":{"key":"59489-7f0bbf72","layer":"power","name":"Anthony Wayne Solar #1","state":"OH","detail_file":"data/details/power-plants-16.json","plant_id":"59489","capacity_mw":1.7,"status_group":"Operating","energy_sources":"SUN","type":"Power plant","is_nuclear":false}},{"type":"Feature","geometry":{"type":"Point","coordinates":[-80.761,41.89]},"properties":{"key":"55990-8b1a06a5","layer":"power","name":"Ashtabula","state":"OH","detail_file":"data/details/power-plants-50.json","plant_id":"55990","capacity_mw":26.1,"status_group":"Operating","energy_sources":"NG","type":"Power plant","is_nuclear":false}},{"type":"Feature","geometry":{"type":"Point","coordinates":[-83.485,41.688]},"properties":{"key":"58269-3d43e329","layer":"power","name":"Bay View Backup Power Facility","state":"OH","detail_file":"data/details/power-plants-61.json","plant_id":"58269","capacity_mw":12.0,"status_group":"Operating","energy_sources":"DFO; NG","type":"Power plant","is_nuclear":false}},{"type":"Feature","geometry":{"type":"Point","coordinates":[-83.485,41.688]},"properties":{"key":"58263-9671ee59","layer":"power","name":"Bay View Cogeneration Facility","state":"OH","detail_file":"data/details/power-plants-57.json","plant_id":"58263","capacity_mw":12.0,"status_group":"Operating","energy_sources":"LFG","type":"Power plant","is_nuclear":false}},{"type":"Feature","geometry":{"type":"Point","coordinates":[-83.572,41.107]},"properties":{"key":"68968-d10e500f","layer":"power","name":"Border Basin Solar","state":"OH","detail_file":"data/details/power-plants-62.json","plant_id":"68968","capacity_mw":120.0,"status_group":"Under construction","energy_sources":"SUN","type":"Power plant","is_nuclear":false}},{"type":"Feature","geometry":{"type":"Point","coordinates":[-83.611,41.383]},"properties":{"key":"65951-5dd626d5","layer":"power","name":"Bowling Green Energy Storage Project","state":"OH","detail_file":"data/details/power-plants-31.json","plant_id":"65951","capacity_mw":12.0,"status_group":"Operating","energy_sources":"MWH","type":"Power plant","is_nuclear":false}},{"type":"Feature","geometry":{"type":"Point","coordinates":[-83.641,41.397]},"properties":{"key":"55262-dbba26a2","layer":"power","name":"Bowling Green Generating Station","state":"OH","detail_file":"data/details/power-plants-32.json","plant_id":"55262","capacity_mw":49.5,"status_group":"Operating","energy_sources":"NG","type":"Power plant","is_nuclear":false}},{"type":"Feature","geometry":{"type":"Point","coordinates":[-83.64,41.388]},"properties":{"key":"7783-2230c6c9","layer":"power","name":"Bowling Green Peaking","state":"OH","detail_file":"data/details/power-plants-31.json","plant_id":"7783","capacity_mw":32.0,"status_group":"Operating","energy_sources":"NG","type":"Power plant","is_nuclear":false}},{"type":"Feature","geometry":{"type":"Point","coordinates":[-82.569,40.776]},"properties":{"key":"59373-a15f2e63","layer":"power","name":"Broshco Fabricated Products","state":"OH","detail_file":"data/details/power-plants-47.json","plant_id":"59373","capacity_mw":4.7,"status_group":"Operating","energy_sources":"NG","type":"Power plant","is_nuclear":false}},{"type":"Feature","geometry":{"type":"Point","coordinates":[-83.554,41.06]},"properties":{"key":"67084-fe36bf85","layer":"power","name":"Buckeye Power Inc.","state":"OH","detail_file":"data/details/power-plants-18.json","plant_id":"67084","capacity_mw":2.0,"status_group":"Operating","energy_sources":"SUN","type":"Power plant","is_nuclear":false}},{"type":"Feature","geometry":{"type":"Point","coordinates":[-83.437,40.378]},"properties":{"key":"68431-06b3dac8","layer":"power","name":"Cadence Solar Energy Center","state":"OH","detail_file":"data/details/power-plants-48.json","plant_id":"68431","capacity_mw":240.0,"status_group":"Operating","energy_sources":"SUN","type":"Power plant","is_nuclear":false}},{"type":"Feature","geometry":{"type":"Point","coordinates":[-80.649,40.252]},"properties":{"key":"2828-8e8bc693","layer":"power","name":"Cardinal","state":"OH","detail_file":"data/details/power-plants-31.json","plant_id":"2828","capacity_mw":1880.4,"status_group":"Operating","energy_sources":"BIT","type":"Power plant","is_nuclear":false}},{"type":"Feature","geometry":{"type":"Point","coordinates":[-81.059,40.604]},"properties":{"key":"59773-7edab6d7","layer":"power","name":"Carroll County Energy","state":"OH","detail_file":"data/details/power-plants-42.json","plant_id":"59773","capacity_mw":832.3,"status_group":"Operating","energy_sources":"NG","type":"Power plant","is_nuclear":false}},{"type":"Feature","geometry":{"type":"Point","coordinates":[-83.984,40.269]},"properties":{"key":"67935-9abdf29e","layer":"power","name":"Clearview Solar 1","state":"OH","detail_file":"data/details/power-plants-62.json","plant_id":"67935","capacity_mw":144.0,"status_group":"Operating","energy_sources":"SUN","type":"Power plant","is_nuclear":false}},{"type":"Feature","geometry":{"type":"Point","coordinates":[-81.588,41.557]},"properties":{"key":"7774-745efd17","layer":"power","name":"Cleveland Peaking","state":"OH","detail_file":"data/details/power-plants-24.json","plant_id":"7774","capacity_mw":10.8,"status_group":"Operating","energy_sources":"DFO","type":"Power plant","is_nuclear":false}},{"type":"Feature","geometry":{"type":"Point","coordinates":[-81.682,41.509]},"properties":{"key":"61838-aae2d81e","layer":"power","name":"Cleveland Thermal","state":"OH","detail_file":"data/details/power-plants-44.json","plant_id":"61838","capacity_mw":1.0,"status_group":"Operating","energy_sources":"NG","type":"Power plant","is_nuclear":false}},{"type":"Feature","geometry":{"type":"Point","coordinates":[-81.673,41.474]},"properties":{"key":"10398-039ebf9a","layer":"power","name":"Cleveland Works","state":"OH","detail_file":"data/details/power-plants-42.json","plant_id":"10398","capacity_mw":102.0,"status_group":"Operating","energy_sources":"BFG","type":"Power plant","is_nuclear":false}},{"type":"Feature","geometry":{"type":"Point","coordinates":[-80.818,41.212]},"properties":{"key":"54207-3e15d6a3","layer":"power","name":"Clevelandcliffs Warren","state":"OH","detail_file":"data/details/power-plants-63.json","plant_id":"54207","capacity_mw":13.0,"status_group":"Operating","energy_sources":"OG","type":"Power plant","is_nuclear":false}},{"type":"Feature","geometry":{"type":"Point","coordinates":[-82.965,41.293]},"properties":{"key":"64157-d2454caf","layer":"power","name":"Clyde Peaking Engine","state":"OH","detail_file":"data/details/power-plants-33.json","plant_id":"64157","capacity_mw":10.0,"status_group":"Operating","energy_sources":"NG","type":"Power plant","is_nuclear":false}},{"type":"Feature","geometry":{"type":"Point","coordinates":[-82.984,41.319]},"properties":{"key":"60923-270003e0","layer":"power","name":"Clyde Solar Array","state":"OH","detail_file":"data/details/power-plants-32.json","plant_id":"60923","capacity_mw":2.8,"status_group":"Operating","energy_sources":"SUN","type":"Power plant","is_nuclear":false}},{"type":"Feature","geometry":{"type":"Point","coordinates":[-81.588,41.557]},"properties":{"key":"2906-35ae1d8d","layer":"power","name":"Collinwood","state":"OH","detail_file":"data/details/power-plants-10.json","plant_id":"2906","capacity_mw":16.0,"status_group":"Operating","energy_sources":"DFO","type":"Power plant","is_nuclear":false}},{"type":"Feature","geometry":{"type":"Point","coordinates":[-81.589,41.556]},"properties":{"key":"58439-ae0fbd74","layer":"power","name":"Collinwood BioEnergy Facility","state":"OH","detail_file":"data/details/power-plants-02.json","plant_id":"58439","capacity_mw":1.0,"status_group":"Operating","energy_sources":"OBG","type":"Power plant","is_nuclear":false}},{"type":"Feature","geometry":{"type":"Point","coordinates":[-81.752,41.443]},"properties":{"key":"62041-e726ff87","layer":"power","name":"Cuyahoga County Landfill","state":"OH","detail_file":"data/details/power-plants-15.json","plant_id":"62041","capacity_mw":3.7,"status_group":"Operating","energy_sources":"SUN","type":"Power plant","is_nuclear":false}},{"type":"Feature","geometry":{"type":"Point","coordinates":[-81.475,41.142]},"properties":{"key":"62658-6b365758","layer":"power","name":"Cuyahoga Falls 1","state":"OH","detail_file":"data/details/power-plants-47.json","plant_id":"62658","capacity_mw":14.4,"status_group":"Operating","energy_sources":"DFO","type":"Power plant","is_nuclear":false}},{"type":"Feature","geometry":{"type":"Point","coordinates":[-81.475,41.38]},"properties":{"key":"69146-f8575fe8","layer":"power","name":"Cuyahoga Generating Facility","state":"OH","detail_file":"data/details/power-plants-51.json","plant_id":"69146","capacity_mw":3.2,"status_group":"Operating","energy_sources":"LFG","type":"Power plant","is_nuclear":false}},{"type":"Feature","geometry":{"type":"Point","coordinates":[-81.764,41.013]},"properties":{"key":"62942-3e51f35f","layer":"power","name":"DG AMP 1048 Wadsworth","state":"OH","detail_file":"data/details/power-plants-12.json","plant_id":"62942","capacity_mw":6.3,"status_group":"Operating","energy_sources":"SUN","type":"Power plant","is_nuclear":false}},{"type":"Feature","geometry":{"type":"Point","coordinates":[-81.751,41.001]},"properties":{"key":"62941-5550ece5","layer":"power","name":"DG AMP Rittman Rd","state":"OH","detail_file":"data/details/power-plants-32.json","plant_id":"62941","capacity_mw":2.6,"status_group":"Operating","energy_sources":"SUN","type":"Power plant","is_nuclear":false}},{"type":"Feature","geometry":{"type":"Point","coordinates":[-83.582,41.396]},"properties":{"key":"60622-b246e74a","layer":"power","name":"DG AMP Solar Bowling Green","state":"OH","detail_file":"data/details/power-plants-12.json","plant_id":"60622","capacity_mw":20.0,"status_group":"Operating","energy_sources":"SUN","type":"Power plant","is_nuclear":false}},{"type":"Feature","geometry":{"type":"Point","coordinates":[-81.59,40.702]},"properties":{"key":"61818-a8039432","layer":"power","name":"DG AMP Solar Brewster","state":"OH","detail_file":"data/details/power-plants-62.json","plant_id":"61818","capacity_mw":1.9,"status_group":"Operating","energy_sources":"SUN","type":"Power plant","is_nuclear":false}},{"type":"Feature","geometry":{"type":"Point","coordinates":[-81.759,40.856]},"properties":{"key":"61436-b517c236","layer":"power","name":"DG AMP Solar Orrville 3","state":"OH","detail_file":"data/details/power-plants-39.json","plant_id":"61436","capacity_mw":2.3,"status_group":"Operating","energy_sources":"SUN","type":"Power plant","is_nuclear":false}},{"type":"Feature","geometry":{"type":"Point","coordinates":[-83.086,41.597]},"properties":{"key":"6149-70bbcfef","layer":"power","name":"Davis Besse","state":"OH","detail_file":"data/details/power-plants-42.json","plant_id":"6149","capacity_mw":925.2,"status_group":"Operating","energy_sources":"NUC","type":"Nuclear power plant","is_nuclear":true}},{"type":"Feature","geometry":{"type":"Point","coordinates":[-82.518,40.073]},"properties":{"key":"61637-0ec8fa48","layer":"power","name":"Denison Solar Array","state":"OH","detail_file":"data/details/power-plants-28.json","plant_id":"61637","capacity_mw":1.9,"status_group":"Operating","energy_sources":"SUN","type":"Power plant","is_nuclear":false}},{"type":"Feature","geometry":{"type":"Point","coordinates":[-81.468,40.52]},"properties":{"key":"2914-9ca293c1","layer":"power","name":"Dover (OH)","state":"OH","detail_file":"data/details/power-plants-50.json","plant_id":"2914","capacity_mw":49.6,"status_group":"Operating","energy_sources":"BIT; DFO; NG","type":"Power plant","is_nuclear":false}},{"type":"Feature","geometry":{"type":"Point","coordinates":[-81.499,40.542]},"properties":{"key":"7777-ab3ccd99","layer":"power","name":"Dover Peaking","state":"OH","detail_file":"data/details/power-plants-12.json","plant_id":"7777","capacity_mw":10.8,"status_group":"Operating","energy_sources":"DFO","type":"Power plant","is_nuclear":false}},{"type":"Feature","geometry":{"type":"Point","coordinates":[-82.028,40.093]},"properties":{"key":"55350-b33c160a","layer":"power","name":"Dresden Energy Facility","state":"OH","detail_file":"data/details/power-plants-26.json","plant_id":"55350","capacity_mw":678.3,"status_group":"Operating","energy_sources":"NG","type":"Power plant","is_nuclear":false}},{"type":"Feature","geometry":{"type":"Point","coordinates":[-83.409,41.066]},"properties":{"key":"67027-5c623f70","layer":"power","name":"Energy Developments, Hancock","state":"OH","detail_file":"data/details/power-plants-45.json","plant_id":"67027","capacity_mw":3.2,"status_group":"Operating","energy_sources":"LFG","type":"Power plant","is_nuclear":false}},{"type":"Feature","geometry":{"type":"Point","coordinates":[-81.497,41.602]},"properties":{"key":"59024-ea6ec35b","layer":"power","name":"Euclid Farm, Stamco N-54","state":"OH","detail_file":"data/details/power-plants-59.json","plant_id":"59024","capacity_mw":1.0,"status_group":"Operating","energy_sources":"WND","type":"Power plant","is_nuclear":false}},{"type":"Feature","geometry":{"type":"Point","coordinates":[-83.644,41.101]},"properties":{"key":"60015-de87a1dc","layer":"power","name":"Findlay Wind Farm","state":"OH","detail_file":"data/details/power-plants-27.json","plant_id":"60015","capacity_mw":3.0,"status_group":"Operating","energy_sources":"WND","type":"Power plant","is_nuclear":false}},{"type":"Feature","geometry":{"type":"Point","coordinates":[-82.779,41.21]},"properties":{"key":"68186-312b0503","layer":"power","name":"Firelands Wind","state":"OH","detail_file":"data/details/power-plants-16.json","plant_id":"68186","capacity_mw":297.0,"status_group":"Under construction","energy_sources":"WND","type":"Power plant","is_nuclear":false}},{"type":"Feature","geometry":{"type":"Point","coordinates":[-83.438,41.692]},"properties":{"key":"2878-f193dcaa","layer":"power","name":"FirstEnergy Bay Shore","state":"OH","detail_file":"data/details/power-plants-33.json","plant_id":"2878","capacity_mw":187.0,"status_group":"Operating","energy_sources":"DFO; PC","type":"Power plant","is_nuclear":false}},{"type":"Feature","geometry":{"type":"Point","coordinates":[-82.734,40.096]},"properties":{"key":"68911-303f303a","layer":"power","name":"Flint","state":"OH","detail_file":"data/details/power-plants-32.json","plant_id":"68911","capacity_mw":200.0,"status_group":"Under construction","energy_sources":"MWH","type":"Power plant","is_nuclear":false}},{"type":"Feature","geometry":{"type":"Point","coordinates":[-83.161,41.377]},"properties":{"key":"55701-dfefdfb9","layer":"power","name":"Fremont Energy Center","state":"OH","detail_file":"data/details/power-plants-62.json","plant_id":"55701","capacity_mw":739.5,"status_group":"Operating","energy_sources":"NG","type":"Power plant","is_nuclear":false}},{"type":"Feature","geometry":{"type":"Point","coordinates":[-82.794,40.73]},"properties":{"key":"7918-bf3e02e3","layer":"power","name":"Galion","state":"OH","detail_file":"data/details/power-plants-57.json","plant_id":"7918","capacity_mw":5.4,"status_group":"Operating","energy_sources":"DFO","type":"Power plant","is_nuclear":false}},{"type":"Feature","geometry":{"type":"Point","coordinates":[-82.789,40.717]},"properties":{"key":"55263-b979f249","layer":"power","name":"Galion Generating Station","state":"OH","detail_file":"data/details/power-plants-06.json","plant_id":"55263","capacity_mw":49.5,"status_group":"Operating","energy_sources":"NG","type":"Power plant","is_nuclear":false}},{"type":"Feature","geometry":{"type":"Point","coordinates":[-80.91,41.795]},"properties":{"key":"57410-375a876b","layer":"power","name":"Geneva","state":"OH","detail_file":"data/details/power-plants-60.json","plant_id":"57410","capacity_mw":4.0,"status_group":"Operating","energy_sources":"LFG","type":"Power plant","is_nuclear":false}},{"type":"Feature","geometry":{"type":"Point","coordinates":[-83.361,41.509]},"properties":{"key":"56181-975c30e7","layer":"power","name":"Genoa Diesel Generating Station","state":"OH","detail_file":"data/details/power-plants-46.json","plant_id":"56181","capacity_mw":6.0,"status_group":"Operating","energy_sources":"DFO","type":"Power plant","is_nuclear":false}},{"type":"Feature","geometry":{"type":"Point","coordinates":[-83.792,40.632]},"properties":{"key":"63828-f8d55595","layer":"power","name":"Hardin Solar Energy II LLC","state":"OH","detail_file":"data/details/power-plants-14.json","plant_id":"63828","capacity_mw":150.0,"status_group":"Operating","energy_sources":"SUN","type":"Power plant","is_nuclear":false}},{"type":"Feature","geometry":{"type":"Point","coordinates":[-83.814,40.66]},"properties":{"key":"63029-c74a6783","layer":"power","name":"Hardin Solar Energy LLC","state":"OH","detail_file":"data/details/power-plants-02.json","plant_id":"63029","capacity_mw":150.0,"status_group":"Operating","energy_sources":"SUN","type":"Power plant","is_nuclear":false}},{"type":"Feature","geometry":{"type":"Point","coordinates":[-83.794,40.682]},"properties":{"key":"68591-63289287","layer":"power","name":"Hardin Solar III","state":"OH","detail_file":"data/details/power-plants-47.json","plant_id":"68591","capacity_mw":250.0,"status_group":"Operating","energy_sources":"SUN","type":"Power plant","is_nuclear":false}},{"type":"Feature","geometry":{"type":"Point","coordinates":[-83.229,40.718]},"properties":{"key":"60126-7002504c","layer":"power","name":"Harpster Wind","state":"OH","detail_file":"data/details/power-plants-45.json","plant_id":"60126","capacity_mw":1.5,"status_group":"Operating","energy_sources":"WND","type":"Power plant","is_nuclear":false}},{"type":"Feature","geometry":{"type":"Point","coordinates":[-82.72,40.273]},"properties":{"key":"69796-c42d02ed","layer":"power","name":"Harvey Solar","state":"OH","detail_file":"data/details/power-plants-41.json","plant_id":"69796","capacity_mw":350.0,"status_group":"Under construction","energy_sources":"SUN","type":"Power plant","is_nuclear":false}},{"type":"Feature","geometry":{"type":"Point","coordinates":[-83.729,40.793]},"properties":{"key":"61330-dfba8278","layer":"power","name":"Hog Creek Wind Project","state":"OH","detail_file":"data/details/power-plants-07.json","plant_id":"61330","capacity_mw":66.0,"status_group":"Operating","energy_sources":"WND","type":"Power plant","is_nuclear":false}},{"type":"Feature","geometry":{"type":"Point","coordinates":[-81.582,41.05]},"properties":{"key":"65985-b9cf36f1","layer":"power","name":"IGS AKC1","state":"OH","detail_file":"data/details/power-plants-33.json","plant_id":"65985","capacity_mw":3.8,"status_group":"Operating","energy_sources":"SUN","type":"Power plant","is_nuclear":false}},{"type":"Feature","geometry":{"type":"Point","coordinates":[-83.579,41.549]},"properties":{"key":"66069-ad467812","layer":"power","name":"IGS PCW1","state":"OH","detail_file":"data/details/power-plants-19.json","plant_id":"66069","capacity_mw":3.1,"status_group":"Operating","energy_sources":"SUN","type":"Power plant","is_nuclear":false}},{"type":"Feature","geometry":{"type":"Point","coordinates":[-83.816,41.344]},"properties":{"key":"68938-93b632e0","layer":"power","name":"Juliet Energy Project, LLC","state":"OH","detail_file":"data/details/power-plants-63.json","plant_id":"68938","capacity_mw":50.0,"status_group":"Under construction","energy_sources":"SUN","type":"Power plant","is_nuclear":false}},{"type":"Feature","geometry":{"type":"Point","coordinates":[-81.322,41.133]},"properties":{"key":"70214-23a0a59d","layer":"power","name":"KSU Solar Array","state":"OH","detail_file":"data/details/power-plants-01.json","plant_id":"70214","capacity_mw":7.4,"status_group":"Operating","energy_sources":"MWH; SUN","type":"Power plant","is_nuclear":false}},{"type":"Feature","geometry":{"type":"Point","coordinates":[-80.837,41.279]},"properties":{"key":"65691-45f7f803","layer":"power","name":"KSU Trumbull","state":"OH","detail_file":"data/details/power-plants-45.json","plant_id":"65691","capacity_mw":1.0,"status_group":"Operating","energy_sources":"SUN","type":"Power plant","is_nuclear":false}},{"type":"Feature","geometry":{"type":"Point","coordinates":[-82.46,40.04]},"properties":{"key":"70217-3bc293a5","layer":"power","name":"Kroger","state":"OH","detail_file":"data/details/power-plants-15.json","plant_id":"70217","capacity_mw":1.5,"status_group":"Operating","energy_sources":"NG","type":"Power plant","is_nuclear":false}},{"type":"Feature","geometry":{"type":"Point","coordinates":[-81.526,41.584]},"properties":{"key":"57613-38ec2c2e","layer":"power","name":"LE Wind Turbine 1","state":"OH","detail_file":"data/details/power-plants-42.json","plant_id":"57613","capacity_mw":2.5,"status_group":"Operating","energy_sources":"WND","type":"Power plant","is_nuclear":false}},{"type":"Feature","geometry":{"type":"Point","coordinates":[-81.36,41.303]},"properties":{"key":"69593-5602af7d","layer":"power","name":"MCCo BESS Generating Facility","state":"OH","detail_file":"data/details/power-plants-61.json","plant_id":"69593","capacity_mw":3.6,"status_group":"Operating","energy_sources":"DFO","type":"Power plant","is_nuclear":false}},{"type":"Feature","geometry":{"type":"Point","coordinates":[-81.36,41.303]},"properties":{"key":"69593-1a8c3290","layer":"power","name":"MCCo BESS Generating Facility","state":"OH","detail_file":"data/details/power-plants-14.json","plant_id":"69593","capacity_mw":15.6,"status_group":"Under construction","energy_sources":"MWH","type":"Power plant","is_nuclear":false}},{"type":"Feature","geometry":{"type":"Point","coordinates":[-81.597,41.516]},"properties":{"key":"59324-39fad261","layer":"power","name":"MCCo Solar Generating Facility","state":"OH","detail_file":"data/details/power-plants-23.json","plant_id":"59324","capacity_mw":1.0,"status_group":"Operating","energy_sources":"SUN","type":"Power plant","is_nuclear":false}},{"type":"Feature","geometry":{"type":"Point","coordinates":[-83.469,40.097]},"properties":{"key":"66198-9efd1d78","layer":"power","name":"Madison Fields Solar Project, LLC","state":"OH","detail_file":"data/details/power-plants-00.json","plant_id":"66198","capacity_mw":180.0,"status_group":"Operating","energy_sources":"SUN","type":"Power plant","is_nuclear":false}},{"type":"Feature","geometry":{"type":"Point","coordinates":[-80.586,40.914]},"properties":{"key":"57411-d0385d19","layer":"power","name":"Mahoning","state":"OH","detail_file":"data/details/power-plants-58.json","plant_id":"57411","capacity_mw":4.0,"status_group":"Operating","energy_sources":"LFG","type":"Power plant","is_nuclear":false}},{"type":"Feature","geometry":{"type":"Point","coordinates":[-83.136,40.625]},"properties":{"key":"66860-4df42a89","layer":"power","name":"Marion County Solar Project","state":"OH","detail_file":"data/details/power-plants-13.json","plant_id":"66860","capacity_mw":100.0,"status_group":"Operating","energy_sources":"SUN","type":"Power plant","is_nuclear":false}},{"type":"Feature","geometry":{"type":"Point","coordinates":[-83.367,41.466]},"properties":{"key":"66261-ebb98922","layer":"power","name":"Martin Marietta Wind Project","state":"OH","detail_file":"data/details/power-plants-16.json","plant_id":"66261","capacity_mw":4.5,"status_group":"Operating","energy_sources":"WND","type":"Power plant","is_nuclear":false}},{"type":"Feature","geometry":{"type":"Point","coordinates":[-83.695,41.568]},"properties":{"key":"68161-1e8c7631","layer":"power","name":"Maumee Solar","state":"OH","detail_file":"data/details/power-plants-26.json","plant_id":"68161","capacity_mw":2.4,"status_group":"Operating","energy_sources":"SUN","type":"Power plant","is_nuclear":false}},{"type":"Feature","geometry":{"type":"Point","coordinates":[-80.852,41.149]},"properties":{"key":"60376-64fd2cb7","layer":"power","name":"Middletown- Ohio","state":"OH","detail_file":"data/details/power-plants-20.json","plant_id":"60376","capacity_mw":962.0,"status_group":"Operating","energy_sources":"NG","type":"Power plant","is_nuclear":false}},{"type":"Feature","geometry":{"type":"Point","coordinates":[-82.709,41.244]},"properties":{"key":"66434-ec3b7938","layer":"power","name":"Monroeville RTO BTM","state":"OH","detail_file":"data/details/power-plants-12.json","plant_id":"66434","capacity_mw":2.7,"status_group":"Operating","energy_sources":"DFO","type":"Power plant","is_nuclear":false}},{"type":"Feature","geometry":{"type":"Point","coordinates":[-82.712,41.23]},"properties":{"key":"63181-4dcc72cd","layer":"power","name":"Monroeville Solar","state":"OH","detail_file":"data/details/power-plants-62.json","plant_id":"63181","capacity_mw":3.2,"status_group":"Operating","energy_sources":"SUN","type":"Power plant","is_nuclear":false}},{"type":"Feature","geometry":{"type":"Point","coordinates":[-81.776,40.969]},"properties":{"key":"54335-d9a5c06e","layer":"power","name":"Morton Salt Rittman","state":"OH","detail_file":"data/details/power-plants-59.json","plant_id":"54335","capacity_mw":2.5,"status_group":"Operating","energy_sources":"NG","type":"Power plant","is_nuclear":false}},{"type":"Feature","geometry":{"type":"Point","coordinates":[-80.748,41.167]},"properties":{"key":"2861-ee6a870e","layer":"power","name":"Niles Power Plant","state":"OH","detail_file":"data/details/power-plants-40.json","plant_id":"2861","capacity_mw":27.0,"status_group":"Operating","energy_sources":"DFO","type":"Power plant","is_nuclear":false}},{"type":"Feature","geometry":{"type":"Point","coordinates":[-80.753,41.168]},"properties":{"key":"66437-a737fcff","layer":"power","name":"Niles RTO BTM","state":"OH","detail_file":"data/details/power-plants-51.json","plant_id":"66437","capacity_mw":10.8,"status_group":"Operating","energy_sources":"DFO","type":"Power plant","is_nuclear":false}},{"type":"Feature","geometry":{"type":"Point","coordinates":[-82.602,41.336]},"properties":{"key":"57249-614c1272","layer":"power","name":"North American - Erie Generating Station","state":"OH","detail_file":"data/details/power-plants-35.json","plant_id":"57249","capacity_mw":2.4,"status_group":"Operating","energy_sources":"LFG","type":"Power plant","is_nuclear":false}},{"type":"Feature","geometry":{"type":"Point","coordinates":[-81.041,40.189]},"properties":{"key":"66658-e3dc39cb","layer":"power","name":"Nottingham Solar","state":"OH","detail_file":"data/details/power-plants-29.json","plant_id":"66658","capacity_mw":100.0,"status_group":"Under construction","energy_sources":"SUN","type":"Power plant","is_nuclear":false}},{"type":"Feature","geometry":{"type":"Point","coordinates":[-82.219,41.284]},"properties":{"key":"2933-a2a67f8f","layer":"power","name":"Oberlin (OH)","state":"OH","detail_file":"data/details/power-plants-31.json","plant_id":"2933","capacity_mw":18.5,"status_group":"Operating","energy_sources":"DFO; NG","type":"Power plant","is_nuclear":false}},{"type":"Feature","geometry":{"type":"Point","coordinates":[-82.227,41.303]},"properties":{"key":"58134-0f42c3ae","layer":"power","name":"Oberlin Spear Point Solar One","state":"OH","detail_file":"data/details/power-plants-55.json","plant_id":"58134","capacity_mw":2.0,"status_group":"Operating","energy_sources":"SUN","type":"Power plant","is_nuclear":false}},{"type":"Feature","geometry":{"type":"Point","coordinates":[-83.839,40.76]},"properties":{"key":"60913-e811f2e0","layer":"power","name":"Ohio Northern University Solar Site","state":"OH","detail_file":"data/details/power-plants-09.json","plant_id":"60913","capacity_mw":3.0,"status_group":"Operating","energy_sources":"SUN","type":"Power plant","is_nuclear":false}},{"type":"Feature","geometry":{"type":"Point","coordinates":[-83.444,41.668]},"properties":{"key":"59764-35bf3059","layer":"power","name":"Oregon Clean Energy Center","state":"OH","detail_file":"data/details/power-plants-54.json","plant_id":"59764","capacity_mw":1061.5,"status_group":"Operating","energy_sources":"DFO; NG","type":"Power plant","is_nuclear":false}},{"type":"Feature","geometry":{"type":"Point","coordinates":[-81.766,40.851]},"properties":{"key":"2935-b0524226","layer":"power","name":"Orrville","state":"OH","detail_file":"data/details/power-plants-20.json","plant_id":"2935","capacity_mw":84.5,"status_group":"Operating","energy_sources":"BIT; NG","type":"Power plant","is_nuclear":false}},{"type":"Feature","geometry":{"type":"Point","coordinates":[-81.759,40.86]},"properties":{"key":"7778-1c65a7f8","layer":"power","name":"Orrville Peaking","state":"OH","detail_file":"data/details/power-plants-57.json","plant_id":"7778","capacity_mw":5.4,"status_group":"Operating","energy_sources":"DFO","type":"Power plant","is_nuclear":false}},{"type":"Feature","geometry":{"type":"Point","coordinates":[-83.536,41.645]},"properties":{"key":"60038-3e0fb06c","layer":"power","name":"Owens Corning Headquarters","state":"OH","detail_file":"data/details/power-plants-16.json","plant_id":"60038","capacity_mw":2.1,"status_group":"Operating","energy_sources":"SUN","type":"Power plant","is_nuclear":false}},{"type":"Feature","geometry":{"type":"Point","coordinates":[-83.572,41.58]},"properties":{"key":"70208-28326e78","layer":"power","name":"PCC Solar Array","state":"OH","detail_file":"data/details/power-plants-11.json","plant_id":"70208","capacity_mw":1.0,"status_group":"Operating","energy_sources":"SUN","type":"Power plant","is_nuclear":false}},{"type":"Feature","geometry":{"type":"Point","coordinates":[-83.557,41.615]},"properties":{"key":"66140-c5ee0eaa","layer":"power","name":"PNA Rossford Solar Array","state":"OH","detail_file":"data/details/power-plants-57.json","plant_id":"66140","capacity_mw":1.4,"status_group":"Operating","energy_sources":"SUN","type":"Power plant","is_nuclear":false}},{"type":"Feature","geometry":{"type":"Point","coordinates":[-83.378,41.172]},"properties":{"key":"63920-cdad4c6d","layer":"power","name":"POET Biorefining - Fostoria","state":"OH","detail_file":"data/details/power-plants-63.json","plant_id":"63920","capacity_mw":3.5,"status_group":"Operating","energy_sources":"NG","type":"Power plant","is_nuclear":false}},{"type":"Feature","geometry":{"type":"Point","coordinates":[-83.971,41.121]},"properties":{"key":"63927-faaeae91","layer":"power","name":"POET Biorefining - Leipsic, LLC","state":"OH","detail_file":"data/details/power-plants-14.json","plant_id":"63927","capacity_mw":3.5,"status_group":"Operating","energy_sources":"NG","type":"Power plant","is_nuclear":false}},{"type":"Feature","geometry":{"type":"Point","coordinates":[-83.157,40.622]},"properties":{"key":"63829-e9e9f578","layer":"power","name":"POET Biorefining - Marion, LLC","state":"OH","detail_file":"data/details/power-plants-13.json","plant_id":"63829","capacity_mw":7.8,"status_group":"Operating","energy_sources":"NG","type":"Power plant","is_nuclear":false}},{"type":"Feature","geometry":{"type":"Point","coordinates":[-81.254,41.727]},"properties":{"key":"2936-3504f131","layer":"power","name":"Painesville","state":"OH","detail_file":"data/details/power-plants-53.json","plant_id":"2936","capacity_mw":55.5,"status_group":"Operating","energy_sources":"BIT; DFO","type":"Power plant","is_nuclear":false}},{"type":"Feature","geometry":{"type":"Point","coordinates":[-81.144,41.801]},"properties":{"key":"6020-58b95faa","layer":"power","name":"Perry","state":"OH","detail_file":"data/details/power-plants-15.json","plant_id":"6020","capacity_mw":1311.6,"status_group":"Operating","energy_sources":"NUC","type":"Nuclear power plant","is_nuclear":true}},{"type":"Feature","geometry":{"type":"Point","coordinates":[-80.706,40.151]},"properties":{"key":"69702-27402628","layer":"power","name":"Pike Island Hydroelectric Project","state":"OH","detail_file":"data/details/power-plants-06.json","plant_id":"69702","capacity_mw":20.0,"status_group":"Under construction","energy_sources":"WAT","type":"Power plant","is_nuclear":false}},{"type":"Feature","geometry":{"type":"Point","coordinates":[-82.4,40.53]},"properties":{"key":"63457-321aef4d","layer":"power","name":"Progress Drive Generation Station","state":"OH","detail_file":"data/details/power-plants-32.json","plant_id":"63457","capacity_mw":3.6,"status_group":"Operating","energy_sources":"DFO","type":"Power plant","is_nuclear":false}},{"type":"Feature","geometry":{"type":"Point","coordinates":[-83.188,40.441]},"properties":{"key":"7603-986be1f8","layer":"power","name":"Prospect Municipal","state":"OH","detail_file":"data/details/power-plants-38.json","plant_id":"7603","capacity_mw":1.8,"status_group":"Operating","energy_sources":"DFO","type":"Power plant","is_nuclear":false}},{"type":"Feature","geometry":{"type":"Point","coordinates":[-83.893,40.449]},"properties":{"key":"58630-21ef6b66","layer":"power","name":"RP Wind","state":"OH","detail_file":"data/details/power-plants-28.json","plant_id":"58630","capacity_mw":3.4,"status_group":"Operating","energy_sources":"WND","type":"Power plant","is_nuclear":false}},{"type":"Feature","geometry":{"type":"Point","coordinates":[-83.331,40.353]},"properties":{"key":"68019-dc5b6ed0","layer":"power","name":"Richwood Solar and Storage","state":"OH","detail_file":"data/details/power-plants-15.json","plant_id":"68019","capacity_mw":50.0,"status_group":"Planned","energy_sources":"MWH","type":"Power plant","is_nuclear":false}},{"type":"Feature","geometry":{"type":"Point","coordinates":[-83.736,40.561]},"properties":{"key":"58780-11b9f1a9","layer":"power","name":"Scioto Ridge Wind Farm","state":"OH","detail_file":"data/details/power-plants-46.json","plant_id":"58780","capacity_mw":249.8,"status_group":"Operating","energy_sources":"WND","type":"Power plant","is_nuclear":false}},{"type":"Feature","geometry":{"type":"Point","coordinates":[-81.871,41.032]},"properties":{"key":"7919-eef45750","layer":"power","name":"Seville","state":"OH","detail_file":"data/details/power-plants-18.json","plant_id":"7919","capacity_mw":5.4,"status_group":"Operating","energy_sources":"DFO","type":"Power plant","is_nuclear":false}},{"type":"Feature","geometry":{"type":"Point","coordinates":[-82.672,40.897]},"properties":{"key":"69728-5a942448","layer":"power","name":"Shelby BESS","state":"OH","detail_file":"data/details/power-plants-35.json","plant_id":"69728","capacity_mw":10.1,"status_group":"Operating","energy_sources":"MWH","type":"Power plant","is_nuclear":false}},{"type":"Feature","geometry":{"type":"Point","coordinates":[-82.662,40.897]},"properties":{"key":"7827-34402135","layer":"power","name":"Shelby North","state":"OH","detail_file":"data/details/power-plants-37.json","plant_id":"7827","capacity_mw":1.8,"status_group":"Operating","energy_sources":"DFO","type":"Power plant","is_nuclear":false}},{"type":"Feature","geometry":{"type":"Point","coordinates":[-82.672,40.896]},"properties":{"key":"63390-0527bf9c","layer":"power","name":"Shelby Solar Array","state":"OH","detail_file":"data/details/power-plants-24.json","plant_id":"63390","capacity_mw":1.9,"status_group":"Operating","energy_sources":"SUN","type":"Power plant","is_nuclear":false}},{"type":"Feature","geometry":{"type":"Point","coordinates":[-82.653,40.909]},"properties":{"key":"7828-b6b04e27","layer":"power","name":"Shelby South","state":"OH","detail_file":"data/details/power-plants-42.json","plant_id":"7828","capacity_mw":1.8,"status_group":"Operating","energy_sources":"DFO","type":"Power plant","is_nuclear":false}},{"type":"Feature","geometry":{"type":"Point","coordinates":[-83.515,41.128]},"properties":{"key":"68086-3e09434f","layer":"power","name":"South Branch Solar","state":"OH","detail_file":"data/details/power-plants-59.json","plant_id":"68086","capacity_mw":115.0,"status_group":"Under construction","energy_sources":"SUN","type":"Power plant","is_nuclear":false}},{"type":"Feature","geometry":{"type":"Point","coordinates":[-80.678,40.635]},"properties":{"key":"60356-fd71189b","layer":"power","name":"South Field Energy","state":"OH","detail_file":"data/details/power-plants-35.json","plant_id":"60356","capacity_mw":1210.4,"status_group":"Operating","energy_sources":"NG","type":"Power plant","is_nuclear":false}},{"type":"Feature","geometry":{"type":"Point","coordinates":[-81.157,40.853]},"properties":{"key":"66672-c526dd7b","layer":"power","name":"Stark Solar, LLC","state":"OH","detail_file":"data/details/power-plants-43.json","plant_id":"66672","capacity_mw":150.0,"status_group":"Planned","energy_sources":"SUN","type":"Power plant","is_nuclear":false}},{"type":"Feature","geometry":{"type":"Point","coordinates":[-80.67,40.352]},"properties":{"key":"66657-023ec4e5","layer":"power","name":"Steubenville Solar","state":"OH","detail_file":"data/details/power-plants-63.json","plant_id":"66657","capacity_mw":43.0,"status_group":"Planned","energy_sources":"SUN","type":"Power plant","is_nuclear":false}},{"type":"Feature","geometry":{"type":"Point","coordinates":[-81.341,41.143]},"properties":{"key":"58140-c54c012f","layer":"power","name":"Summit Street Power Plant","state":"OH","detail_file":"data/details/power-plants-12.json","plant_id":"58140","capacity_mw":13.2,"status_group":"Operating","energy_sources":"NG","type":"Power plant","is_nuclear":false}},{"type":"Feature","geometry":{"type":"Point","coordinates":[-83.162,40.947]},"properties":{"key":"67459-b12e61cc","layer":"power","name":"Sycamore","state":"OH","detail_file":"data/details/power-plants-31.json","plant_id":"67459","capacity_mw":1.3,"status_group":"Operating","energy_sources":"SUN","type":"Power plant","is_nuclear":false}},{"type":"Feature","geometry":{"type":"Point","coordinates":[-82.859,40.953]},"properties":{"key":"69875-46810481","layer":"power","name":"Sycamore Creek Solar, LLC","state":"OH","detail_file":"data/details/power-plants-07.json","plant_id":"69875","capacity_mw":117.0,"status_group":"Operating","energy_sources":"SUN","type":"Power plant","is_nuclear":false}},{"type":"Feature","geometry":{"type":"Point","coordinates":[-83.788,41.586]},"properties":{"key":"67967-1203b434","layer":"power","name":"Toledo Air National Guard","state":"OH","detail_file":"data/details/power-plants-43.json","plant_id":"67967","capacity_mw":1.5,"status_group":"Operating","energy_sources":"SUN","type":"Power plant","is_nuclear":false}},{"type":"Feature","geometry":{"type":"Point","coordinates":[-83.504,41.633]},"properties":{"key":"50965-69e525f8","layer":"power","name":"Toledo Ref Power Recovery Train","state":"OH","detail_file":"data/details/power-plants-49.json","plant_id":"50965","capacity_mw":6.0,"status_group":"Operating","energy_sources":"PC","type":"Power plant","is_nuclear":false}},{"type":"Feature","geometry":{"type":"Point","coordinates":[-83.46,41.477]},"properties":{"key":"55348-59b5f2a5","layer":"power","name":"Troy Energy LLC","state":"OH","detail_file":"data/details/power-plants-22.json","plant_id":"55348","capacity_mw":795.6,"status_group":"Operating","energy_sources":"NG","type":"Power plant","is_nuclear":false}},{"type":"Feature","geometry":{"type":"Point","coordinates":[-80.853,41.148]},"properties":{"key":"66918-bc27a815","layer":"power","name":"Trumbull Energy Center","state":"OH","detail_file":"data/details/power-plants-02.json","plant_id":"66918","capacity_mw":977.4,"status_group":"Operating","energy_sources":"NG","type":"Power plant","is_nuclear":false}},{"type":"Feature","geometry":{"type":"Point","coordinates":[-83.644,41.084]},"properties":{"key":"61356-0c4fbd03","layer":"power","name":"Valfilm Wind Project","state":"OH","detail_file":"data/details/power-plants-63.json","plant_id":"61356","capacity_mw":3.0,"status_group":"Operating","energy_sources":"WND","type":"Power plant","is_nuclear":false}},{"type":"Feature","geometry":{"type":"Point","coordinates":[-83.102,40.282]},"properties":{"key":"70209-b261ddf3","layer":"power","name":"Vertiv Solar","state":"OH","detail_file":"data/details/power-plants-41.json","plant_id":"70209","capacity_mw":1.1,"status_group":"Operating","energy_sources":"SUN","type":"Power plant","is_nuclear":false}},{"type":"Feature","geometry":{"type":"Point","coordinates":[-81.749,41.035]},"properties":{"key":"66464-7ac6e5a7","layer":"power","name":"Wadsworth HBS RTO BTM","state":"OH","detail_file":"data/details/power-plants-25.json","plant_id":"66464","capacity_mw":10.8,"status_group":"Operating","energy_sources":"DFO","type":"Power plant","is_nuclear":false}},{"type":"Feature","geometry":{"type":"Point","coordinates":[-81.727,41.086]},"properties":{"key":"66453-6103bd0f","layer":"power","name":"Wadsworth IPS RTO BTM","state":"OH","detail_file":"data/details/power-plants-05.json","plant_id":"66453","capacity_mw":10.8,"status_group":"Operating","energy_sources":"DFO","type":"Power plant","is_nuclear":false}},{"type":"Feature","geometry":{"type":"Point","coordinates":[-82.227,41.163]},"properties":{"key":"7878-523b5ba1","layer":"power","name":"Wellington","state":"OH","detail_file":"data/details/power-plants-51.json","plant_id":"7878","capacity_mw":1.0,"status_group":"Operating","energy_sources":"DFO","type":"Power plant","is_nuclear":false}},{"type":"Feature","geometry":{"type":"Point","coordinates":[-81.715,41.474]},"properties":{"key":"2909-6b9cc022","layer":"power","name":"West 41st Street","state":"OH","detail_file":"data/details/power-plants-49.json","plant_id":"2909","capacity_mw":32.0,"status_group":"Operating","energy_sources":"NG","type":"Power plant","is_nuclear":false}},{"type":"Feature","geometry":{"type":"Point","coordinates":[-82.264,41.429]},"properties":{"key":"2869-316928e6","layer":"power","name":"West Lorain","state":"OH","detail_file":"data/details/power-plants-02.json","plant_id":"2869","capacity_mw":555.6,"status_group":"Operating","energy_sources":"DFO; NG","type":"Power plant","is_nuclear":false}},{"type":"Feature","geometry":{"type":"Point","coordinates":[-82.826,41.338]},"properties":{"key":"68199-71151331","layer":"power","name":"Wheatsborough Solar","state":"OH","detail_file":"data/details/power-plants-59.json","plant_id":"68199","capacity_mw":125.0,"status_group":"Operating","energy_sources":"SUN","type":"Power plant","is_nuclear":false}},{"type":"Feature","geometry":{"type":"Point","coordinates":[-83.178,40.591]},"properties":{"key":"61005-784e26c5","layer":"power","name":"Whirlpool Corporation - Marion Wind Farm","state":"OH","detail_file":"data/details/power-plants-03.json","plant_id":"61005","capacity_mw":4.5,"status_group":"Operating","energy_sources":"WND","type":"Power plant","is_nuclear":false}},{"type":"Feature","geometry":{"type":"Point","coordinates":[-83.369,41.459]},"properties":{"key":"66444-cc37bd6c","layer":"power","name":"Woodville RTO BTM","state":"OH","detail_file":"data/details/power-plants-19.json","plant_id":"66444","capacity_mw":2.7,"status_group":"Operating","energy_sources":"DFO","type":"Power plant","is_nuclear":false}},{"type":"Feature","geometry":{"type":"Point","coordinates":[-83.317,40.88]},"properties":{"key":"57203-8763a2af","layer":"power","name":"Wyandot Solar Farm","state":"OH","detail_file":"data/details/power-plants-44.json","plant_id":"57203","capacity_mw":10.0,"status_group":"Operating","energy_sources":"SUN","type":"Power plant","is_nuclear":false}},{"type":"Feature","geometry":{"type":"Point","coordinates":[-83.641,41.096]},"properties":{"key":"60128-8ed677b7","layer":"power","name":"Zephyr Wind","state":"OH","detail_file":"data/details/power-plants-54.json","plant_id":"60128","capacity_mw":4.5,"status_group":"Operating","energy_sources":"WND","type":"Power plant","is_nuclear":false}},{"type":"Feature","geometry":{"type":"Point","coordinates":[-83.638,41.093]},"properties":{"key":"62653-ef7dcdf4","layer":"power","name":"Zephyr Wind Project - 2.0","state":"OH","detail_file":"data/details/power-plants-36.json","plant_id":"62653","capacity_mw":4.5,"status_group":"Operating","energy_sources":"WND","type":"Power plant","is_nuclear":false}},{"type":"Feature","geometry":{"type":"Point","coordinates":[-80.324,40.691]},"properties":{"key":"59546-0ef214fb","layer":"power","name":"Beaver Solar LLC","state":"PA","detail_file":"data/details/power-plants-56.json","plant_id":"59546","capacity_mw":1.3,"status_group":"Operating","energy_sources":"SUN","type":"Power plant","is_nuclear":false}},{"type":"Feature","geometry":{"type":"Point","coordinates":[-80.434,40.622]},"properties":{"key":"6040-ca81bcb1","layer":"power","name":"Beaver Valley","state":"PA","detail_file":"data/details/power-plants-02.json","plant_id":"6040","capacity_mw":1846.8,"status_group":"Operating","energy_sources":"NUC","type":"Nuclear power plant","is_nuclear":true}},{"type":"Feature","geometry":{"type":"Point","coordinates":[-80.318,40.744]},"properties":{"key":"10546-906f6208","layer":"power","name":"Beaver Valley Patterson Dam","state":"PA","detail_file":"data/details/power-plants-22.json","plant_id":"10546","capacity_mw":1.2,"status_group":"Operating","energy_sources":"WAT","type":"Power plant","is_nuclear":false}},{"type":"Feature","geometry":{"type":"Point","coordinates":[-80.044,40.465]},"properties":{"key":"3096-83b75a2b","layer":"power","name":"Brunot Island","state":"PA","detail_file":"data/details/power-plants-35.json","plant_id":"3096","capacity_mw":365.4,"status_group":"Operating","energy_sources":"DFO; NG","type":"Power plant","is_nuclear":false}},{"type":"Feature","geometry":{"type":"Point","coordinates":[-80.205,40.55]},"properties":{"key":"69698-4e50f669","layer":"power","name":"Dashields Hydroelectric Project","state":"PA","detail_file":"data/details/power-plants-55.json","plant_id":"69698","capacity_mw":8.8,"status_group":"Under construction","energy_sources":"WAT","type":"Power plant","is_nuclear":false}},{"type":"Feature","geometry":{"type":"Point","coordinates":[-80.103,40.501]},"properties":{"key":"62434-88601bea","layer":"power","name":"Emsworth BC Hydroelectric Project","state":"PA","detail_file":"data/details/power-plants-17.json","plant_id":"62434","capacity_mw":18.8,"status_group":"Planned","energy_sources":"WAT","type":"Power plant","is_nuclear":false}},{"type":"Feature","geometry":{"type":"Point","coordinates":[-80.089,40.503]},"properties":{"key":"62433-b99c0490","layer":"power","name":"Emsworth L&D Hydroelectric Project","state":"PA","detail_file":"data/details/power-plants-03.json","plant_id":"62433","capacity_mw":20.4,"status_group":"Planned","energy_sources":"WAT","type":"Power plant","is_nuclear":false}},{"type":"Feature","geometry":{"type":"Point","coordinates":[-80.307,42.013]},"properties":{"key":"66365-a9db017b","layer":"power","name":"Erie Solar, LLC","state":"PA","detail_file":"data/details/power-plants-35.json","plant_id":"66365","capacity_mw":20.0,"status_group":"Operating","energy_sources":"SUN","type":"Power plant","is_nuclear":false}},{"type":"Feature","geometry":{"type":"Point","coordinates":[-80.432,40.93]},"properties":{"key":"67984-cd49cd95","layer":"power","name":"Firefly Solar PA","state":"PA","detail_file":"data/details/power-plants-44.json","plant_id":"67984","capacity_mw":401.6,"status_group":"Under construction","energy_sources":"SUN","type":"Power plant","is_nuclear":false}},{"type":"Feature","geometry":{"type":"Point","coordinates":[-80.313,40.512]},"properties":{"key":"65214-51c0c8f9","layer":"power","name":"Gaucho Solar","state":"PA","detail_file":"data/details/power-plants-37.json","plant_id":"65214","capacity_mw":20.0,"status_group":"Operating","energy_sources":"SUN","type":"Power plant","is_nuclear":false}},{"type":"Feature","geometry":{"type":"Point","coordinates":[-80.32,42.003]},"properties":{"key":"66448-ab68255f","layer":"power","name":"Girard (PA) RTO BTM","state":"PA","detail_file":"data/details/power-plants-42.json","plant_id":"66448","capacity_mw":2.7,"status_group":"Operating","energy_sources":"DFO","type":"Power plant","is_nuclear":false}},{"type":"Feature","geometry":{"type":"Point","coordinates":[-80.43,40.994]},"properties":{"key":"61028-a1d6a6ce","layer":"power","name":"Hickory Run Energy Station","state":"PA","detail_file":"data/details/power-plants-45.json","plant_id":"61028","capacity_mw":1033.7,"status_group":"Operating","energy_sources":"NG","type":"Power plant","is_nuclear":false}},{"type":"Feature","geometry":{"type":"Point","coordinates":[-80.021,42.06]},"properties":{"key":"55074-2bcfe322","layer":"power","name":"Lakeview Gas Recovery","state":"PA","detail_file":"data/details/power-plants-54.json","plant_id":"55074","capacity_mw":6.0,"status_group":"Operating","energy_sources":"LFG","type":"Power plant","is_nuclear":false}},{"type":"Feature","geometry":{"type":"Point","coordinates":[-80.432,41.413]},"properties":{"key":"68930-d659a3e3","layer":"power","name":"MC Solar","state":"PA","detail_file":"data/details/power-plants-36.json","plant_id":"68930","capacity_mw":50.0,"status_group":"Under construction","energy_sources":"SUN","type":"Power plant","is_nuclear":false}},{"type":"Feature","geometry":{"type":"Point","coordinates":[-80.387,40.652]},"properties":{"key":"62400-0d8ba7b2","layer":"power","name":"Montgomery L&D Hydroelectric Project","state":"PA","detail_file":"data/details/power-plants-37.json","plant_id":"62400","capacity_mw":20.4,"status_group":"Planned","energy_sources":"WAT","type":"Power plant","is_nuclear":false}},{"type":"Feature","geometry":{"type":"Point","coordinates":[-80.369,40.938]},"properties":{"key":"3138-11586adc","layer":"power","name":"New Castle Plant","state":"PA","detail_file":"data/details/power-plants-58.json","plant_id":"3138","capacity_mw":354.4,"status_group":"Operating","energy_sources":"DFO; NG","type":"Power plant","is_nuclear":false}},{"type":"Feature","geometry":{"type":"Point","coordinates":[-80.253,40.482]},"properties":{"key":"64874-1f180c2d","layer":"power","name":"PG Solar 1","state":"PA","detail_file":"data/details/power-plants-28.json","plant_id":"64874","capacity_mw":3.0,"status_group":"Operating","energy_sources":"SUN","type":"Power plant","is_nuclear":false}},{"type":"Feature","geometry":{"type":"Point","coordinates":[-80.458,40.617]},"properties":{"key":"66943-fc141f83","layer":"power","name":"Pine 1 Solar","state":"PA","detail_file":"data/details/power-plants-15.json","plant_id":"66943","capacity_mw":17.1,"status_group":"Operating","energy_sources":"SUN","type":"Power plant","is_nuclear":false}},{"type":"Feature","geometry":{"type":"Point","coordinates":[-80.471,40.616]},"properties":{"key":"66944-aa8d4eb7","layer":"power","name":"Pine 2 Solar","state":"PA","detail_file":"data/details/power-plants-37.json","plant_id":"66944","capacity_mw":17.1,"status_group":"Operating","energy_sources":"SUN","type":"Power plant","is_nuclear":false}},{"type":"Feature","geometry":{"type":"Point","coordinates":[-80.233,40.495]},"properties":{"key":"64873-ea4c468a","layer":"power","name":"Pittsburgh Airport Gas Plant","state":"PA","detail_file":"data/details/power-plants-06.json","plant_id":"64873","capacity_mw":22.0,"status_group":"Operating","energy_sources":"NG","type":"Power plant","is_nuclear":false}},{"type":"Feature","geometry":{"type":"Point","coordinates":[-80.336,40.672]},"properties":{"key":"58933-8a983a68","layer":"power","name":"Shell Chemical Appalachia LLC","state":"PA","detail_file":"data/details/power-plants-44.json","plant_id":"58933","capacity_mw":309.8,"status_group":"Operating","energy_sources":"NG","type":"Power plant","is_nuclear":false}},{"type":"Feature","geometry":{"type":"Point","coordinates":[-80.315,40.734]},"properties":{"key":"10285-18e20d8e","layer":"power","name":"Townsend Hydro","state":"PA","detail_file":"data/details/power-plants-33.json","plant_id":"10285","capacity_mw":5.2,"status_group":"Operating","energy_sources":"WAT","type":"Power plant","is_nuclear":false}},{"type":"Feature","geometry":{"type":"Point","coordinates":[-80.106,41.169]},"properties":{"key":"10058-c7528fe3","layer":"power","name":"Wabtec U.S Rail, Grove City Engine Plant","state":"PA","detail_file":"data/details/power-plants-49.json","plant_id":"10058","capacity_mw":4.4,"status_group":"Operating","energy_sources":"DFO","type":"Power plant","is_nuclear":false}},{"type":"Feature","geometry":{"type":"Point","coordinates":[-80.261,40.206]},"properties":{"key":"57014-5df16fd2","layer":"power","name":"Waste Management Arden LFGTE","state":"PA","detail_file":"data/details/power-plants-00.json","plant_id":"57014","capacity_mw":4.8,"status_group":"Operating","energy_sources":"LFG","type":"Power plant","is_nuclear":false}},{"type":"Feature","geometry":{"type":"Point","coordinates":[-80.626,40.528]},"properties":{"key":"69701-fad55506","layer":"power","name":"New Cumberland Hydroelectric Project","state":"WV","detail_file":"data/details/power-plants-32.json","plant_id":"69701","capacity_mw":20.0,"status_group":"Under construction","energy_sources":"WAT","type":"Power plant","is_nuclear":false}},{"type":"Feature","geometry":{"type":"Point","coordinates":[-80.573,40.453]},"properties":{"key":"66901-d2584215","layer":"power","name":"Wylie Ridge Solar","state":"WV","detail_file":"data/details/power-plants-44.json","plant_id":"66901","capacity_mw":8.4,"status_group":"Under construction","energy_sources":"SUN","type":"Power plant","is_nuclear":false}}]}