{"type":"FeatureCollection","features":[{"type":"Feature","geometry":{"type":"Point","coordinates":[-97.838,26.098]},"properties":{"key":"66673-27a49f07","layer":"power","name":"Accalia Point Solar, LLC","state":"TX","detail_file":"data/details/power-plants-04.json","plant_id":"66673","capacity_mw":190.5,"status_group":"Planned","energy_sources":"SUN","type":"Power plant","is_nuclear":false}},{"type":"Feature","geometry":{"type":"Point","coordinates":[-97.461,27.806]},"properties":{"key":"69416-09dbdae9","layer":"power","name":"Aggreko MSR Grid PC2","state":"TX","detail_file":"data/details/power-plants-51.json","plant_id":"69416","capacity_mw":10.0,"status_group":"Operating","energy_sources":"MWH","type":"Power plant","is_nuclear":false}},{"type":"Feature","geometry":{"type":"Point","coordinates":[-97.66,26.192]},"properties":{"key":"69417-ce5a33b7","layer":"power","name":"Aggreko MSR Grid PC5","state":"TX","detail_file":"data/details/power-plants-23.json","plant_id":"69417","capacity_mw":10.0,"status_group":"Operating","energy_sources":"MWH","type":"Power plant","is_nuclear":false}},{"type":"Feature","geometry":{"type":"Point","coordinates":[-97.522,26.001]},"properties":{"key":"69418-e7365e52","layer":"power","name":"Aggreko MSR Grid PC7","state":"TX","detail_file":"data/details/power-plants-58.json","plant_id":"69418","capacity_mw":10.0,"status_group":"Operating","energy_sources":"MWH","type":"Power plant","is_nuclear":false}},{"type":"Feature","geometry":{"type":"Point","coordinates":[-98.233,26.889]},"properties":{"key":"64227-04f05956","layer":"power","name":"Alexis Solar, LLC","state":"TX","detail_file":"data/details/power-plants-13.json","plant_id":"64227","capacity_mw":10.0,"status_group":"Operating","energy_sources":"SUN","type":"Power plant","is_nuclear":false}},{"type":"Feature","geometry":{"type":"Point","coordinates":[-98.48,26.45]},"properties":{"key":"67236-fe6ffc26","layer":"power","name":"Anemoi Energy Storage","state":"TX","detail_file":"data/details/power-plants-48.json","plant_id":"67236","capacity_mw":200.0,"status_group":"Operating","energy_sources":"MWH","type":"Power plant","is_nuclear":false}},{"type":"Feature","geometry":{"type":"Point","coordinates":[-97.612,26.264]},"properties":{"key":"69151-9598c052","layer":"power","name":"Arroyo Storage","state":"TX","detail_file":"data/details/power-plants-19.json","plant_id":"69151","capacity_mw":180.0,"status_group":"Under construction","energy_sources":"MWH","type":"Power plant","is_nuclear":false}},{"type":"Feature","geometry":{"type":"Point","coordinates":[-97.812,26.117]},"properties":{"key":"69296-97dbb617","layer":"power","name":"BESS La Feria","state":"TX","detail_file":"data/details/power-plants-02.json","plant_id":"69296","capacity_mw":10.0,"status_group":"Operating","energy_sources":"MWH","type":"Power plant","is_nuclear":false}},{"type":"Feature","geometry":{"type":"Point","coordinates":[-98.054,27.746]},"properties":{"key":"69297-ef87da16","layer":"power","name":"BESS Stadium","state":"TX","detail_file":"data/details/power-plants-52.json","plant_id":"69297","capacity_mw":10.0,"status_group":"Operating","energy_sources":"MWH","type":"Power plant","is_nuclear":false}},{"type":"Feature","geometry":{"type":"Point","coordinates":[-97.598,27.185]},"properties":{"key":"57927-5861f2ee","layer":"power","name":"Baffin Wind","state":"TX","detail_file":"data/details/power-plants-01.json","plant_id":"57927","capacity_mw":188.0,"status_group":"Operating","energy_sources":"WND","type":"Power plant","is_nuclear":false}},{"type":"Feature","geometry":{"type":"Point","coordinates":[-97.312,27.606]},"properties":{"key":"4939-3d12ff33","layer":"power","name":"Barney M Davis","state":"TX","detail_file":"data/details/power-plants-54.json","plant_id":"4939","capacity_mw":1082.2,"status_group":"Operating","energy_sources":"NG","type":"Power plant","is_nuclear":false}},{"type":"Feature","geometry":{"type":"Point","coordinates":[-99.412,27.285]},"properties":{"key":"68350-56cebe46","layer":"power","name":"Bravo ESS","state":"TX","detail_file":"data/details/power-plants-02.json","plant_id":"68350","capacity_mw":200.0,"status_group":"Planned","energy_sources":"MWH","type":"Power plant","is_nuclear":false}},{"type":"Feature","geometry":{"type":"Point","coordinates":[-97.691,26.522]},"properties":{"key":"59066-9c4ca21a","layer":"power","name":"Bruennings Breeze Wind Farm","state":"TX","detail_file":"data/details/power-plants-51.json","plant_id":"59066","capacity_mw":228.0,"status_group":"Operating","energy_sources":"WND","type":"Power plant","is_nuclear":false}},{"type":"Feature","geometry":{"type":"Point","coordinates":[-97.466,26.195]},"properties":{"key":"59118-b1a91db0","layer":"power","name":"Cameron Wind 1 LLC","state":"TX","detail_file":"data/details/power-plants-61.json","plant_id":"59118","capacity_mw":181.4,"status_group":"Operating","energy_sources":"MWH; WND","type":"Power plant","is_nuclear":false}},{"type":"Feature","geometry":{"type":"Point","coordinates":[-98.239,26.25]},"properties":{"key":"69168-aa8e531f","layer":"power","name":"Carambola BESS","state":"TX","detail_file":"data/details/power-plants-63.json","plant_id":"69168","capacity_mw":98.4,"status_group":"Under construction","energy_sources":"MWH","type":"Power plant","is_nuclear":false}},{"type":"Feature","geometry":{"type":"Point","coordinates":[-97.535,27.819]},"properties":{"key":"65589-cf9ceac5","layer":"power","name":"Carina","state":"TX","detail_file":"data/details/power-plants-18.json","plant_id":"65589","capacity_mw":150.0,"status_group":"Operating","energy_sources":"MWH","type":"Power plant","is_nuclear":false}},{"type":"Feature","geometry":{"type":"Point","coordinates":[-98.501,27.392]},"properties":{"key":"69640-3a71db51","layer":"power","name":"Cazadores Solar","state":"TX","detail_file":"data/details/power-plants-39.json","plant_id":"69640","capacity_mw":300.0,"status_group":"Planned","energy_sources":"SUN","type":"Power plant","is_nuclear":false}},{"type":"Feature","geometry":{"type":"Point","coordinates":[-98.905,27.576]},"properties":{"key":"57260-dff9a558","layer":"power","name":"Cedro Hill Wind LLC","state":"TX","detail_file":"data/details/power-plants-23.json","plant_id":"57260","capacity_mw":300.0,"status_group":"Operating","energy_sources":"WND","type":"Power plant","is_nuclear":false}},{"type":"Feature","geometry":{"type":"Point","coordinates":[-97.501,27.593]},"properties":{"key":"59193-459dd585","layer":"power","name":"Chapman Ranch Wind I","state":"TX","detail_file":"data/details/power-plants-08.json","plant_id":"59193","capacity_mw":236.0,"status_group":"Operating","energy_sources":"WND","type":"Power plant","is_nuclear":false}},{"type":"Feature","geometry":{"type":"Point","coordinates":[-98.352,26.321]},"properties":{"key":"65536-512d4bf6","layer":"power","name":"Citrus City","state":"TX","detail_file":"data/details/power-plants-53.json","plant_id":"65536","capacity_mw":9.0,"status_group":"Operating","energy_sources":"DFO","type":"Power plant","is_nuclear":false}},{"type":"Feature","geometry":{"type":"Point","coordinates":[-98.351,26.322]},"properties":{"key":"68686-8fc0b1b8","layer":"power","name":"Citrus City BESS","state":"TX","detail_file":"data/details/power-plants-43.json","plant_id":"68686","capacity_mw":9.9,"status_group":"Operating","energy_sources":"MWH","type":"Power plant","is_nuclear":false}},{"type":"Feature","geometry":{"type":"Point","coordinates":[-97.696,26.191]},"properties":{"key":"69352-fc041b03","layer":"power","name":"Citrus Flatts Energy Center, LLC","state":"TX","detail_file":"data/details/power-plants-04.json","plant_id":"69352","capacity_mw":100.0,"status_group":"Operating","energy_sources":"MWH","type":"Power plant","is_nuclear":false}},{"type":"Feature","geometry":{"type":"Point","coordinates":[-99.258,27.635]},"properties":{"key":"64538-a0255901","layer":"power","name":"Corazon Energy LLC","state":"TX","detail_file":"data/details/power-plants-21.json","plant_id":"64538","capacity_mw":200.0,"status_group":"Operating","energy_sources":"SUN","type":"Power plant","is_nuclear":false}},{"type":"Feature","geometry":{"type":"Point","coordinates":[-97.596,27.811]},"properties":{"key":"50475-cf267bb0","layer":"power","name":"Corpus Christi","state":"TX","detail_file":"data/details/power-plants-30.json","plant_id":"50475","capacity_mw":41.0,"status_group":"Operating","energy_sources":"NG","type":"Power plant","is_nuclear":false}},{"type":"Feature","geometry":{"type":"Point","coordinates":[-97.428,27.814]},"properties":{"key":"55206-23587a31","layer":"power","name":"Corpus Christi Energy Center","state":"TX","detail_file":"data/details/power-plants-45.json","plant_id":"55206","capacity_mw":593.3,"status_group":"Operating","energy_sources":"NG","type":"Power plant","is_nuclear":false}},{"type":"Feature","geometry":{"type":"Point","coordinates":[-97.528,27.832]},"properties":{"key":"50026-d68d64f9","layer":"power","name":"Corpus Refinery","state":"TX","detail_file":"data/details/power-plants-13.json","plant_id":"50026","capacity_mw":74.5,"status_group":"Operating","energy_sources":"NG; SUN","type":"Power plant","is_nuclear":false}},{"type":"Feature","geometry":{"type":"Point","coordinates":[-99.184,27.644]},"properties":{"key":"67776-fb17da30","layer":"power","name":"Cuchillas PV and BESS","state":"TX","detail_file":"data/details/power-plants-19.json","plant_id":"67776","capacity_mw":612.5,"status_group":"Under construction","energy_sources":"MWH; SUN","type":"Power plant","is_nuclear":false}},{"type":"Feature","geometry":{"type":"Point","coordinates":[-97.45,27.739]},"properties":{"key":"67768-99ce3b8a","layer":"power","name":"Cumbia Energy Center","state":"TX","detail_file":"data/details/power-plants-16.json","plant_id":"67768","capacity_mw":200.0,"status_group":"Planned","energy_sources":"MWH","type":"Power plant","is_nuclear":false}},{"type":"Feature","geometry":{"type":"Point","coordinates":[-99.224,26.935]},"properties":{"key":"66493-48604239","layer":"power","name":"Desert Vine Solar","state":"TX","detail_file":"data/details/power-plants-47.json","plant_id":"66493","capacity_mw":121.3,"status_group":"Under construction","energy_sources":"SUN","type":"Power plant","is_nuclear":false}},{"type":"Feature","geometry":{"type":"Point","coordinates":[-98.701,26.427]},"properties":{"key":"69982-8604e642","layer":"power","name":"Diamondback Solar","state":"TX","detail_file":"data/details/power-plants-41.json","plant_id":"69982","capacity_mw":200.0,"status_group":"Under construction","energy_sources":"SUN","type":"Power plant","is_nuclear":false}},{"type":"Feature","geometry":{"type":"Point","coordinates":[-97.664,26.192]},"properties":{"key":"65539-a8092be0","layer":"power","name":"E. Porte Ct.","state":"TX","detail_file":"data/details/power-plants-43.json","plant_id":"65539","capacity_mw":9.0,"status_group":"Operating","energy_sources":"DFO","type":"Power plant","is_nuclear":false}},{"type":"Feature","geometry":{"type":"Point","coordinates":[-97.744,27.993]},"properties":{"key":"64591-e637fcbf","layer":"power","name":"El Algodon Alto Wind Farm, LLC","state":"TX","detail_file":"data/details/power-plants-09.json","plant_id":"64591","capacity_mw":200.2,"status_group":"Operating","energy_sources":"WND","type":"Power plant","is_nuclear":false}},{"type":"Feature","geometry":{"type":"Point","coordinates":[-97.599,26.501]},"properties":{"key":"65760-b5b3fdc7","layer":"power","name":"El Sauz Ranch Wind, LLC","state":"TX","detail_file":"data/details/power-plants-20.json","plant_id":"65760","capacity_mw":301.0,"status_group":"Operating","energy_sources":"WND","type":"Power plant","is_nuclear":false}},{"type":"Feature","geometry":{"type":"Point","coordinates":[-99.164,26.558]},"properties":{"key":"6410-111f0a0c","layer":"power","name":"Falcon Dam & Power","state":"TX","detail_file":"data/details/power-plants-22.json","plant_id":"6410","capacity_mw":31.5,"status_group":"Operating","energy_sources":"WAT","type":"Power plant","is_nuclear":false}},{"type":"Feature","geometry":{"type":"Point","coordinates":[-98.141,27.242]},"properties":{"key":"66792-4cc0a6dd","layer":"power","name":"Falfurrias BESS","state":"TX","detail_file":"data/details/power-plants-01.json","plant_id":"66792","capacity_mw":9.9,"status_group":"Operating","energy_sources":"MWH","type":"Power plant","is_nuclear":false}},{"type":"Feature","geometry":{"type":"Point","coordinates":[-98.399,26.208]},"properties":{"key":"55098-d15fa08f","layer":"power","name":"Frontera Energy Center","state":"TX","detail_file":"data/details/power-plants-14.json","plant_id":"55098","capacity_mw":529.0,"status_group":"Operating","energy_sources":"NG","type":"Power plant","is_nuclear":false}},{"type":"Feature","geometry":{"type":"Point","coordinates":[-98.172,26.104]},"properties":{"key":"68189-4c6c1f1d","layer":"power","name":"Great Kiskadee Storage","state":"TX","detail_file":"data/details/power-plants-48.json","plant_id":"68189","capacity_mw":100.0,"status_group":"Operating","energy_sources":"MWH","type":"Power plant","is_nuclear":false}},{"type":"Feature","geometry":{"type":"Point","coordinates":[-97.258,27.889]},"properties":{"key":"55086-a7474dd6","layer":"power","name":"Gregory Power Plant","state":"TX","detail_file":"data/details/power-plants-55.json","plant_id":"55086","capacity_mw":469.8,"status_group":"Operating","energy_sources":"NG","type":"Power plant","is_nuclear":false}},{"type":"Feature","geometry":{"type":"Point","coordinates":[-99.266,27.629]},"properties":{"key":"68613-404852d7","layer":"power","name":"Guajillo Energy Storage","state":"TX","detail_file":"data/details/power-plants-62.json","plant_id":"68613","capacity_mw":228.7,"status_group":"Operating","energy_sources":"MWH","type":"Power plant","is_nuclear":false}},{"type":"Feature","geometry":{"type":"Point","coordinates":[-98.149,26.316]},"properties":{"key":"69277-67e76616","layer":"power","name":"Gunnar Reliability Project","state":"TX","detail_file":"data/details/power-plants-16.json","plant_id":"69277","capacity_mw":150.0,"status_group":"Under construction","energy_sources":"MWH","type":"Power plant","is_nuclear":false}},{"type":"Feature","geometry":{"type":"Point","coordinates":[-98.165,26.203]},"properties":{"key":"65263-58f1d86f","layer":"power","name":"HEB00038","state":"TX","detail_file":"data/details/power-plants-03.json","plant_id":"65263","capacity_mw":1.2,"status_group":"Operating","energy_sources":"NG","type":"Power plant","is_nuclear":false}},{"type":"Feature","geometry":{"type":"Point","coordinates":[-97.281,27.665]},"properties":{"key":"65265-99502730","layer":"power","name":"HEB00057","state":"TX","detail_file":"data/details/power-plants-05.json","plant_id":"65265","capacity_mw":1.2,"status_group":"Operating","energy_sources":"NG","type":"Power plant","is_nuclear":false}},{"type":"Feature","geometry":{"type":"Point","coordinates":[-97.263,27.695]},"properties":{"key":"66550-b252864a","layer":"power","name":"HEB00069","state":"TX","detail_file":"data/details/power-plants-51.json","plant_id":"66550","capacity_mw":1.6,"status_group":"Operating","energy_sources":"NG","type":"Power plant","is_nuclear":false}},{"type":"Feature","geometry":{"type":"Point","coordinates":[-99.474,27.607]},"properties":{"key":"66564-c2d06741","layer":"power","name":"HEB00095","state":"TX","detail_file":"data/details/power-plants-15.json","plant_id":"66564","capacity_mw":1.6,"status_group":"Operating","energy_sources":"NG","type":"Power plant","is_nuclear":false}},{"type":"Feature","geometry":{"type":"Point","coordinates":[-97.462,27.786]},"properties":{"key":"66565-a1b6bd5e","layer":"power","name":"HEBCCBakery","state":"TX","detail_file":"data/details/power-plants-60.json","plant_id":"66565","capacity_mw":3.2,"status_group":"Operating","energy_sources":"NG","type":"Power plant","is_nuclear":false}},{"type":"Feature","geometry":{"type":"Point","coordinates":[-97.708,26.206]},"properties":{"key":"69252-d4d744bf","layer":"power","name":"Harlingen #1 BESS 1","state":"TX","detail_file":"data/details/power-plants-22.json","plant_id":"69252","capacity_mw":10.0,"status_group":"Under construction","energy_sources":"MWH","type":"Power plant","is_nuclear":false}},{"type":"Feature","geometry":{"type":"Point","coordinates":[-97.632,26.276]},"properties":{"key":"67777-ae174833","layer":"power","name":"Harryoung PV and BESS","state":"TX","detail_file":"data/details/power-plants-49.json","plant_id":"67777","capacity_mw":380.0,"status_group":"Under construction","energy_sources":"MWH; SUN","type":"Power plant","is_nuclear":false}},{"type":"Feature","geometry":{"type":"Point","coordinates":[-99.162,27.859]},"properties":{"key":"68838-226c4ba4","layer":"power","name":"Hecate Energy Outpost Solar LLC","state":"TX","detail_file":"data/details/power-plants-27.json","plant_id":"68838","capacity_mw":515.0,"status_group":"Operating","energy_sources":"SUN","type":"Power plant","is_nuclear":false}},{"type":"Feature","geometry":{"type":"Point","coordinates":[-97.533,25.941]},"properties":{"key":"66411-20d7a3cb","layer":"power","name":"Hecate Grid East Valley Storage","state":"TX","detail_file":"data/details/power-plants-55.json","plant_id":"66411","capacity_mw":255.0,"status_group":"Planned","energy_sources":"MWH","type":"Power plant","is_nuclear":false}},{"type":"Feature","geometry":{"type":"Point","coordinates":[-98.176,26.342]},"properties":{"key":"55545-16ee69fb","layer":"power","name":"Hidalgo Energy Center","state":"TX","detail_file":"data/details/power-plants-01.json","plant_id":"55545","capacity_mw":551.3,"status_group":"Operating","energy_sources":"NG","type":"Power plant","is_nuclear":false}},{"type":"Feature","geometry":{"type":"Point","coordinates":[-98.448,26.493]},"properties":{"key":"62618-9529884b","layer":"power","name":"Hidalgo Wind Farm II","state":"TX","detail_file":"data/details/power-plants-28.json","plant_id":"62618","capacity_mw":50.4,"status_group":"Operating","energy_sources":"WND","type":"Power plant","is_nuclear":false}},{"type":"Feature","geometry":{"type":"Point","coordinates":[-98.411,26.466]},"properties":{"key":"57617-2685425e","layer":"power","name":"Hidalgo Wind Farm LLC","state":"TX","detail_file":"data/details/power-plants-06.json","plant_id":"57617","capacity_mw":250.0,"status_group":"Operating","energy_sources":"WND","type":"Power plant","is_nuclear":false}},{"type":"Feature","geometry":{"type":"Point","coordinates":[-98.325,26.167]},"properties":{"key":"64089-12524c4b","layer":"power","name":"Ignacio Grid Energy Storage System","state":"TX","detail_file":"data/details/power-plants-02.json","plant_id":"64089","capacity_mw":100.0,"status_group":"Operating","energy_sources":"MWH","type":"Power plant","is_nuclear":false}},{"type":"Feature","geometry":{"type":"Point","coordinates":[-97.243,27.883]},"properties":{"key":"55313-7bf2e081","layer":"power","name":"Ingleside Cogeneration","state":"TX","detail_file":"data/details/power-plants-15.json","plant_id":"55313","capacity_mw":517.0,"status_group":"Operating","energy_sources":"NG","type":"Power plant","is_nuclear":false}},{"type":"Feature","geometry":{"type":"Point","coordinates":[-98.91,27.44]},"properties":{"key":"60645-15ebe7ea","layer":"power","name":"Javelina Wind Energy II, LLC","state":"TX","detail_file":"data/details/power-plants-39.json","plant_id":"60645","capacity_mw":200.0,"status_group":"Operating","energy_sources":"WND","type":"Power plant","is_nuclear":false}},{"type":"Feature","geometry":{"type":"Point","coordinates":[-99.0,27.32]},"properties":{"key":"60104-08f1dcc2","layer":"power","name":"Javelina Wind Energy, LLC","state":"TX","detail_file":"data/details/power-plants-01.json","plant_id":"60104","capacity_mw":249.7,"status_group":"Operating","energy_sources":"WND","type":"Power plant","is_nuclear":false}},{"type":"Feature","geometry":{"type":"Point","coordinates":[-97.512,26.25]},"properties":{"key":"63624-d01c5831","layer":"power","name":"La Chalupa, LLC","state":"TX","detail_file":"data/details/power-plants-12.json","plant_id":"63624","capacity_mw":198.5,"status_group":"Operating","energy_sources":"WND","type":"Power plant","is_nuclear":false}},{"type":"Feature","geometry":{"type":"Point","coordinates":[-99.509,27.567]},"properties":{"key":"3439-1cb49660","layer":"power","name":"Laredo","state":"TX","detail_file":"data/details/power-plants-12.json","plant_id":"3439","capacity_mw":263.6,"status_group":"Operating","energy_sources":"NG","type":"Power plant","is_nuclear":false}},{"type":"Feature","geometry":{"type":"Point","coordinates":[-99.057,26.698]},"properties":{"key":"63101-0218a04a","layer":"power","name":"Las Lomas Wind Project","state":"TX","detail_file":"data/details/power-plants-53.json","plant_id":"63101","capacity_mw":201.6,"status_group":"Operating","energy_sources":"WND","type":"Power plant","is_nuclear":false}},{"type":"Feature","geometry":{"type":"Point","coordinates":[-97.545,26.365]},"properties":{"key":"63739-b2254e2f","layer":"power","name":"Las Majadas Wind Farm","state":"TX","detail_file":"data/details/power-plants-03.json","plant_id":"63739","capacity_mw":272.6,"status_group":"Operating","energy_sources":"WND","type":"Power plant","is_nuclear":false}},{"type":"Feature","geometry":{"type":"Point","coordinates":[-99.109,26.688]},"properties":{"key":"64316-4121d065","layer":"power","name":"Lopeno","state":"TX","detail_file":"data/details/power-plants-38.json","plant_id":"64316","capacity_mw":9.9,"status_group":"Operating","energy_sources":"MWH","type":"Power plant","is_nuclear":false}},{"type":"Feature","geometry":{"type":"Point","coordinates":[-98.572,26.412]},"properties":{"key":"60059-45d0c858","layer":"power","name":"Los Vientos V Wind Power","state":"TX","detail_file":"data/details/power-plants-22.json","plant_id":"60059","capacity_mw":110.0,"status_group":"Operating","energy_sources":"WND","type":"Power plant","is_nuclear":false}},{"type":"Feature","geometry":{"type":"Point","coordinates":[-97.586,26.331]},"properties":{"key":"57751-def35473","layer":"power","name":"Los Vientos Wind 1A","state":"TX","detail_file":"data/details/power-plants-09.json","plant_id":"57751","capacity_mw":200.0,"status_group":"Operating","energy_sources":"WND","type":"Power plant","is_nuclear":false}},{"type":"Feature","geometry":{"type":"Point","coordinates":[-97.667,26.349]},"properties":{"key":"57752-c8f768f4","layer":"power","name":"Los Vientos Wind 1B","state":"TX","detail_file":"data/details/power-plants-50.json","plant_id":"57752","capacity_mw":201.6,"status_group":"Operating","energy_sources":"WND","type":"Power plant","is_nuclear":false}},{"type":"Feature","geometry":{"type":"Point","coordinates":[-98.806,26.389]},"properties":{"key":"59320-e7edf828","layer":"power","name":"Los Vientos Windpower III","state":"TX","detail_file":"data/details/power-plants-47.json","plant_id":"59320","capacity_mw":200.0,"status_group":"Operating","energy_sources":"WND","type":"Power plant","is_nuclear":false}},{"type":"Feature","geometry":{"type":"Point","coordinates":[-98.818,26.381]},"properties":{"key":"59321-d8bd36bc","layer":"power","name":"Los Vientos Windpower IV","state":"TX","detail_file":"data/details/power-plants-44.json","plant_id":"59321","capacity_mw":200.0,"status_group":"Operating","energy_sources":"WND","type":"Power plant","is_nuclear":false}},{"type":"Feature","geometry":{"type":"Point","coordinates":[-98.059,26.207]},"properties":{"key":"68496-8fc32007","layer":"power","name":"Lower Rio Energy Storage","state":"TX","detail_file":"data/details/power-plants-30.json","plant_id":"68496","capacity_mw":60.0,"status_group":"Operating","energy_sources":"MWH","type":"Power plant","is_nuclear":false}},{"type":"Feature","geometry":{"type":"Point","coordinates":[-97.497,27.834]},"properties":{"key":"60642-7225842a","layer":"power","name":"M&G Resins USA","state":"TX","detail_file":"data/details/power-plants-40.json","plant_id":"60642","capacity_mw":28.6,"status_group":"Under construction","energy_sources":"WH","type":"Power plant","is_nuclear":false}},{"type":"Feature","geometry":{"type":"Point","coordinates":[-98.33,26.17]},"properties":{"key":"63757-dd0c8a0c","layer":"power","name":"Madero Grid","state":"TX","detail_file":"data/details/power-plants-50.json","plant_id":"63757","capacity_mw":100.0,"status_group":"Operating","energy_sources":"MWH","type":"Power plant","is_nuclear":false}},{"type":"Feature","geometry":{"type":"Point","coordinates":[-98.19,26.34]},"properties":{"key":"55123-f8bc4525","layer":"power","name":"Magic Valley Generating Station","state":"TX","detail_file":"data/details/power-plants-58.json","plant_id":"55123","capacity_mw":801.0,"status_group":"Operating","energy_sources":"NG","type":"Power plant","is_nuclear":false}},{"type":"Feature","geometry":{"type":"Point","coordinates":[-97.691,26.475]},"properties":{"key":"57802-0330f1ca","layer":"power","name":"Magic Valley Wind Farm I LLC","state":"TX","detail_file":"data/details/power-plants-19.json","plant_id":"57802","capacity_mw":203.0,"status_group":"Operating","energy_sources":"WND","type":"Power plant","is_nuclear":false}},{"type":"Feature","geometry":{"type":"Point","coordinates":[-98.835,27.422]},"properties":{"key":"63027-3fc1f024","layer":"power","name":"Mars Solar","state":"TX","detail_file":"data/details/power-plants-45.json","plant_id":"63027","capacity_mw":10.0,"status_group":"Operating","energy_sources":"SUN","type":"Power plant","is_nuclear":false}},{"type":"Feature","geometry":{"type":"Point","coordinates":[-97.823,26.098]},"properties":{"key":"69457-517a8f22","layer":"power","name":"Mesquite Clean Energy Center (BESS)","state":"TX","detail_file":"data/details/power-plants-63.json","plant_id":"69457","capacity_mw":10.1,"status_group":"Under construction","energy_sources":"MWH","type":"Power plant","is_nuclear":false}},{"type":"Feature","geometry":{"type":"Point","coordinates":[-98.746,26.524]},"properties":{"key":"62258-d99af252","layer":"power","name":"Mesteno","state":"TX","detail_file":"data/details/power-plants-41.json","plant_id":"62258","capacity_mw":201.6,"status_group":"Operating","energy_sources":"WND","type":"Power plant","is_nuclear":false}},{"type":"Feature","geometry":{"type":"Point","coordinates":[-97.3,27.955]},"properties":{"key":"61776-896b7f89","layer":"power","name":"Midway Wind, LLC","state":"TX","detail_file":"data/details/power-plants-09.json","plant_id":"61776","capacity_mw":162.9,"status_group":"Operating","energy_sources":"WND","type":"Power plant","is_nuclear":false}},{"type":"Feature","geometry":{"type":"Point","coordinates":[-98.286,26.461]},"properties":{"key":"67875-955eccdd","layer":"power","name":"Monte Cristo 1","state":"TX","detail_file":"data/details/power-plants-22.json","plant_id":"67875","capacity_mw":238.5,"status_group":"Operating","energy_sources":"WND","type":"Power plant","is_nuclear":false}},{"type":"Feature","geometry":{"type":"Point","coordinates":[-97.798,26.09]},"properties":{"key":"65661-053b7d79","layer":"power","name":"Nebula Solar","state":"TX","detail_file":"data/details/power-plants-10.json","plant_id":"65661","capacity_mw":135.0,"status_group":"Operating","energy_sources":"SUN","type":"Power plant","is_nuclear":false}},{"type":"Feature","geometry":{"type":"Point","coordinates":[-97.675,27.553]},"properties":{"key":"65344-b5a5ff52","layer":"power","name":"Noria Hondo Solar (Hybrid)","state":"TX","detail_file":"data/details/power-plants-31.json","plant_id":"65344","capacity_mw":220.0,"status_group":"Under construction","energy_sources":"MWH; SUN","type":"Power plant","is_nuclear":false}},{"type":"Feature","geometry":{"type":"Point","coordinates":[-98.188,26.347]},"properties":{"key":"69253-2ff7ba69","layer":"power","name":"North Edinburg BESS 1","state":"TX","detail_file":"data/details/power-plants-11.json","plant_id":"69253","capacity_mw":10.0,"status_group":"Under construction","energy_sources":"MWH","type":"Power plant","is_nuclear":false}},{"type":"Feature","geometry":{"type":"Point","coordinates":[-97.419,27.819]},"properties":{"key":"3441-d56d85d7","layer":"power","name":"Nueces Bay","state":"TX","detail_file":"data/details/power-plants-40.json","plant_id":"3441","capacity_mw":730.2,"status_group":"Operating","energy_sources":"NG","type":"Power plant","is_nuclear":false}},{"type":"Feature","geometry":{"type":"Point","coordinates":[-97.98,27.918]},"properties":{"key":"65891-a7fb6d88","layer":"power","name":"Orange Grove","state":"TX","detail_file":"data/details/power-plants-06.json","plant_id":"65891","capacity_mw":131.0,"status_group":"Operating","energy_sources":"SUN","type":"Power plant","is_nuclear":false}},{"type":"Feature","geometry":{"type":"Point","coordinates":[-97.496,26.289]},"properties":{"key":"61773-38e01da6","layer":"power","name":"Palmas Wind, LLC","state":"TX","detail_file":"data/details/power-plants-09.json","plant_id":"61773","capacity_mw":144.9,"status_group":"Operating","energy_sources":"WND","type":"Power plant","is_nuclear":false}},{"type":"Feature","geometry":{"type":"Point","coordinates":[-98.369,26.238]},"properties":{"key":"69511-1275333d","layer":"power","name":"Palmview BESS","state":"TX","detail_file":"data/details/power-plants-38.json","plant_id":"69511","capacity_mw":9.9,"status_group":"Under construction","energy_sources":"MWH","type":"Power plant","is_nuclear":false}},{"type":"Feature","geometry":{"type":"Point","coordinates":[-97.459,27.939]},"properties":{"key":"56983-439c5a02","layer":"power","name":"Papalote Creek I LLC","state":"TX","detail_file":"data/details/power-plants-43.json","plant_id":"56983","capacity_mw":180.0,"status_group":"Operating","energy_sources":"WND","type":"Power plant","is_nuclear":false}},{"type":"Feature","geometry":{"type":"Point","coordinates":[-97.297,27.996]},"properties":{"key":"57212-5925eb92","layer":"power","name":"Papalote Creek II LLC","state":"TX","detail_file":"data/details/power-plants-09.json","plant_id":"57212","capacity_mw":200.1,"status_group":"Operating","energy_sources":"WND","type":"Power plant","is_nuclear":false}},{"type":"Feature","geometry":{"type":"Point","coordinates":[-97.64,27.58]},"properties":{"key":"58614-182d4b35","layer":"power","name":"Patriot Wind Farm","state":"TX","detail_file":"data/details/power-plants-40.json","plant_id":"58614","capacity_mw":226.1,"status_group":"Operating","energy_sources":"WND","type":"Power plant","is_nuclear":false}},{"type":"Feature","geometry":{"type":"Point","coordinates":[-97.599,27.001]},"properties":{"key":"56661-c19dbd09","layer":"power","name":"Pattern Gulf Wind","state":"TX","detail_file":"data/details/power-plants-34.json","plant_id":"56661","capacity_mw":283.2,"status_group":"Operating","energy_sources":"WND","type":"Power plant","is_nuclear":false}},{"type":"Feature","geometry":{"type":"Point","coordinates":[-97.557,27.123]},"properties":{"key":"57095-becdffd8","layer":"power","name":"Penascal II Wind Project LLC","state":"TX","detail_file":"data/details/power-plants-36.json","plant_id":"57095","capacity_mw":201.6,"status_group":"Operating","energy_sources":"WND","type":"Power plant","is_nuclear":false}},{"type":"Feature","geometry":{"type":"Point","coordinates":[-97.498,27.022]},"properties":{"key":"56795-b7cb4aa7","layer":"power","name":"Penascal Wind Power LLC","state":"TX","detail_file":"data/details/power-plants-24.json","plant_id":"56795","capacity_mw":201.6,"status_group":"Operating","energy_sources":"WND","type":"Power plant","is_nuclear":false}},{"type":"Feature","geometry":{"type":"Point","coordinates":[-97.733,27.729]},"properties":{"key":"69286-98001ead","layer":"power","name":"Project Lynx","state":"TX","detail_file":"data/details/power-plants-03.json","plant_id":"69286","capacity_mw":125.0,"status_group":"Under construction","energy_sources":"MWH","type":"Power plant","is_nuclear":false}},{"type":"Feature","geometry":{"type":"Point","coordinates":[-99.43,27.301]},"properties":{"key":"67078-52749b1d","layer":"power","name":"Quarter Ranch Solar","state":"TX","detail_file":"data/details/power-plants-32.json","plant_id":"67078","capacity_mw":154.1,"status_group":"Under construction","energy_sources":"SUN","type":"Power plant","is_nuclear":false}},{"type":"Feature","geometry":{"type":"Point","coordinates":[-97.78,26.364]},"properties":{"key":"62909-a5eaea80","layer":"power","name":"Raymond Wind Farm, LLC","state":"TX","detail_file":"data/details/power-plants-58.json","plant_id":"62909","capacity_mw":200.2,"status_group":"Operating","energy_sources":"WND","type":"Power plant","is_nuclear":false}},{"type":"Feature","geometry":{"type":"Point","coordinates":[-98.177,26.451]},"properties":{"key":"59391-0e28c64d","layer":"power","name":"Red Gate Power Plant","state":"TX","detail_file":"data/details/power-plants-35.json","plant_id":"59391","capacity_mw":224.4,"status_group":"Operating","energy_sources":"NG","type":"Power plant","is_nuclear":false}},{"type":"Feature","geometry":{"type":"Point","coordinates":[-98.609,26.515]},"properties":{"key":"69300-d9c10898","layer":"power","name":"Regis Continental","state":"TX","detail_file":"data/details/power-plants-15.json","plant_id":"69300","capacity_mw":9.9,"status_group":"Operating","energy_sources":"MWH","type":"Power plant","is_nuclear":false}},{"type":"Feature","geometry":{"type":"Point","coordinates":[-98.14,27.241]},"properties":{"key":"69349-795692c0","layer":"power","name":"Regis Falfurrias","state":"TX","detail_file":"data/details/power-plants-06.json","plant_id":"69349","capacity_mw":9.9,"status_group":"Operating","energy_sources":"MWH","type":"Power plant","is_nuclear":false}},{"type":"Feature","geometry":{"type":"Point","coordinates":[-98.452,26.247]},"properties":{"key":"69333-a4161cca","layer":"power","name":"Regis Goodwin LLC","state":"TX","detail_file":"data/details/power-plants-01.json","plant_id":"69333","capacity_mw":9.9,"status_group":"Operating","energy_sources":"MWH","type":"Power plant","is_nuclear":false}},{"type":"Feature","geometry":{"type":"Point","coordinates":[-97.309,27.921]},"properties":{"key":"69301-1fe5ab6a","layer":"power","name":"Regis Gregory","state":"TX","detail_file":"data/details/power-plants-07.json","plant_id":"69301","capacity_mw":9.9,"status_group":"Operating","energy_sources":"MWH","type":"Power plant","is_nuclear":false}},{"type":"Feature","geometry":{"type":"Point","coordinates":[-97.611,27.849]},"properties":{"key":"69344-5448fd47","layer":"power","name":"Regis Hearn","state":"TX","detail_file":"data/details/power-plants-61.json","plant_id":"69344","capacity_mw":9.9,"status_group":"Operating","energy_sources":"MWH","type":"Power plant","is_nuclear":false}},{"type":"Feature","geometry":{"type":"Point","coordinates":[-97.548,26.122]},"properties":{"key":"69337-f211abb9","layer":"power","name":"Regis Laureles","state":"TX","detail_file":"data/details/power-plants-58.json","plant_id":"69337","capacity_mw":9.9,"status_group":"Operating","energy_sources":"MWH","type":"Power plant","is_nuclear":false}},{"type":"Feature","geometry":{"type":"Point","coordinates":[-98.315,26.36]},"properties":{"key":"69346-e2013b4a","layer":"power","name":"Regis Monte Cristo LLC","state":"TX","detail_file":"data/details/power-plants-12.json","plant_id":"69346","capacity_mw":9.9,"status_group":"Operating","energy_sources":"MWH","type":"Power plant","is_nuclear":false}},{"type":"Feature","geometry":{"type":"Point","coordinates":[-99.388,27.03]},"properties":{"key":"62207-c4bae601","layer":"power","name":"Reloj del Sol Wind Farm","state":"TX","detail_file":"data/details/power-plants-20.json","plant_id":"62207","capacity_mw":209.4,"status_group":"Operating","energy_sources":"WND","type":"Power plant","is_nuclear":false}},{"type":"Feature","geometry":{"type":"Point","coordinates":[-97.373,25.979]},"properties":{"key":"69120-69fa5794","layer":"power","name":"Resaca Oasis Storage","state":"TX","detail_file":"data/details/power-plants-25.json","plant_id":"69120","capacity_mw":200.7,"status_group":"Under construction","energy_sources":"MWH","type":"Power plant","is_nuclear":false}},{"type":"Feature","geometry":{"type":"Point","coordinates":[-98.098,26.168]},"properties":{"key":"65573-e034f9c4","layer":"power","name":"Ridge Rd","state":"TX","detail_file":"data/details/power-plants-56.json","plant_id":"65573","capacity_mw":9.0,"status_group":"Operating","energy_sources":"DFO","type":"Power plant","is_nuclear":false}},{"type":"Feature","geometry":{"type":"Point","coordinates":[-99.039,26.649]},"properties":{"key":"61865-3817b050","layer":"power","name":"Rio Bravo Windpower, LLC","state":"TX","detail_file":"data/details/power-plants-03.json","plant_id":"61865","capacity_mw":237.6,"status_group":"Operating","energy_sources":"WND","type":"Power plant","is_nuclear":false}},{"type":"Feature","geometry":{"type":"Point","coordinates":[-98.819,26.393]},"properties":{"key":"68687-bb39460e","layer":"power","name":"Rio Grande City BESS 2","state":"TX","detail_file":"data/details/power-plants-32.json","plant_id":"68687","capacity_mw":9.9,"status_group":"Operating","energy_sources":"MWH","type":"Power plant","is_nuclear":false}},{"type":"Feature","geometry":{"type":"Point","coordinates":[-98.615,26.382]},"properties":{"key":"69584-13537fd7","layer":"power","name":"Rising Star Solar","state":"TX","detail_file":"data/details/power-plants-05.json","plant_id":"69584","capacity_mw":500.0,"status_group":"Under construction","energy_sources":"SUN","type":"Power plant","is_nuclear":false}},{"type":"Feature","geometry":{"type":"Point","coordinates":[-98.147,26.288]},"properties":{"key":"69512-cb261765","layer":"power","name":"SE Edinburg BESS","state":"TX","detail_file":"data/details/power-plants-10.json","plant_id":"69512","capacity_mw":9.9,"status_group":"Under construction","energy_sources":"MWH","type":"Power plant","is_nuclear":false}},{"type":"Feature","geometry":{"type":"Point","coordinates":[-98.324,26.168]},"properties":{"key":"69366-bda727b0","layer":"power","name":"SME Mission II BESS","state":"TX","detail_file":"data/details/power-plants-08.json","plant_id":"69366","capacity_mw":10.0,"status_group":"Operating","energy_sources":"MWH","type":"Power plant","is_nuclear":false}},{"type":"Feature","geometry":{"type":"Point","coordinates":[-98.114,26.231]},"properties":{"key":"66929-de62e841","layer":"power","name":"SMT Alamo LLC","state":"TX","detail_file":"data/details/power-plants-23.json","plant_id":"66929","capacity_mw":10.0,"status_group":"Operating","energy_sources":"MWH","type":"Power plant","is_nuclear":false}},{"type":"Feature","geometry":{"type":"Point","coordinates":[-98.01,26.296]},"properties":{"key":"66931-b13ca493","layer":"power","name":"SMT Elsa LLC","state":"TX","detail_file":"data/details/power-plants-12.json","plant_id":"66931","capacity_mw":10.0,"status_group":"Operating","energy_sources":"MWH","type":"Power plant","is_nuclear":false}},{"type":"Feature","geometry":{"type":"Point","coordinates":[-97.726,26.18]},"properties":{"key":"66933-1c89f2f7","layer":"power","name":"SMT Harlingen II LLC","state":"TX","detail_file":"data/details/power-plants-21.json","plant_id":"66933","capacity_mw":10.0,"status_group":"Operating","energy_sources":"MWH","type":"Power plant","is_nuclear":false}},{"type":"Feature","geometry":{"type":"Point","coordinates":[-97.523,26.075]},"properties":{"key":"66932-a51bb0d6","layer":"power","name":"SMT Los Fresnos LLC","state":"TX","detail_file":"data/details/power-plants-46.json","plant_id":"66932","capacity_mw":10.0,"status_group":"Operating","energy_sources":"MWH","type":"Power plant","is_nuclear":false}},{"type":"Feature","geometry":{"type":"Point","coordinates":[-97.913,26.231]},"properties":{"key":"66926-3eeb4ee7","layer":"power","name":"SMT Mercedes LLC","state":"TX","detail_file":"data/details/power-plants-04.json","plant_id":"66926","capacity_mw":10.0,"status_group":"Operating","energy_sources":"MWH","type":"Power plant","is_nuclear":false}},{"type":"Feature","geometry":{"type":"Point","coordinates":[-98.323,26.189]},"properties":{"key":"66927-74dc4f9f","layer":"power","name":"SMT Mission LLC","state":"TX","detail_file":"data/details/power-plants-18.json","plant_id":"66927","capacity_mw":10.0,"status_group":"Operating","energy_sources":"MWH","type":"Power plant","is_nuclear":false}},{"type":"Feature","geometry":{"type":"Point","coordinates":[-98.937,26.409]},"properties":{"key":"66934-5b647e2f","layer":"power","name":"SMT Rio Grande I LLC","state":"TX","detail_file":"data/details/power-plants-38.json","plant_id":"66934","capacity_mw":10.0,"status_group":"Operating","energy_sources":"MWH","type":"Power plant","is_nuclear":false}},{"type":"Feature","geometry":{"type":"Point","coordinates":[-98.82,26.391]},"properties":{"key":"66935-e5dea18d","layer":"power","name":"SMT Rio Grande II LLC","state":"TX","detail_file":"data/details/power-plants-40.json","plant_id":"66935","capacity_mw":10.0,"status_group":"Operating","energy_sources":"MWH","type":"Power plant","is_nuclear":false}},{"type":"Feature","geometry":{"type":"Point","coordinates":[-97.823,26.232]},"properties":{"key":"66928-b00eff7b","layer":"power","name":"SMT Santa Rosa LLC","state":"TX","detail_file":"data/details/power-plants-22.json","plant_id":"66928","capacity_mw":10.0,"status_group":"Operating","energy_sources":"MWH","type":"Power plant","is_nuclear":false}},{"type":"Feature","geometry":{"type":"Point","coordinates":[-97.378,26.126]},"properties":{"key":"59712-a1778a1e","layer":"power","name":"San Roman Wind I, LLC","state":"TX","detail_file":"data/details/power-plants-53.json","plant_id":"59712","capacity_mw":95.3,"status_group":"Operating","energy_sources":"WND","type":"Power plant","is_nuclear":false}},{"type":"Feature","geometry":{"type":"Point","coordinates":[-97.823,26.231]},"properties":{"key":"65574-94bf90e3","layer":"power","name":"Santa Rosa","state":"TX","detail_file":"data/details/power-plants-51.json","plant_id":"65574","capacity_mw":9.0,"status_group":"Operating","energy_sources":"DFO","type":"Power plant","is_nuclear":false}},{"type":"Feature","geometry":{"type":"Point","coordinates":[-98.917,27.18]},"properties":{"key":"59654-4cce12b0","layer":"power","name":"Sendero","state":"TX","detail_file":"data/details/power-plants-08.json","plant_id":"59654","capacity_mw":78.0,"status_group":"Operating","energy_sources":"WND","type":"Power plant","is_nuclear":false}},{"type":"Feature","geometry":{"type":"Point","coordinates":[-99.417,27.456]},"properties":{"key":"66689-68a767c6","layer":"power","name":"Seven Flags BESS LLC","state":"TX","detail_file":"data/details/power-plants-63.json","plant_id":"66689","capacity_mw":100.0,"status_group":"Operating","energy_sources":"MWH","type":"Power plant","is_nuclear":false}},{"type":"Feature","geometry":{"type":"Point","coordinates":[-97.521,25.913]},"properties":{"key":"3559-0dae57ac","layer":"power","name":"Silas Ray","state":"TX","detail_file":"data/details/power-plants-60.json","plant_id":"3559","capacity_mw":142.5,"status_group":"Operating","energy_sources":"DFO; NG","type":"Power plant","is_nuclear":false}},{"type":"Feature","geometry":{"type":"Point","coordinates":[-99.017,26.523]},"properties":{"key":"65975-9f8538cc","layer":"power","name":"Starr Solar Ranch","state":"TX","detail_file":"data/details/power-plants-36.json","plant_id":"65975","capacity_mw":136.0,"status_group":"Operating","energy_sources":"SUN","type":"Power plant","is_nuclear":false}},{"type":"Feature","geometry":{"type":"Point","coordinates":[-99.017,26.523]},"properties":{"key":"65975-a3284a05","layer":"power","name":"Starr Solar Ranch","state":"TX","detail_file":"data/details/power-plants-47.json","plant_id":"65975","capacity_mw":180.0,"status_group":"Under construction","energy_sources":"MWH","type":"Power plant","is_nuclear":false}},{"type":"Feature","geometry":{"type":"Point","coordinates":[-97.642,26.942]},"properties":{"key":"59063-aff57ec9","layer":"power","name":"Stella Wind Farm","state":"TX","detail_file":"data/details/power-plants-62.json","plant_id":"59063","capacity_mw":201.0,"status_group":"Operating","energy_sources":"WND","type":"Power plant","is_nuclear":false}},{"type":"Feature","geometry":{"type":"Point","coordinates":[-97.8,27.819]},"properties":{"key":"68034-12d32328","layer":"power","name":"Sunscape Renewable Energy","state":"TX","detail_file":"data/details/power-plants-49.json","plant_id":"68034","capacity_mw":1000.0,"status_group":"Planned","energy_sources":"MWH; SUN","type":"Power plant","is_nuclear":false}},{"type":"Feature","geometry":{"type":"Point","coordinates":[-97.823,27.57]},"properties":{"key":"10243-0e76a457","layer":"power","name":"Ticona Polymers Inc","state":"TX","detail_file":"data/details/power-plants-55.json","plant_id":"10243","capacity_mw":44.2,"status_group":"Operating","energy_sources":"NG","type":"Power plant","is_nuclear":false}},{"type":"Feature","geometry":{"type":"Point","coordinates":[-98.839,27.619]},"properties":{"key":"69534-f392ec96","layer":"power","name":"Torrecillas Energy Storage","state":"TX","detail_file":"data/details/power-plants-32.json","plant_id":"69534","capacity_mw":9.9,"status_group":"Under construction","energy_sources":"MWH","type":"Power plant","is_nuclear":false}},{"type":"Feature","geometry":{"type":"Point","coordinates":[-98.794,27.614]},"properties":{"key":"61969-44dcd3b2","layer":"power","name":"Torrecillas Wind Energy, LLC","state":"TX","detail_file":"data/details/power-plants-42.json","plant_id":"61969","capacity_mw":300.0,"status_group":"Operating","energy_sources":"WND","type":"Power plant","is_nuclear":false}},{"type":"Feature","geometry":{"type":"Point","coordinates":[-98.08,26.234]},"properties":{"key":"65837-d76bbbf7","layer":"power","name":"Val Verde","state":"TX","detail_file":"data/details/power-plants-63.json","plant_id":"65837","capacity_mw":9.9,"status_group":"Operating","energy_sources":"MWH","type":"Power plant","is_nuclear":false}},{"type":"Feature","geometry":{"type":"Point","coordinates":[-97.481,27.817]},"properties":{"key":"50121-2b337b4d","layer":"power","name":"Valero Refinery Corpus Christi West","state":"TX","detail_file":"data/details/power-plants-61.json","plant_id":"50121","capacity_mw":69.2,"status_group":"Operating","energy_sources":"PC; WH","type":"Power plant","is_nuclear":false}},{"type":"Feature","geometry":{"type":"Point","coordinates":[-97.798,26.09]},"properties":{"key":"65662-19f4fad6","layer":"power","name":"Vancourt Solar Interconnections","state":"TX","detail_file":"data/details/power-plants-27.json","plant_id":"65662","capacity_mw":45.0,"status_group":"Operating","energy_sources":"SUN","type":"Power plant","is_nuclear":false}},{"type":"Feature","geometry":{"type":"Point","coordinates":[-97.654,26.168]},"properties":{"key":"65579-87472a65","layer":"power","name":"Vaquero","state":"TX","detail_file":"data/details/power-plants-35.json","plant_id":"65579","capacity_mw":9.0,"status_group":"Operating","energy_sources":"DFO","type":"Power plant","is_nuclear":false}},{"type":"Feature","geometry":{"type":"Point","coordinates":[-97.596,26.021]},"properties":{"key":"65580-6ea09a48","layer":"power","name":"Villa Cavasos","state":"TX","detail_file":"data/details/power-plants-26.json","plant_id":"65580","capacity_mw":9.0,"status_group":"Operating","energy_sources":"DFO","type":"Power plant","is_nuclear":false}},{"type":"Feature","geometry":{"type":"Point","coordinates":[-98.316,26.261]},"properties":{"key":"64901-a012dc5a","layer":"power","name":"WAL3320","state":"TX","detail_file":"data/details/power-plants-33.json","plant_id":"64901","capacity_mw":1.2,"status_group":"Operating","energy_sources":"NG","type":"Power plant","is_nuclear":false}},{"type":"Feature","geometry":{"type":"Point","coordinates":[-99.472,27.613]},"properties":{"key":"64933-46bdb9bb","layer":"power","name":"WAL3518","state":"TX","detail_file":"data/details/power-plants-25.json","plant_id":"64933","capacity_mw":1.2,"status_group":"Operating","energy_sources":"NG","type":"Power plant","is_nuclear":false}},{"type":"Feature","geometry":{"type":"Point","coordinates":[-98.205,26.268]},"properties":{"key":"64940-058b8a37","layer":"power","name":"WAL3886","state":"TX","detail_file":"data/details/power-plants-48.json","plant_id":"64940","capacity_mw":1.2,"status_group":"Operating","energy_sources":"NG","type":"Power plant","is_nuclear":false}},{"type":"Feature","geometry":{"type":"Point","coordinates":[-98.245,26.244]},"properties":{"key":"64776-bb0e22b0","layer":"power","name":"WAL452","state":"TX","detail_file":"data/details/power-plants-17.json","plant_id":"64776","capacity_mw":1.2,"status_group":"Operating","energy_sources":"NG","type":"Power plant","is_nuclear":false}},{"type":"Feature","geometry":{"type":"Point","coordinates":[-97.519,25.976]},"properties":{"key":"64777-76b84bad","layer":"power","name":"WAL456","state":"TX","detail_file":"data/details/power-plants-44.json","plant_id":"64777","capacity_mw":1.2,"status_group":"Operating","energy_sources":"NG","type":"Power plant","is_nuclear":false}},{"type":"Feature","geometry":{"type":"Point","coordinates":[-98.128,26.192]},"properties":{"key":"64951-0dbe5f7a","layer":"power","name":"WAL5165","state":"TX","detail_file":"data/details/power-plants-36.json","plant_id":"64951","capacity_mw":1.2,"status_group":"Operating","energy_sources":"NG","type":"Power plant","is_nuclear":false}},{"type":"Feature","geometry":{"type":"Point","coordinates":[-99.462,27.611]},"properties":{"key":"64961-558d25dc","layer":"power","name":"WAL5713","state":"TX","detail_file":"data/details/power-plants-14.json","plant_id":"64961","capacity_mw":1.2,"status_group":"Operating","energy_sources":"NG","type":"Power plant","is_nuclear":false}},{"type":"Feature","geometry":{"type":"Point","coordinates":[-98.043,27.769]},"properties":{"key":"64804-5880cf60","layer":"power","name":"WAL791","state":"TX","detail_file":"data/details/power-plants-43.json","plant_id":"64804","capacity_mw":1.2,"status_group":"Operating","energy_sources":"NG","type":"Power plant","is_nuclear":false}},{"type":"Feature","geometry":{"type":"Point","coordinates":[-97.487,27.797]},"properties":{"key":"66783-5c8bc5d8","layer":"power","name":"Weil Tract BESS","state":"TX","detail_file":"data/details/power-plants-55.json","plant_id":"66783","capacity_mw":9.9,"status_group":"Operating","energy_sources":"MWH","type":"Power plant","is_nuclear":false}},{"type":"Feature","geometry":{"type":"Point","coordinates":[-97.993,26.377]},"properties":{"key":"62855-e3dc488f","layer":"power","name":"West Raymond Wind Farm LLC","state":"TX","detail_file":"data/details/power-plants-48.json","plant_id":"62855","capacity_mw":239.8,"status_group":"Operating","energy_sources":"WND","type":"Power plant","is_nuclear":false}},{"type":"Feature","geometry":{"type":"Point","coordinates":[-99.005,27.488]},"properties":{"key":"58021-3cddec0a","layer":"power","name":"Whitetail","state":"TX","detail_file":"data/details/power-plants-54.json","plant_id":"58021","capacity_mw":92.0,"status_group":"Operating","energy_sources":"WND","type":"Power plant","is_nuclear":false}},{"type":"Feature","geometry":{"type":"Point","coordinates":[-99.276,27.577]},"properties":{"key":"66616-eb9ac78b","layer":"power","name":"Wolf Tank Storage","state":"TX","detail_file":"data/details/power-plants-34.json","plant_id":"66616","capacity_mw":150.0,"status_group":"Operating","energy_sources":"MWH","type":"Power plant","is_nuclear":false}},{"type":"Feature","geometry":{"type":"Point","coordinates":[-99.234,26.933]},"properties":{"key":"64322-aaf57165","layer":"power","name":"Zapata","state":"TX","detail_file":"data/details/power-plants-21.json","plant_id":"64322","capacity_mw":19.8,"status_group":"Operating","energy_sources":"MWH","type":"Power plant","is_nuclear":false}}]}