{"type":"FeatureCollection","features":[{"type":"Feature","geometry":{"type":"Point","coordinates":[-103.631,40.242]},"properties":{"key":"10682-31c02e3b","layer":"power","name":"Brush Generation Facility","state":"CO","detail_file":"data/details/power-plants-38.json","plant_id":"10682","capacity_mw":273.4,"status_group":"Operating","energy_sources":"NG","type":"Power plant","is_nuclear":false}},{"type":"Feature","geometry":{"type":"Point","coordinates":[-103.204,40.666]},"properties":{"key":"67465-56acba2c","layer":"power","name":"CBEP Solar 1, LLC","state":"CO","detail_file":"data/details/power-plants-44.json","plant_id":"67465","capacity_mw":5.0,"status_group":"Operating","energy_sources":"SUN","type":"Power plant","is_nuclear":false}},{"type":"Feature","geometry":{"type":"Point","coordinates":[-103.784,40.947]},"properties":{"key":"57210-97958c27","layer":"power","name":"Cedar Creek II","state":"CO","detail_file":"data/details/power-plants-62.json","plant_id":"57210","capacity_mw":248.3,"status_group":"Operating","energy_sources":"WND","type":"Power plant","is_nuclear":false}},{"type":"Feature","geometry":{"type":"Point","coordinates":[-102.743,40.757]},"properties":{"key":"57174-f8877856","layer":"power","name":"Colorado Highlands Wind","state":"CO","detail_file":"data/details/power-plants-08.json","plant_id":"57174","capacity_mw":96.1,"status_group":"Operating","energy_sources":"WND","type":"Power plant","is_nuclear":false}},{"type":"Feature","geometry":{"type":"Point","coordinates":[-103.784,40.265]},"properties":{"key":"70121-81b05927","layer":"power","name":"Fort Morgan Solar","state":"CO","detail_file":"data/details/power-plants-38.json","plant_id":"70121","capacity_mw":3.4,"status_group":"Operating","energy_sources":"SUN","type":"Power plant","is_nuclear":false}},{"type":"Feature","geometry":{"type":"Point","coordinates":[-103.57,40.26]},"properties":{"key":"69278-828a06b2","layer":"power","name":"Fortress 1","state":"CO","detail_file":"data/details/power-plants-03.json","plant_id":"69278","capacity_mw":398.9,"status_group":"Under construction","energy_sources":"MWH; SUN","type":"Power plant","is_nuclear":false}},{"type":"Feature","geometry":{"type":"Point","coordinates":[-102.279,40.95]},"properties":{"key":"504-b27c8632","layer":"power","name":"Julesburg","state":"CO","detail_file":"data/details/power-plants-34.json","plant_id":"504","capacity_mw":2.8,"status_group":"Operating","energy_sources":"DFO","type":"Power plant","is_nuclear":false}},{"type":"Feature","geometry":{"type":"Point","coordinates":[-103.145,40.61]},"properties":{"key":"60722-be19ed66","layer":"power","name":"Logan 1 Community Solar Array","state":"CO","detail_file":"data/details/power-plants-59.json","plant_id":"60722","capacity_mw":1.5,"status_group":"Operating","energy_sources":"SUN","type":"Power plant","is_nuclear":false}},{"type":"Feature","geometry":{"type":"Point","coordinates":[-103.259,40.941]},"properties":{"key":"56613-6aafcf97","layer":"power","name":"Logan Wind Energy","state":"CO","detail_file":"data/details/power-plants-45.json","plant_id":"56613","capacity_mw":201.0,"status_group":"Operating","energy_sources":"WND","type":"Power plant","is_nuclear":false}},{"type":"Feature","geometry":{"type":"Point","coordinates":[-103.685,40.217]},"properties":{"key":"55127-9869bc96","layer":"power","name":"Manchief Electric Generating Station","state":"CO","detail_file":"data/details/power-plants-53.json","plant_id":"55127","capacity_mw":300.0,"status_group":"Operating","energy_sources":"NG","type":"Power plant","is_nuclear":false}},{"type":"Feature","geometry":{"type":"Point","coordinates":[-103.234,40.614]},"properties":{"key":"64352-55550533","layer":"power","name":"Mtn Solar 6 LLC (CSG)","state":"CO","detail_file":"data/details/power-plants-32.json","plant_id":"64352","capacity_mw":2.0,"status_group":"Operating","energy_sources":"SUN","type":"Power plant","is_nuclear":false}},{"type":"Feature","geometry":{"type":"Point","coordinates":[-103.619,40.281]},"properties":{"key":"63379-9d7d5520","layer":"power","name":"Mtn. Solar 3 CSG","state":"CO","detail_file":"data/details/power-plants-58.json","plant_id":"63379","capacity_mw":1.5,"status_group":"Operating","energy_sources":"SUN","type":"Power plant","is_nuclear":false}},{"type":"Feature","geometry":{"type":"Point","coordinates":[-103.234,40.614]},"properties":{"key":"64353-3f9e3e9d","layer":"power","name":"NSE Camber Solar PS11 LLC (CSG)","state":"CO","detail_file":"data/details/power-plants-17.json","plant_id":"64353","capacity_mw":2.0,"status_group":"Operating","energy_sources":"SUN","type":"Power plant","is_nuclear":false}},{"type":"Feature","geometry":{"type":"Point","coordinates":[-103.159,40.619]},"properties":{"key":"64356-1c8abecb","layer":"power","name":"NSE Camber Solar PS13 LLC (CSG)","state":"CO","detail_file":"data/details/power-plants-09.json","plant_id":"64356","capacity_mw":2.0,"status_group":"Operating","energy_sources":"SUN","type":"Power plant","is_nuclear":false}},{"type":"Feature","geometry":{"type":"Point","coordinates":[-102.953,40.613]},"properties":{"key":"65059-3acea05d","layer":"power","name":"Niyol Wind, LLC","state":"CO","detail_file":"data/details/power-plants-56.json","plant_id":"65059","capacity_mw":205.6,"status_group":"Operating","energy_sources":"WND","type":"Power plant","is_nuclear":false}},{"type":"Feature","geometry":{"type":"Point","coordinates":[-102.897,40.988]},"properties":{"key":"57290-f369c439","layer":"power","name":"Northern Colorado Wind LLC","state":"CO","detail_file":"data/details/power-plants-44.json","plant_id":"57290","capacity_mw":174.3,"status_group":"Operating","energy_sources":"WND","type":"Power plant","is_nuclear":false}},{"type":"Feature","geometry":{"type":"Point","coordinates":[-103.908,40.952]},"properties":{"key":"64872-40c60151","layer":"power","name":"Panorama Wind, LLC","state":"CO","detail_file":"data/details/power-plants-33.json","plant_id":"64872","capacity_mw":145.0,"status_group":"Operating","energy_sources":"WND","type":"Power plant","is_nuclear":false}},{"type":"Feature","geometry":{"type":"Point","coordinates":[-103.68,40.222]},"properties":{"key":"6248-55a5e3c0","layer":"power","name":"Pawnee","state":"CO","detail_file":"data/details/power-plants-48.json","plant_id":"6248","capacity_mw":552.3,"status_group":"Operating","energy_sources":"NG","type":"Power plant","is_nuclear":false}},{"type":"Feature","geometry":{"type":"Point","coordinates":[-103.436,40.986]},"properties":{"key":"56563-8cb9c09f","layer":"power","name":"Peetz Table Wind Energy","state":"CO","detail_file":"data/details/power-plants-38.json","plant_id":"56563","capacity_mw":199.5,"status_group":"Operating","energy_sources":"WND","type":"Power plant","is_nuclear":false}},{"type":"Feature","geometry":{"type":"Point","coordinates":[-103.657,40.267]},"properties":{"key":"64650-be9c1517","layer":"power","name":"Pivot Solar 14 LLC (CSG)","state":"CO","detail_file":"data/details/power-plants-39.json","plant_id":"64650","capacity_mw":2.0,"status_group":"Operating","energy_sources":"SUN","type":"Power plant","is_nuclear":false}},{"type":"Feature","geometry":{"type":"Point","coordinates":[-103.657,40.267]},"properties":{"key":"64651-28757566","layer":"power","name":"Pivot Solar 2 LLC (CSG)","state":"CO","detail_file":"data/details/power-plants-60.json","plant_id":"64651","capacity_mw":2.0,"status_group":"Operating","energy_sources":"SUN","type":"Power plant","is_nuclear":false}},{"type":"Feature","geometry":{"type":"Point","coordinates":[-103.634,40.275]},"properties":{"key":"68991-ce087ff2","layer":"power","name":"Pivot Solar 32","state":"CO","detail_file":"data/details/power-plants-28.json","plant_id":"68991","capacity_mw":5.0,"status_group":"Operating","energy_sources":"SUN","type":"Power plant","is_nuclear":false}},{"type":"Feature","geometry":{"type":"Point","coordinates":[-103.234,40.621]},"properties":{"key":"68945-d2395b25","layer":"power","name":"Pivot Solar 37","state":"CO","detail_file":"data/details/power-plants-56.json","plant_id":"68945","capacity_mw":2.5,"status_group":"Operating","energy_sources":"SUN","type":"Power plant","is_nuclear":false}},{"type":"Feature","geometry":{"type":"Point","coordinates":[-103.634,40.273]},"properties":{"key":"69017-156ec1d1","layer":"power","name":"Pivot Solar 52","state":"CO","detail_file":"data/details/power-plants-50.json","plant_id":"69017","capacity_mw":3.7,"status_group":"Operating","energy_sources":"SUN","type":"Power plant","is_nuclear":false}},{"type":"Feature","geometry":{"type":"Point","coordinates":[-103.829,40.262]},"properties":{"key":"70119-35d953f4","layer":"power","name":"Raceway Solar - (CO)","state":"CO","detail_file":"data/details/power-plants-29.json","plant_id":"70119","capacity_mw":7.0,"status_group":"Under construction","energy_sources":"SUN","type":"Power plant","is_nuclear":false}},{"type":"Feature","geometry":{"type":"Point","coordinates":[-103.132,40.666]},"properties":{"key":"63092-179f8592","layer":"power","name":"Riverview Solar","state":"CO","detail_file":"data/details/power-plants-34.json","plant_id":"63092","capacity_mw":1.5,"status_group":"Operating","energy_sources":"SUN","type":"Power plant","is_nuclear":false}},{"type":"Feature","geometry":{"type":"Point","coordinates":[-103.709,40.195]},"properties":{"key":"69972-8a1f9b7d","layer":"power","name":"South Platte Solar","state":"CO","detail_file":"data/details/power-plants-23.json","plant_id":"69972","capacity_mw":150.0,"status_group":"Under construction","energy_sources":"SUN","type":"Power plant","is_nuclear":false}},{"type":"Feature","geometry":{"type":"Point","coordinates":[-103.42,40.12]},"properties":{"key":"70053-4319a3b6","layer":"power","name":"South Platte Storage","state":"CO","detail_file":"data/details/power-plants-42.json","plant_id":"70053","capacity_mw":250.0,"status_group":"Under construction","energy_sources":"MWH","type":"Power plant","is_nuclear":false}},{"type":"Feature","geometry":{"type":"Point","coordinates":[-102.965,40.983]},"properties":{"key":"56320-d6144fc7","layer":"power","name":"Spring Canyon","state":"CO","detail_file":"data/details/power-plants-04.json","plant_id":"56320","capacity_mw":60.0,"status_group":"Operating","energy_sources":"WND","type":"Power plant","is_nuclear":false}},{"type":"Feature","geometry":{"type":"Point","coordinates":[-103.077,40.964]},"properties":{"key":"58769-5a036814","layer":"power","name":"Spring Canyon Expansion Wind Energy Ctr","state":"CO","detail_file":"data/details/power-plants-13.json","plant_id":"58769","capacity_mw":62.6,"status_group":"Operating","energy_sources":"WND","type":"Power plant","is_nuclear":false}},{"type":"Feature","geometry":{"type":"Point","coordinates":[-103.195,40.632]},"properties":{"key":"59198-63d3ac9b","layer":"power","name":"Sterling PV 3","state":"CO","detail_file":"data/details/power-plants-08.json","plant_id":"59198","capacity_mw":1.6,"status_group":"Operating","energy_sources":"SUN","type":"Power plant","is_nuclear":false}},{"type":"Feature","geometry":{"type":"Point","coordinates":[-103.807,40.263]},"properties":{"key":"58081-bf0ddfb3","layer":"power","name":"Western Sugar Coop- Ft Morgan","state":"CO","detail_file":"data/details/power-plants-46.json","plant_id":"58081","capacity_mw":3.0,"status_group":"Operating","energy_sources":"NG","type":"Power plant","is_nuclear":false}},{"type":"Feature","geometry":{"type":"Point","coordinates":[-102.7,40.122]},"properties":{"key":"70122-ae551c8a","layer":"power","name":"Yuma Solar","state":"CO","detail_file":"data/details/power-plants-56.json","plant_id":"70122","capacity_mw":2.8,"status_group":"Operating","energy_sources":"SUN","type":"Power plant","is_nuclear":false}},{"type":"Feature","geometry":{"type":"Point","coordinates":[-102.872,42.096]},"properties":{"key":"70124-676be2cb","layer":"power","name":"Alliance Solar","state":"NE","detail_file":"data/details/power-plants-25.json","plant_id":"70124","capacity_mw":7.8,"status_group":"Operating","energy_sources":"SUN","type":"Power plant","is_nuclear":false}},{"type":"Feature","geometry":{"type":"Point","coordinates":[-100.177,40.286]},"properties":{"key":"2223-e0b7ea39","layer":"power","name":"Cambridge","state":"NE","detail_file":"data/details/power-plants-04.json","plant_id":"2223","capacity_mw":4.0,"status_group":"Operating","energy_sources":"DFO","type":"Power plant","is_nuclear":false}},{"type":"Feature","geometry":{"type":"Point","coordinates":[-102.472,41.093]},"properties":{"key":"2230-b55714d2","layer":"power","name":"Chappell","state":"NE","detail_file":"data/details/power-plants-04.json","plant_id":"2230","capacity_mw":1.1,"status_group":"Operating","energy_sources":"DFO","type":"Power plant","is_nuclear":false}},{"type":"Feature","geometry":{"type":"Point","coordinates":[-100.515,40.631]},"properties":{"key":"2232-5c417e76","layer":"power","name":"Curtis","state":"NE","detail_file":"data/details/power-plants-14.json","plant_id":"2232","capacity_mw":3.4,"status_group":"Operating","energy_sources":"NG","type":"Power plant","is_nuclear":false}},{"type":"Feature","geometry":{"type":"Point","coordinates":[-101.141,41.081]},"properties":{"key":"6077-104f1ccc","layer":"power","name":"Gerald Gentleman","state":"NE","detail_file":"data/details/power-plants-42.json","plant_id":"6077","capacity_mw":1362.6,"status_group":"Operating","energy_sources":"SUB","type":"Power plant","is_nuclear":false}},{"type":"Feature","geometry":{"type":"Point","coordinates":[-103.639,41.834]},"properties":{"key":"70127-cf2c3483","layer":"power","name":"Gering Solar","state":"NE","detail_file":"data/details/power-plants-16.json","plant_id":"70127","capacity_mw":4.0,"status_group":"Operating","energy_sources":"SUN","type":"Power plant","is_nuclear":false}},{"type":"Feature","geometry":{"type":"Point","coordinates":[-100.398,40.959]},"properties":{"key":"2227-5fa7d63e","layer":"power","name":"Jeffrey","state":"NE","detail_file":"data/details/power-plants-12.json","plant_id":"2227","capacity_mw":21.6,"status_group":"Operating","energy_sources":"WAT","type":"Power plant","is_nuclear":false}},{"type":"Feature","geometry":{"type":"Point","coordinates":[-103.667,41.238]},"properties":{"key":"2248-5ea32171","layer":"power","name":"Kimball","state":"NE","detail_file":"data/details/power-plants-24.json","plant_id":"2248","capacity_mw":8.0,"status_group":"Operating","energy_sources":"DFO","type":"Power plant","is_nuclear":false}},{"type":"Feature","geometry":{"type":"Point","coordinates":[-103.698,41.274]},"properties":{"key":"56106-99feeaa4","layer":"power","name":"Kimball Wind","state":"NE","detail_file":"data/details/power-plants-59.json","plant_id":"56106","capacity_mw":30.0,"status_group":"Operating","energy_sources":"WND","type":"Power plant","is_nuclear":false}},{"type":"Feature","geometry":{"type":"Point","coordinates":[-101.668,41.211]},"properties":{"key":"785-47916188","layer":"power","name":"Kingsley","state":"NE","detail_file":"data/details/power-plants-40.json","plant_id":"785","capacity_mw":50.0,"status_group":"Operating","energy_sources":"WAT","type":"Power plant","is_nuclear":false}},{"type":"Feature","geometry":{"type":"Point","coordinates":[-100.651,40.221]},"properties":{"key":"2271-757ee479","layer":"power","name":"McCook","state":"NE","detail_file":"data/details/power-plants-40.json","plant_id":"2271","capacity_mw":56.7,"status_group":"Operating","energy_sources":"DFO","type":"Power plant","is_nuclear":false}},{"type":"Feature","geometry":{"type":"Point","coordinates":[-100.759,41.086]},"properties":{"key":"2274-56c60152","layer":"power","name":"North Platte","state":"NE","detail_file":"data/details/power-plants-54.json","plant_id":"2274","capacity_mw":26.2,"status_group":"Operating","energy_sources":"WAT","type":"Power plant","is_nuclear":false}},{"type":"Feature","geometry":{"type":"Point","coordinates":[-102.978,41.143]},"properties":{"key":"70129-0db32aeb","layer":"power","name":"Sidney Solar","state":"NE","detail_file":"data/details/power-plants-39.json","plant_id":"70129","capacity_mw":3.8,"status_group":"Operating","energy_sources":"SUN","type":"Power plant","is_nuclear":false}},{"type":"Feature","geometry":{"type":"Point","coordinates":[-100.592,42.859]},"properties":{"key":"59736-4ab0a5b2","layer":"power","name":"Valentine Wind, LLC","state":"NE","detail_file":"data/details/power-plants-52.json","plant_id":"59736","capacity_mw":1.9,"status_group":"Operating","energy_sources":"WND","type":"Power plant","is_nuclear":false}},{"type":"Feature","geometry":{"type":"Point","coordinates":[-103.649,41.889]},"properties":{"key":"64365-69d3597c","layer":"power","name":"Western Meadowlark Solar SCS NE 1, LLC","state":"NE","detail_file":"data/details/power-plants-58.json","plant_id":"64365","capacity_mw":4.4,"status_group":"Operating","energy_sources":"SUN","type":"Power plant","is_nuclear":false}},{"type":"Feature","geometry":{"type":"Point","coordinates":[-103.634,41.859]},"properties":{"key":"57937-0e24446d","layer":"power","name":"Western Sugar Coop - Scottsbluff","state":"NE","detail_file":"data/details/power-plants-47.json","plant_id":"57937","capacity_mw":7.1,"status_group":"Operating","energy_sources":"NG","type":"Power plant","is_nuclear":false}},{"type":"Feature","geometry":{"type":"Point","coordinates":[-103.344,43.155]},"properties":{"key":"64968-fea6e23a","layer":"power","name":"Fall River Solar, LLC","state":"SD","detail_file":"data/details/power-plants-35.json","plant_id":"64968","capacity_mw":80.0,"status_group":"Operating","energy_sources":"SUN","type":"Power plant","is_nuclear":false}}]}