{"type":"FeatureCollection","features":[{"type":"Feature","geometry":{"type":"Point","coordinates":[-76.109,44.162]},"properties":{"key":"65161-5e945999","layer":"power","name":"ASA Clayton NY Solar I LLC","state":"NY","detail_file":"data/details/power-plants-63.json","plant_id":"65161","capacity_mw":1.3,"status_group":"Operating","energy_sources":"SUN","type":"Power plant","is_nuclear":false}},{"type":"Feature","geometry":{"type":"Point","coordinates":[-76.012,44.255]},"properties":{"key":"64084-b57803bb","layer":"power","name":"Blanchard Road 1 Community Solar","state":"NY","detail_file":"data/details/power-plants-62.json","plant_id":"64084","capacity_mw":10.0,"status_group":"Operating","energy_sources":"MWH; SUN","type":"Power plant","is_nuclear":false}},{"type":"Feature","geometry":{"type":"Point","coordinates":[-76.012,44.255]},"properties":{"key":"64087-a225d872","layer":"power","name":"Blanchard Road 2 Community Solar","state":"NY","detail_file":"data/details/power-plants-59.json","plant_id":"64087","capacity_mw":10.0,"status_group":"Operating","energy_sources":"MWH; SUN","type":"Power plant","is_nuclear":false}},{"type":"Feature","geometry":{"type":"Point","coordinates":[-76.041,44.004]},"properties":{"key":"10538-fd6f0401","layer":"power","name":"Dexter Plant","state":"NY","detail_file":"data/details/power-plants-55.json","plant_id":"10538","capacity_mw":4.2,"status_group":"Operating","energy_sources":"WAT","type":"Power plant","is_nuclear":false}},{"type":"Feature","geometry":{"type":"Point","coordinates":[-76.009,44.013]},"properties":{"key":"66828-a4ff0de7","layer":"power","name":"FFP - NY Game Farm CSG","state":"NY","detail_file":"data/details/power-plants-09.json","plant_id":"66828","capacity_mw":5.0,"status_group":"Operating","energy_sources":"SUN","type":"Power plant","is_nuclear":false}},{"type":"Feature","geometry":{"type":"Point","coordinates":[-76.012,44.255]},"properties":{"key":"64092-a54b866d","layer":"power","name":"Great Lakes Seaway Community Solar","state":"NY","detail_file":"data/details/power-plants-19.json","plant_id":"64092","capacity_mw":10.0,"status_group":"Operating","energy_sources":"MWH; SUN","type":"Power plant","is_nuclear":false}},{"type":"Feature","geometry":{"type":"Point","coordinates":[-76.012,44.255]},"properties":{"key":"64090-5ea9378e","layer":"power","name":"NYS Rte 12 Community Solar","state":"NY","detail_file":"data/details/power-plants-12.json","plant_id":"64090","capacity_mw":10.0,"status_group":"Operating","energy_sources":"MWH; SUN","type":"Power plant","is_nuclear":false}},{"type":"Feature","geometry":{"type":"Point","coordinates":[-76.122,44.066]},"properties":{"key":"67325-116cafc2","layer":"power","name":"Riverside Solar LLC","state":"NY","detail_file":"data/details/power-plants-33.json","plant_id":"67325","capacity_mw":100.0,"status_group":"Planned","energy_sources":"SUN","type":"Power plant","is_nuclear":false}}]}