{"type":"FeatureCollection","features":[{"type":"Feature","geometry":{"type":"Point","coordinates":[-101.836,47.371]},"properties":{"key":"6469-a62d82ef","layer":"power","name":"Antelope Valley","state":"ND","detail_file":"data/details/power-plants-54.json","plant_id":"6469","capacity_mw":954.0,"status_group":"Operating","energy_sources":"LIG","type":"Power plant","is_nuclear":false}},{"type":"Feature","geometry":{"type":"Point","coordinates":[-100.709,47.113]},"properties":{"key":"57347-90848caf","layer":"power","name":"Baldwin Wind LLC","state":"ND","detail_file":"data/details/power-plants-42.json","plant_id":"57347","capacity_mw":102.4,"status_group":"Operating","energy_sources":"WND","type":"Power plant","is_nuclear":false}},{"type":"Feature","geometry":{"type":"Point","coordinates":[-101.555,46.98]},"properties":{"key":"57800-481d9d2a","layer":"power","name":"Bison 2 Wind Energy Center","state":"ND","detail_file":"data/details/power-plants-02.json","plant_id":"57800","capacity_mw":105.0,"status_group":"Operating","energy_sources":"WND","type":"Power plant","is_nuclear":false}},{"type":"Feature","geometry":{"type":"Point","coordinates":[-101.555,46.98]},"properties":{"key":"57801-4b831480","layer":"power","name":"Bison 3 Wind Energy Center","state":"ND","detail_file":"data/details/power-plants-32.json","plant_id":"57801","capacity_mw":105.0,"status_group":"Operating","energy_sources":"WND","type":"Power plant","is_nuclear":false}},{"type":"Feature","geometry":{"type":"Point","coordinates":[-101.555,46.98]},"properties":{"key":"58872-6e20a48c","layer":"power","name":"Bison 4 Wind Energy Center","state":"ND","detail_file":"data/details/power-plants-50.json","plant_id":"58872","capacity_mw":205.0,"status_group":"Operating","energy_sources":"WND","type":"Power plant","is_nuclear":false}},{"type":"Feature","geometry":{"type":"Point","coordinates":[-101.555,46.98]},"properties":{"key":"57038-b6bd5791","layer":"power","name":"Bison I Wind Energy Center","state":"ND","detail_file":"data/details/power-plants-61.json","plant_id":"57038","capacity_mw":81.8,"status_group":"Operating","energy_sources":"WND","type":"Power plant","is_nuclear":false}},{"type":"Feature","geometry":{"type":"Point","coordinates":[-103.6,46.138]},"properties":{"key":"68182-b8d4a18f","layer":"power","name":"Bowman Wind","state":"ND","detail_file":"data/details/power-plants-61.json","plant_id":"68182","capacity_mw":200.0,"status_group":"Operating","energy_sources":"WND","type":"Power plant","is_nuclear":false}},{"type":"Feature","geometry":{"type":"Point","coordinates":[-102.788,46.612]},"properties":{"key":"60354-5ac791ba","layer":"power","name":"Brady II Wind Energy Center","state":"ND","detail_file":"data/details/power-plants-03.json","plant_id":"60354","capacity_mw":150.0,"status_group":"Operating","energy_sources":"WND","type":"Power plant","is_nuclear":false}},{"type":"Feature","geometry":{"type":"Point","coordinates":[-102.765,46.646]},"properties":{"key":"60355-59918a84","layer":"power","name":"Brady Wind Energy Center","state":"ND","detail_file":"data/details/power-plants-54.json","plant_id":"60355","capacity_mw":150.0,"status_group":"Operating","energy_sources":"WND","type":"Power plant","is_nuclear":false}},{"type":"Feature","geometry":{"type":"Point","coordinates":[-103.767,46.246]},"properties":{"key":"57171-c4467588","layer":"power","name":"Cedar Hills Wind Farm","state":"ND","detail_file":"data/details/power-plants-21.json","plant_id":"57171","capacity_mw":19.5,"status_group":"Operating","energy_sources":"WND","type":"Power plant","is_nuclear":false}},{"type":"Feature","geometry":{"type":"Point","coordinates":[-101.157,47.378]},"properties":{"key":"6030-acc82848","layer":"power","name":"Coal Creek","state":"ND","detail_file":"data/details/power-plants-42.json","plant_id":"6030","capacity_mw":1215.6,"status_group":"Operating","energy_sources":"DFO; RC","type":"Power plant","is_nuclear":false}},{"type":"Feature","geometry":{"type":"Point","coordinates":[-101.816,47.221]},"properties":{"key":"8222-769e99dd","layer":"power","name":"Coyote","state":"ND","detail_file":"data/details/power-plants-38.json","plant_id":"8222","capacity_mw":450.0,"status_group":"Operating","energy_sources":"LIG","type":"Power plant","is_nuclear":false}},{"type":"Feature","geometry":{"type":"Point","coordinates":[-100.051,46.373]},"properties":{"key":"62380-63322e21","layer":"power","name":"Emmons-Logan Wind, LLC","state":"ND","detail_file":"data/details/power-plants-18.json","plant_id":"62380","capacity_mw":200.0,"status_group":"Operating","energy_sources":"WND","type":"Power plant","is_nuclear":false}},{"type":"Feature","geometry":{"type":"Point","coordinates":[-100.733,47.117]},"properties":{"key":"56357-e4ec8577","layer":"power","name":"FPL Energy Burleigh County Wind","state":"ND","detail_file":"data/details/power-plants-47.json","plant_id":"56357","capacity_mw":49.5,"status_group":"Operating","energy_sources":"WND","type":"Power plant","is_nuclear":false}},{"type":"Feature","geometry":{"type":"Point","coordinates":[-101.198,47.153]},"properties":{"key":"56392-60adafbb","layer":"power","name":"FPL Energy Oliver Wind I LLC","state":"ND","detail_file":"data/details/power-plants-00.json","plant_id":"56392","capacity_mw":50.6,"status_group":"Operating","energy_sources":"WND","type":"Power plant","is_nuclear":false}},{"type":"Feature","geometry":{"type":"Point","coordinates":[-101.198,47.153]},"properties":{"key":"56573-538d815f","layer":"power","name":"FPL Energy Oliver Wind II LLC","state":"ND","detail_file":"data/details/power-plants-10.json","plant_id":"56573","capacity_mw":48.0,"status_group":"Operating","energy_sources":"WND","type":"Power plant","is_nuclear":false}},{"type":"Feature","geometry":{"type":"Point","coordinates":[-101.412,47.495]},"properties":{"key":"2815-ff0e699b","layer":"power","name":"Garrison","state":"ND","detail_file":"data/details/power-plants-48.json","plant_id":"2815","capacity_mw":583.4,"status_group":"Operating","energy_sources":"WAT","type":"Power plant","is_nuclear":false}},{"type":"Feature","geometry":{"type":"Point","coordinates":[-101.817,46.964]},"properties":{"key":"62938-eae50b5f","layer":"power","name":"Glen Ullin Energy Center","state":"ND","detail_file":"data/details/power-plants-52.json","plant_id":"62938","capacity_mw":106.7,"status_group":"Operating","energy_sources":"WND","type":"Power plant","is_nuclear":false}},{"type":"Feature","geometry":{"type":"Point","coordinates":[-101.756,46.821]},"properties":{"key":"57172-b2034ef8","layer":"power","name":"Glen Ullin Station 6","state":"ND","detail_file":"data/details/power-plants-22.json","plant_id":"57172","capacity_mw":5.3,"status_group":"Operating","energy_sources":"WH","type":"Power plant","is_nuclear":false}},{"type":"Feature","geometry":{"type":"Point","coordinates":[-101.321,47.281]},"properties":{"key":"2817-9ef472ab","layer":"power","name":"Leland Olds","state":"ND","detail_file":"data/details/power-plants-40.json","plant_id":"2817","capacity_mw":656.0,"status_group":"Operating","energy_sources":"LIG","type":"Power plant","is_nuclear":false}},{"type":"Feature","geometry":{"type":"Point","coordinates":[-103.579,47.797]},"properties":{"key":"57943-aaf0180c","layer":"power","name":"Lonesome Creek Station","state":"ND","detail_file":"data/details/power-plants-45.json","plant_id":"57943","capacity_mw":363.0,"status_group":"Operating","energy_sources":"NG","type":"Power plant","is_nuclear":false}},{"type":"Feature","geometry":{"type":"Point","coordinates":[-101.213,47.066]},"properties":{"key":"2823-09c8cb94","layer":"power","name":"Milton R Young","state":"ND","detail_file":"data/details/power-plants-19.json","plant_id":"2823","capacity_mw":734.0,"status_group":"Operating","energy_sources":"LIG","type":"Power plant","is_nuclear":false}},{"type":"Feature","geometry":{"type":"Point","coordinates":[-100.948,47.862]},"properties":{"key":"59903-c3176de6","layer":"power","name":"New Frontier Wind","state":"ND","detail_file":"data/details/power-plants-48.json","plant_id":"59903","capacity_mw":100.0,"status_group":"Operating","energy_sources":"WND","type":"Power plant","is_nuclear":false}},{"type":"Feature","geometry":{"type":"Point","coordinates":[-101.305,46.73]},"properties":{"key":"69657-eece5af9","layer":"power","name":"New Salem Wind I","state":"ND","detail_file":"data/details/power-plants-31.json","plant_id":"69657","capacity_mw":200.0,"status_group":"Planned","energy_sources":"WND","type":"Power plant","is_nuclear":false}},{"type":"Feature","geometry":{"type":"Point","coordinates":[-101.434,46.798]},"properties":{"key":"69658-f6c7190f","layer":"power","name":"New Salem Wind II","state":"ND","detail_file":"data/details/power-plants-32.json","plant_id":"69658","capacity_mw":226.0,"status_group":"Planned","energy_sources":"WND","type":"Power plant","is_nuclear":false}},{"type":"Feature","geometry":{"type":"Point","coordinates":[-101.168,46.957]},"properties":{"key":"60905-a6bc772d","layer":"power","name":"Oliver Wind III, LLC","state":"ND","detail_file":"data/details/power-plants-41.json","plant_id":"60905","capacity_mw":99.3,"status_group":"Operating","energy_sources":"WND","type":"Power plant","is_nuclear":false}},{"type":"Feature","geometry":{"type":"Point","coordinates":[-101.612,47.124]},"properties":{"key":"67502-a25cf0ee","layer":"power","name":"Oliver Wind IV","state":"ND","detail_file":"data/details/power-plants-59.json","plant_id":"67502","capacity_mw":198.8,"status_group":"Operating","energy_sources":"WND","type":"Power plant","is_nuclear":false}},{"type":"Feature","geometry":{"type":"Point","coordinates":[-101.269,47.934]},"properties":{"key":"56607-b12bffce","layer":"power","name":"Prairie Winds ND1","state":"ND","detail_file":"data/details/power-plants-07.json","plant_id":"56607","capacity_mw":115.5,"status_group":"Operating","energy_sources":"WND","type":"Power plant","is_nuclear":false}},{"type":"Feature","geometry":{"type":"Point","coordinates":[-100.884,46.867]},"properties":{"key":"2790-50458e8f","layer":"power","name":"R M Heskett","state":"ND","detail_file":"data/details/power-plants-02.json","plant_id":"2790","capacity_mw":178.4,"status_group":"Operating","energy_sources":"NG","type":"Power plant","is_nuclear":false}},{"type":"Feature","geometry":{"type":"Point","coordinates":[-101.475,47.064]},"properties":{"key":"69659-eb0c3ab4","layer":"power","name":"Red Butte Wind","state":"ND","detail_file":"data/details/power-plants-17.json","plant_id":"69659","capacity_mw":202.0,"status_group":"Planned","energy_sources":"WND","type":"Power plant","is_nuclear":false}},{"type":"Feature","geometry":{"type":"Point","coordinates":[-102.075,46.838]},"properties":{"key":"60088-ad0161a8","layer":"power","name":"Sunflower Wind Project","state":"ND","detail_file":"data/details/power-plants-49.json","plant_id":"60088","capacity_mw":104.0,"status_group":"Operating","energy_sources":"WND","type":"Power plant","is_nuclear":false}},{"type":"Feature","geometry":{"type":"Point","coordinates":[-100.881,46.849]},"properties":{"key":"52133-7b1e8b10","layer":"power","name":"Tesoro Mandan Cogeneration Plant","state":"ND","detail_file":"data/details/power-plants-51.json","plant_id":"52133","capacity_mw":9.3,"status_group":"Operating","energy_sources":"OG","type":"Power plant","is_nuclear":false}},{"type":"Feature","geometry":{"type":"Point","coordinates":[-102.563,46.075]},"properties":{"key":"58965-6c735b00","layer":"power","name":"Thunder Spirit Wind, LLC","state":"ND","detail_file":"data/details/power-plants-03.json","plant_id":"58965","capacity_mw":155.5,"status_group":"Operating","energy_sources":"WND","type":"Power plant","is_nuclear":false}},{"type":"Feature","geometry":{"type":"Point","coordinates":[-100.701,47.133]},"properties":{"key":"57120-fb1fc7fe","layer":"power","name":"Wilton Wind II LLC","state":"ND","detail_file":"data/details/power-plants-06.json","plant_id":"57120","capacity_mw":49.5,"status_group":"Operating","energy_sources":"WND","type":"Power plant","is_nuclear":false}},{"type":"Feature","geometry":{"type":"Point","coordinates":[-103.261,44.087]},"properties":{"key":"3325-99511aef","layer":"power","name":"Ben French","state":"SD","detail_file":"data/details/power-plants-30.json","plant_id":"3325","capacity_mw":110.0,"status_group":"Operating","energy_sources":"DFO; NG","type":"Power plant","is_nuclear":false}},{"type":"Feature","geometry":{"type":"Point","coordinates":[-100.275,45.753]},"properties":{"key":"59655-55a0b3b5","layer":"power","name":"Campbell County Wind Farm","state":"SD","detail_file":"data/details/power-plants-29.json","plant_id":"59655","capacity_mw":94.3,"status_group":"Operating","energy_sources":"WND","type":"Power plant","is_nuclear":false}},{"type":"Feature","geometry":{"type":"Point","coordinates":[-100.381,44.368]},"properties":{"key":"56148-da9f5a36","layer":"power","name":"Ft. Pierre","state":"SD","detail_file":"data/details/power-plants-27.json","plant_id":"56148","capacity_mw":6.0,"status_group":"Operating","energy_sources":"DFO","type":"Power plant","is_nuclear":false}},{"type":"Feature","geometry":{"type":"Point","coordinates":[-103.264,44.122]},"properties":{"key":"55478-e1ee27b4","layer":"power","name":"Lange Generating Station","state":"SD","detail_file":"data/details/power-plants-63.json","plant_id":"55478","capacity_mw":40.0,"status_group":"Operating","energy_sources":"NG","type":"Power plant","is_nuclear":false}},{"type":"Feature","geometry":{"type":"Point","coordinates":[-103.264,44.122]},"properties":{"key":"55478-27a7ceb1","layer":"power","name":"Lange Generating Station","state":"SD","detail_file":"data/details/power-plants-07.json","plant_id":"55478","capacity_mw":99.6,"status_group":"Under construction","energy_sources":"NG","type":"Power plant","is_nuclear":false}},{"type":"Feature","geometry":{"type":"Point","coordinates":[-100.387,44.45]},"properties":{"key":"3356-edaf991d","layer":"power","name":"Oahe","state":"SD","detail_file":"data/details/power-plants-54.json","plant_id":"3356","capacity_mw":786.1,"status_group":"Operating","energy_sources":"WAT","type":"Power plant","is_nuclear":false}},{"type":"Feature","geometry":{"type":"Point","coordinates":[-100.307,44.389]},"properties":{"key":"60686-84be0ad3","layer":"power","name":"Pierre Solar","state":"SD","detail_file":"data/details/power-plants-27.json","plant_id":"60686","capacity_mw":1.0,"status_group":"Operating","energy_sources":"SUN","type":"Power plant","is_nuclear":false}},{"type":"Feature","geometry":{"type":"Point","coordinates":[-103.855,44.478]},"properties":{"key":"58438-31581ad9","layer":"power","name":"Spearfish Hydro","state":"SD","detail_file":"data/details/power-plants-59.json","plant_id":"58438","capacity_mw":4.0,"status_group":"Operating","energy_sources":"WAT","type":"Power plant","is_nuclear":false}},{"type":"Feature","geometry":{"type":"Point","coordinates":[-102.84,44.07]},"properties":{"key":"67018-0e571593","layer":"power","name":"Wild Springs","state":"SD","detail_file":"data/details/power-plants-01.json","plant_id":"67018","capacity_mw":128.0,"status_group":"Operating","energy_sources":"SUN","type":"Power plant","is_nuclear":false}},{"type":"Feature","geometry":{"type":"Point","coordinates":[-103.207,44.826]},"properties":{"key":"62431-5e7615ee","layer":"power","name":"Willow Creek Wind Power LLC","state":"SD","detail_file":"data/details/power-plants-45.json","plant_id":"62431","capacity_mw":105.0,"status_group":"Operating","energy_sources":"WND","type":"Power plant","is_nuclear":false}}]}