{"type":"FeatureCollection","features":[{"type":"Feature","geometry":{"type":"Point","coordinates":[-87.695,38.991]},"properties":{"key":"69656-c60a03f8","layer":"power","name":"950th Sun 2","state":"IL","detail_file":"data/details/power-plants-00.json","plant_id":"69656","capacity_mw":2.3,"status_group":"Operating","energy_sources":"SUN","type":"Power plant","is_nuclear":false}},{"type":"Feature","geometry":{"type":"Point","coordinates":[-87.697,39.903]},"properties":{"key":"69840-d603144a","layer":"power","name":"CVE US IL Ridge Farm 324 LLC","state":"IL","detail_file":"data/details/power-plants-28.json","plant_id":"69840","capacity_mw":2.5,"status_group":"Under construction","energy_sources":"SUN","type":"Power plant","is_nuclear":false}},{"type":"Feature","geometry":{"type":"Point","coordinates":[-87.993,39.311]},"properties":{"key":"56053-aabb9067","layer":"power","name":"Casey City of","state":"IL","detail_file":"data/details/power-plants-51.json","plant_id":"56053","capacity_mw":5.4,"status_group":"Operating","energy_sources":"DFO","type":"Power plant","is_nuclear":false}},{"type":"Feature","geometry":{"type":"Point","coordinates":[-87.695,39.575]},"properties":{"key":"68958-d208cd55","layer":"power","name":"Edgar Solar 1","state":"IL","detail_file":"data/details/power-plants-02.json","plant_id":"68958","capacity_mw":4.0,"status_group":"Operating","energy_sources":"SUN","type":"Power plant","is_nuclear":false}},{"type":"Feature","geometry":{"type":"Point","coordinates":[-87.727,39.004]},"properties":{"key":"69735-f93b509d","layer":"power","name":"Marathon Petroleum - Robinson Refinery","state":"IL","detail_file":"data/details/power-plants-46.json","plant_id":"69735","capacity_mw":5.0,"status_group":"Operating","energy_sources":"SUN","type":"Power plant","is_nuclear":false}},{"type":"Feature","geometry":{"type":"Point","coordinates":[-87.685,39.392]},"properties":{"key":"949-84cf8bdd","layer":"power","name":"Marshall (IL)","state":"IL","detail_file":"data/details/power-plants-56.json","plant_id":"949","capacity_mw":16.9,"status_group":"Operating","energy_sources":"DFO","type":"Power plant","is_nuclear":false}},{"type":"Feature","geometry":{"type":"Point","coordinates":[-87.684,39.394]},"properties":{"key":"69646-0012b5ea","layer":"power","name":"Marshall Solar (IL)","state":"IL","detail_file":"data/details/power-plants-45.json","plant_id":"69646","capacity_mw":1.0,"status_group":"Operating","energy_sources":"SUN","type":"Power plant","is_nuclear":false}},{"type":"Feature","geometry":{"type":"Point","coordinates":[-87.972,39.545]},"properties":{"key":"62893-4bed1fb1","layer":"power","name":"Prairie Wolf Solar LLC","state":"IL","detail_file":"data/details/power-plants-02.json","plant_id":"62893","capacity_mw":200.0,"status_group":"Operating","energy_sources":"SUN","type":"Power plant","is_nuclear":false}},{"type":"Feature","geometry":{"type":"Point","coordinates":[-87.686,39.888]},"properties":{"key":"63952-16168f4f","layer":"power","name":"Ridge Farm","state":"IL","detail_file":"data/details/power-plants-60.json","plant_id":"63952","capacity_mw":2.0,"status_group":"Operating","energy_sources":"SUN","type":"Power plant","is_nuclear":false}},{"type":"Feature","geometry":{"type":"Point","coordinates":[-87.665,39.892]},"properties":{"key":"68973-dc992372","layer":"power","name":"Ridge Farm Renewables LLC PV","state":"IL","detail_file":"data/details/power-plants-10.json","plant_id":"68973","capacity_mw":4.0,"status_group":"Under construction","energy_sources":"SUN","type":"Power plant","is_nuclear":false}},{"type":"Feature","geometry":{"type":"Point","coordinates":[-87.628,39.259]},"properties":{"key":"66820-c8f77041","layer":"power","name":"River Ferry Solar 1","state":"IL","detail_file":"data/details/power-plants-09.json","plant_id":"66820","capacity_mw":165.3,"status_group":"Operating","energy_sources":"SUN","type":"Power plant","is_nuclear":false}},{"type":"Feature","geometry":{"type":"Point","coordinates":[-87.72,39.606]},"properties":{"key":"68918-1f18fe7f","layer":"power","name":"SAE Paris IL S1","state":"IL","detail_file":"data/details/power-plants-24.json","plant_id":"68918","capacity_mw":2.0,"status_group":"Operating","energy_sources":"SUN","type":"Power plant","is_nuclear":false}},{"type":"Feature","geometry":{"type":"Point","coordinates":[-87.636,38.722]},"properties":{"key":"69739-7c8a06ac","layer":"power","name":"Toyota Boshoku","state":"IL","detail_file":"data/details/power-plants-38.json","plant_id":"69739","capacity_mw":4.8,"status_group":"Operating","energy_sources":"SUN","type":"Power plant","is_nuclear":false}},{"type":"Feature","geometry":{"type":"Point","coordinates":[-87.977,39.54]},"properties":{"key":"67717-5ba9a173","layer":"power","name":"Triple S Solar I LLC CSG","state":"IL","detail_file":"data/details/power-plants-32.json","plant_id":"67717","capacity_mw":2.0,"status_group":"Operating","energy_sources":"SUN","type":"Power plant","is_nuclear":false}},{"type":"Feature","geometry":{"type":"Point","coordinates":[-87.715,37.905]},"properties":{"key":"6137-2cbc33f1","layer":"power","name":"A B Brown","state":"IN","detail_file":"data/details/power-plants-25.json","plant_id":"6137","capacity_mw":647.4,"status_group":"Operating","energy_sources":"NG","type":"Power plant","is_nuclear":false}},{"type":"Feature","geometry":{"type":"Point","coordinates":[-87.252,38.528]},"properties":{"key":"994-f9aaa4e1","layer":"power","name":"AES Petersburg","state":"IN","detail_file":"data/details/power-plants-17.json","plant_id":"994","capacity_mw":1349.9,"status_group":"Operating","energy_sources":"BIT; DFO","type":"Power plant","is_nuclear":false}},{"type":"Feature","geometry":{"type":"Point","coordinates":[-85.416,39.787]},"properties":{"key":"65031-2f03270f","layer":"power","name":"Bellflower Solar 1","state":"IN","detail_file":"data/details/power-plants-05.json","plant_id":"65031","capacity_mw":152.5,"status_group":"Operating","energy_sources":"SUN","type":"Power plant","is_nuclear":false}},{"type":"Feature","geometry":{"type":"Point","coordinates":[-86.193,39.72]},"properties":{"key":"59172-af7ae69e","layer":"power","name":"Belmont","state":"IN","detail_file":"data/details/power-plants-23.json","plant_id":"59172","capacity_mw":3.8,"status_group":"Operating","energy_sources":"SUN","type":"Power plant","is_nuclear":false}},{"type":"Feature","geometry":{"type":"Point","coordinates":[-86.458,39.82]},"properties":{"key":"67060-e4a2c2e5","layer":"power","name":"C&B Graham Energy, LLC","state":"IN","detail_file":"data/details/power-plants-24.json","plant_id":"67060","capacity_mw":7.0,"status_group":"Operating","energy_sources":"SUN","type":"Power plant","is_nuclear":false}},{"type":"Feature","geometry":{"type":"Point","coordinates":[-86.167,39.763]},"properties":{"key":"992-b5d8dff6","layer":"power","name":"CC Perry K","state":"IN","detail_file":"data/details/power-plants-18.json","plant_id":"992","capacity_mw":5.0,"status_group":"Operating","energy_sources":"NG","type":"Power plant","is_nuclear":false}},{"type":"Feature","geometry":{"type":"Point","coordinates":[-86.025,39.362]},"properties":{"key":"63324-2a8f906c","layer":"power","name":"Camp Atterbury Microgrid Hybrid","state":"IN","detail_file":"data/details/power-plants-56.json","plant_id":"63324","capacity_mw":7.0,"status_group":"Operating","energy_sources":"MWH; SUN","type":"Power plant","is_nuclear":false}},{"type":"Feature","geometry":{"type":"Point","coordinates":[-87.424,39.924]},"properties":{"key":"1001-89d9d8a6","layer":"power","name":"Cayuga","state":"IN","detail_file":"data/details/power-plants-50.json","plant_id":"1001","capacity_mw":1184.9,"status_group":"Operating","energy_sources":"BIT; DFO; NG","type":"Power plant","is_nuclear":false}},{"type":"Feature","geometry":{"type":"Point","coordinates":[-85.004,39.829]},"properties":{"key":"62794-15a5be29","layer":"power","name":"Centerville Solar Park","state":"IN","detail_file":"data/details/power-plants-01.json","plant_id":"62794","capacity_mw":1.1,"status_group":"Operating","energy_sources":"SUN","type":"Power plant","is_nuclear":false}},{"type":"Feature","geometry":{"type":"Point","coordinates":[-85.421,38.738]},"properties":{"key":"983-1d4ea0bf","layer":"power","name":"Clifty Creek","state":"IN","detail_file":"data/details/power-plants-30.json","plant_id":"983","capacity_mw":1303.8,"status_group":"Operating","energy_sources":"BIT","type":"Power plant","is_nuclear":false}},{"type":"Feature","geometry":{"type":"Point","coordinates":[-86.189,39.734]},"properties":{"key":"50647-31cd3188","layer":"power","name":"Covanta Indianapolis Energy","state":"IN","detail_file":"data/details/power-plants-20.json","plant_id":"50647","capacity_mw":6.5,"status_group":"Operating","energy_sources":"MSW","type":"Power plant","is_nuclear":false}},{"type":"Feature","geometry":{"type":"Point","coordinates":[-86.886,38.814]},"properties":{"key":"64207-3c1c0b8a","layer":"power","name":"Crane Battery Energy Storage System","state":"IN","detail_file":"data/details/power-plants-14.json","plant_id":"64207","capacity_mw":5.0,"status_group":"Operating","energy_sources":"MWH","type":"Power plant","is_nuclear":false}},{"type":"Feature","geometry":{"type":"Point","coordinates":[-86.884,38.816]},"properties":{"key":"60435-1fdae88a","layer":"power","name":"Crane Solar Facility","state":"IN","detail_file":"data/details/power-plants-09.json","plant_id":"60435","capacity_mw":17.0,"status_group":"Operating","energy_sources":"SUN","type":"Power plant","is_nuclear":false}},{"type":"Feature","geometry":{"type":"Point","coordinates":[-87.002,38.264]},"properties":{"key":"66441-13a3857f","layer":"power","name":"Crossvine Solar","state":"IN","detail_file":"data/details/power-plants-10.json","plant_id":"66441","capacity_mw":100.0,"status_group":"Under construction","energy_sources":"SUN","type":"Power plant","is_nuclear":false}},{"type":"Feature","geometry":{"type":"Point","coordinates":[-85.506,39.338]},"properties":{"key":"59988-899a78eb","layer":"power","name":"Decatur Co. Solar RES (IN)","state":"IN","detail_file":"data/details/power-plants-23.json","plant_id":"59988","capacity_mw":1.1,"status_group":"Operating","energy_sources":"SUN","type":"Power plant","is_nuclear":false}},{"type":"Feature","geometry":{"type":"Point","coordinates":[-87.021,38.313]},"properties":{"key":"69156-6020e7dc","layer":"power","name":"Duff Solar Park","state":"IN","detail_file":"data/details/power-plants-19.json","plant_id":"69156","capacity_mw":100.0,"status_group":"Under construction","energy_sources":"SUN","type":"Power plant","is_nuclear":false}},{"type":"Feature","geometry":{"type":"Point","coordinates":[-86.245,39.911]},"properties":{"key":"59434-54e01da9","layer":"power","name":"Duke Building 129","state":"IN","detail_file":"data/details/power-plants-05.json","plant_id":"59434","capacity_mw":3.4,"status_group":"Operating","energy_sources":"SUN","type":"Power plant","is_nuclear":false}},{"type":"Feature","geometry":{"type":"Point","coordinates":[-86.256,39.891]},"properties":{"key":"59432-091ea701","layer":"power","name":"Duke Building 87","state":"IN","detail_file":"data/details/power-plants-15.json","plant_id":"59432","capacity_mw":2.7,"status_group":"Operating","energy_sources":"SUN","type":"Power plant","is_nuclear":false}},{"type":"Feature","geometry":{"type":"Point","coordinates":[-86.26,39.905]},"properties":{"key":"59433-f8414ad1","layer":"power","name":"Duke Building 98","state":"IN","detail_file":"data/details/power-plants-16.json","plant_id":"59433","capacity_mw":2.7,"status_group":"Operating","energy_sources":"SUN","type":"Power plant","is_nuclear":false}},{"type":"Feature","geometry":{"type":"Point","coordinates":[-86.418,39.485]},"properties":{"key":"991-266b4d87","layer":"power","name":"Eagle Valley (IN)","state":"IN","detail_file":"data/details/power-plants-04.json","plant_id":"991","capacity_mw":644.0,"status_group":"Operating","energy_sources":"NG","type":"Power plant","is_nuclear":false}},{"type":"Feature","geometry":{"type":"Point","coordinates":[-87.247,38.807]},"properties":{"key":"1004-69bc5b9e","layer":"power","name":"Edwardsport","state":"IN","detail_file":"data/details/power-plants-19.json","plant_id":"1004","capacity_mw":812.7,"status_group":"Operating","energy_sources":"SGC","type":"Power plant","is_nuclear":false}},{"type":"Feature","geometry":{"type":"Point","coordinates":[-86.657,39.255]},"properties":{"key":"59985-fb021db0","layer":"power","name":"Ellettsville Solar RES","state":"IN","detail_file":"data/details/power-plants-07.json","plant_id":"59985","capacity_mw":1.1,"status_group":"Operating","energy_sources":"SUN","type":"Power plant","is_nuclear":false}},{"type":"Feature","geometry":{"type":"Point","coordinates":[-87.428,38.316]},"properties":{"key":"64904-3e8ec143","layer":"power","name":"Elliot Solar LLC","state":"IN","detail_file":"data/details/power-plants-32.json","plant_id":"64904","capacity_mw":200.0,"status_group":"Under construction","energy_sources":"SUN","type":"Power plant","is_nuclear":false}},{"type":"Feature","geometry":{"type":"Point","coordinates":[-87.328,37.911]},"properties":{"key":"1012-f1197616","layer":"power","name":"F B Culley","state":"IN","detail_file":"data/details/power-plants-40.json","plant_id":"1012","capacity_mw":368.9,"status_group":"Operating","energy_sources":"BIT","type":"Power plant","is_nuclear":false}},{"type":"Feature","geometry":{"type":"Point","coordinates":[-87.524,39.193]},"properties":{"key":"68429-c0f0d421","layer":"power","name":"Fairbanks Solar Project","state":"IN","detail_file":"data/details/power-plants-05.json","plant_id":"68429","capacity_mw":250.0,"status_group":"Operating","energy_sources":"SUN","type":"Power plant","is_nuclear":false}},{"type":"Feature","geometry":{"type":"Point","coordinates":[-85.201,38.556]},"properties":{"key":"68288-60e51aa4","layer":"power","name":"Flag Run Solar","state":"IN","detail_file":"data/details/power-plants-60.json","plant_id":"68288","capacity_mw":200.0,"status_group":"Under construction","energy_sources":"SUN","type":"Power plant","is_nuclear":false}},{"type":"Feature","geometry":{"type":"Point","coordinates":[-86.244,39.903]},"properties":{"key":"7759-0d8a4d3a","layer":"power","name":"Georgetown","state":"IN","detail_file":"data/details/power-plants-14.json","plant_id":"7759","capacity_mw":340.0,"status_group":"Operating","energy_sources":"NG","type":"Power plant","is_nuclear":false}},{"type":"Feature","geometry":{"type":"Point","coordinates":[-87.766,38.372]},"properties":{"key":"6113-05d2947f","layer":"power","name":"Gibson","state":"IN","detail_file":"data/details/power-plants-24.json","plant_id":"6113","capacity_mw":3339.5,"status_group":"Operating","energy_sources":"BIT","type":"Power plant","is_nuclear":false}},{"type":"Feature","geometry":{"type":"Point","coordinates":[-87.531,38.318]},"properties":{"key":"68455-7130575b","layer":"power","name":"Gibson Solar","state":"IN","detail_file":"data/details/power-plants-30.json","plant_id":"68455","capacity_mw":200.0,"status_group":"Operating","energy_sources":"SUN","type":"Power plant","is_nuclear":false}},{"type":"Feature","geometry":{"type":"Point","coordinates":[-85.817,39.794]},"properties":{"key":"61053-867732e7","layer":"power","name":"Greenfield Solar Park","state":"IN","detail_file":"data/details/power-plants-59.json","plant_id":"61053","capacity_mw":2.8,"status_group":"Operating","energy_sources":"SUN","type":"Power plant","is_nuclear":false}},{"type":"Feature","geometry":{"type":"Point","coordinates":[-86.197,39.711]},"properties":{"key":"990-f3e6a403","layer":"power","name":"Harding Street","state":"IN","detail_file":"data/details/power-plants-43.json","plant_id":"990","capacity_mw":1064.7,"status_group":"Operating","energy_sources":"DFO; MWH; NG","type":"Power plant","is_nuclear":false}},{"type":"Feature","geometry":{"type":"Point","coordinates":[-87.192,38.515]},"properties":{"key":"67873-cc7ed3b7","layer":"power","name":"Heirloom Solar","state":"IN","detail_file":"data/details/power-plants-21.json","plant_id":"67873","capacity_mw":60.0,"status_group":"Operating","energy_sources":"SUN","type":"Power plant","is_nuclear":false}},{"type":"Feature","geometry":{"type":"Point","coordinates":[-86.502,39.762]},"properties":{"key":"54731-8949a4c9","layer":"power","name":"Hendricks Regional Health","state":"IN","detail_file":"data/details/power-plants-10.json","plant_id":"54731","capacity_mw":3.0,"status_group":"Operating","energy_sources":"DFO","type":"Power plant","is_nuclear":false}},{"type":"Feature","geometry":{"type":"Point","coordinates":[-85.504,39.953]},"properties":{"key":"7763-3c37efb0","layer":"power","name":"Henry County","state":"IN","detail_file":"data/details/power-plants-36.json","plant_id":"7763","capacity_mw":181.5,"status_group":"Operating","energy_sources":"NG","type":"Power plant","is_nuclear":false}},{"type":"Feature","geometry":{"type":"Point","coordinates":[-85.777,38.596]},"properties":{"key":"59986-f4a91a25","layer":"power","name":"Henryville Solar RES","state":"IN","detail_file":"data/details/power-plants-45.json","plant_id":"59986","capacity_mw":1.1,"status_group":"Operating","energy_sources":"SUN","type":"Power plant","is_nuclear":false}},{"type":"Feature","geometry":{"type":"Point","coordinates":[-86.186,39.588]},"properties":{"key":"61267-18322868","layer":"power","name":"Hurricane Creek Lift Station","state":"IN","detail_file":"data/details/power-plants-05.json","plant_id":"61267","capacity_mw":2.0,"status_group":"Operating","energy_sources":"DFO","type":"Power plant","is_nuclear":false}},{"type":"Feature","geometry":{"type":"Point","coordinates":[-86.968,38.32]},"properties":{"key":"60251-7abee102","layer":"power","name":"IMPA Huntingburg Solar Park","state":"IN","detail_file":"data/details/power-plants-11.json","plant_id":"60251","capacity_mw":2.0,"status_group":"Operating","energy_sources":"SUN","type":"Power plant","is_nuclear":false}},{"type":"Feature","geometry":{"type":"Point","coordinates":[-85.509,39.796]},"properties":{"key":"66415-4993c4cb","layer":"power","name":"IMPA Knightstown Solar Park","state":"IN","detail_file":"data/details/power-plants-03.json","plant_id":"66415","capacity_mw":1.4,"status_group":"Operating","energy_sources":"SUN","type":"Power plant","is_nuclear":false}},{"type":"Feature","geometry":{"type":"Point","coordinates":[-85.771,39.989]},"properties":{"key":"59770-e568c1c7","layer":"power","name":"IMPA Pendleton Solar Park","state":"IN","detail_file":"data/details/power-plants-49.json","plant_id":"59770","capacity_mw":2.0,"status_group":"Operating","energy_sources":"SUN","type":"Power plant","is_nuclear":false}},{"type":"Feature","geometry":{"type":"Point","coordinates":[-84.95,39.822]},"properties":{"key":"66748-504d4995","layer":"power","name":"IMPA Richmond 8 Solar Park","state":"IN","detail_file":"data/details/power-plants-32.json","plant_id":"66748","capacity_mw":6.1,"status_group":"Operating","energy_sources":"SUN","type":"Power plant","is_nuclear":false}},{"type":"Feature","geometry":{"type":"Point","coordinates":[-84.895,39.801]},"properties":{"key":"59478-5f1a028e","layer":"power","name":"IMPA Richmond Solar Park","state":"IN","detail_file":"data/details/power-plants-03.json","plant_id":"59478","capacity_mw":1.0,"status_group":"Operating","energy_sources":"SUN","type":"Power plant","is_nuclear":false}},{"type":"Feature","geometry":{"type":"Point","coordinates":[-84.958,39.814]},"properties":{"key":"66367-acb8a2a9","layer":"power","name":"IMPA Richmond Solar Park 7","state":"IN","detail_file":"data/details/power-plants-25.json","plant_id":"66367","capacity_mw":4.4,"status_group":"Operating","energy_sources":"SUN","type":"Power plant","is_nuclear":false}},{"type":"Feature","geometry":{"type":"Point","coordinates":[-86.737,37.946]},"properties":{"key":"59482-3f0ae0ef","layer":"power","name":"IMPA Tell City Solar Park","state":"IN","detail_file":"data/details/power-plants-58.json","plant_id":"59482","capacity_mw":1.1,"status_group":"Operating","energy_sources":"SUN","type":"Power plant","is_nuclear":false}},{"type":"Feature","geometry":{"type":"Point","coordinates":[-87.209,38.653]},"properties":{"key":"60252-f27b4fc9","layer":"power","name":"IMPA Washington Solar Park","state":"IN","detail_file":"data/details/power-plants-26.json","plant_id":"60252","capacity_mw":4.0,"status_group":"Operating","energy_sources":"SUN","type":"Power plant","is_nuclear":false}},{"type":"Feature","geometry":{"type":"Point","coordinates":[-87.201,38.678]},"properties":{"key":"66416-5ecaf58e","layer":"power","name":"IMPA Washington Solar Park 2","state":"IN","detail_file":"data/details/power-plants-16.json","plant_id":"66416","capacity_mw":9.9,"status_group":"Operating","energy_sources":"SUN","type":"Power plant","is_nuclear":false}},{"type":"Feature","geometry":{"type":"Point","coordinates":[-86.316,39.695]},"properties":{"key":"58391-ea2fba30","layer":"power","name":"IND Community Solar Farm 1st Phase","state":"IN","detail_file":"data/details/power-plants-50.json","plant_id":"58391","capacity_mw":10.0,"status_group":"Operating","energy_sources":"SUN","type":"Power plant","is_nuclear":false}},{"type":"Feature","geometry":{"type":"Point","coordinates":[-86.322,39.695]},"properties":{"key":"59424-e5d68a6d","layer":"power","name":"IND Solar Farm (Phase IIA)","state":"IN","detail_file":"data/details/power-plants-39.json","plant_id":"59424","capacity_mw":7.5,"status_group":"Operating","energy_sources":"SUN","type":"Power plant","is_nuclear":false}},{"type":"Feature","geometry":{"type":"Point","coordinates":[-86.314,39.723]},"properties":{"key":"59823-afe881ce","layer":"power","name":"INDY III","state":"IN","detail_file":"data/details/power-plants-48.json","plant_id":"59823","capacity_mw":2.5,"status_group":"Operating","energy_sources":"SUN","type":"Power plant","is_nuclear":false}},{"type":"Feature","geometry":{"type":"Point","coordinates":[-86.234,39.79]},"properties":{"key":"58615-c1408ae0","layer":"power","name":"Indianapolis Motor Speedway Solar PV","state":"IN","detail_file":"data/details/power-plants-00.json","plant_id":"58615","capacity_mw":9.0,"status_group":"Operating","energy_sources":"SUN","type":"Power plant","is_nuclear":false}},{"type":"Feature","geometry":{"type":"Point","coordinates":[-86.238,39.738]},"properties":{"key":"59834-adcc2d88","layer":"power","name":"Indy Grocers","state":"IN","detail_file":"data/details/power-plants-24.json","plant_id":"59834","capacity_mw":1.0,"status_group":"Operating","energy_sources":"SUN","type":"Power plant","is_nuclear":false}},{"type":"Feature","geometry":{"type":"Point","coordinates":[-85.986,39.663]},"properties":{"key":"58552-95b0c876","layer":"power","name":"Indy Solar I, LLC","state":"IN","detail_file":"data/details/power-plants-59.json","plant_id":"58552","capacity_mw":10.0,"status_group":"Operating","energy_sources":"SUN","type":"Power plant","is_nuclear":false}},{"type":"Feature","geometry":{"type":"Point","coordinates":[-85.986,39.663]},"properties":{"key":"58556-33fcecd0","layer":"power","name":"Indy Solar II, LLC","state":"IN","detail_file":"data/details/power-plants-05.json","plant_id":"58556","capacity_mw":10.1,"status_group":"Operating","energy_sources":"SUN","type":"Power plant","is_nuclear":false}},{"type":"Feature","geometry":{"type":"Point","coordinates":[-86.26,39.659]},"properties":{"key":"58553-41b15963","layer":"power","name":"Indy Solar III, LLC","state":"IN","detail_file":"data/details/power-plants-24.json","plant_id":"58553","capacity_mw":8.6,"status_group":"Operating","energy_sources":"SUN","type":"Power plant","is_nuclear":false}},{"type":"Feature","geometry":{"type":"Point","coordinates":[-86.033,38.882]},"properties":{"key":"59989-22ac1288","layer":"power","name":"Jackson Co. Solar RES","state":"IN","detail_file":"data/details/power-plants-23.json","plant_id":"59989","capacity_mw":1.1,"status_group":"Operating","energy_sources":"SUN","type":"Power plant","is_nuclear":false}},{"type":"Feature","geometry":{"type":"Point","coordinates":[-86.068,39.518]},"properties":{"key":"59990-30881275","layer":"power","name":"Johnson Co. Solar RES","state":"IN","detail_file":"data/details/power-plants-24.json","plant_id":"59990","capacity_mw":1.1,"status_group":"Operating","energy_sources":"SUN","type":"Power plant","is_nuclear":false}},{"type":"Feature","geometry":{"type":"Point","coordinates":[-85.986,38.272]},"properties":{"key":"59984-27043ce4","layer":"power","name":"Lanesville Solar RES","state":"IN","detail_file":"data/details/power-plants-03.json","plant_id":"59984","capacity_mw":1.1,"status_group":"Operating","energy_sources":"SUN","type":"Power plant","is_nuclear":false}},{"type":"Feature","geometry":{"type":"Point","coordinates":[-86.451,38.8]},"properties":{"key":"7948-ad4dbd26","layer":"power","name":"Lawrence County Station","state":"IN","detail_file":"data/details/power-plants-63.json","plant_id":"7948","capacity_mw":402.0,"status_group":"Operating","energy_sources":"NG","type":"Power plant","is_nuclear":false}},{"type":"Feature","geometry":{"type":"Point","coordinates":[-84.867,39.091]},"properties":{"key":"55502-8392b0af","layer":"power","name":"Lawrenceburg Power, LLC","state":"IN","detail_file":"data/details/power-plants-42.json","plant_id":"55502","capacity_mw":1232.0,"status_group":"Operating","energy_sources":"NG","type":"Power plant","is_nuclear":false}},{"type":"Feature","geometry":{"type":"Point","coordinates":[-86.043,39.777]},"properties":{"key":"58703-72011439","layer":"power","name":"Lenape II","state":"IN","detail_file":"data/details/power-plants-21.json","plant_id":"58703","capacity_mw":4.0,"status_group":"Operating","energy_sources":"SUN","type":"Power plant","is_nuclear":false}},{"type":"Feature","geometry":{"type":"Point","coordinates":[-86.183,39.748]},"properties":{"key":"58043-73e8e0ae","layer":"power","name":"Lilly Technical Center","state":"IN","detail_file":"data/details/power-plants-50.json","plant_id":"58043","capacity_mw":5.0,"status_group":"Operating","energy_sources":"DFO","type":"Power plant","is_nuclear":false}},{"type":"Feature","geometry":{"type":"Point","coordinates":[-87.136,39.044]},"properties":{"key":"65069-8c26bc3c","layer":"power","name":"Linton","state":"IN","detail_file":"data/details/power-plants-59.json","plant_id":"65069","capacity_mw":5.4,"status_group":"Operating","energy_sources":"SUN","type":"Power plant","is_nuclear":false}},{"type":"Feature","geometry":{"type":"Point","coordinates":[-86.014,39.853]},"properties":{"key":"58178-56e44a43","layer":"power","name":"M. G. Emmett J. Bean Federal Center","state":"IN","detail_file":"data/details/power-plants-20.json","plant_id":"58178","capacity_mw":1.9,"status_group":"Operating","energy_sources":"SUN","type":"Power plant","is_nuclear":false}},{"type":"Feature","geometry":{"type":"Point","coordinates":[-86.238,39.913]},"properties":{"key":"59180-103da1e9","layer":"power","name":"Marion Solar LNG","state":"IN","detail_file":"data/details/power-plants-30.json","plant_id":"59180","capacity_mw":1.5,"status_group":"Operating","energy_sources":"SUN","type":"Power plant","is_nuclear":false}},{"type":"Feature","geometry":{"type":"Point","coordinates":[-84.964,38.779]},"properties":{"key":"1005-e32c759a","layer":"power","name":"Markland","state":"IN","detail_file":"data/details/power-plants-27.json","plant_id":"1005","capacity_mw":77.7,"status_group":"Operating","energy_sources":"WAT","type":"Power plant","is_nuclear":false}},{"type":"Feature","geometry":{"type":"Point","coordinates":[-86.218,39.744]},"properties":{"key":"58770-e6145ddf","layer":"power","name":"Maywood Photovoltaic Project","state":"IN","detail_file":"data/details/power-plants-44.json","plant_id":"58770","capacity_mw":8.0,"status_group":"Operating","energy_sources":"SUN","type":"Power plant","is_nuclear":false}},{"type":"Feature","geometry":{"type":"Point","coordinates":[-87.474,39.595]},"properties":{"key":"60238-7ab7dc30","layer":"power","name":"McDonald Solar Farm, LLC","state":"IN","detail_file":"data/details/power-plants-28.json","plant_id":"60238","capacity_mw":5.2,"status_group":"Operating","energy_sources":"SUN","type":"Power plant","is_nuclear":false}},{"type":"Feature","geometry":{"type":"Point","coordinates":[-87.511,39.069]},"properties":{"key":"6213-31ed29be","layer":"power","name":"Merom","state":"IN","detail_file":"data/details/power-plants-04.json","plant_id":"6213","capacity_mw":1080.0,"status_group":"Operating","energy_sources":"BIT","type":"Power plant","is_nuclear":false}},{"type":"Feature","geometry":{"type":"Point","coordinates":[-85.695,38.502]},"properties":{"key":"62862-76dc2dca","layer":"power","name":"Nabb Battery Energy Storage System","state":"IN","detail_file":"data/details/power-plants-61.json","plant_id":"62862","capacity_mw":5.0,"status_group":"Operating","energy_sources":"MWH","type":"Power plant","is_nuclear":false}},{"type":"Feature","geometry":{"type":"Point","coordinates":[-85.403,39.854]},"properties":{"key":"59981-85385d09","layer":"power","name":"New Castle Solar RES","state":"IN","detail_file":"data/details/power-plants-34.json","plant_id":"59981","capacity_mw":1.1,"status_group":"Operating","energy_sources":"SUN","type":"Power plant","is_nuclear":false}},{"type":"Feature","geometry":{"type":"Point","coordinates":[-86.989,38.194]},"properties":{"key":"59983-73181894","layer":"power","name":"New Haven Solar RES","state":"IN","detail_file":"data/details/power-plants-55.json","plant_id":"59983","capacity_mw":1.1,"status_group":"Operating","energy_sources":"SUN","type":"Power plant","is_nuclear":false}},{"type":"Feature","geometry":{"type":"Point","coordinates":[-87.53,37.99]},"properties":{"key":"61333-baa8ee8b","layer":"power","name":"Oak Hill Solar Array","state":"IN","detail_file":"data/details/power-plants-30.json","plant_id":"61333","capacity_mw":2.0,"status_group":"Operating","energy_sources":"SUN","type":"Power plant","is_nuclear":false}},{"type":"Feature","geometry":{"type":"Point","coordinates":[-87.506,39.059]},"properties":{"key":"59255-646c9003","layer":"power","name":"Osprey Point RES","state":"IN","detail_file":"data/details/power-plants-60.json","plant_id":"59255","capacity_mw":13.2,"status_group":"Operating","energy_sources":"OG","type":"Power plant","is_nuclear":false}},{"type":"Feature","geometry":{"type":"Point","coordinates":[-85.822,39.56]},"properties":{"key":"63921-e1abf61c","layer":"power","name":"POET Biorefining - Shelbyville","state":"IN","detail_file":"data/details/power-plants-20.json","plant_id":"63921","capacity_mw":6.1,"status_group":"Operating","energy_sources":"NG","type":"Power plant","is_nuclear":false}},{"type":"Feature","geometry":{"type":"Point","coordinates":[-87.182,39.521]},"properties":{"key":"60239-bd0ee578","layer":"power","name":"Pastime Farm, LLC","state":"IN","detail_file":"data/details/power-plants-26.json","plant_id":"60239","capacity_mw":5.2,"status_group":"Operating","energy_sources":"SUN","type":"Power plant","is_nuclear":false}},{"type":"Feature","geometry":{"type":"Point","coordinates":[-87.776,38.14]},"properties":{"key":"66706-0bba744a","layer":"power","name":"Patoka Solar","state":"IN","detail_file":"data/details/power-plants-41.json","plant_id":"66706","capacity_mw":250.0,"status_group":"Planned","energy_sources":"SUN","type":"Power plant","is_nuclear":false}},{"type":"Feature","geometry":{"type":"Point","coordinates":[-87.295,38.462]},"properties":{"key":"69428-bc08573a","layer":"power","name":"Petersburg Energy Center","state":"IN","detail_file":"data/details/power-plants-20.json","plant_id":"69428","capacity_mw":500.0,"status_group":"Operating","energy_sources":"MWH; SUN","type":"Power plant","is_nuclear":false}},{"type":"Feature","geometry":{"type":"Point","coordinates":[-87.249,38.523]},"properties":{"key":"66881-68eae169","layer":"power","name":"Pike County Energy Storage","state":"IN","detail_file":"data/details/power-plants-08.json","plant_id":"66881","capacity_mw":200.0,"status_group":"Operating","energy_sources":"MWH","type":"Power plant","is_nuclear":false}},{"type":"Feature","geometry":{"type":"Point","coordinates":[-87.729,37.927]},"properties":{"key":"66780-1904fc57","layer":"power","name":"Posey Solar","state":"IN","detail_file":"data/details/power-plants-40.json","plant_id":"66780","capacity_mw":190.8,"status_group":"Operating","energy_sources":"SUN","type":"Power plant","is_nuclear":false}},{"type":"Feature","geometry":{"type":"Point","coordinates":[-87.186,38.525]},"properties":{"key":"67872-f8d4278a","layer":"power","name":"RATTS 1","state":"IN","detail_file":"data/details/power-plants-61.json","plant_id":"67872","capacity_mw":150.0,"status_group":"Operating","energy_sources":"SUN","type":"Power plant","is_nuclear":false}},{"type":"Feature","geometry":{"type":"Point","coordinates":[-84.966,39.84]},"properties":{"key":"7335-61af07e6","layer":"power","name":"Richmond","state":"IN","detail_file":"data/details/power-plants-09.json","plant_id":"7335","capacity_mw":82.8,"status_group":"Operating","energy_sources":"NG","type":"Power plant","is_nuclear":false}},{"type":"Feature","geometry":{"type":"Point","coordinates":[-84.875,39.806]},"properties":{"key":"64247-b4c516e6","layer":"power","name":"Richmond 5","state":"IN","detail_file":"data/details/power-plants-37.json","plant_id":"64247","capacity_mw":9.0,"status_group":"Operating","energy_sources":"SUN","type":"Power plant","is_nuclear":false}},{"type":"Feature","geometry":{"type":"Point","coordinates":[-84.878,39.806]},"properties":{"key":"64252-d9fd68b3","layer":"power","name":"Richmond 6","state":"IN","detail_file":"data/details/power-plants-58.json","plant_id":"64252","capacity_mw":5.3,"status_group":"Operating","energy_sources":"SUN","type":"Power plant","is_nuclear":false}},{"type":"Feature","geometry":{"type":"Point","coordinates":[-84.826,39.839]},"properties":{"key":"62770-213e4dc1","layer":"power","name":"Richmond Solar Park 3","state":"IN","detail_file":"data/details/power-plants-20.json","plant_id":"62770","capacity_mw":6.5,"status_group":"Operating","energy_sources":"SUN","type":"Power plant","is_nuclear":false}},{"type":"Feature","geometry":{"type":"Point","coordinates":[-84.93,39.863]},"properties":{"key":"62791-b64e8027","layer":"power","name":"Richmond Solar Park 4","state":"IN","detail_file":"data/details/power-plants-53.json","plant_id":"62791","capacity_mw":7.1,"status_group":"Operating","energy_sources":"SUN","type":"Power plant","is_nuclear":false}},{"type":"Feature","geometry":{"type":"Point","coordinates":[-84.816,39.833]},"properties":{"key":"61729-49d92786","layer":"power","name":"Richmond Solar Site 2","state":"IN","detail_file":"data/details/power-plants-25.json","plant_id":"61729","capacity_mw":7.4,"status_group":"Operating","energy_sources":"SUN","type":"Power plant","is_nuclear":false}},{"type":"Feature","geometry":{"type":"Point","coordinates":[-87.037,37.926]},"properties":{"key":"6166-4d96f088","layer":"power","name":"Rockport","state":"IN","detail_file":"data/details/power-plants-27.json","plant_id":"6166","capacity_mw":2600.0,"status_group":"Operating","energy_sources":"SUB","type":"Power plant","is_nuclear":false}},{"type":"Feature","geometry":{"type":"Point","coordinates":[-86.301,39.763]},"properties":{"key":"58942-1011bcc8","layer":"power","name":"Rockville Solar I LLC","state":"IN","detail_file":"data/details/power-plants-26.json","plant_id":"58942","capacity_mw":2.8,"status_group":"Operating","energy_sources":"SUN","type":"Power plant","is_nuclear":false}},{"type":"Feature","geometry":{"type":"Point","coordinates":[-86.3,39.767]},"properties":{"key":"58953-7d0cd207","layer":"power","name":"Rockville Solar II, LLC","state":"IN","detail_file":"data/details/power-plants-45.json","plant_id":"58953","capacity_mw":2.7,"status_group":"Operating","energy_sources":"SUN","type":"Power plant","is_nuclear":false}},{"type":"Feature","geometry":{"type":"Point","coordinates":[-87.307,37.967]},"properties":{"key":"69021-651b9014","layer":"power","name":"Rustic Hills Solar I","state":"IN","detail_file":"data/details/power-plants-16.json","plant_id":"69021","capacity_mw":100.0,"status_group":"Under construction","energy_sources":"SUN","type":"Power plant","is_nuclear":false}},{"type":"Feature","geometry":{"type":"Point","coordinates":[-87.322,37.974]},"properties":{"key":"69022-172e181a","layer":"power","name":"Rustic Hills Solar II LLC","state":"IN","detail_file":"data/details/power-plants-58.json","plant_id":"69022","capacity_mw":100.0,"status_group":"Under construction","energy_sources":"SUN","type":"Power plant","is_nuclear":false}},{"type":"Feature","geometry":{"type":"Point","coordinates":[-87.926,37.91]},"properties":{"key":"58063-0f0c6833","layer":"power","name":"SABIC Innovative Plastics Mt. Vernon","state":"IN","detail_file":"data/details/power-plants-34.json","plant_id":"58063","capacity_mw":108.0,"status_group":"Operating","energy_sources":"NG","type":"Power plant","is_nuclear":false}},{"type":"Feature","geometry":{"type":"Point","coordinates":[-86.947,38.91]},"properties":{"key":"59982-ae04b6f6","layer":"power","name":"Scotland Solar RES","state":"IN","detail_file":"data/details/power-plants-05.json","plant_id":"59982","capacity_mw":1.1,"status_group":"Operating","energy_sources":"SUN","type":"Power plant","is_nuclear":false}},{"type":"Feature","geometry":{"type":"Point","coordinates":[-85.786,38.662]},"properties":{"key":"62766-74c9858d","layer":"power","name":"Scottsburg Solar Park","state":"IN","detail_file":"data/details/power-plants-47.json","plant_id":"62766","capacity_mw":7.1,"status_group":"Operating","energy_sources":"SUN","type":"Power plant","is_nuclear":false}},{"type":"Feature","geometry":{"type":"Point","coordinates":[-85.655,39.614]},"properties":{"key":"66264-2e62ed84","layer":"power","name":"Speedway Solar, LLC","state":"IN","detail_file":"data/details/power-plants-33.json","plant_id":"66264","capacity_mw":199.0,"status_group":"Operating","energy_sources":"SUN","type":"Power plant","is_nuclear":false}},{"type":"Feature","geometry":{"type":"Point","coordinates":[-86.47,38.71]},"properties":{"key":"59987-cb81cd30","layer":"power","name":"Spring Mill Solar RES","state":"IN","detail_file":"data/details/power-plants-08.json","plant_id":"59987","capacity_mw":1.1,"status_group":"Operating","energy_sources":"SUN","type":"Power plant","is_nuclear":false}},{"type":"Feature","geometry":{"type":"Point","coordinates":[-87.208,39.457]},"properties":{"key":"61885-38f75013","layer":"power","name":"Staunton","state":"IN","detail_file":"data/details/power-plants-63.json","plant_id":"61885","capacity_mw":4.0,"status_group":"Operating","energy_sources":"SUN","type":"Power plant","is_nuclear":false}},{"type":"Feature","geometry":{"type":"Point","coordinates":[-87.511,39.393]},"properties":{"key":"55364-25d3001d","layer":"power","name":"Sugar Creek Power","state":"IN","detail_file":"data/details/power-plants-06.json","plant_id":"55364","capacity_mw":665.0,"status_group":"Operating","energy_sources":"NG","type":"Power plant","is_nuclear":false}},{"type":"Feature","geometry":{"type":"Point","coordinates":[-87.414,39.132]},"properties":{"key":"60410-31e13b7e","layer":"power","name":"Sullivan Solar, LLC","state":"IN","detail_file":"data/details/power-plants-61.json","plant_id":"60410","capacity_mw":5.2,"status_group":"Operating","energy_sources":"SUN","type":"Power plant","is_nuclear":false}},{"type":"Feature","geometry":{"type":"Point","coordinates":[-86.737,37.966]},"properties":{"key":"62790-0ab8eba9","layer":"power","name":"Tell City Solar Park","state":"IN","detail_file":"data/details/power-plants-41.json","plant_id":"62790","capacity_mw":3.2,"status_group":"Operating","energy_sources":"SUN","type":"Power plant","is_nuclear":false}},{"type":"Feature","geometry":{"type":"Point","coordinates":[-87.511,39.238]},"properties":{"key":"69111-0720cbe6","layer":"power","name":"Trade Post Solar","state":"IN","detail_file":"data/details/power-plants-29.json","plant_id":"69111","capacity_mw":200.0,"status_group":"Under construction","energy_sources":"SUN","type":"Power plant","is_nuclear":false}},{"type":"Feature","geometry":{"type":"Point","coordinates":[-86.792,38.015]},"properties":{"key":"63929-ca0927ec","layer":"power","name":"Troy Solar","state":"IN","detail_file":"data/details/power-plants-25.json","plant_id":"63929","capacity_mw":50.4,"status_group":"Operating","energy_sources":"SUN","type":"Power plant","is_nuclear":false}},{"type":"Feature","geometry":{"type":"Point","coordinates":[-86.495,39.745]},"properties":{"key":"54925-d4afd49b","layer":"power","name":"Twin Bridges LFGTE","state":"IN","detail_file":"data/details/power-plants-45.json","plant_id":"54925","capacity_mw":12.8,"status_group":"Operating","energy_sources":"LFG; NG","type":"Power plant","is_nuclear":false}},{"type":"Feature","geometry":{"type":"Point","coordinates":[-87.201,38.327]},"properties":{"key":"58577-461ce8db","layer":"power","name":"Veolia ES Blackfoot Landfill Facility","state":"IN","detail_file":"data/details/power-plants-50.json","plant_id":"58577","capacity_mw":3.2,"status_group":"Operating","energy_sources":"LFG","type":"Power plant","is_nuclear":false}},{"type":"Feature","geometry":{"type":"Point","coordinates":[-87.446,39.922]},"properties":{"key":"55111-728a0307","layer":"power","name":"Vermillion Energy Facility","state":"IN","detail_file":"data/details/power-plants-20.json","plant_id":"55111","capacity_mw":692.0,"status_group":"Operating","energy_sources":"NG","type":"Power plant","is_nuclear":false}},{"type":"Feature","geometry":{"type":"Point","coordinates":[-87.429,39.832]},"properties":{"key":"65935-603318ee","layer":"power","name":"Vermillion Rise Solar","state":"IN","detail_file":"data/details/power-plants-40.json","plant_id":"65935","capacity_mw":185.0,"status_group":"Planned","energy_sources":"SUN","type":"Power plant","is_nuclear":false}},{"type":"Feature","geometry":{"type":"Point","coordinates":[-87.548,38.149]},"properties":{"key":"61334-0afdd0af","layer":"power","name":"Volkman Road Solar Array Hybrid","state":"IN","detail_file":"data/details/power-plants-63.json","plant_id":"61334","capacity_mw":3.0,"status_group":"Operating","energy_sources":"MWH; SUN","type":"Power plant","is_nuclear":false}},{"type":"Feature","geometry":{"type":"Point","coordinates":[-87.425,39.53]},"properties":{"key":"57842-c3a160ef","layer":"power","name":"Wabash Valley Power IGCC","state":"IN","detail_file":"data/details/power-plants-24.json","plant_id":"57842","capacity_mw":192.0,"status_group":"Operating","energy_sources":"NG","type":"Power plant","is_nuclear":false}},{"type":"Feature","geometry":{"type":"Point","coordinates":[-87.333,37.915]},"properties":{"key":"6705-9a4b3559","layer":"power","name":"Warrick","state":"IN","detail_file":"data/details/power-plants-16.json","plant_id":"6705","capacity_mw":822.8,"status_group":"Operating","energy_sources":"BIT","type":"Power plant","is_nuclear":false}},{"type":"Feature","geometry":{"type":"Point","coordinates":[-87.288,38.692]},"properties":{"key":"68534-ae62433e","layer":"power","name":"Wheatland","state":"IN","detail_file":"data/details/power-plants-06.json","plant_id":"68534","capacity_mw":150.0,"status_group":"Operating","energy_sources":"SUN","type":"Power plant","is_nuclear":false}},{"type":"Feature","geometry":{"type":"Point","coordinates":[-87.293,38.672]},"properties":{"key":"55224-26a8fcf9","layer":"power","name":"Wheatland Generating Facility","state":"IN","detail_file":"data/details/power-plants-12.json","plant_id":"55224","capacity_mw":500.4,"status_group":"Operating","energy_sources":"NG","type":"Power plant","is_nuclear":false}},{"type":"Feature","geometry":{"type":"Point","coordinates":[-84.895,39.803]},"properties":{"key":"1040-48d12446","layer":"power","name":"Whitewater Valley","state":"IN","detail_file":"data/details/power-plants-57.json","plant_id":"1040","capacity_mw":93.9,"status_group":"Operating","energy_sources":"BIT","type":"Power plant","is_nuclear":false}},{"type":"Feature","geometry":{"type":"Point","coordinates":[-87.013,39.071]},"properties":{"key":"55148-0ca30538","layer":"power","name":"Worthington Generation LLC","state":"IN","detail_file":"data/details/power-plants-30.json","plant_id":"55148","capacity_mw":242.0,"status_group":"Operating","energy_sources":"NG","type":"Power plant","is_nuclear":false}},{"type":"Feature","geometry":{"type":"Point","coordinates":[-84.301,37.822]},"properties":{"key":"64659-91c48708","layer":"power","name":"AEUG Madison Solar, LLC","state":"KY","detail_file":"data/details/power-plants-19.json","plant_id":"64659","capacity_mw":100.0,"status_group":"Under construction","energy_sources":"SUN","type":"Power plant","is_nuclear":false}},{"type":"Feature","geometry":{"type":"Point","coordinates":[-84.66,39.031]},"properties":{"key":"65027-5886e738","layer":"power","name":"Aero Solar Facility","state":"KY","detail_file":"data/details/power-plants-15.json","plant_id":"65027","capacity_mw":2.0,"status_group":"Operating","energy_sources":"SUN","type":"Power plant","is_nuclear":false}},{"type":"Feature","geometry":{"type":"Point","coordinates":[-84.656,38.861]},"properties":{"key":"56277-65ab9ba7","layer":"power","name":"Bavarian LFGTE","state":"KY","detail_file":"data/details/power-plants-35.json","plant_id":"56277","capacity_mw":4.8,"status_group":"Operating","energy_sources":"LFG","type":"Power plant","is_nuclear":false}},{"type":"Feature","geometry":{"type":"Point","coordinates":[-84.258,38.371]},"properties":{"key":"68000-d8271eca","layer":"power","name":"Blue Moon","state":"KY","detail_file":"data/details/power-plants-16.json","plant_id":"68000","capacity_mw":70.0,"status_group":"Under construction","energy_sources":"SUN","type":"Power plant","is_nuclear":false}},{"type":"Feature","geometry":{"type":"Point","coordinates":[-84.383,38.3]},"properties":{"key":"62797-3cbd4e4b","layer":"power","name":"Bluebird Solar LLC","state":"KY","detail_file":"data/details/power-plants-21.json","plant_id":"62797","capacity_mw":100.0,"status_group":"Operating","energy_sources":"SUN","type":"Power plant","is_nuclear":false}},{"type":"Feature","geometry":{"type":"Point","coordinates":[-85.413,38.39]},"properties":{"key":"55164-90198151","layer":"power","name":"Bluegrass Generating Station","state":"KY","detail_file":"data/details/power-plants-10.json","plant_id":"55164","capacity_mw":581.4,"status_group":"Operating","energy_sources":"NG","type":"Power plant","is_nuclear":false}},{"type":"Feature","geometry":{"type":"Point","coordinates":[-85.889,38.183]},"properties":{"key":"1363-07581635","layer":"power","name":"Cane Run","state":"KY","detail_file":"data/details/power-plants-36.json","plant_id":"1363","capacity_mw":807.0,"status_group":"Operating","energy_sources":"NG","type":"Power plant","is_nuclear":false}},{"type":"Feature","geometry":{"type":"Point","coordinates":[-86.706,37.9]},"properties":{"key":"57399-da5783e3","layer":"power","name":"Cannelton Hydroelectric Plant","state":"KY","detail_file":"data/details/power-plants-15.json","plant_id":"57399","capacity_mw":87.9,"status_group":"Operating","energy_sources":"WAT","type":"Power plant","is_nuclear":false}},{"type":"Feature","geometry":{"type":"Point","coordinates":[-84.592,36.998]},"properties":{"key":"1384-8658173d","layer":"power","name":"Cooper","state":"KY","detail_file":"data/details/power-plants-47.json","plant_id":"1384","capacity_mw":344.0,"status_group":"Operating","energy_sources":"BIT","type":"Power plant","is_nuclear":false}},{"type":"Feature","geometry":{"type":"Point","coordinates":[-84.255,38.027]},"properties":{"key":"60863-3b54b7f5","layer":"power","name":"Cooperative Solar One","state":"KY","detail_file":"data/details/power-plants-38.json","plant_id":"60863","capacity_mw":8.5,"status_group":"Operating","energy_sources":"SUN","type":"Power plant","is_nuclear":false}},{"type":"Feature","geometry":{"type":"Point","coordinates":[-85.248,37.605]},"properties":{"key":"69742-88751ba7","layer":"power","name":"Cooperative Solar Three-Marion","state":"KY","detail_file":"data/details/power-plants-00.json","plant_id":"69742","capacity_mw":96.0,"status_group":"Under construction","energy_sources":"SUN","type":"Power plant","is_nuclear":false}},{"type":"Feature","geometry":{"type":"Point","coordinates":[-84.316,38.035]},"properties":{"key":"69741-65e202b3","layer":"power","name":"Cooperative Solar Two-Fayette","state":"KY","detail_file":"data/details/power-plants-02.json","plant_id":"69741","capacity_mw":40.0,"status_group":"Under construction","energy_sources":"SUN","type":"Power plant","is_nuclear":false}},{"type":"Feature","geometry":{"type":"Point","coordinates":[-85.361,37.321]},"properties":{"key":"54850-44e3e535","layer":"power","name":"Cox Waste to Energy","state":"KY","detail_file":"data/details/power-plants-12.json","plant_id":"54850","capacity_mw":5.0,"status_group":"Operating","energy_sources":"WDS","type":"Power plant","is_nuclear":false}},{"type":"Feature","geometry":{"type":"Point","coordinates":[-84.613,38.752]},"properties":{"key":"61310-0be30c28","layer":"power","name":"Crittenden Solar Facility","state":"KY","detail_file":"data/details/power-plants-06.json","plant_id":"61310","capacity_mw":2.7,"status_group":"Operating","energy_sources":"SUN","type":"Power plant","is_nuclear":false}},{"type":"Feature","geometry":{"type":"Point","coordinates":[-87.081,37.45]},"properties":{"key":"6823-9f7716d3","layer":"power","name":"D B Wilson","state":"KY","detail_file":"data/details/power-plants-55.json","plant_id":"6823","capacity_mw":509.4,"status_group":"Operating","energy_sources":"BIT","type":"Power plant","is_nuclear":false}},{"type":"Feature","geometry":{"type":"Point","coordinates":[-84.703,37.786]},"properties":{"key":"1354-97e90e2a","layer":"power","name":"Dix Dam","state":"KY","detail_file":"data/details/power-plants-35.json","plant_id":"1354","capacity_mw":28.2,"status_group":"Operating","energy_sources":"WAT","type":"Power plant","is_nuclear":false}},{"type":"Feature","geometry":{"type":"Point","coordinates":[-86.269,37.688]},"properties":{"key":"68290-9ec2c9af","layer":"power","name":"Dyers Spring Solar","state":"KY","detail_file":"data/details/power-plants-07.json","plant_id":"68290","capacity_mw":200.0,"status_group":"Under construction","energy_sources":"SUN","type":"Power plant","is_nuclear":false}},{"type":"Feature","geometry":{"type":"Point","coordinates":[-84.713,37.788]},"properties":{"key":"1355-2dde07bb","layer":"power","name":"E W Brown","state":"KY","detail_file":"data/details/power-plants-14.json","plant_id":"1355","capacity_mw":1457.6,"status_group":"Operating","energy_sources":"BIT; NG; SUN","type":"Power plant","is_nuclear":false}},{"type":"Feature","geometry":{"type":"Point","coordinates":[-84.713,37.788]},"properties":{"key":"1355-1cc73ab6","layer":"power","name":"E W Brown","state":"KY","detail_file":"data/details/power-plants-31.json","plant_id":"1355","capacity_mw":125.0,"status_group":"Under construction","energy_sources":"MWH","type":"Power plant","is_nuclear":false}},{"type":"Feature","geometry":{"type":"Point","coordinates":[-84.851,38.904]},"properties":{"key":"6018-1ad66cc7","layer":"power","name":"East Bend","state":"KY","detail_file":"data/details/power-plants-20.json","plant_id":"6018","capacity_mw":772.0,"status_group":"Operating","energy_sources":"BIT","type":"Power plant","is_nuclear":false}},{"type":"Feature","geometry":{"type":"Point","coordinates":[-85.248,37.605]},"properties":{"key":"68293-48ac124c","layer":"power","name":"Frontier Solar","state":"KY","detail_file":"data/details/power-plants-24.json","plant_id":"68293","capacity_mw":120.0,"status_group":"Under construction","energy_sources":"SUN","type":"Power plant","is_nuclear":false}},{"type":"Feature","geometry":{"type":"Point","coordinates":[-85.035,38.75]},"properties":{"key":"1356-2654344d","layer":"power","name":"Ghent","state":"KY","detail_file":"data/details/power-plants-14.json","plant_id":"1356","capacity_mw":2225.9,"status_group":"Operating","energy_sources":"BIT","type":"Power plant","is_nuclear":false}},{"type":"Feature","geometry":{"type":"Point","coordinates":[-85.957,36.987]},"properties":{"key":"60137-7a3eb910","layer":"power","name":"Glasgow LFGTE","state":"KY","detail_file":"data/details/power-plants-58.json","plant_id":"60137","capacity_mw":1.0,"status_group":"Operating","energy_sources":"LFG","type":"Power plant","is_nuclear":false}},{"type":"Feature","geometry":{"type":"Point","coordinates":[-85.712,36.901]},"properties":{"key":"66047-aedd998b","layer":"power","name":"Glover Creek Solar, LLC","state":"KY","detail_file":"data/details/power-plants-00.json","plant_id":"66047","capacity_mw":55.0,"status_group":"Operating","energy_sources":"SUN","type":"Power plant","is_nuclear":false}},{"type":"Feature","geometry":{"type":"Point","coordinates":[-84.549,38.345]},"properties":{"key":"60703-b618b8eb","layer":"power","name":"Green City Recovery, LLC","state":"KY","detail_file":"data/details/power-plants-30.json","plant_id":"60703","capacity_mw":2.0,"status_group":"Operating","energy_sources":"LFG","type":"Power plant","is_nuclear":false}},{"type":"Feature","geometry":{"type":"Point","coordinates":[-86.26,37.91]},"properties":{"key":"68297-9242e2d7","layer":"power","name":"Green River Solar","state":"KY","detail_file":"data/details/power-plants-54.json","plant_id":"68297","capacity_mw":200.0,"status_group":"Operating","energy_sources":"SUN","type":"Power plant","is_nuclear":false}},{"type":"Feature","geometry":{"type":"Point","coordinates":[-84.519,38.079]},"properties":{"key":"1358-ef12db32","layer":"power","name":"Haefling","state":"KY","detail_file":"data/details/power-plants-59.json","plant_id":"1358","capacity_mw":41.4,"status_group":"Operating","energy_sources":"NG","type":"Power plant","is_nuclear":false}},{"type":"Feature","geometry":{"type":"Point","coordinates":[-85.726,37.726]},"properties":{"key":"56280-56333d95","layer":"power","name":"Hardin County LFGTE","state":"KY","detail_file":"data/details/power-plants-40.json","plant_id":"56280","capacity_mw":2.4,"status_group":"Operating","energy_sources":"LFG","type":"Power plant","is_nuclear":false}},{"type":"Feature","geometry":{"type":"Point","coordinates":[-87.623,37.799]},"properties":{"key":"69793-bf3f2617","layer":"power","name":"Henderson County Solar","state":"KY","detail_file":"data/details/power-plants-23.json","plant_id":"69793","capacity_mw":51.1,"status_group":"Under construction","energy_sources":"SUN","type":"Power plant","is_nuclear":false}},{"type":"Feature","geometry":{"type":"Point","coordinates":[-84.102,37.883]},"properties":{"key":"54-7017e03a","layer":"power","name":"J K Smith","state":"KY","detail_file":"data/details/power-plants-59.json","plant_id":"54","capacity_mw":938.4,"status_group":"Operating","energy_sources":"NG","type":"Power plant","is_nuclear":false}},{"type":"Feature","geometry":{"type":"Point","coordinates":[-84.103,37.784]},"properties":{"key":"62390-e90ac06e","layer":"power","name":"KY No. 11 L&D Hydroelectric Project","state":"KY","detail_file":"data/details/power-plants-49.json","plant_id":"62390","capacity_mw":2.8,"status_group":"Under construction","energy_sources":"WAT","type":"Power plant","is_nuclear":false}},{"type":"Feature","geometry":{"type":"Point","coordinates":[-87.551,37.32]},"properties":{"key":"68453-c02daa0c","layer":"power","name":"KYMEA Energy Center I","state":"KY","detail_file":"data/details/power-plants-35.json","plant_id":"68453","capacity_mw":75.2,"status_group":"Under construction","energy_sources":"NG","type":"Power plant","is_nuclear":false}},{"type":"Feature","geometry":{"type":"Point","coordinates":[-86.685,37.895]},"properties":{"key":"55429-09cea723","layer":"power","name":"Kentucky Mills","state":"KY","detail_file":"data/details/power-plants-49.json","plant_id":"55429","capacity_mw":88.0,"status_group":"Operating","energy_sources":"BLQ","type":"Power plant","is_nuclear":false}},{"type":"Feature","geometry":{"type":"Point","coordinates":[-84.608,38.988]},"properties":{"key":"61744-022bf2c3","layer":"power","name":"L'Oreal Solar - Florence","state":"KY","detail_file":"data/details/power-plants-21.json","plant_id":"61744","capacity_mw":1.1,"status_group":"Operating","energy_sources":"SUN","type":"Power plant","is_nuclear":false}},{"type":"Feature","geometry":{"type":"Point","coordinates":[-85.391,38.216]},"properties":{"key":"65406-46e2d203","layer":"power","name":"LGE-KU Solar Share Facility Simpsonville","state":"KY","detail_file":"data/details/power-plants-06.json","plant_id":"65406","capacity_mw":2.1,"status_group":"Operating","energy_sources":"SUN","type":"Power plant","is_nuclear":false}},{"type":"Feature","geometry":{"type":"Point","coordinates":[-84.27,36.961]},"properties":{"key":"6171-3240a02c","layer":"power","name":"Laurel Dam","state":"KY","detail_file":"data/details/power-plants-16.json","plant_id":"6171","capacity_mw":70.0,"status_group":"Operating","energy_sources":"WAT","type":"Power plant","is_nuclear":false}},{"type":"Feature","geometry":{"type":"Point","coordinates":[-84.958,37.369]},"properties":{"key":"69726-426adebc","layer":"power","name":"Liberty Station","state":"KY","detail_file":"data/details/power-plants-27.json","plant_id":"69726","capacity_mw":217.2,"status_group":"Planned","energy_sources":"NG","type":"Power plant","is_nuclear":false}},{"type":"Feature","geometry":{"type":"Point","coordinates":[-84.173,38.791]},"properties":{"key":"56872-a0c798a2","layer":"power","name":"Meldahl Hydroelectric Project","state":"KY","detail_file":"data/details/power-plants-57.json","plant_id":"56872","capacity_mw":105.0,"status_group":"Operating","energy_sources":"WAT","type":"Power plant","is_nuclear":false}},{"type":"Feature","geometry":{"type":"Point","coordinates":[-85.91,38.053]},"properties":{"key":"1364-87be7423","layer":"power","name":"Mill Creek (KY)","state":"KY","detail_file":"data/details/power-plants-27.json","plant_id":"1364","capacity_mw":1361.7,"status_group":"Operating","energy_sources":"BIT","type":"Power plant","is_nuclear":false}},{"type":"Feature","geometry":{"type":"Point","coordinates":[-85.91,38.053]},"properties":{"key":"1364-b791b38c","layer":"power","name":"Mill Creek (KY)","state":"KY","detail_file":"data/details/power-plants-19.json","plant_id":"1364","capacity_mw":740.0,"status_group":"Under construction","energy_sources":"NG","type":"Power plant","is_nuclear":false}},{"type":"Feature","geometry":{"type":"Point","coordinates":[-84.725,37.83]},"properties":{"key":"1359-63c73869","layer":"power","name":"Mother Ann Lee","state":"KY","detail_file":"data/details/power-plants-33.json","plant_id":"1359","capacity_mw":2.1,"status_group":"Operating","energy_sources":"WAT","type":"Power plant","is_nuclear":false}},{"type":"Feature","geometry":{"type":"Point","coordinates":[-86.507,37.795]},"properties":{"key":"68897-8c3cdaef","layer":"power","name":"New Frontiers Solar","state":"KY","detail_file":"data/details/power-plants-06.json","plant_id":"68897","capacity_mw":100.0,"status_group":"Under construction","energy_sources":"SUN","type":"Power plant","is_nuclear":false}},{"type":"Feature","geometry":{"type":"Point","coordinates":[-85.779,38.283]},"properties":{"key":"1365-030ae2bf","layer":"power","name":"Ohio Falls","state":"KY","detail_file":"data/details/power-plants-42.json","plant_id":"1365","capacity_mw":109.6,"status_group":"Operating","energy_sources":"WAT","type":"Power plant","is_nuclear":false}},{"type":"Feature","geometry":{"type":"Point","coordinates":[-85.842,38.224]},"properties":{"key":"1366-57516903","layer":"power","name":"Paddys Run","state":"KY","detail_file":"data/details/power-plants-48.json","plant_id":"1366","capacity_mw":210.6,"status_group":"Operating","energy_sources":"NG","type":"Power plant","is_nuclear":false}},{"type":"Feature","geometry":{"type":"Point","coordinates":[-86.978,37.261]},"properties":{"key":"1378-85e7f2dd","layer":"power","name":"Paradise","state":"KY","detail_file":"data/details/power-plants-45.json","plant_id":"1378","capacity_mw":1853.6,"status_group":"Operating","energy_sources":"NG","type":"Power plant","is_nuclear":false}},{"type":"Feature","geometry":{"type":"Point","coordinates":[-84.238,38.205]},"properties":{"key":"1376-8cedb12c","layer":"power","name":"Paris (KY)","state":"KY","detail_file":"data/details/power-plants-41.json","plant_id":"1376","capacity_mw":10.6,"status_group":"Operating","energy_sources":"DFO","type":"Power plant","is_nuclear":false}},{"type":"Feature","geometry":{"type":"Point","coordinates":[-84.406,38.734]},"properties":{"key":"56327-3a6a42fa","layer":"power","name":"Pendleton County LFGTE","state":"KY","detail_file":"data/details/power-plants-19.json","plant_id":"56327","capacity_mw":3.2,"status_group":"Operating","energy_sources":"LFG","type":"Power plant","is_nuclear":false}},{"type":"Feature","geometry":{"type":"Point","coordinates":[-87.5,37.646]},"properties":{"key":"6639-8b3c46cf","layer":"power","name":"R D Green","state":"KY","detail_file":"data/details/power-plants-12.json","plant_id":"6639","capacity_mw":586.0,"status_group":"Operating","energy_sources":"NG","type":"Power plant","is_nuclear":false}},{"type":"Feature","geometry":{"type":"Point","coordinates":[-84.584,39.044]},"properties":{"key":"67473-6fa05661","layer":"power","name":"RA Jones Roof Mounted Solar System","state":"KY","detail_file":"data/details/power-plants-23.json","plant_id":"67473","capacity_mw":1.3,"status_group":"Operating","energy_sources":"SUN","type":"Power plant","is_nuclear":false}},{"type":"Feature","geometry":{"type":"Point","coordinates":[-87.502,37.646]},"properties":{"key":"1383-305cb76a","layer":"power","name":"Robert A Reid","state":"KY","detail_file":"data/details/power-plants-57.json","plant_id":"1383","capacity_mw":98.8,"status_group":"Operating","energy_sources":"NG","type":"Power plant","is_nuclear":false}},{"type":"Feature","geometry":{"type":"Point","coordinates":[-86.547,36.713]},"properties":{"key":"67082-b89d0ca9","layer":"power","name":"SR Franklin, LLC","state":"KY","detail_file":"data/details/power-plants-35.json","plant_id":"67082","capacity_mw":2.5,"status_group":"Operating","energy_sources":"SUN","type":"Power plant","is_nuclear":false}},{"type":"Feature","geometry":{"type":"Point","coordinates":[-86.534,36.661]},"properties":{"key":"68249-1443e2f4","layer":"power","name":"SR Horus","state":"KY","detail_file":"data/details/power-plants-43.json","plant_id":"68249","capacity_mw":79.7,"status_group":"Under construction","energy_sources":"SUN","type":"Power plant","is_nuclear":false}},{"type":"Feature","geometry":{"type":"Point","coordinates":[-86.943,36.796]},"properties":{"key":"66818-3ebd7343","layer":"power","name":"SR Russellville","state":"KY","detail_file":"data/details/power-plants-34.json","plant_id":"66818","capacity_mw":173.0,"status_group":"Operating","energy_sources":"SUN","type":"Power plant","is_nuclear":false}},{"type":"Feature","geometry":{"type":"Point","coordinates":[-84.568,37.593]},"properties":{"key":"64842-2339e6c5","layer":"power","name":"SR Turkey Creek, LLC","state":"KY","detail_file":"data/details/power-plants-48.json","plant_id":"64842","capacity_mw":50.0,"status_group":"Operating","energy_sources":"SUN","type":"Power plant","is_nuclear":false}},{"type":"Feature","geometry":{"type":"Point","coordinates":[-86.549,36.712]},"properties":{"key":"67164-7c79d640","layer":"power","name":"SR Warren, LLC","state":"KY","detail_file":"data/details/power-plants-56.json","plant_id":"67164","capacity_mw":3.5,"status_group":"Operating","energy_sources":"SUN","type":"Power plant","is_nuclear":false}},{"type":"Feature","geometry":{"type":"Point","coordinates":[-87.549,37.693]},"properties":{"key":"67735-4398ed8b","layer":"power","name":"Sebree Solar, LLC","state":"KY","detail_file":"data/details/power-plants-36.json","plant_id":"67735","capacity_mw":250.0,"status_group":"Operating","energy_sources":"SUN","type":"Power plant","is_nuclear":false}},{"type":"Feature","geometry":{"type":"Point","coordinates":[-85.412,38.585]},"properties":{"key":"6071-d3708462","layer":"power","name":"Trimble County","state":"KY","detail_file":"data/details/power-plants-22.json","plant_id":"6071","capacity_mw":2594.1,"status_group":"Operating","energy_sources":"BIT; NG","type":"Power plant","is_nuclear":false}},{"type":"Feature","geometry":{"type":"Point","coordinates":[-87.552,37.652]},"properties":{"key":"67165-fa26f723","layer":"power","name":"Unbridled Solar","state":"KY","detail_file":"data/details/power-plants-50.json","plant_id":"67165","capacity_mw":160.0,"status_group":"Operating","energy_sources":"SUN","type":"Power plant","is_nuclear":false}},{"type":"Feature","geometry":{"type":"Point","coordinates":[-84.592,38.85]},"properties":{"key":"61311-4b3a6cbb","layer":"power","name":"Walton 1 Solar Facility","state":"KY","detail_file":"data/details/power-plants-45.json","plant_id":"61311","capacity_mw":2.0,"status_group":"Operating","energy_sources":"SUN","type":"Power plant","is_nuclear":false}},{"type":"Feature","geometry":{"type":"Point","coordinates":[-84.592,38.85]},"properties":{"key":"61312-be568d2b","layer":"power","name":"Walton 2 Solar Facility","state":"KY","detail_file":"data/details/power-plants-31.json","plant_id":"61312","capacity_mw":2.0,"status_group":"Operating","energy_sources":"SUN","type":"Power plant","is_nuclear":false}},{"type":"Feature","geometry":{"type":"Point","coordinates":[-87.69,37.424]},"properties":{"key":"69929-46dc84fa","layer":"power","name":"Weirs Creek","state":"KY","detail_file":"data/details/power-plants-23.json","plant_id":"69929","capacity_mw":150.0,"status_group":"Under construction","energy_sources":"SUN","type":"Power plant","is_nuclear":false}},{"type":"Feature","geometry":{"type":"Point","coordinates":[-85.147,36.869]},"properties":{"key":"1380-d8bb6c86","layer":"power","name":"Wolf Creek","state":"KY","detail_file":"data/details/power-plants-60.json","plant_id":"1380","capacity_mw":270.0,"status_group":"Operating","energy_sources":"WAT","type":"Power plant","is_nuclear":false}},{"type":"Feature","geometry":{"type":"Point","coordinates":[-87.549,37.693]},"properties":{"key":"68876-d5018a1d","layer":"power","name":"Okolona Solar","state":"MS","detail_file":"data/details/power-plants-09.json","plant_id":"68876","capacity_mw":290.0,"status_group":"Under construction","energy_sources":"MWH; SUN","type":"Power plant","is_nuclear":false}},{"type":"Feature","geometry":{"type":"Point","coordinates":[-84.32,39.411]},"properties":{"key":"69604-bf74672f","layer":"power","name":"CZ Solar Warren, LLC","state":"OH","detail_file":"data/details/power-plants-49.json","plant_id":"69604","capacity_mw":19.9,"status_group":"Operating","energy_sources":"SUN","type":"Power plant","is_nuclear":false}},{"type":"Feature","geometry":{"type":"Point","coordinates":[-84.509,39.135]},"properties":{"key":"57908-3858fb91","layer":"power","name":"Central Utility Plant Cincinnati","state":"OH","detail_file":"data/details/power-plants-10.json","plant_id":"57908","capacity_mw":47.2,"status_group":"Operating","energy_sources":"DFO; NG","type":"Power plant","is_nuclear":false}},{"type":"Feature","geometry":{"type":"Point","coordinates":[-84.378,39.465]},"properties":{"key":"2831-42567d84","layer":"power","name":"Dick's Creek","state":"OH","detail_file":"data/details/power-plants-24.json","plant_id":"2831","capacity_mw":159.1,"status_group":"Operating","energy_sources":"NG","type":"Power plant","is_nuclear":false}},{"type":"Feature","geometry":{"type":"Point","coordinates":[-84.505,39.138]},"properties":{"key":"57929-da02f641","layer":"power","name":"East Campus Utility Plant","state":"OH","detail_file":"data/details/power-plants-28.json","plant_id":"57929","capacity_mw":6.0,"status_group":"Operating","energy_sources":"DFO","type":"Power plant","is_nuclear":false}},{"type":"Feature","geometry":{"type":"Point","coordinates":[-84.554,39.41]},"properties":{"key":"2917-8223f6a4","layer":"power","name":"Hamilton (OH)","state":"OH","detail_file":"data/details/power-plants-50.json","plant_id":"2917","capacity_mw":16.3,"status_group":"Operating","energy_sources":"NG","type":"Power plant","is_nuclear":false}},{"type":"Feature","geometry":{"type":"Point","coordinates":[-84.556,39.413]},"properties":{"key":"7807-f1f8b19f","layer":"power","name":"Hamilton Hydro","state":"OH","detail_file":"data/details/power-plants-33.json","plant_id":"7807","capacity_mw":2.2,"status_group":"Operating","energy_sources":"WAT","type":"Power plant","is_nuclear":false}},{"type":"Feature","geometry":{"type":"Point","coordinates":[-84.518,39.353]},"properties":{"key":"7782-ee6a5252","layer":"power","name":"Hamilton Peaking","state":"OH","detail_file":"data/details/power-plants-48.json","plant_id":"7782","capacity_mw":32.0,"status_group":"Operating","energy_sources":"NG","type":"Power plant","is_nuclear":false}},{"type":"Feature","geometry":{"type":"Point","coordinates":[-84.465,39.452]},"properties":{"key":"55110-7e7c65ca","layer":"power","name":"Madison","state":"OH","detail_file":"data/details/power-plants-40.json","plant_id":"55110","capacity_mw":692.0,"status_group":"Operating","energy_sources":"NG","type":"Power plant","is_nuclear":false}},{"type":"Feature","geometry":{"type":"Point","coordinates":[-84.804,39.113]},"properties":{"key":"2832-6e168b26","layer":"power","name":"Miami Fort","state":"OH","detail_file":"data/details/power-plants-09.json","plant_id":"2832","capacity_mw":1180.8,"status_group":"Operating","energy_sources":"BIT; DFO","type":"Power plant","is_nuclear":false}},{"type":"Feature","geometry":{"type":"Point","coordinates":[-84.401,39.472]},"properties":{"key":"57822-552250e2","layer":"power","name":"Middletown Coke Company, LLC","state":"OH","detail_file":"data/details/power-plants-27.json","plant_id":"57822","capacity_mw":67.0,"status_group":"Operating","energy_sources":"OG","type":"Power plant","is_nuclear":false}},{"type":"Feature","geometry":{"type":"Point","coordinates":[-84.348,39.465]},"properties":{"key":"59326-504df762","layer":"power","name":"Middletown Energy Center","state":"OH","detail_file":"data/details/power-plants-34.json","plant_id":"59326","capacity_mw":543.9,"status_group":"Operating","energy_sources":"NG","type":"Power plant","is_nuclear":false}},{"type":"Feature","geometry":{"type":"Point","coordinates":[-84.174,39.767]},"properties":{"key":"2851-5442df32","layer":"power","name":"Monument","state":"OH","detail_file":"data/details/power-plants-36.json","plant_id":"2851","capacity_mw":13.5,"status_group":"Operating","energy_sources":"DFO","type":"Power plant","is_nuclear":false}},{"type":"Feature","geometry":{"type":"Point","coordinates":[-84.017,38.925]},"properties":{"key":"65215-9618551b","layer":"power","name":"Nestlewood Solar","state":"OH","detail_file":"data/details/power-plants-15.json","plant_id":"65215","capacity_mw":80.0,"status_group":"Operating","energy_sources":"SUN","type":"Power plant","is_nuclear":false}},{"type":"Feature","geometry":{"type":"Point","coordinates":[-84.292,39.609]},"properties":{"key":"2848-3f0de61b","layer":"power","name":"O H Hutchings","state":"OH","detail_file":"data/details/power-plants-58.json","plant_id":"2848","capacity_mw":32.6,"status_group":"Operating","energy_sources":"NG","type":"Power plant","is_nuclear":false}},{"type":"Feature","geometry":{"type":"Point","coordinates":[-84.511,39.142]},"properties":{"key":"63294-98c09e25","layer":"power","name":"Parking Lot Array","state":"OH","detail_file":"data/details/power-plants-13.json","plant_id":"63294","capacity_mw":3.7,"status_group":"Operating","energy_sources":"SUN","type":"Power plant","is_nuclear":false}},{"type":"Feature","geometry":{"type":"Point","coordinates":[-84.116,39.724]},"properties":{"key":"69683-a491bd9e","layer":"power","name":"Solvita","state":"OH","detail_file":"data/details/power-plants-11.json","plant_id":"69683","capacity_mw":1.3,"status_group":"Operating","energy_sources":"SUN","type":"Power plant","is_nuclear":false}},{"type":"Feature","geometry":{"type":"Point","coordinates":[-84.211,39.727]},"properties":{"key":"2847-8dbb3c45","layer":"power","name":"Tait Electric Generating Station","state":"OH","detail_file":"data/details/power-plants-39.json","plant_id":"2847","capacity_mw":680.6,"status_group":"Operating","energy_sources":"DFO; NG","type":"Power plant","is_nuclear":false}},{"type":"Feature","geometry":{"type":"Point","coordinates":[-84.468,39.455]},"properties":{"key":"69819-83b0109a","layer":"power","name":"Trenton Solar - (OH)","state":"OH","detail_file":"data/details/power-plants-28.json","plant_id":"69819","capacity_mw":9.5,"status_group":"Under construction","energy_sources":"SUN","type":"Power plant","is_nuclear":false}},{"type":"Feature","geometry":{"type":"Point","coordinates":[-84.298,38.992]},"properties":{"key":"2830-9ea683cb","layer":"power","name":"Walter C Beckjord","state":"OH","detail_file":"data/details/power-plants-44.json","plant_id":"2830","capacity_mw":4.0,"status_group":"Operating","energy_sources":"MWH","type":"Power plant","is_nuclear":false}},{"type":"Feature","geometry":{"type":"Point","coordinates":[-84.461,39.449]},"properties":{"key":"7158-66827e9b","layer":"power","name":"Woodsdale","state":"OH","detail_file":"data/details/power-plants-23.json","plant_id":"7158","capacity_mw":571.8,"status_group":"Operating","energy_sources":"NG","type":"Power plant","is_nuclear":false}},{"type":"Feature","geometry":{"type":"Point","coordinates":[-84.205,39.603]},"properties":{"key":"2854-837da5e5","layer":"power","name":"Yankee Street","state":"OH","detail_file":"data/details/power-plants-35.json","plant_id":"2854","capacity_mw":126.6,"status_group":"Operating","energy_sources":"NG; SUN","type":"Power plant","is_nuclear":false}},{"type":"Feature","geometry":{"type":"Point","coordinates":[-87.544,36.541]},"properties":{"key":"58559-44dd2112","layer":"power","name":"Bi-County Gas Producers","state":"TN","detail_file":"data/details/power-plants-56.json","plant_id":"58559","capacity_mw":3.0,"status_group":"Operating","energy_sources":"LFG","type":"Power plant","is_nuclear":false}},{"type":"Feature","geometry":{"type":"Point","coordinates":[-85.827,36.097]},"properties":{"key":"6417-707a60cd","layer":"power","name":"Center Hill","state":"TN","detail_file":"data/details/power-plants-08.json","plant_id":"6417","capacity_mw":156.0,"status_group":"Operating","energy_sources":"WAT","type":"Power plant","is_nuclear":false}},{"type":"Feature","geometry":{"type":"Point","coordinates":[-87.222,36.321]},"properties":{"key":"6418-9b78fc7e","layer":"power","name":"Cheatham","state":"TN","detail_file":"data/details/power-plants-20.json","plant_id":"6418","capacity_mw":36.0,"status_group":"Operating","energy_sources":"WAT","type":"Power plant","is_nuclear":false}},{"type":"Feature","geometry":{"type":"Point","coordinates":[-84.032,36.117]},"properties":{"key":"50570-e6ba4d42","layer":"power","name":"Chestnut Ridge Gas Recovery","state":"TN","detail_file":"data/details/power-plants-03.json","plant_id":"50570","capacity_mw":4.8,"status_group":"Operating","energy_sources":"LFG","type":"Power plant","is_nuclear":false}},{"type":"Feature","geometry":{"type":"Point","coordinates":[-85.944,36.29]},"properties":{"key":"3423-4e5742c7","layer":"power","name":"Cordell Hull","state":"TN","detail_file":"data/details/power-plants-29.json","plant_id":"3423","capacity_mw":99.9,"status_group":"Operating","energy_sources":"WAT","type":"Power plant","is_nuclear":false}},{"type":"Feature","geometry":{"type":"Point","coordinates":[-87.654,36.39]},"properties":{"key":"3399-c08c9980","layer":"power","name":"Cumberland (TN)","state":"TN","detail_file":"data/details/power-plants-47.json","plant_id":"3399","capacity_mw":2600.0,"status_group":"Operating","energy_sources":"BIT","type":"Power plant","is_nuclear":false}},{"type":"Feature","geometry":{"type":"Point","coordinates":[-87.654,36.39]},"properties":{"key":"3399-fdf0cce5","layer":"power","name":"Cumberland (TN)","state":"TN","detail_file":"data/details/power-plants-20.json","plant_id":"3399","capacity_mw":1555.6,"status_group":"Under construction","energy_sources":"NG","type":"Power plant","is_nuclear":false}},{"type":"Feature","geometry":{"type":"Point","coordinates":[-85.452,36.538]},"properties":{"key":"3424-d496f74f","layer":"power","name":"Dale Hollow","state":"TN","detail_file":"data/details/power-plants-14.json","plant_id":"3424","capacity_mw":54.0,"status_group":"Operating","energy_sources":"WAT","type":"Power plant","is_nuclear":false}},{"type":"Feature","geometry":{"type":"Point","coordinates":[-86.401,36.316]},"properties":{"key":"3403-09015ebf","layer":"power","name":"Gallatin (TN)","state":"TN","detail_file":"data/details/power-plants-63.json","plant_id":"3403","capacity_mw":1918.4,"status_group":"Operating","energy_sources":"BIT; NG; SUB","type":"Power plant","is_nuclear":false}},{"type":"Feature","geometry":{"type":"Point","coordinates":[-86.619,36.156]},"properties":{"key":"3428-d4b9b420","layer":"power","name":"J P Priest","state":"TN","detail_file":"data/details/power-plants-53.json","plant_id":"3428","capacity_mw":28.0,"status_group":"Operating","energy_sources":"WAT","type":"Power plant","is_nuclear":false}},{"type":"Feature","geometry":{"type":"Point","coordinates":[-87.986,36.028]},"properties":{"key":"3406-64e733ab","layer":"power","name":"Johnsonville","state":"TN","detail_file":"data/details/power-plants-19.json","plant_id":"3406","capacity_mw":1676.0,"status_group":"Operating","energy_sources":"NG","type":"Power plant","is_nuclear":false}},{"type":"Feature","geometry":{"type":"Point","coordinates":[-86.747,36.249]},"properties":{"key":"62468-76d905e2","layer":"power","name":"Music City Community Solar","state":"TN","detail_file":"data/details/power-plants-09.json","plant_id":"62468","capacity_mw":1.6,"status_group":"Operating","energy_sources":"SUN","type":"Power plant","is_nuclear":false}},{"type":"Feature","geometry":{"type":"Point","coordinates":[-84.091,36.224]},"properties":{"key":"3411-e1b75257","layer":"power","name":"Norris Dam","state":"TN","detail_file":"data/details/power-plants-51.json","plant_id":"3411","capacity_mw":131.4,"status_group":"Operating","energy_sources":"WAT","type":"Power plant","is_nuclear":false}},{"type":"Feature","geometry":{"type":"Point","coordinates":[-86.656,36.297]},"properties":{"key":"3426-216da51d","layer":"power","name":"Old Hickory","state":"TN","detail_file":"data/details/power-plants-18.json","plant_id":"3426","capacity_mw":103.7,"status_group":"Operating","energy_sources":"WAT","type":"Power plant","is_nuclear":false}},{"type":"Feature","geometry":{"type":"Point","coordinates":[-86.694,36.211]},"properties":{"key":"55037-65937e7a","layer":"power","name":"Opryland USA","state":"TN","detail_file":"data/details/power-plants-23.json","plant_id":"55037","capacity_mw":4.5,"status_group":"Operating","energy_sources":"NG","type":"Power plant","is_nuclear":false}},{"type":"Feature","geometry":{"type":"Point","coordinates":[-87.315,36.521]},"properties":{"key":"67080-8ea45358","layer":"power","name":"SR Clarksville II, LLC","state":"TN","detail_file":"data/details/power-plants-12.json","plant_id":"67080","capacity_mw":4.8,"status_group":"Operating","energy_sources":"SUN","type":"Power plant","is_nuclear":false}},{"type":"Feature","geometry":{"type":"Point","coordinates":[-87.317,36.523]},"properties":{"key":"67079-c28dd70b","layer":"power","name":"SR Clarksville, LLC","state":"TN","detail_file":"data/details/power-plants-11.json","plant_id":"67079","capacity_mw":2.0,"status_group":"Operating","energy_sources":"SUN","type":"Power plant","is_nuclear":false}},{"type":"Feature","geometry":{"type":"Point","coordinates":[-85.11,36.035]},"properties":{"key":"68099-1092ab5e","layer":"power","name":"SR Copeland","state":"TN","detail_file":"data/details/power-plants-47.json","plant_id":"68099","capacity_mw":110.0,"status_group":"Under construction","energy_sources":"SUN","type":"Power plant","is_nuclear":false}},{"type":"Feature","geometry":{"type":"Point","coordinates":[-85.254,36.441]},"properties":{"key":"67133-7eb3e5b6","layer":"power","name":"SR Monroe, LLC","state":"TN","detail_file":"data/details/power-plants-51.json","plant_id":"67133","capacity_mw":4.8,"status_group":"Operating","energy_sources":"SUN","type":"Power plant","is_nuclear":false}},{"type":"Feature","geometry":{"type":"Point","coordinates":[-86.804,36.146]},"properties":{"key":"52048-dbe1765b","layer":"power","name":"Vanderbilt University Power Plant","state":"TN","detail_file":"data/details/power-plants-18.json","plant_id":"52048","capacity_mw":18.7,"status_group":"Operating","energy_sources":"NG","type":"Power plant","is_nuclear":false}}]}