{"type":"FeatureCollection","features":[{"type":"Feature","geometry":{"type":"Point","coordinates":[-114.517,42.962]},"properties":{"key":"66406-099b51be","layer":"power","name":"AJMS, LLC","state":"ID","detail_file":"data/details/power-plants-34.json","plant_id":"66406","capacity_mw":1.2,"status_group":"Operating","energy_sources":"WAT","type":"Power plant","is_nuclear":false}},{"type":"Feature","geometry":{"type":"Point","coordinates":[-114.433,42.533]},"properties":{"key":"10504-472e0b87","layer":"power","name":"Amalgamated Sugar Twin Falls","state":"ID","detail_file":"data/details/power-plants-34.json","plant_id":"10504","capacity_mw":12.7,"status_group":"Operating","energy_sources":"NG","type":"Power plant","is_nuclear":false}},{"type":"Feature","geometry":{"type":"Point","coordinates":[-112.876,42.778]},"properties":{"key":"809-cd5d843c","layer":"power","name":"American Falls","state":"ID","detail_file":"data/details/power-plants-34.json","plant_id":"809","capacity_mw":92.4,"status_group":"Operating","energy_sources":"WAT","type":"Power plant","is_nuclear":false}},{"type":"Feature","geometry":{"type":"Point","coordinates":[-112.738,42.824]},"properties":{"key":"60011-dff957c9","layer":"power","name":"American Falls Solar","state":"ID","detail_file":"data/details/power-plants-29.json","plant_id":"60011","capacity_mw":20.0,"status_group":"Operating","energy_sources":"SUN","type":"Power plant","is_nuclear":false}},{"type":"Feature","geometry":{"type":"Point","coordinates":[-112.749,42.825]},"properties":{"key":"60012-5a65e094","layer":"power","name":"American Falls Solar II","state":"ID","detail_file":"data/details/power-plants-20.json","plant_id":"60012","capacity_mw":20.0,"status_group":"Operating","energy_sources":"SUN","type":"Power plant","is_nuclear":false}},{"type":"Feature","geometry":{"type":"Point","coordinates":[-115.451,43.357]},"properties":{"key":"6395-56531e08","layer":"power","name":"Anderson Ranch","state":"ID","detail_file":"data/details/power-plants-13.json","plant_id":"6395","capacity_mw":40.0,"status_group":"Operating","energy_sources":"WAT","type":"Power plant","is_nuclear":false}},{"type":"Feature","geometry":{"type":"Point","coordinates":[-112.442,43.557]},"properties":{"key":"66651-3c5b3864","layer":"power","name":"Arco Wind and Solar Project","state":"ID","detail_file":"data/details/power-plants-60.json","plant_id":"66651","capacity_mw":359.0,"status_group":"Under construction","energy_sources":"WND","type":"Power plant","is_nuclear":false}},{"type":"Feature","geometry":{"type":"Point","coordinates":[-115.923,43.595]},"properties":{"key":"56997-86e631c6","layer":"power","name":"Arrowrock Hydroelectric Project","state":"ID","detail_file":"data/details/power-plants-00.json","plant_id":"56997","capacity_mw":15.0,"status_group":"Operating","energy_sources":"WAT","type":"Power plant","is_nuclear":false}},{"type":"Feature","geometry":{"type":"Point","coordinates":[-112.366,42.788]},"properties":{"key":"59529-20955bed","layer":"power","name":"Bannock County LFG to Energy","state":"ID","detail_file":"data/details/power-plants-40.json","plant_id":"59529","capacity_mw":3.2,"status_group":"Operating","energy_sources":"LFG","type":"Power plant","is_nuclear":false}},{"type":"Feature","geometry":{"type":"Point","coordinates":[-115.48,43.054]},"properties":{"key":"56637-b027b8d2","layer":"power","name":"Bennett Creek Windfarm LLC - Mountain Home","state":"ID","detail_file":"data/details/power-plants-20.json","plant_id":"56637","capacity_mw":21.0,"status_group":"Operating","energy_sources":"WND","type":"Power plant","is_nuclear":false}},{"type":"Feature","geometry":{"type":"Point","coordinates":[-115.667,43.147]},"properties":{"key":"55733-48aad871","layer":"power","name":"Bennett Mountain","state":"ID","detail_file":"data/details/power-plants-08.json","plant_id":"55733","capacity_mw":172.8,"status_group":"Operating","energy_sources":"NG","type":"Power plant","is_nuclear":false}},{"type":"Feature","geometry":{"type":"Point","coordinates":[-114.791,42.866]},"properties":{"key":"57393-2b8c54ab","layer":"power","name":"Big Sky Dairy Digester","state":"ID","detail_file":"data/details/power-plants-05.json","plant_id":"57393","capacity_mw":1.6,"status_group":"Operating","energy_sources":"OBG","type":"Power plant","is_nuclear":false}},{"type":"Feature","geometry":{"type":"Point","coordinates":[-115.181,42.908]},"properties":{"key":"66326-26cfa653","layer":"power","name":"Black Mesa BESS","state":"ID","detail_file":"data/details/power-plants-10.json","plant_id":"66326","capacity_mw":40.0,"status_group":"Operating","energy_sources":"MWH","type":"Power plant","is_nuclear":false}},{"type":"Feature","geometry":{"type":"Point","coordinates":[-115.181,42.907]},"properties":{"key":"66569-408048e1","layer":"power","name":"Black Mesa Solar, LLC","state":"ID","detail_file":"data/details/power-plants-53.json","plant_id":"66569","capacity_mw":40.0,"status_group":"Operating","energy_sources":"SUN","type":"Power plant","is_nuclear":false}},{"type":"Feature","geometry":{"type":"Point","coordinates":[-114.823,42.7]},"properties":{"key":"54514-cd2c804d","layer":"power","name":"Blind Canyon Hydro","state":"ID","detail_file":"data/details/power-plants-16.json","plant_id":"54514","capacity_mw":1.3,"status_group":"Operating","energy_sources":"WAT","type":"Power plant","is_nuclear":false}},{"type":"Feature","geometry":{"type":"Point","coordinates":[-115.071,42.914]},"properties":{"key":"810-3f7d8e46","layer":"power","name":"Bliss (ID)","state":"ID","detail_file":"data/details/power-plants-19.json","plant_id":"810","capacity_mw":75.0,"status_group":"Operating","energy_sources":"WAT","type":"Power plant","is_nuclear":false}},{"type":"Feature","geometry":{"type":"Point","coordinates":[-113.927,42.49]},"properties":{"key":"56434-79ce919b","layer":"power","name":"Burley Butte Windpark","state":"ID","detail_file":"data/details/power-plants-08.json","plant_id":"56434","capacity_mw":21.3,"status_group":"Operating","energy_sources":"WND","type":"Power plant","is_nuclear":false}},{"type":"Feature","geometry":{"type":"Point","coordinates":[-114.058,42.561]},"properties":{"key":"50895-5530dcd0","layer":"power","name":"Bypass","state":"ID","detail_file":"data/details/power-plants-17.json","plant_id":"50895","capacity_mw":9.9,"status_group":"Operating","energy_sources":"WAT","type":"Power plant","is_nuclear":false}},{"type":"Feature","geometry":{"type":"Point","coordinates":[-115.978,42.945]},"properties":{"key":"812-21efade5","layer":"power","name":"C J Strike","state":"ID","detail_file":"data/details/power-plants-09.json","plant_id":"812","capacity_mw":82.8,"status_group":"Operating","energy_sources":"WAT","type":"Power plant","is_nuclear":false}},{"type":"Feature","geometry":{"type":"Point","coordinates":[-115.049,42.812]},"properties":{"key":"57125-7d3c9b02","layer":"power","name":"Camp Reed","state":"ID","detail_file":"data/details/power-plants-36.json","plant_id":"57125","capacity_mw":22.5,"status_group":"Operating","energy_sources":"WND","type":"Power plant","is_nuclear":false}},{"type":"Feature","geometry":{"type":"Point","coordinates":[-114.617,42.717]},"properties":{"key":"57343-60925124","layer":"power","name":"Cargill B6 Biofactory","state":"ID","detail_file":"data/details/power-plants-49.json","plant_id":"57343","capacity_mw":2.2,"status_group":"Operating","energy_sources":"OBG","type":"Power plant","is_nuclear":false}},{"type":"Feature","geometry":{"type":"Point","coordinates":[-115.017,42.874]},"properties":{"key":"56935-b0c07000","layer":"power","name":"Cassia Gulch","state":"ID","detail_file":"data/details/power-plants-48.json","plant_id":"56935","capacity_mw":18.9,"status_group":"Operating","energy_sources":"WND","type":"Power plant","is_nuclear":false}},{"type":"Feature","geometry":{"type":"Point","coordinates":[-115.037,42.844]},"properties":{"key":"56934-0aa10635","layer":"power","name":"Cassia Wind","state":"ID","detail_file":"data/details/power-plants-16.json","plant_id":"56934","capacity_mw":8.4,"status_group":"Operating","energy_sources":"WND","type":"Power plant","is_nuclear":false}},{"type":"Feature","geometry":{"type":"Point","coordinates":[-112.058,43.328]},"properties":{"key":"65311-03a72b85","layer":"power","name":"Cedar Creek Wind, LLC","state":"ID","detail_file":"data/details/power-plants-27.json","plant_id":"65311","capacity_mw":160.0,"status_group":"Operating","energy_sources":"WND","type":"Power plant","is_nuclear":false}},{"type":"Feature","geometry":{"type":"Point","coordinates":[-112.045,43.491]},"properties":{"key":"841-42e3e4b3","layer":"power","name":"City Power Plant","state":"ID","detail_file":"data/details/power-plants-00.json","plant_id":"841","capacity_mw":8.0,"status_group":"Operating","energy_sources":"WAT","type":"Power plant","is_nuclear":false}},{"type":"Feature","geometry":{"type":"Point","coordinates":[-114.78,42.667]},"properties":{"key":"814-a495d991","layer":"power","name":"Clear Lake","state":"ID","detail_file":"data/details/power-plants-08.json","plant_id":"814","capacity_mw":2.5,"status_group":"Operating","energy_sources":"WAT","type":"Power plant","is_nuclear":false}},{"type":"Feature","geometry":{"type":"Point","coordinates":[-114.412,42.541]},"properties":{"key":"62151-8f7d12e5","layer":"power","name":"Clif Bar Bakery of Twin Falls","state":"ID","detail_file":"data/details/power-plants-54.json","plant_id":"62151","capacity_mw":1.6,"status_group":"Operating","energy_sources":"SUN","type":"Power plant","is_nuclear":false}},{"type":"Feature","geometry":{"type":"Point","coordinates":[-115.4,43.028]},"properties":{"key":"57431-3599eaa6","layer":"power","name":"Cold Springs Windfarm","state":"ID","detail_file":"data/details/power-plants-33.json","plant_id":"57431","capacity_mw":23.0,"status_group":"Operating","energy_sources":"WND","type":"Power plant","is_nuclear":false}},{"type":"Feature","geometry":{"type":"Point","coordinates":[-115.746,43.181]},"properties":{"key":"69059-9c164bc2","layer":"power","name":"Crimson Orchard Solar and BESS","state":"ID","detail_file":"data/details/power-plants-56.json","plant_id":"69059","capacity_mw":200.0,"status_group":"Under construction","energy_sources":"MWH; SUN","type":"Power plant","is_nuclear":false}},{"type":"Feature","geometry":{"type":"Point","coordinates":[-114.501,42.623]},"properties":{"key":"10806-11544e55","layer":"power","name":"Crystal Springs","state":"ID","detail_file":"data/details/power-plants-13.json","plant_id":"10806","capacity_mw":2.3,"status_group":"Operating","energy_sources":"WAT","type":"Power plant","is_nuclear":false}},{"type":"Feature","geometry":{"type":"Point","coordinates":[-115.452,43.057]},"properties":{"key":"57430-1a42ebcb","layer":"power","name":"Desert Meadow Windfarm","state":"ID","detail_file":"data/details/power-plants-04.json","plant_id":"57430","capacity_mw":23.0,"status_group":"Operating","energy_sources":"WND","type":"Power plant","is_nuclear":false}},{"type":"Feature","geometry":{"type":"Point","coordinates":[-114.268,42.836]},"properties":{"key":"10807-23f6b5d8","layer":"power","name":"Dietrich Drop","state":"ID","detail_file":"data/details/power-plants-10.json","plant_id":"10807","capacity_mw":4.8,"status_group":"Operating","energy_sources":"WAT","type":"Power plant","is_nuclear":false}},{"type":"Feature","geometry":{"type":"Point","coordinates":[-115.717,43.178]},"properties":{"key":"66327-2cd6d26e","layer":"power","name":"Elmore BESS","state":"ID","detail_file":"data/details/power-plants-04.json","plant_id":"66327","capacity_mw":4.0,"status_group":"Operating","energy_sources":"MWH","type":"Power plant","is_nuclear":false}},{"type":"Feature","geometry":{"type":"Point","coordinates":[-115.734,43.179]},"properties":{"key":"7953-c6d4f79a","layer":"power","name":"Evander Andrews Power Complex","state":"ID","detail_file":"data/details/power-plants-49.json","plant_id":"7953","capacity_mw":270.9,"status_group":"Operating","energy_sources":"NG","type":"Power plant","is_nuclear":false}},{"type":"Feature","geometry":{"type":"Point","coordinates":[-114.595,42.572]},"properties":{"key":"66328-3c66288c","layer":"power","name":"Filer BESS","state":"ID","detail_file":"data/details/power-plants-49.json","plant_id":"66328","capacity_mw":2.0,"status_group":"Operating","energy_sources":"MWH","type":"Power plant","is_nuclear":false}},{"type":"Feature","geometry":{"type":"Point","coordinates":[-114.949,42.858]},"properties":{"key":"56308-5d1e48f4","layer":"power","name":"Fossil Gulch","state":"ID","detail_file":"data/details/power-plants-55.json","plant_id":"56308","capacity_mw":10.5,"status_group":"Operating","energy_sources":"WND","type":"Power plant","is_nuclear":false}},{"type":"Feature","geometry":{"type":"Point","coordinates":[-114.61,42.193]},"properties":{"key":"67183-410e87a9","layer":"power","name":"Franklin Battery Storage","state":"ID","detail_file":"data/details/power-plants-29.json","plant_id":"67183","capacity_mw":60.0,"status_group":"Operating","energy_sources":"MWH","type":"Power plant","is_nuclear":false}},{"type":"Feature","geometry":{"type":"Point","coordinates":[-114.61,42.204]},"properties":{"key":"67190-afb68aa2","layer":"power","name":"Franklin Solar Hybrid","state":"ID","detail_file":"data/details/power-plants-57.json","plant_id":"67190","capacity_mw":100.0,"status_group":"Operating","energy_sources":"SUN","type":"Power plant","is_nuclear":false}},{"type":"Feature","geometry":{"type":"Point","coordinates":[-112.102,43.42]},"properties":{"key":"790-1636eaaa","layer":"power","name":"Gem State","state":"ID","detail_file":"data/details/power-plants-11.json","plant_id":"790","capacity_mw":23.4,"status_group":"Operating","energy_sources":"WAT","type":"Power plant","is_nuclear":false}},{"type":"Feature","geometry":{"type":"Point","coordinates":[-114.463,42.954]},"properties":{"key":"50718-c2efac7e","layer":"power","name":"GeoBon II","state":"ID","detail_file":"data/details/power-plants-52.json","plant_id":"50718","capacity_mw":1.0,"status_group":"Operating","energy_sources":"WAT","type":"Power plant","is_nuclear":false}},{"type":"Feature","geometry":{"type":"Point","coordinates":[-113.925,42.437]},"properties":{"key":"56435-d80e9412","layer":"power","name":"Golden Valley Wind Park LLC","state":"ID","detail_file":"data/details/power-plants-48.json","plant_id":"56435","capacity_mw":12.0,"status_group":"Operating","energy_sources":"WND","type":"Power plant","is_nuclear":false}},{"type":"Feature","geometry":{"type":"Point","coordinates":[-115.463,43.006]},"properties":{"key":"57428-e82d1ed1","layer":"power","name":"Hammett Hill Windfarm","state":"ID","detail_file":"data/details/power-plants-17.json","plant_id":"57428","capacity_mw":23.0,"status_group":"Operating","energy_sources":"WND","type":"Power plant","is_nuclear":false}},{"type":"Feature","geometry":{"type":"Point","coordinates":[-114.093,42.605]},"properties":{"key":"54558-dd3a7e34","layer":"power","name":"Hazelton B Hydro","state":"ID","detail_file":"data/details/power-plants-33.json","plant_id":"54558","capacity_mw":7.6,"status_group":"Operating","energy_sources":"WAT","type":"Power plant","is_nuclear":false}},{"type":"Feature","geometry":{"type":"Point","coordinates":[-114.396,42.763]},"properties":{"key":"61217-2e9192f5","layer":"power","name":"Head of U Canal Hydro Project","state":"ID","detail_file":"data/details/power-plants-40.json","plant_id":"61217","capacity_mw":1.2,"status_group":"Operating","energy_sources":"WAT","type":"Power plant","is_nuclear":false}},{"type":"Feature","geometry":{"type":"Point","coordinates":[-115.037,42.88]},"properties":{"key":"58019-81bcd476","layer":"power","name":"High Mesa","state":"ID","detail_file":"data/details/power-plants-28.json","plant_id":"58019","capacity_mw":40.0,"status_group":"Operating","energy_sources":"WND","type":"Power plant","is_nuclear":false}},{"type":"Feature","geometry":{"type":"Point","coordinates":[-114.622,42.189]},"properties":{"key":"65778-4dbe5f01","layer":"power","name":"Jackpot Solar, LLC","state":"ID","detail_file":"data/details/power-plants-13.json","plant_id":"65778","capacity_mw":120.0,"status_group":"Operating","energy_sources":"SUN","type":"Power plant","is_nuclear":false}},{"type":"Feature","geometry":{"type":"Point","coordinates":[-112.28,43.632]},"properties":{"key":"57345-3bbf2eec","layer":"power","name":"Kettle Butte Digester, LLC","state":"ID","detail_file":"data/details/power-plants-52.json","plant_id":"57345","capacity_mw":1.8,"status_group":"Operating","energy_sources":"OBG","type":"Power plant","is_nuclear":false}},{"type":"Feature","geometry":{"type":"Point","coordinates":[-114.796,42.946]},"properties":{"key":"10781-d12b2296","layer":"power","name":"Koyle Ranch Hydroelectric Project","state":"ID","detail_file":"data/details/power-plants-45.json","plant_id":"10781","capacity_mw":1.3,"status_group":"Operating","energy_sources":"WAT","type":"Power plant","is_nuclear":false}},{"type":"Feature","geometry":{"type":"Point","coordinates":[-114.89,42.647]},"properties":{"key":"54753-15fdf5d5","layer":"power","name":"Lateral 10 Ventures","state":"ID","detail_file":"data/details/power-plants-17.json","plant_id":"54753","capacity_mw":2.4,"status_group":"Operating","energy_sources":"WAT","type":"Power plant","is_nuclear":false}},{"type":"Feature","geometry":{"type":"Point","coordinates":[-114.662,42.63]},"properties":{"key":"10049-2c2093d8","layer":"power","name":"Little Mac Project","state":"ID","detail_file":"data/details/power-plants-11.json","plant_id":"10049","capacity_mw":1.5,"status_group":"Operating","energy_sources":"WAT","type":"Power plant","is_nuclear":false}},{"type":"Feature","geometry":{"type":"Point","coordinates":[-114.026,43.425]},"properties":{"key":"54386-f19af625","layer":"power","name":"Little Wood Hydro Project","state":"ID","detail_file":"data/details/power-plants-62.json","plant_id":"54386","capacity_mw":2.8,"status_group":"Operating","energy_sources":"WAT","type":"Power plant","is_nuclear":false}},{"type":"Feature","geometry":{"type":"Point","coordinates":[-114.38,42.477]},"properties":{"key":"10808-01cef427","layer":"power","name":"Low Line Rapids","state":"ID","detail_file":"data/details/power-plants-55.json","plant_id":"10808","capacity_mw":2.8,"status_group":"Operating","energy_sources":"WAT","type":"Power plant","is_nuclear":false}},{"type":"Feature","geometry":{"type":"Point","coordinates":[-114.906,42.866]},"properties":{"key":"815-460df340","layer":"power","name":"Lower Malad","state":"ID","detail_file":"data/details/power-plants-50.json","plant_id":"815","capacity_mw":13.5,"status_group":"Operating","energy_sources":"WAT","type":"Power plant","is_nuclear":false}},{"type":"Feature","geometry":{"type":"Point","coordinates":[-112.062,43.469]},"properties":{"key":"7012-210c91ea","layer":"power","name":"Lower No 1","state":"ID","detail_file":"data/details/power-plants-04.json","plant_id":"7012","capacity_mw":8.0,"status_group":"Operating","energy_sources":"WAT","type":"Power plant","is_nuclear":false}},{"type":"Feature","geometry":{"type":"Point","coordinates":[-112.063,43.468]},"properties":{"key":"843-de2e5d5f","layer":"power","name":"Lower No 2","state":"ID","detail_file":"data/details/power-plants-37.json","plant_id":"843","capacity_mw":3.0,"status_group":"Operating","energy_sources":"WAT","type":"Power plant","is_nuclear":false}},{"type":"Feature","geometry":{"type":"Point","coordinates":[-114.904,42.842]},"properties":{"key":"816-ec5e361c","layer":"power","name":"Lower Salmon","state":"ID","detail_file":"data/details/power-plants-23.json","plant_id":"816","capacity_mw":60.0,"status_group":"Operating","energy_sources":"WAT","type":"Power plant","is_nuclear":false}},{"type":"Feature","geometry":{"type":"Point","coordinates":[-114.357,43.255]},"properties":{"key":"10740-03582a12","layer":"power","name":"Magic Dam Hydroelectric Project","state":"ID","detail_file":"data/details/power-plants-41.json","plant_id":"10740","capacity_mw":9.0,"status_group":"Operating","energy_sources":"WAT","type":"Power plant","is_nuclear":false}},{"type":"Feature","geometry":{"type":"Point","coordinates":[-115.413,43.048]},"properties":{"key":"57429-6e27b270","layer":"power","name":"Mainline Windfarm","state":"ID","detail_file":"data/details/power-plants-48.json","plant_id":"57429","capacity_mw":23.0,"status_group":"Operating","energy_sources":"WND","type":"Power plant","is_nuclear":false}},{"type":"Feature","geometry":{"type":"Point","coordinates":[-114.558,42.637]},"properties":{"key":"50323-128edf50","layer":"power","name":"Marco Ranch","state":"ID","detail_file":"data/details/power-plants-56.json","plant_id":"50323","capacity_mw":1.2,"status_group":"Operating","energy_sources":"WAT","type":"Power plant","is_nuclear":false}},{"type":"Feature","geometry":{"type":"Point","coordinates":[-112.149,42.626]},"properties":{"key":"50972-87272f13","layer":"power","name":"Marsh Valley Development","state":"ID","detail_file":"data/details/power-plants-57.json","plant_id":"50972","capacity_mw":1.6,"status_group":"Operating","energy_sources":"WAT","type":"Power plant","is_nuclear":false}},{"type":"Feature","geometry":{"type":"Point","coordinates":[-115.989,43.304]},"properties":{"key":"67211-10617079","layer":"power","name":"Matrix Pleasant Valley","state":"ID","detail_file":"data/details/power-plants-56.json","plant_id":"67211","capacity_mw":200.0,"status_group":"Operating","energy_sources":"SUN","type":"Power plant","is_nuclear":false}},{"type":"Feature","geometry":{"type":"Point","coordinates":[-114.161,42.74]},"properties":{"key":"54812-a8744933","layer":"power","name":"Mile 28 Water Power Project","state":"ID","detail_file":"data/details/power-plants-01.json","plant_id":"54812","capacity_mw":1.4,"status_group":"Operating","energy_sources":"WAT","type":"Power plant","is_nuclear":false}},{"type":"Feature","geometry":{"type":"Point","coordinates":[-114.005,42.467]},"properties":{"key":"63755-24373626","layer":"power","name":"Milner Butte LFGE","state":"ID","detail_file":"data/details/power-plants-28.json","plant_id":"63755","capacity_mw":3.9,"status_group":"Operating","energy_sources":"LFG","type":"Power plant","is_nuclear":false}},{"type":"Feature","geometry":{"type":"Point","coordinates":[-114.017,42.461]},"properties":{"key":"56437-3c8154a1","layer":"power","name":"Milner Dam Wind Park LLC","state":"ID","detail_file":"data/details/power-plants-19.json","plant_id":"56437","capacity_mw":19.5,"status_group":"Operating","energy_sources":"WND","type":"Power plant","is_nuclear":false}},{"type":"Feature","geometry":{"type":"Point","coordinates":[-114.037,42.527]},"properties":{"key":"7190-dc94effa","layer":"power","name":"Milner Hydro","state":"ID","detail_file":"data/details/power-plants-36.json","plant_id":"7190","capacity_mw":59.5,"status_group":"Operating","energy_sources":"WAT","type":"Power plant","is_nuclear":false}},{"type":"Feature","geometry":{"type":"Point","coordinates":[-113.483,42.67]},"properties":{"key":"6398-b47b9625","layer":"power","name":"Minidoka","state":"ID","detail_file":"data/details/power-plants-53.json","plant_id":"6398","capacity_mw":27.7,"status_group":"Operating","energy_sources":"WAT","type":"Power plant","is_nuclear":false}},{"type":"Feature","geometry":{"type":"Point","coordinates":[-115.466,43.027]},"properties":{"key":"56636-3e6e0aaf","layer":"power","name":"Mountain Home","state":"ID","detail_file":"data/details/power-plants-10.json","plant_id":"56636","capacity_mw":21.0,"status_group":"Operating","energy_sources":"WND","type":"Power plant","is_nuclear":false}},{"type":"Feature","geometry":{"type":"Point","coordinates":[-115.752,43.129]},"properties":{"key":"59695-ababd993","layer":"power","name":"Mt. Home Solar 1, LLC","state":"ID","detail_file":"data/details/power-plants-08.json","plant_id":"59695","capacity_mw":20.0,"status_group":"Operating","energy_sources":"SUN","type":"Power plant","is_nuclear":false}},{"type":"Feature","geometry":{"type":"Point","coordinates":[-114.559,43.045]},"properties":{"key":"61688-3b530977","layer":"power","name":"North Gooding Main Hydro","state":"ID","detail_file":"data/details/power-plants-48.json","plant_id":"61688","capacity_mw":1.3,"status_group":"Operating","energy_sources":"WAT","type":"Power plant","is_nuclear":false}},{"type":"Feature","geometry":{"type":"Point","coordinates":[-114.99,42.841]},"properties":{"key":"56439-ab5c49f1","layer":"power","name":"Oregon Trail Wind Park","state":"ID","detail_file":"data/details/power-plants-31.json","plant_id":"56439","capacity_mw":13.5,"status_group":"Operating","energy_sources":"WND","type":"Power plant","is_nuclear":false}},{"type":"Feature","geometry":{"type":"Point","coordinates":[-115.011,42.825]},"properties":{"key":"57124-afa34d56","layer":"power","name":"Payne's Ferry","state":"ID","detail_file":"data/details/power-plants-34.json","plant_id":"57124","capacity_mw":21.0,"status_group":"Operating","energy_sources":"WND","type":"Power plant","is_nuclear":false}},{"type":"Feature","geometry":{"type":"Point","coordinates":[-114.999,42.797]},"properties":{"key":"56440-67e49fc2","layer":"power","name":"Pilgrim Stage Wind Park","state":"ID","detail_file":"data/details/power-plants-31.json","plant_id":"56440","capacity_mw":10.5,"status_group":"Operating","energy_sources":"WND","type":"Power plant","is_nuclear":false}},{"type":"Feature","geometry":{"type":"Point","coordinates":[-115.988,43.328]},"properties":{"key":"68487-5cdae671","layer":"power","name":"Pleasant Valley Solar 2 Project","state":"ID","detail_file":"data/details/power-plants-29.json","plant_id":"68487","capacity_mw":125.0,"status_group":"Operating","energy_sources":"SUN","type":"Power plant","is_nuclear":false}},{"type":"Feature","geometry":{"type":"Point","coordinates":[-112.749,42.739]},"properties":{"key":"57761-fe7cf57d","layer":"power","name":"Power County Wind Park North","state":"ID","detail_file":"data/details/power-plants-43.json","plant_id":"57761","capacity_mw":22.5,"status_group":"Operating","energy_sources":"WND","type":"Power plant","is_nuclear":false}},{"type":"Feature","geometry":{"type":"Point","coordinates":[-112.758,42.703]},"properties":{"key":"57760-9b257073","layer":"power","name":"Power County Wind Park South","state":"ID","detail_file":"data/details/power-plants-21.json","plant_id":"57760","capacity_mw":22.5,"status_group":"Operating","energy_sources":"WND","type":"Power plant","is_nuclear":false}},{"type":"Feature","geometry":{"type":"Point","coordinates":[-113.382,42.099]},"properties":{"key":"56317-de553a21","layer":"power","name":"Raft River Geothermal Power Plant","state":"ID","detail_file":"data/details/power-plants-26.json","plant_id":"56317","capacity_mw":16.0,"status_group":"Operating","energy_sources":"GEO","type":"Power plant","is_nuclear":false}},{"type":"Feature","geometry":{"type":"Point","coordinates":[-114.539,42.632]},"properties":{"key":"50987-303069ec","layer":"power","name":"Rock Creek I","state":"ID","detail_file":"data/details/power-plants-10.json","plant_id":"50987","capacity_mw":2.1,"status_group":"Operating","energy_sources":"WAT","type":"Power plant","is_nuclear":false}},{"type":"Feature","geometry":{"type":"Point","coordinates":[-114.531,42.621]},"properties":{"key":"10809-0b5c99ec","layer":"power","name":"Rock Creek II","state":"ID","detail_file":"data/details/power-plants-39.json","plant_id":"10809","capacity_mw":1.9,"status_group":"Operating","energy_sources":"WAT","type":"Power plant","is_nuclear":false}},{"type":"Feature","geometry":{"type":"Point","coordinates":[-112.902,42.675]},"properties":{"key":"57766-8ef3bbdb","layer":"power","name":"Rockland Wind Farm","state":"ID","detail_file":"data/details/power-plants-52.json","plant_id":"57766","capacity_mw":79.2,"status_group":"Operating","energy_sources":"WND","type":"Power plant","is_nuclear":false}},{"type":"Feature","geometry":{"type":"Point","coordinates":[-115.44,43.037]},"properties":{"key":"57427-2f8daffa","layer":"power","name":"Ryegrass Windfarm","state":"ID","detail_file":"data/details/power-plants-31.json","plant_id":"57427","capacity_mw":23.0,"status_group":"Operating","energy_sources":"WND","type":"Power plant","is_nuclear":false}},{"type":"Feature","geometry":{"type":"Point","coordinates":[-114.067,42.587]},"properties":{"key":"50896-58a8d8db","layer":"power","name":"S E Hazelton A","state":"ID","detail_file":"data/details/power-plants-34.json","plant_id":"50896","capacity_mw":8.7,"status_group":"Operating","energy_sources":"WAT","type":"Power plant","is_nuclear":false}},{"type":"Feature","geometry":{"type":"Point","coordinates":[-114.989,42.682]},"properties":{"key":"56441-5eba54d8","layer":"power","name":"Salmon Falls Wind Park","state":"ID","detail_file":"data/details/power-plants-27.json","plant_id":"56441","capacity_mw":21.0,"status_group":"Operating","energy_sources":"WND","type":"Power plant","is_nuclear":false}},{"type":"Feature","geometry":{"type":"Point","coordinates":[-115.393,42.982]},"properties":{"key":"57749-ffdcf484","layer":"power","name":"Sawtooth Wind Project","state":"ID","detail_file":"data/details/power-plants-46.json","plant_id":"57749","capacity_mw":22.4,"status_group":"Operating","energy_sources":"WND","type":"Power plant","is_nuclear":false}},{"type":"Feature","geometry":{"type":"Point","coordinates":[-114.403,42.597]},"properties":{"key":"818-2ed6e50b","layer":"power","name":"Shoshone Falls","state":"ID","detail_file":"data/details/power-plants-27.json","plant_id":"818","capacity_mw":14.7,"status_group":"Operating","energy_sources":"WAT","type":"Power plant","is_nuclear":false}},{"type":"Feature","geometry":{"type":"Point","coordinates":[-115.941,43.326]},"properties":{"key":"60748-7770578f","layer":"power","name":"Simcoe Solar","state":"ID","detail_file":"data/details/power-plants-12.json","plant_id":"60748","capacity_mw":20.0,"status_group":"Operating","energy_sources":"SUN","type":"Power plant","is_nuclear":false}},{"type":"Feature","geometry":{"type":"Point","coordinates":[-112.529,42.908]},"properties":{"key":"50274-0173e6d3","layer":"power","name":"Simplot Leasing Don Plant","state":"ID","detail_file":"data/details/power-plants-06.json","plant_id":"50274","capacity_mw":15.9,"status_group":"Operating","energy_sources":"WH","type":"Power plant","is_nuclear":false}},{"type":"Feature","geometry":{"type":"Point","coordinates":[-114.31,42.494]},"properties":{"key":"10296-f41c9434","layer":"power","name":"South Forks Hydro","state":"ID","detail_file":"data/details/power-plants-06.json","plant_id":"10296","capacity_mw":8.0,"status_group":"Operating","energy_sources":"WAT","type":"Power plant","is_nuclear":false}},{"type":"Feature","geometry":{"type":"Point","coordinates":[-114.837,42.741]},"properties":{"key":"820-87758857","layer":"power","name":"Thousand Springs","state":"ID","detail_file":"data/details/power-plants-14.json","plant_id":"820","capacity_mw":6.8,"status_group":"Operating","energy_sources":"WAT","type":"Power plant","is_nuclear":false}},{"type":"Feature","geometry":{"type":"Point","coordinates":[-114.968,42.87]},"properties":{"key":"56442-c3aac5be","layer":"power","name":"Thousand Springs Wind Park","state":"ID","detail_file":"data/details/power-plants-37.json","plant_id":"56442","capacity_mw":12.0,"status_group":"Operating","energy_sources":"WND","type":"Power plant","is_nuclear":false}},{"type":"Feature","geometry":{"type":"Point","coordinates":[-114.969,42.837]},"properties":{"key":"56443-8e542e53","layer":"power","name":"Tuana Gulch Wind Park","state":"ID","detail_file":"data/details/power-plants-22.json","plant_id":"56443","capacity_mw":10.5,"status_group":"Operating","energy_sources":"WND","type":"Power plant","is_nuclear":false}},{"type":"Feature","geometry":{"type":"Point","coordinates":[-115.016,42.892]},"properties":{"key":"57136-891a2fd8","layer":"power","name":"Tuana Springs","state":"ID","detail_file":"data/details/power-plants-21.json","plant_id":"57136","capacity_mw":16.8,"status_group":"Operating","energy_sources":"WND","type":"Power plant","is_nuclear":false}},{"type":"Feature","geometry":{"type":"Point","coordinates":[-114.355,42.589]},"properties":{"key":"821-83e3977e","layer":"power","name":"Twin Falls (ID)","state":"ID","detail_file":"data/details/power-plants-52.json","plant_id":"821","capacity_mw":52.7,"status_group":"Operating","energy_sources":"WAT","type":"Power plant","is_nuclear":false}},{"type":"Feature","geometry":{"type":"Point","coordinates":[-115.483,43.034]},"properties":{"key":"57444-83530e64","layer":"power","name":"Two Ponds Windfarm","state":"ID","detail_file":"data/details/power-plants-51.json","plant_id":"57444","capacity_mw":23.0,"status_group":"Operating","energy_sources":"WND","type":"Power plant","is_nuclear":false}},{"type":"Feature","geometry":{"type":"Point","coordinates":[-114.885,42.864]},"properties":{"key":"823-9a67db63","layer":"power","name":"Upper Malad","state":"ID","detail_file":"data/details/power-plants-32.json","plant_id":"823","capacity_mw":8.3,"status_group":"Operating","energy_sources":"WAT","type":"Power plant","is_nuclear":false}},{"type":"Feature","geometry":{"type":"Point","coordinates":[-112.051,43.553]},"properties":{"key":"844-add04630","layer":"power","name":"Upper Power Plant","state":"ID","detail_file":"data/details/power-plants-62.json","plant_id":"844","capacity_mw":8.0,"status_group":"Operating","energy_sources":"WAT","type":"Power plant","is_nuclear":false}},{"type":"Feature","geometry":{"type":"Point","coordinates":[-114.925,42.767]},"properties":{"key":"822-7598aab6","layer":"power","name":"Upper Salmon A","state":"ID","detail_file":"data/details/power-plants-44.json","plant_id":"822","capacity_mw":18.0,"status_group":"Operating","energy_sources":"WAT","type":"Power plant","is_nuclear":false}},{"type":"Feature","geometry":{"type":"Point","coordinates":[-114.908,42.766]},"properties":{"key":"7079-858d6f1a","layer":"power","name":"Upper Salmon B","state":"ID","detail_file":"data/details/power-plants-51.json","plant_id":"7079","capacity_mw":16.5,"status_group":"Operating","energy_sources":"WAT","type":"Power plant","is_nuclear":false}},{"type":"Feature","geometry":{"type":"Point","coordinates":[-114.646,42.75]},"properties":{"key":"67436-d8f6d63f","layer":"power","name":"West Point RNG","state":"ID","detail_file":"data/details/power-plants-16.json","plant_id":"67436","capacity_mw":3.2,"status_group":"Operating","energy_sources":"OBG","type":"Power plant","is_nuclear":false}},{"type":"Feature","geometry":{"type":"Point","coordinates":[-114.175,42.629]},"properties":{"key":"54306-b0f8a78e","layer":"power","name":"Wilson Lake Hydroelectric Project","state":"ID","detail_file":"data/details/power-plants-11.json","plant_id":"54306","capacity_mw":8.4,"status_group":"Operating","energy_sources":"WAT","type":"Power plant","is_nuclear":false}},{"type":"Feature","geometry":{"type":"Point","coordinates":[-114.989,42.771]},"properties":{"key":"57126-6a77db56","layer":"power","name":"Yahoo Creek","state":"ID","detail_file":"data/details/power-plants-15.json","plant_id":"57126","capacity_mw":21.0,"status_group":"Operating","energy_sources":"WND","type":"Power plant","is_nuclear":false}},{"type":"Feature","geometry":{"type":"Point","coordinates":[-112.003,41.507]},"properties":{"key":"69668-d4b43be0","layer":"power","name":"Brigham City Gas","state":"UT","detail_file":"data/details/power-plants-21.json","plant_id":"69668","capacity_mw":7.5,"status_group":"Under construction","energy_sources":"NG","type":"Power plant","is_nuclear":false}},{"type":"Feature","geometry":{"type":"Point","coordinates":[-112.085,40.577]},"properties":{"key":"64427-34c7afcd","layer":"power","name":"Copperton Solar Plant No. 1","state":"UT","detail_file":"data/details/power-plants-25.json","plant_id":"64427","capacity_mw":30.0,"status_group":"Operating","energy_sources":"SUN","type":"Power plant","is_nuclear":false}},{"type":"Feature","geometry":{"type":"Point","coordinates":[-112.052,41.835]},"properties":{"key":"3646-21f6cda8","layer":"power","name":"Cutler Hydro","state":"UT","detail_file":"data/details/power-plants-30.json","plant_id":"3646","capacity_mw":30.0,"status_group":"Operating","energy_sources":"WAT","type":"Power plant","is_nuclear":false}},{"type":"Feature","geometry":{"type":"Point","coordinates":[-112.005,40.763]},"properties":{"key":"68596-7f77838a","layer":"power","name":"Dominguez Energy Storage","state":"UT","detail_file":"data/details/power-plants-62.json","plant_id":"68596","capacity_mw":200.0,"status_group":"Operating","energy_sources":"MWH","type":"Power plant","is_nuclear":false}},{"type":"Feature","geometry":{"type":"Point","coordinates":[-112.703,40.868]},"properties":{"key":"64739-d4326932","layer":"power","name":"Elektron Solar, LLC","state":"UT","detail_file":"data/details/power-plants-20.json","plant_id":"64739","capacity_mw":80.0,"status_group":"Operating","energy_sources":"SUN","type":"Power plant","is_nuclear":false}},{"type":"Feature","geometry":{"type":"Point","coordinates":[-112.069,40.082]},"properties":{"key":"69424-233cfcea","layer":"power","name":"Faraday Energy Storage","state":"UT","detail_file":"data/details/power-plants-06.json","plant_id":"69424","capacity_mw":150.0,"status_group":"Under construction","energy_sources":"MWH","type":"Power plant","is_nuclear":false}},{"type":"Feature","geometry":{"type":"Point","coordinates":[-112.083,40.094]},"properties":{"key":"69748-7ed6e7ad","layer":"power","name":"Faraday Solar","state":"UT","detail_file":"data/details/power-plants-31.json","plant_id":"69748","capacity_mw":525.0,"status_group":"Operating","energy_sources":"SUN","type":"Power plant","is_nuclear":false}},{"type":"Feature","geometry":{"type":"Point","coordinates":[-112.666,40.718]},"properties":{"key":"63984-2b595292","layer":"power","name":"Horseshoe Solar, LLC","state":"UT","detail_file":"data/details/power-plants-11.json","plant_id":"63984","capacity_mw":75.0,"status_group":"Operating","energy_sources":"SUN","type":"Power plant","is_nuclear":false}},{"type":"Feature","geometry":{"type":"Point","coordinates":[-112.123,40.712]},"properties":{"key":"56163-da0a3a12","layer":"power","name":"Kennecott Power Plant","state":"UT","detail_file":"data/details/power-plants-17.json","plant_id":"56163","capacity_mw":38.2,"status_group":"Operating","energy_sources":"NG; WH","type":"Power plant","is_nuclear":false}},{"type":"Feature","geometry":{"type":"Point","coordinates":[-112.444,41.636]},"properties":{"key":"63983-c8c56d93","layer":"power","name":"Rocket Solar, LLC","state":"UT","detail_file":"data/details/power-plants-23.json","plant_id":"63983","capacity_mw":80.0,"status_group":"Operating","energy_sources":"SUN","type":"Power plant","is_nuclear":false}},{"type":"Feature","geometry":{"type":"Point","coordinates":[-112.004,41.207]},"properties":{"key":"68849-36c463bd","layer":"power","name":"SF Auto O1","state":"UT","detail_file":"data/details/power-plants-28.json","plant_id":"68849","capacity_mw":3.4,"status_group":"Operating","energy_sources":"SUN","type":"Power plant","is_nuclear":false}},{"type":"Feature","geometry":{"type":"Point","coordinates":[-112.18,41.731]},"properties":{"key":"67238-1e3acb85","layer":"power","name":"SF Auto T1","state":"UT","detail_file":"data/details/power-plants-60.json","plant_id":"67238","capacity_mw":3.1,"status_group":"Operating","energy_sources":"SUN","type":"Power plant","is_nuclear":false}},{"type":"Feature","geometry":{"type":"Point","coordinates":[-112.034,40.746]},"properties":{"key":"56554-8a305437","layer":"power","name":"Salt Lake Energy Systems","state":"UT","detail_file":"data/details/power-plants-56.json","plant_id":"56554","capacity_mw":3.2,"status_group":"Operating","energy_sources":"LFG","type":"Power plant","is_nuclear":false}},{"type":"Feature","geometry":{"type":"Point","coordinates":[-112.182,41.886]},"properties":{"key":"66267-132f4607","layer":"power","name":"Steel Solar LLC","state":"UT","detail_file":"data/details/power-plants-61.json","plant_id":"66267","capacity_mw":80.0,"status_group":"Operating","energy_sources":"SUN","type":"Power plant","is_nuclear":false}},{"type":"Feature","geometry":{"type":"Point","coordinates":[-112.371,40.503]},"properties":{"key":"59817-002aeac6","layer":"power","name":"Tooele Army Depot(CSG)","state":"UT","detail_file":"data/details/power-plants-22.json","plant_id":"59817","capacity_mw":7.2,"status_group":"Operating","energy_sources":"MWH; SUN; WND","type":"Power plant","is_nuclear":false}},{"type":"Feature","geometry":{"type":"Point","coordinates":[-112.063,40.55]},"properties":{"key":"56853-726e047a","layer":"power","name":"Trans-Jordan Generating Station","state":"UT","detail_file":"data/details/power-plants-19.json","plant_id":"56853","capacity_mw":4.8,"status_group":"Operating","energy_sources":"LFG","type":"Power plant","is_nuclear":false}},{"type":"Feature","geometry":{"type":"Point","coordinates":[-112.032,40.667]},"properties":{"key":"55622-ae204c06","layer":"power","name":"West Valley Generation Project","state":"UT","detail_file":"data/details/power-plants-43.json","plant_id":"55622","capacity_mw":217.0,"status_group":"Operating","energy_sources":"NG","type":"Power plant","is_nuclear":false}}]}