{"type":"FeatureCollection","features":[{"type":"Feature","geometry":{"type":"Point","coordinates":[-108.711,40.106]},"properties":{"key":"54729-764cea8a","layer":"power","name":"Taylor Draw Hydroelectric Facility","state":"CO","detail_file":"data/details/power-plants-52.json","plant_id":"54729","capacity_mw":2.3,"status_group":"Operating","energy_sources":"WAT","type":"Power plant","is_nuclear":false}},{"type":"Feature","geometry":{"type":"Point","coordinates":[-111.786,43.817]},"properties":{"key":"59496-aac857c3","layer":"power","name":"BYUI Central Energy Facility","state":"ID","detail_file":"data/details/power-plants-32.json","plant_id":"59496","capacity_mw":5.6,"status_group":"Operating","energy_sources":"NG","type":"Power plant","is_nuclear":false}},{"type":"Feature","geometry":{"type":"Point","coordinates":[-111.283,43.913]},"properties":{"key":"6359-89169a5e","layer":"power","name":"Felt","state":"ID","detail_file":"data/details/power-plants-53.json","plant_id":"6359","capacity_mw":7.4,"status_group":"Operating","energy_sources":"WAT","type":"Power plant","is_nuclear":false}},{"type":"Feature","geometry":{"type":"Point","coordinates":[-111.836,43.467]},"properties":{"key":"57211-c7c08e8e","layer":"power","name":"Goshen Phase II","state":"ID","detail_file":"data/details/power-plants-08.json","plant_id":"57211","capacity_mw":124.5,"status_group":"Operating","energy_sources":"WND","type":"Power plant","is_nuclear":false}},{"type":"Feature","geometry":{"type":"Point","coordinates":[-111.794,42.537]},"properties":{"key":"827-e6617994","layer":"power","name":"Grace","state":"ID","detail_file":"data/details/power-plants-13.json","plant_id":"827","capacity_mw":33.0,"status_group":"Operating","energy_sources":"WAT","type":"Power plant","is_nuclear":false}},{"type":"Feature","geometry":{"type":"Point","coordinates":[-111.726,43.386]},"properties":{"key":"57890-232d2742","layer":"power","name":"Horse Butte Wind I, LLC","state":"ID","detail_file":"data/details/power-plants-51.json","plant_id":"57890","capacity_mw":57.6,"status_group":"Operating","energy_sources":"WND","type":"Power plant","is_nuclear":false}},{"type":"Feature","geometry":{"type":"Point","coordinates":[-111.593,43.314]},"properties":{"key":"68021-42db40bc","layer":"power","name":"IFP Peaking Plant","state":"ID","detail_file":"data/details/power-plants-52.json","plant_id":"68021","capacity_mw":17.5,"status_group":"Operating","energy_sources":"NG","type":"Power plant","is_nuclear":false}},{"type":"Feature","geometry":{"type":"Point","coordinates":[-111.705,42.603]},"properties":{"key":"987-3a667820","layer":"power","name":"Last Chance","state":"ID","detail_file":"data/details/power-plants-60.json","plant_id":"987","capacity_mw":1.7,"status_group":"Operating","energy_sources":"WAT","type":"Power plant","is_nuclear":false}},{"type":"Feature","geometry":{"type":"Point","coordinates":[-111.804,43.524]},"properties":{"key":"58106-73fd9ef0","layer":"power","name":"Meadow Creek Project Company","state":"ID","detail_file":"data/details/power-plants-54.json","plant_id":"58106","capacity_mw":119.7,"status_group":"Operating","energy_sources":"WND","type":"Power plant","is_nuclear":false}},{"type":"Feature","geometry":{"type":"Point","coordinates":[-111.666,42.261]},"properties":{"key":"10325-423bddc0","layer":"power","name":"Mink Creek Hydro","state":"ID","detail_file":"data/details/power-plants-33.json","plant_id":"10325","capacity_mw":3.1,"status_group":"Operating","energy_sources":"WAT","type":"Power plant","is_nuclear":false}},{"type":"Feature","geometry":{"type":"Point","coordinates":[-111.749,42.268]},"properties":{"key":"829-eefcdbce","layer":"power","name":"Oneida","state":"ID","detail_file":"data/details/power-plants-11.json","plant_id":"829","capacity_mw":30.0,"status_group":"Operating","energy_sources":"WAT","type":"Power plant","is_nuclear":false}},{"type":"Feature","geometry":{"type":"Point","coordinates":[-111.206,43.335]},"properties":{"key":"850-9f0c4342","layer":"power","name":"Palisades Dam","state":"ID","detail_file":"data/details/power-plants-23.json","plant_id":"850","capacity_mw":176.4,"status_group":"Operating","energy_sources":"WAT","type":"Power plant","is_nuclear":false}},{"type":"Feature","geometry":{"type":"Point","coordinates":[-111.697,42.645]},"properties":{"key":"831-c6469e6a","layer":"power","name":"Soda","state":"ID","detail_file":"data/details/power-plants-04.json","plant_id":"831","capacity_mw":14.6,"status_group":"Operating","energy_sources":"WAT","type":"Power plant","is_nuclear":false}},{"type":"Feature","geometry":{"type":"Point","coordinates":[-111.829,43.419]},"properties":{"key":"56301-1fd9c309","layer":"power","name":"Wolverine Creek","state":"ID","detail_file":"data/details/power-plants-39.json","plant_id":"56301","capacity_mw":64.5,"status_group":"Operating","energy_sources":"WND","type":"Power plant","is_nuclear":false}},{"type":"Feature","geometry":{"type":"Point","coordinates":[-111.646,40.247]},"properties":{"key":"63423-d5dc218b","layer":"power","name":"BYU Central Heating Plant","state":"UT","detail_file":"data/details/power-plants-14.json","plant_id":"63423","capacity_mw":16.5,"status_group":"Operating","energy_sources":"NG","type":"Power plant","is_nuclear":false}},{"type":"Feature","geometry":{"type":"Point","coordinates":[-111.499,40.167]},"properties":{"key":"3688-78f70514","layer":"power","name":"Bartholomew","state":"UT","detail_file":"data/details/power-plants-04.json","plant_id":"3688","capacity_mw":1.0,"status_group":"Operating","energy_sources":"WAT","type":"Power plant","is_nuclear":false}},{"type":"Feature","geometry":{"type":"Point","coordinates":[-109.284,40.086]},"properties":{"key":"7790-85eb0f23","layer":"power","name":"Bonanza","state":"UT","detail_file":"data/details/power-plants-01.json","plant_id":"7790","capacity_mw":512.0,"status_group":"Operating","energy_sources":"BIT; SUN","type":"Power plant","is_nuclear":false}},{"type":"Feature","geometry":{"type":"Point","coordinates":[-111.885,40.887]},"properties":{"key":"3665-c8c399d0","layer":"power","name":"Bountiful City","state":"UT","detail_file":"data/details/power-plants-58.json","plant_id":"3665","capacity_mw":30.4,"status_group":"Operating","energy_sources":"NG","type":"Power plant","is_nuclear":false}},{"type":"Feature","geometry":{"type":"Point","coordinates":[-111.993,41.502]},"properties":{"key":"3666-5df5985f","layer":"power","name":"Brigham City","state":"UT","detail_file":"data/details/power-plants-23.json","plant_id":"3666","capacity_mw":1.8,"status_group":"Operating","energy_sources":"WAT","type":"Power plant","is_nuclear":false}},{"type":"Feature","geometry":{"type":"Point","coordinates":[-111.589,41.297]},"properties":{"key":"7548-e0f7f572","layer":"power","name":"Causey","state":"UT","detail_file":"data/details/power-plants-38.json","plant_id":"7548","capacity_mw":2.2,"status_group":"Operating","energy_sources":"WAT","type":"Power plant","is_nuclear":false}},{"type":"Feature","geometry":{"type":"Point","coordinates":[-111.812,41.749]},"properties":{"key":"58139-ab556cad","layer":"power","name":"Central Energy Plant USU","state":"UT","detail_file":"data/details/power-plants-00.json","plant_id":"58139","capacity_mw":5.0,"status_group":"Operating","energy_sources":"NG","type":"Power plant","is_nuclear":false}},{"type":"Feature","geometry":{"type":"Point","coordinates":[-111.528,40.404]},"properties":{"key":"6404-c6fd1e0a","layer":"power","name":"Deer Creek (UT)","state":"UT","detail_file":"data/details/power-plants-34.json","plant_id":"6404","capacity_mw":4.8,"status_group":"Operating","energy_sources":"WAT","type":"Power plant","is_nuclear":false}},{"type":"Feature","geometry":{"type":"Point","coordinates":[-111.434,40.965]},"properties":{"key":"4263-b50b05f8","layer":"power","name":"Echo Dam","state":"UT","detail_file":"data/details/power-plants-25.json","plant_id":"4263","capacity_mw":4.4,"status_group":"Operating","energy_sources":"WAT","type":"Power plant","is_nuclear":false}},{"type":"Feature","geometry":{"type":"Point","coordinates":[-109.422,40.915]},"properties":{"key":"6405-ae5a8bc8","layer":"power","name":"Flaming Gorge","state":"UT","detail_file":"data/details/power-plants-07.json","plant_id":"6405","capacity_mw":151.8,"status_group":"Operating","energy_sources":"WAT","type":"Power plant","is_nuclear":false}},{"type":"Feature","geometry":{"type":"Point","coordinates":[-111.929,40.769]},"properties":{"key":"3648-c5740e56","layer":"power","name":"Gadsby","state":"UT","detail_file":"data/details/power-plants-38.json","plant_id":"3648","capacity_mw":432.8,"status_group":"Operating","energy_sources":"NG","type":"Power plant","is_nuclear":false}},{"type":"Feature","geometry":{"type":"Point","coordinates":[-111.831,41.137]},"properties":{"key":"3697-27e46f4a","layer":"power","name":"Gateway","state":"UT","detail_file":"data/details/power-plants-20.json","plant_id":"3697","capacity_mw":4.0,"status_group":"Operating","energy_sources":"WAT","type":"Power plant","is_nuclear":false}},{"type":"Feature","geometry":{"type":"Point","coordinates":[-111.782,40.619]},"properties":{"key":"3651-4bbca30e","layer":"power","name":"Granite","state":"UT","detail_file":"data/details/power-plants-49.json","plant_id":"3651","capacity_mw":2.0,"status_group":"Operating","energy_sources":"WAT","type":"Power plant","is_nuclear":false}},{"type":"Feature","geometry":{"type":"Point","coordinates":[-111.842,40.763]},"properties":{"key":"58597-5e2c5ade","layer":"power","name":"HTW Plant 303 COGEN","state":"UT","detail_file":"data/details/power-plants-36.json","plant_id":"58597","capacity_mw":7.4,"status_group":"Operating","energy_sources":"NG","type":"Power plant","is_nuclear":false}},{"type":"Feature","geometry":{"type":"Point","coordinates":[-111.425,40.504]},"properties":{"key":"7111-1722cfe8","layer":"power","name":"Heber City","state":"UT","detail_file":"data/details/power-plants-10.json","plant_id":"7111","capacity_mw":17.5,"status_group":"Operating","energy_sources":"NG","type":"Power plant","is_nuclear":false}},{"type":"Feature","geometry":{"type":"Point","coordinates":[-111.783,41.744]},"properties":{"key":"7034-f47f0769","layer":"power","name":"Hydro II","state":"UT","detail_file":"data/details/power-plants-12.json","plant_id":"7034","capacity_mw":6.6,"status_group":"Operating","energy_sources":"WAT","type":"Power plant","is_nuclear":false}},{"type":"Feature","geometry":{"type":"Point","coordinates":[-111.746,41.746]},"properties":{"key":"3675-b875b10a","layer":"power","name":"Hydro III","state":"UT","detail_file":"data/details/power-plants-08.json","plant_id":"3675","capacity_mw":1.4,"status_group":"Operating","energy_sources":"WAT","type":"Power plant","is_nuclear":false}},{"type":"Feature","geometry":{"type":"Point","coordinates":[-111.424,40.597]},"properties":{"key":"61853-bbd8bb4b","layer":"power","name":"Jordanelle Dam Hydroelectric Project","state":"UT","detail_file":"data/details/power-plants-30.json","plant_id":"61853","capacity_mw":13.0,"status_group":"Operating","energy_sources":"WAT","type":"Power plant","is_nuclear":false}},{"type":"Feature","geometry":{"type":"Point","coordinates":[-111.312,40.494]},"properties":{"key":"159-e50a2bbd","layer":"power","name":"Lake Creek Dam","state":"UT","detail_file":"data/details/power-plants-18.json","plant_id":"159","capacity_mw":1.5,"status_group":"Operating","energy_sources":"WAT","type":"Power plant","is_nuclear":false}},{"type":"Feature","geometry":{"type":"Point","coordinates":[-111.754,40.332]},"properties":{"key":"56237-eb77f891","layer":"power","name":"Lake Side Power Plant","state":"UT","detail_file":"data/details/power-plants-21.json","plant_id":"56237","capacity_mw":1246.5,"status_group":"Operating","energy_sources":"NG","type":"Power plant","is_nuclear":false}},{"type":"Feature","geometry":{"type":"Point","coordinates":[-111.801,40.585]},"properties":{"key":"6537-3fb1812f","layer":"power","name":"Little Cottonwood","state":"UT","detail_file":"data/details/power-plants-62.json","plant_id":"6537","capacity_mw":4.8,"status_group":"Operating","energy_sources":"WAT","type":"Power plant","is_nuclear":false}},{"type":"Feature","geometry":{"type":"Point","coordinates":[-111.843,41.726]},"properties":{"key":"4251-36f7e173","layer":"power","name":"Logan City","state":"UT","detail_file":"data/details/power-plants-12.json","plant_id":"4251","capacity_mw":15.9,"status_group":"Operating","energy_sources":"NG","type":"Power plant","is_nuclear":false}},{"type":"Feature","geometry":{"type":"Point","coordinates":[-111.86,41.7]},"properties":{"key":"67445-5543382c","layer":"power","name":"Logan City 2","state":"UT","detail_file":"data/details/power-plants-14.json","plant_id":"67445","capacity_mw":10.0,"status_group":"Operating","energy_sources":"NG","type":"Power plant","is_nuclear":false}},{"type":"Feature","geometry":{"type":"Point","coordinates":[-111.89,40.67]},"properties":{"key":"8010-cc946c92","layer":"power","name":"Murray Turbine","state":"UT","detail_file":"data/details/power-plants-38.json","plant_id":"8010","capacity_mw":42.0,"status_group":"Operating","energy_sources":"NG","type":"Power plant","is_nuclear":false}},{"type":"Feature","geometry":{"type":"Point","coordinates":[-111.729,40.061]},"properties":{"key":"56177-55bc3d1d","layer":"power","name":"Nebo Power Station","state":"UT","detail_file":"data/details/power-plants-10.json","plant_id":"56177","capacity_mw":140.0,"status_group":"Operating","energy_sources":"NG","type":"Power plant","is_nuclear":false}},{"type":"Feature","geometry":{"type":"Point","coordinates":[-111.73,40.061]},"properties":{"key":"7408-4fb7d1cf","layer":"power","name":"Payson","state":"UT","detail_file":"data/details/power-plants-12.json","plant_id":"7408","capacity_mw":5.2,"status_group":"Operating","energy_sources":"NG","type":"Power plant","is_nuclear":false}},{"type":"Feature","geometry":{"type":"Point","coordinates":[-111.73,40.061]},"properties":{"key":"7408-fe15e4a2","layer":"power","name":"Payson","state":"UT","detail_file":"data/details/power-plants-12.json","plant_id":"7408","capacity_mw":14.4,"status_group":"Under construction","energy_sources":"NG","type":"Power plant","is_nuclear":false}},{"type":"Feature","geometry":{"type":"Point","coordinates":[-111.849,41.254]},"properties":{"key":"7132-d34a27aa","layer":"power","name":"Pine View Dam","state":"UT","detail_file":"data/details/power-plants-51.json","plant_id":"7132","capacity_mw":1.8,"status_group":"Operating","energy_sources":"WAT","type":"Power plant","is_nuclear":false}},{"type":"Feature","geometry":{"type":"Point","coordinates":[-111.947,41.244]},"properties":{"key":"3656-f7f61d85","layer":"power","name":"Pioneer","state":"UT","detail_file":"data/details/power-plants-02.json","plant_id":"3656","capacity_mw":5.0,"status_group":"Operating","energy_sources":"WAT","type":"Power plant","is_nuclear":false}},{"type":"Feature","geometry":{"type":"Point","coordinates":[-111.663,40.243]},"properties":{"key":"61508-1e83c4b5","layer":"power","name":"Provo Power Plant","state":"UT","detail_file":"data/details/power-plants-33.json","plant_id":"61508","capacity_mw":12.0,"status_group":"Operating","energy_sources":"NG","type":"Power plant","is_nuclear":false}},{"type":"Feature","geometry":{"type":"Point","coordinates":[-111.06,41.77]},"properties":{"key":"62399-17292a6f","layer":"power","name":"Sage Solar I-III","state":"UT","detail_file":"data/details/power-plants-50.json","plant_id":"62399","capacity_mw":57.6,"status_group":"Operating","energy_sources":"SUN","type":"Power plant","is_nuclear":false}},{"type":"Feature","geometry":{"type":"Point","coordinates":[-111.895,40.767]},"properties":{"key":"58006-45ed4777","layer":"power","name":"Salt Palace Solar Gen Plant","state":"UT","detail_file":"data/details/power-plants-09.json","plant_id":"58006","capacity_mw":1.3,"status_group":"Operating","energy_sources":"SUN","type":"Power plant","is_nuclear":false}},{"type":"Feature","geometry":{"type":"Point","coordinates":[-111.503,40.545]},"properties":{"key":"3658-98b743e8","layer":"power","name":"Snake Creek","state":"UT","detail_file":"data/details/power-plants-23.json","plant_id":"3658","capacity_mw":1.2,"status_group":"Operating","energy_sources":"WAT","type":"Power plant","is_nuclear":false}},{"type":"Feature","geometry":{"type":"Point","coordinates":[-111.654,40.583]},"properties":{"key":"10215-684c722f","layer":"power","name":"Snowbird Power Plant","state":"UT","detail_file":"data/details/power-plants-16.json","plant_id":"10215","capacity_mw":6.5,"status_group":"Operating","energy_sources":"NG","type":"Power plant","is_nuclear":false}},{"type":"Feature","geometry":{"type":"Point","coordinates":[-111.605,40.08]},"properties":{"key":"3691-6d9fe00e","layer":"power","name":"Spanish Fork","state":"UT","detail_file":"data/details/power-plants-08.json","plant_id":"3691","capacity_mw":3.6,"status_group":"Operating","energy_sources":"WAT","type":"Power plant","is_nuclear":false}},{"type":"Feature","geometry":{"type":"Point","coordinates":[-111.633,40.128]},"properties":{"key":"66413-4b3580c8","layer":"power","name":"Spanish Fork Community Solar","state":"UT","detail_file":"data/details/power-plants-21.json","plant_id":"66413","capacity_mw":4.0,"status_group":"Operating","energy_sources":"SUN","type":"Power plant","is_nuclear":false}},{"type":"Feature","geometry":{"type":"Point","coordinates":[-111.582,40.071]},"properties":{"key":"56751-6d9fcc00","layer":"power","name":"Spanish Fork Wind Park 2 LLC","state":"UT","detail_file":"data/details/power-plants-58.json","plant_id":"56751","capacity_mw":18.9,"status_group":"Operating","energy_sources":"WND","type":"Power plant","is_nuclear":false}},{"type":"Feature","geometry":{"type":"Point","coordinates":[-111.753,40.624]},"properties":{"key":"3659-34185b99","layer":"power","name":"Stairs","state":"UT","detail_file":"data/details/power-plants-35.json","plant_id":"3659","capacity_mw":1.0,"status_group":"Operating","energy_sources":"WAT","type":"Power plant","is_nuclear":false}},{"type":"Feature","geometry":{"type":"Point","coordinates":[-111.901,40.521]},"properties":{"key":"70112-fd9c75bf","layer":"power","name":"Swire Coca-Cola Draper","state":"UT","detail_file":"data/details/power-plants-61.json","plant_id":"70112","capacity_mw":3.7,"status_group":"Operating","energy_sources":"SUN","type":"Power plant","is_nuclear":false}},{"type":"Feature","geometry":{"type":"Point","coordinates":[-111.904,40.793]},"properties":{"key":"56509-642bbe38","layer":"power","name":"Tesoro SLC Cogeneration Plant","state":"UT","detail_file":"data/details/power-plants-09.json","plant_id":"56509","capacity_mw":30.4,"status_group":"Operating","energy_sources":"NG","type":"Power plant","is_nuclear":false}},{"type":"Feature","geometry":{"type":"Point","coordinates":[-110.066,40.538]},"properties":{"key":"3704-1b23c8f4","layer":"power","name":"Uintah","state":"UT","detail_file":"data/details/power-plants-36.json","plant_id":"3704","capacity_mw":1.2,"status_group":"Operating","energy_sources":"WAT","type":"Power plant","is_nuclear":false}},{"type":"Feature","geometry":{"type":"Point","coordinates":[-111.404,40.79]},"properties":{"key":"3698-4671dcae","layer":"power","name":"Wanship","state":"UT","detail_file":"data/details/power-plants-62.json","plant_id":"3698","capacity_mw":1.9,"status_group":"Operating","energy_sources":"WAT","type":"Power plant","is_nuclear":false}},{"type":"Feature","geometry":{"type":"Point","coordinates":[-111.885,41.138]},"properties":{"key":"3661-2506e9d4","layer":"power","name":"Weber","state":"UT","detail_file":"data/details/power-plants-42.json","plant_id":"3661","capacity_mw":3.8,"status_group":"Operating","energy_sources":"WAT","type":"Power plant","is_nuclear":false}},{"type":"Feature","geometry":{"type":"Point","coordinates":[-111.982,41.099]},"properties":{"key":"60821-c272c39b","layer":"power","name":"Weber State University - Davis Campus PV","state":"UT","detail_file":"data/details/power-plants-56.json","plant_id":"60821","capacity_mw":1.3,"status_group":"Operating","energy_sources":"SUN","type":"Power plant","is_nuclear":false}},{"type":"Feature","geometry":{"type":"Point","coordinates":[-111.62,40.182]},"properties":{"key":"7028-108e4546","layer":"power","name":"Whitehead","state":"UT","detail_file":"data/details/power-plants-24.json","plant_id":"7028","capacity_mw":26.5,"status_group":"Operating","energy_sources":"NG","type":"Power plant","is_nuclear":false}},{"type":"Feature","geometry":{"type":"Point","coordinates":[-108.314,42.847]},"properties":{"key":"55278-1b531e91","layer":"power","name":"Beaver Creek Gas Plant","state":"WY","detail_file":"data/details/power-plants-06.json","plant_id":"55278","capacity_mw":6.8,"status_group":"Operating","energy_sources":"NG; WH","type":"Power plant","is_nuclear":false}},{"type":"Feature","geometry":{"type":"Point","coordinates":[-108.17,42.753]},"properties":{"key":"60130-ccf8d2d2","layer":"power","name":"Big Sand Draw Plant","state":"WY","detail_file":"data/details/power-plants-33.json","plant_id":"60130","capacity_mw":8.0,"status_group":"Operating","energy_sources":"NG","type":"Power plant","is_nuclear":false}},{"type":"Feature","geometry":{"type":"Point","coordinates":[-108.177,43.418]},"properties":{"key":"505-1dd5d1dd","layer":"power","name":"Boysen","state":"WY","detail_file":"data/details/power-plants-04.json","plant_id":"505","capacity_mw":15.0,"status_group":"Operating","energy_sources":"WAT","type":"Power plant","is_nuclear":false}},{"type":"Feature","geometry":{"type":"Point","coordinates":[-110.064,42.027]},"properties":{"key":"4185-875d5f59","layer":"power","name":"Fontenelle","state":"WY","detail_file":"data/details/power-plants-08.json","plant_id":"4185","capacity_mw":10.0,"status_group":"Operating","energy_sources":"WAT","type":"Power plant","is_nuclear":false}},{"type":"Feature","geometry":{"type":"Point","coordinates":[-109.754,41.593]},"properties":{"key":"54318-87a9b38e","layer":"power","name":"General Chemical","state":"WY","detail_file":"data/details/power-plants-00.json","plant_id":"54318","capacity_mw":30.0,"status_group":"Operating","energy_sources":"BIT","type":"Power plant","is_nuclear":false}},{"type":"Feature","geometry":{"type":"Point","coordinates":[-108.787,41.738]},"properties":{"key":"8066-0080ce50","layer":"power","name":"Jim Bridger","state":"WY","detail_file":"data/details/power-plants-46.json","plant_id":"8066","capacity_mw":2326.0,"status_group":"Operating","energy_sources":"NG; SUB","type":"Power plant","is_nuclear":false}},{"type":"Feature","geometry":{"type":"Point","coordinates":[-110.56,41.706]},"properties":{"key":"68635-2b21a93b","layer":"power","name":"Kemmerer Unit 1","state":"WY","detail_file":"data/details/power-plants-57.json","plant_id":"68635","capacity_mw":500.0,"status_group":"Under construction","energy_sources":"NUC","type":"Nuclear power plant","is_nuclear":true}},{"type":"Feature","geometry":{"type":"Point","coordinates":[-110.544,41.264]},"properties":{"key":"56753-e01f3b40","layer":"power","name":"Mountain Wind Power II LLC","state":"WY","detail_file":"data/details/power-plants-42.json","plant_id":"56753","capacity_mw":80.0,"status_group":"Operating","energy_sources":"WND","type":"Power plant","is_nuclear":false}},{"type":"Feature","geometry":{"type":"Point","coordinates":[-110.481,41.288]},"properties":{"key":"56752-b193de1f","layer":"power","name":"Mountain Wind Power LLC","state":"WY","detail_file":"data/details/power-plants-63.json","plant_id":"56752","capacity_mw":61.0,"status_group":"Operating","energy_sources":"WND","type":"Power plant","is_nuclear":false}},{"type":"Feature","geometry":{"type":"Point","coordinates":[-110.598,41.758]},"properties":{"key":"4162-14a375a7","layer":"power","name":"Naughton","state":"WY","detail_file":"data/details/power-plants-15.json","plant_id":"4162","capacity_mw":707.2,"status_group":"Operating","energy_sources":"NG; SUB","type":"Power plant","is_nuclear":false}},{"type":"Feature","geometry":{"type":"Point","coordinates":[-108.788,43.219]},"properties":{"key":"674-019ece4e","layer":"power","name":"Pilot Butte","state":"WY","detail_file":"data/details/power-plants-00.json","plant_id":"674","capacity_mw":1.6,"status_group":"Operating","energy_sources":"WAT","type":"Power plant","is_nuclear":false}},{"type":"Feature","geometry":{"type":"Point","coordinates":[-110.09,41.88]},"properties":{"key":"56312-490f9958","layer":"power","name":"Shute Creek Facility","state":"WY","detail_file":"data/details/power-plants-28.json","plant_id":"56312","capacity_mw":144.0,"status_group":"Operating","energy_sources":"NG","type":"Power plant","is_nuclear":false}},{"type":"Feature","geometry":{"type":"Point","coordinates":[-109.133,41.542]},"properties":{"key":"54472-042e10d9","layer":"power","name":"Simplot Phosphates","state":"WY","detail_file":"data/details/power-plants-51.json","plant_id":"54472","capacity_mw":11.5,"status_group":"Operating","energy_sources":"WH","type":"Power plant","is_nuclear":false}},{"type":"Feature","geometry":{"type":"Point","coordinates":[-110.893,42.905]},"properties":{"key":"6393-952eeef3","layer":"power","name":"Strawberry Creek","state":"WY","detail_file":"data/details/power-plants-54.json","plant_id":"6393","capacity_mw":1.5,"status_group":"Operating","energy_sources":"WAT","type":"Power plant","is_nuclear":false}},{"type":"Feature","geometry":{"type":"Point","coordinates":[-109.683,41.629]},"properties":{"key":"61369-9e7f869c","layer":"power","name":"Sweetwater Solar","state":"WY","detail_file":"data/details/power-plants-49.json","plant_id":"61369","capacity_mw":92.0,"status_group":"Operating","energy_sources":"SUN","type":"Power plant","is_nuclear":false}},{"type":"Feature","geometry":{"type":"Point","coordinates":[-110.917,42.728]},"properties":{"key":"6394-17eba8f9","layer":"power","name":"Swift Creek","state":"WY","detail_file":"data/details/power-plants-63.json","plant_id":"6394","capacity_mw":1.7,"status_group":"Operating","energy_sources":"WAT","type":"Power plant","is_nuclear":false}},{"type":"Feature","geometry":{"type":"Point","coordinates":[-110.556,41.287]},"properties":{"key":"56093-a126824e","layer":"power","name":"TransAlta Wyoming Wind","state":"WY","detail_file":"data/details/power-plants-50.json","plant_id":"56093","capacity_mw":144.0,"status_group":"Operating","energy_sources":"WND","type":"Power plant","is_nuclear":false}},{"type":"Feature","geometry":{"type":"Point","coordinates":[-109.812,41.622]},"properties":{"key":"57915-383b0ea0","layer":"power","name":"WE Soda Alkalai LLC","state":"WY","detail_file":"data/details/power-plants-56.json","plant_id":"57915","capacity_mw":41.0,"status_group":"Operating","energy_sources":"SUB","type":"Power plant","is_nuclear":false}}]}