{"type":"FeatureCollection","features":[{"type":"Feature","geometry":{"type":"Point","coordinates":[-107.588,31.867]},"properties":{"key":"61165-429fbdcc","layer":"power","name":"Columbus Solar Project","state":"NM","detail_file":"data/details/power-plants-15.json","plant_id":"61165","capacity_mw":1.9,"status_group":"Operating","energy_sources":"SUN","type":"Power plant","is_nuclear":false}},{"type":"Feature","geometry":{"type":"Point","coordinates":[-106.642,31.796]},"properties":{"key":"67528-c2d98c89","layer":"power","name":"Milagro Solar I","state":"NM","detail_file":"data/details/power-plants-02.json","plant_id":"67528","capacity_mw":225.0,"status_group":"Operating","energy_sources":"MWH; SUN","type":"Power plant","is_nuclear":false}},{"type":"Feature","geometry":{"type":"Point","coordinates":[-106.547,31.805]},"properties":{"key":"2444-501599ec","layer":"power","name":"Rio Grande","state":"NM","detail_file":"data/details/power-plants-38.json","plant_id":"2444","capacity_mw":348.3,"status_group":"Operating","energy_sources":"NG","type":"Power plant","is_nuclear":false}},{"type":"Feature","geometry":{"type":"Point","coordinates":[-106.673,31.793]},"properties":{"key":"57338-ab7a9410","layer":"power","name":"Roadrunner Solar","state":"NM","detail_file":"data/details/power-plants-37.json","plant_id":"57338","capacity_mw":20.2,"status_group":"Operating","energy_sources":"SUN","type":"Power plant","is_nuclear":false}},{"type":"Feature","geometry":{"type":"Point","coordinates":[-106.699,31.806]},"properties":{"key":"68866-394bb098","layer":"power","name":"Santa Teresa Solar","state":"NM","detail_file":"data/details/power-plants-34.json","plant_id":"68866","capacity_mw":300.0,"status_group":"Under construction","energy_sources":"MWH; SUN","type":"Power plant","is_nuclear":false}},{"type":"Feature","geometry":{"type":"Point","coordinates":[-104.21,31.827]},"properties":{"key":"69192-38dd6e9b","layer":"power","name":"AETS Old Michigan Solar LLC","state":"TX","detail_file":"data/details/power-plants-13.json","plant_id":"69192","capacity_mw":10.0,"status_group":"Operating","energy_sources":"SUN","type":"Power plant","is_nuclear":false}},{"type":"Feature","geometry":{"type":"Point","coordinates":[-104.442,31.72]},"properties":{"key":"63329-3134e587","layer":"power","name":"Aragorn Solar Project","state":"TX","detail_file":"data/details/power-plants-34.json","plant_id":"63329","capacity_mw":187.2,"status_group":"Operating","energy_sources":"SUN","type":"Power plant","is_nuclear":false}},{"type":"Feature","geometry":{"type":"Point","coordinates":[-104.3,29.6]},"properties":{"key":"58488-2f5e6338","layer":"power","name":"Bryan Solar, LLC","state":"TX","detail_file":"data/details/power-plants-48.json","plant_id":"58488","capacity_mw":10.0,"status_group":"Operating","energy_sources":"SUN","type":"Power plant","is_nuclear":false}},{"type":"Feature","geometry":{"type":"Point","coordinates":[-106.259,31.561]},"properties":{"key":"67174-967bc0bd","layer":"power","name":"Chihuahuan Desert Solar","state":"TX","detail_file":"data/details/power-plants-45.json","plant_id":"67174","capacity_mw":10.0,"status_group":"Operating","energy_sources":"SUN","type":"Power plant","is_nuclear":false}},{"type":"Feature","geometry":{"type":"Point","coordinates":[-106.375,31.757]},"properties":{"key":"9-7142b497","layer":"power","name":"Copper","state":"TX","detail_file":"data/details/power-plants-08.json","plant_id":"9","capacity_mw":86.9,"status_group":"Operating","energy_sources":"NG","type":"Power plant","is_nuclear":false}},{"type":"Feature","geometry":{"type":"Point","coordinates":[-106.053,31.508]},"properties":{"key":"70034-182b6579","layer":"power","name":"Evlou Solar, LLC","state":"TX","detail_file":"data/details/power-plants-10.json","plant_id":"70034","capacity_mw":500.0,"status_group":"Under construction","energy_sources":"MWH; SUN","type":"Power plant","is_nuclear":false}},{"type":"Feature","geometry":{"type":"Point","coordinates":[-106.038,31.545]},"properties":{"key":"67177-0601a191","layer":"power","name":"Felina","state":"TX","detail_file":"data/details/power-plants-36.json","plant_id":"67177","capacity_mw":153.0,"status_group":"Operating","energy_sources":"SUN","type":"Power plant","is_nuclear":false}},{"type":"Feature","geometry":{"type":"Point","coordinates":[-106.373,31.83]},"properties":{"key":"61887-a7927946","layer":"power","name":"Fort Bliss (DEA EPIC)","state":"TX","detail_file":"data/details/power-plants-33.json","plant_id":"61887","capacity_mw":2.0,"status_group":"Operating","energy_sources":"SUN","type":"Power plant","is_nuclear":false}},{"type":"Feature","geometry":{"type":"Point","coordinates":[-104.085,31.816]},"properties":{"key":"66880-f6ab022b","layer":"power","name":"Hayhurst Texas Solar","state":"TX","detail_file":"data/details/power-plants-12.json","plant_id":"66880","capacity_mw":24.8,"status_group":"Operating","energy_sources":"SUN","type":"Power plant","is_nuclear":false}},{"type":"Feature","geometry":{"type":"Point","coordinates":[-106.212,31.824]},"properties":{"key":"58562-a1df133f","layer":"power","name":"Montana Power Station","state":"TX","detail_file":"data/details/power-plants-45.json","plant_id":"58562","capacity_mw":527.2,"status_group":"Operating","energy_sources":"NG","type":"Power plant","is_nuclear":false}},{"type":"Feature","geometry":{"type":"Point","coordinates":[-106.219,31.813]},"properties":{"key":"60300-bc2f6c91","layer":"power","name":"Montana Solar Facility","state":"TX","detail_file":"data/details/power-plants-16.json","plant_id":"60300","capacity_mw":3.0,"status_group":"Operating","energy_sources":"SUN","type":"Power plant","is_nuclear":false}},{"type":"Feature","geometry":{"type":"Point","coordinates":[-106.432,31.984]},"properties":{"key":"3456-1251a6df","layer":"power","name":"Newman","state":"TX","detail_file":"data/details/power-plants-49.json","plant_id":"3456","capacity_mw":1109.8,"status_group":"Operating","energy_sources":"NG","type":"Power plant","is_nuclear":false}},{"type":"Feature","geometry":{"type":"Point","coordinates":[-106.427,31.978]},"properties":{"key":"59407-01529107","layer":"power","name":"Newman Solar","state":"TX","detail_file":"data/details/power-plants-02.json","plant_id":"59407","capacity_mw":10.5,"status_group":"Operating","energy_sources":"SUN","type":"Power plant","is_nuclear":false}},{"type":"Feature","geometry":{"type":"Point","coordinates":[-106.391,31.764]},"properties":{"key":"54628-3c0a22ed","layer":"power","name":"Phelps Dodge Refining","state":"TX","detail_file":"data/details/power-plants-25.json","plant_id":"54628","capacity_mw":19.6,"status_group":"Operating","energy_sources":"NG","type":"Power plant","is_nuclear":false}},{"type":"Feature","geometry":{"type":"Point","coordinates":[-104.045,31.821]},"properties":{"key":"65835-1fa10bcc","layer":"power","name":"Screwbean","state":"TX","detail_file":"data/details/power-plants-16.json","plant_id":"65835","capacity_mw":9.9,"status_group":"Operating","energy_sources":"MWH","type":"Power plant","is_nuclear":false}},{"type":"Feature","geometry":{"type":"Point","coordinates":[-106.338,31.808]},"properties":{"key":"67827-25fa8a87","layer":"power","name":"TJX 2021 DG El Paso DC","state":"TX","detail_file":"data/details/power-plants-09.json","plant_id":"67827","capacity_mw":1.5,"status_group":"Operating","energy_sources":"SUN","type":"Power plant","is_nuclear":false}},{"type":"Feature","geometry":{"type":"Point","coordinates":[-106.501,31.77]},"properties":{"key":"50241-9ebf88dc","layer":"power","name":"Tenet Hospital","state":"TX","detail_file":"data/details/power-plants-58.json","plant_id":"50241","capacity_mw":4.2,"status_group":"Operating","energy_sources":"NG","type":"Power plant","is_nuclear":false}},{"type":"Feature","geometry":{"type":"Point","coordinates":[-104.458,31.7]},"properties":{"key":"63320-194c6f1a","layer":"power","name":"Titan Solar Project","state":"TX","detail_file":"data/details/power-plants-48.json","plant_id":"63320","capacity_mw":260.0,"status_group":"Operating","energy_sources":"SUN","type":"Power plant","is_nuclear":false}},{"type":"Feature","geometry":{"type":"Point","coordinates":[-104.315,31.918]},"properties":{"key":"70093-0f50c781","layer":"power","name":"Wallace Solar - (TX)","state":"TX","detail_file":"data/details/power-plants-51.json","plant_id":"70093","capacity_mw":36.0,"status_group":"Under construction","energy_sources":"SUN","type":"Power plant","is_nuclear":false}}]}