{"type":"FeatureCollection","features":[{"type":"Feature","geometry":{"type":"Point","coordinates":[-133.148,55.476]},"properties":{"key":"7752-9acb5c00","layer":"power","name":"Black Bear Lake","state":"AK","detail_file":"data/details/power-plants-51.json","plant_id":"7752","capacity_mw":4.5,"status_group":"Operating","energy_sources":"WAT","type":"Power plant","is_nuclear":false}},{"type":"Feature","geometry":{"type":"Point","coordinates":[-133.149,55.477]},"properties":{"key":"421-c70ad66a","layer":"power","name":"Craig (AK)","state":"AK","detail_file":"data/details/power-plants-12.json","plant_id":"421","capacity_mw":2.8,"status_group":"Operating","energy_sources":"DFO","type":"Power plant","is_nuclear":false}},{"type":"Feature","geometry":{"type":"Point","coordinates":[-133.135,55.489]},"properties":{"key":"56146-d2d87f39","layer":"power","name":"False Island","state":"AK","detail_file":"data/details/power-plants-31.json","plant_id":"56146","capacity_mw":3.8,"status_group":"Operating","energy_sources":"DFO","type":"Power plant","is_nuclear":false}},{"type":"Feature","geometry":{"type":"Point","coordinates":[-132.61,55.217]},"properties":{"key":"59037-bcf478fc","layer":"power","name":"Hiilangaay Hydro","state":"AK","detail_file":"data/details/power-plants-47.json","plant_id":"59037","capacity_mw":5.0,"status_group":"Operating","energy_sources":"WAT","type":"Power plant","is_nuclear":false}},{"type":"Feature","geometry":{"type":"Point","coordinates":[-133.085,55.553]},"properties":{"key":"61684-c21eabc7","layer":"power","name":"Klawock Power Generation Station","state":"AK","detail_file":"data/details/power-plants-42.json","plant_id":"61684","capacity_mw":2.5,"status_group":"Operating","energy_sources":"DFO","type":"Power plant","is_nuclear":false}},{"type":"Feature","geometry":{"type":"Point","coordinates":[-132.891,55.563]},"properties":{"key":"56265-4ef404c4","layer":"power","name":"South Fork","state":"AK","detail_file":"data/details/power-plants-30.json","plant_id":"56265","capacity_mw":2.0,"status_group":"Operating","energy_sources":"WAT","type":"Power plant","is_nuclear":false}},{"type":"Feature","geometry":{"type":"Point","coordinates":[-132.529,55.686]},"properties":{"key":"7414-3e59940d","layer":"power","name":"Thorne Bay Plant","state":"AK","detail_file":"data/details/power-plants-29.json","plant_id":"7414","capacity_mw":1.0,"status_group":"Operating","energy_sources":"DFO","type":"Power plant","is_nuclear":false}}]}