{"type":"FeatureCollection","features":[{"type":"Feature","geometry":{"type":"Point","coordinates":[-120.86,35.953]},"properties":{"key":"55184-40d6890f","layer":"power","name":"Aera San Ardo Cogen Facility","state":"CA","detail_file":"data/details/power-plants-06.json","plant_id":"55184","capacity_mw":3.2,"status_group":"Operating","energy_sources":"NG","type":"Power plant","is_nuclear":false}},{"type":"Feature","geometry":{"type":"Point","coordinates":[-120.634,35.463]},"properties":{"key":"64523-cd24c25a","layer":"power","name":"Atascadero State Hospital","state":"CA","detail_file":"data/details/power-plants-42.json","plant_id":"64523","capacity_mw":1.1,"status_group":"Operating","energy_sources":"SUN","type":"Power plant","is_nuclear":false}},{"type":"Feature","geometry":{"type":"Point","coordinates":[-121.407,35.755]},"properties":{"key":"67982-e471d23f","layer":"power","name":"Athens Solar I (Hybrid)","state":"CA","detail_file":"data/details/power-plants-24.json","plant_id":"67982","capacity_mw":500.0,"status_group":"Planned","energy_sources":"MWH; SUN","type":"Power plant","is_nuclear":false}},{"type":"Feature","geometry":{"type":"Point","coordinates":[-120.11,35.99]},"properties":{"key":"57359-e66f444d","layer":"power","name":"Avenal Park","state":"CA","detail_file":"data/details/power-plants-52.json","plant_id":"57359","capacity_mw":6.0,"status_group":"Operating","energy_sources":"SUN","type":"Power plant","is_nuclear":false}},{"type":"Feature","geometry":{"type":"Point","coordinates":[-120.404,35.616]},"properties":{"key":"60033-e2968e64","layer":"power","name":"CA Flats Solar 130, LLC","state":"CA","detail_file":"data/details/power-plants-46.json","plant_id":"60033","capacity_mw":130.0,"status_group":"Operating","energy_sources":"SUN","type":"Power plant","is_nuclear":false}},{"type":"Feature","geometry":{"type":"Point","coordinates":[-120.404,35.616]},"properties":{"key":"60034-c9a9b7dc","layer":"power","name":"CA Flats Solar 150, LLC","state":"CA","detail_file":"data/details/power-plants-43.json","plant_id":"60034","capacity_mw":150.0,"status_group":"Operating","energy_sources":"SUN","type":"Power plant","is_nuclear":false}},{"type":"Feature","geometry":{"type":"Point","coordinates":[-120.694,35.326]},"properties":{"key":"65523-5de755d3","layer":"power","name":"CA-DGS-California Men's Colony","state":"CA","detail_file":"data/details/power-plants-12.json","plant_id":"65523","capacity_mw":2.2,"status_group":"Operating","energy_sources":"SUN","type":"Power plant","is_nuclear":false}},{"type":"Feature","geometry":{"type":"Point","coordinates":[-120.151,35.996]},"properties":{"key":"60077-883384e1","layer":"power","name":"CED Avenal","state":"CA","detail_file":"data/details/power-plants-56.json","plant_id":"60077","capacity_mw":15.8,"status_group":"Operating","energy_sources":"SUN","type":"Power plant","is_nuclear":false}},{"type":"Feature","geometry":{"type":"Point","coordinates":[-120.454,35.006]},"properties":{"key":"68012-434be20d","layer":"power","name":"Caballero","state":"CA","detail_file":"data/details/power-plants-60.json","plant_id":"68012","capacity_mw":99.7,"status_group":"Operating","energy_sources":"MWH","type":"Power plant","is_nuclear":false}},{"type":"Feature","geometry":{"type":"Point","coordinates":[-120.329,35.867]},"properties":{"key":"63930-64ba44c5","layer":"power","name":"Cal Flats BESS","state":"CA","detail_file":"data/details/power-plants-30.json","plant_id":"63930","capacity_mw":60.0,"status_group":"Operating","energy_sources":"MWH","type":"Power plant","is_nuclear":false}},{"type":"Feature","geometry":{"type":"Point","coordinates":[-120.732,35.322]},"properties":{"key":"63870-6a192f6c","layer":"power","name":"Camp San Luis Obispo","state":"CA","detail_file":"data/details/power-plants-54.json","plant_id":"63870","capacity_mw":1.2,"status_group":"Operating","energy_sources":"SUN","type":"Power plant","is_nuclear":false}},{"type":"Feature","geometry":{"type":"Point","coordinates":[-120.599,35.187]},"properties":{"key":"58379-9e8ed0cd","layer":"power","name":"Cold Canyon 1","state":"CA","detail_file":"data/details/power-plants-42.json","plant_id":"58379","capacity_mw":1.5,"status_group":"Operating","energy_sources":"LFG","type":"Power plant","is_nuclear":false}},{"type":"Feature","geometry":{"type":"Point","coordinates":[-120.856,35.212]},"properties":{"key":"6099-48070798","layer":"power","name":"Diablo Canyon","state":"CA","detail_file":"data/details/power-plants-27.json","plant_id":"6099","capacity_mw":2323.0,"status_group":"Operating","energy_sources":"NUC","type":"Nuclear power plant","is_nuclear":true}},{"type":"Feature","geometry":{"type":"Point","coordinates":[-120.694,35.596]},"properties":{"key":"64391-c8880924","layer":"power","name":"Firestone Walker Brewery - Phase 1","state":"CA","detail_file":"data/details/power-plants-15.json","plant_id":"64391","capacity_mw":1.6,"status_group":"Operating","energy_sources":"SUN","type":"Power plant","is_nuclear":false}},{"type":"Feature","geometry":{"type":"Point","coordinates":[-120.447,34.907]},"properties":{"key":"65897-0338f65d","layer":"power","name":"Industrial Parkway Storage","state":"CA","detail_file":"data/details/power-plants-62.json","plant_id":"65897","capacity_mw":9.8,"status_group":"Under construction","energy_sources":"MWH","type":"Power plant","is_nuclear":false}},{"type":"Feature","geometry":{"type":"Point","coordinates":[-120.38,34.949]},"properties":{"key":"57101-0a1b5c43","layer":"power","name":"J&A-Santa Maria II LLC","state":"CA","detail_file":"data/details/power-plants-18.json","plant_id":"57101","capacity_mw":1.4,"status_group":"Operating","energy_sources":"LFG","type":"Power plant","is_nuclear":false}},{"type":"Feature","geometry":{"type":"Point","coordinates":[-120.567,35.67]},"properties":{"key":"57982-e6f9c05e","layer":"power","name":"Meridian Vineyards","state":"CA","detail_file":"data/details/power-plants-16.json","plant_id":"57982","capacity_mw":1.1,"status_group":"Operating","energy_sources":"SUN","type":"Power plant","is_nuclear":false}},{"type":"Feature","geometry":{"type":"Point","coordinates":[-120.883,35.799]},"properties":{"key":"50352-1b59048e","layer":"power","name":"Nacimiento Hydro Project","state":"CA","detail_file":"data/details/power-plants-25.json","plant_id":"50352","capacity_mw":4.4,"status_group":"Operating","energy_sources":"WAT","type":"Power plant","is_nuclear":false}},{"type":"Feature","geometry":{"type":"Point","coordinates":[-120.636,35.679]},"properties":{"key":"67866-28759dc2","layer":"power","name":"Paso Robles - Municipal Airport","state":"CA","detail_file":"data/details/power-plants-37.json","plant_id":"67866","capacity_mw":3.0,"status_group":"Operating","energy_sources":"SUN","type":"Power plant","is_nuclear":false}},{"type":"Feature","geometry":{"type":"Point","coordinates":[-120.868,35.952]},"properties":{"key":"50865-df567f1c","layer":"power","name":"Salinas River Cogeneration","state":"CA","detail_file":"data/details/power-plants-52.json","plant_id":"50865","capacity_mw":38.9,"status_group":"Operating","energy_sources":"NG","type":"Power plant","is_nuclear":false}},{"type":"Feature","geometry":{"type":"Point","coordinates":[-120.11,35.983]},"properties":{"key":"57361-4090dd03","layer":"power","name":"Sand Drag LLC","state":"CA","detail_file":"data/details/power-plants-01.json","plant_id":"57361","capacity_mw":19.0,"status_group":"Operating","energy_sources":"SUN","type":"Power plant","is_nuclear":false}},{"type":"Feature","geometry":{"type":"Point","coordinates":[-120.124,34.482]},"properties":{"key":"63094-77682d03","layer":"power","name":"Santa Barbara ReSource Center","state":"CA","detail_file":"data/details/power-plants-53.json","plant_id":"63094","capacity_mw":5.8,"status_group":"Operating","energy_sources":"LFG; OBG; SUN","type":"Power plant","is_nuclear":false}},{"type":"Feature","geometry":{"type":"Point","coordinates":[-120.414,34.954]},"properties":{"key":"57100-c81a2f0a","layer":"power","name":"Santa Maria LFG Power Plant","state":"CA","detail_file":"data/details/power-plants-26.json","plant_id":"57100","capacity_mw":1.1,"status_group":"Operating","energy_sources":"LFG","type":"Power plant","is_nuclear":false}},{"type":"Feature","geometry":{"type":"Point","coordinates":[-120.044,34.465]},"properties":{"key":"50270-31711f73","layer":"power","name":"Santa Ynez Facility","state":"CA","detail_file":"data/details/power-plants-32.json","plant_id":"50270","capacity_mw":49.3,"status_group":"Operating","energy_sources":"NG","type":"Power plant","is_nuclear":false}},{"type":"Feature","geometry":{"type":"Point","coordinates":[-120.841,35.936]},"properties":{"key":"50864-59e3c73f","layer":"power","name":"Sargent Canyon Cogeneration","state":"CA","detail_file":"data/details/power-plants-15.json","plant_id":"50864","capacity_mw":38.2,"status_group":"Operating","energy_sources":"NG","type":"Power plant","is_nuclear":false}},{"type":"Feature","geometry":{"type":"Point","coordinates":[-120.691,35.32]},"properties":{"key":"61607-2c3573fa","layer":"power","name":"Stenner Creek Solar","state":"CA","detail_file":"data/details/power-plants-35.json","plant_id":"61607","capacity_mw":4.5,"status_group":"Operating","energy_sources":"SUN","type":"Power plant","is_nuclear":false}},{"type":"Feature","geometry":{"type":"Point","coordinates":[-120.564,34.58]},"properties":{"key":"62113-0fa3991a","layer":"power","name":"Strauss Wind Farm","state":"CA","detail_file":"data/details/power-plants-37.json","plant_id":"62113","capacity_mw":95.3,"status_group":"Operating","energy_sources":"WND","type":"Power plant","is_nuclear":false}},{"type":"Feature","geometry":{"type":"Point","coordinates":[-120.11,35.983]},"properties":{"key":"57360-6cf8400c","layer":"power","name":"Sun City Project LLC","state":"CA","detail_file":"data/details/power-plants-49.json","plant_id":"57360","capacity_mw":20.0,"status_group":"Operating","energy_sources":"SUN","type":"Power plant","is_nuclear":false}},{"type":"Feature","geometry":{"type":"Point","coordinates":[-120.685,35.736]},"properties":{"key":"68630-3df9a9df","layer":"power","name":"Sutter Home Winery TCC","state":"CA","detail_file":"data/details/power-plants-41.json","plant_id":"68630","capacity_mw":1.1,"status_group":"Operating","energy_sources":"SUN","type":"Power plant","is_nuclear":false}},{"type":"Feature","geometry":{"type":"Point","coordinates":[-120.618,35.184]},"properties":{"key":"58190-6d495512","layer":"power","name":"Thomas M Knott Cogen Facility","state":"CA","detail_file":"data/details/power-plants-28.json","plant_id":"58190","capacity_mw":1.4,"status_group":"Operating","energy_sources":"NG","type":"Power plant","is_nuclear":false}},{"type":"Feature","geometry":{"type":"Point","coordinates":[-120.069,35.406]},"properties":{"key":"57695-a61a1789","layer":"power","name":"Topaz Solar Farm","state":"CA","detail_file":"data/details/power-plants-51.json","plant_id":"57695","capacity_mw":585.9,"status_group":"Operating","energy_sources":"SUN","type":"Power plant","is_nuclear":false}},{"type":"Feature","geometry":{"type":"Point","coordinates":[-120.51,34.75]},"properties":{"key":"61463-a157877f","layer":"power","name":"Vandenberg Solar Project","state":"CA","detail_file":"data/details/power-plants-34.json","plant_id":"61463","capacity_mw":25.3,"status_group":"Operating","energy_sources":"SUN","type":"Power plant","is_nuclear":false}},{"type":"Feature","geometry":{"type":"Point","coordinates":[-120.683,35.558]},"properties":{"key":"58509-f380baf3","layer":"power","name":"Vintner Solar","state":"CA","detail_file":"data/details/power-plants-30.json","plant_id":"58509","capacity_mw":1.5,"status_group":"Operating","energy_sources":"SUN","type":"Power plant","is_nuclear":false}},{"type":"Feature","geometry":{"type":"Point","coordinates":[-120.867,35.454]},"properties":{"key":"66685-6c02e7f8","layer":"power","name":"Whale Rock Pumped Storage Hydro Project","state":"CA","detail_file":"data/details/power-plants-60.json","plant_id":"66685","capacity_mw":600.0,"status_group":"Planned","energy_sources":"WAT","type":"Power plant","is_nuclear":false}}]}