{"type":"FeatureCollection","features":[{"type":"Feature","geometry":{"type":"Point","coordinates":[-106.002,46.79]},"properties":{"key":"66183-4ecd17f9","layer":"power","name":"Clearwater Wind East","state":"MT","detail_file":"data/details/power-plants-42.json","plant_id":"66183","capacity_mw":207.9,"status_group":"Operating","energy_sources":"WND","type":"Power plant","is_nuclear":false}},{"type":"Feature","geometry":{"type":"Point","coordinates":[-106.379,46.818]},"properties":{"key":"65577-2f2f77f0","layer":"power","name":"Clearwater Wind I","state":"MT","detail_file":"data/details/power-plants-21.json","plant_id":"65577","capacity_mw":365.5,"status_group":"Operating","energy_sources":"WND","type":"Power plant","is_nuclear":false}},{"type":"Feature","geometry":{"type":"Point","coordinates":[-106.195,46.819]},"properties":{"key":"66184-c1457ebc","layer":"power","name":"Clearwater Wind II","state":"MT","detail_file":"data/details/power-plants-11.json","plant_id":"66184","capacity_mw":102.8,"status_group":"Operating","energy_sources":"WND","type":"Power plant","is_nuclear":false}},{"type":"Feature","geometry":{"type":"Point","coordinates":[-106.195,46.819]},"properties":{"key":"66811-3c819653","layer":"power","name":"Clearwater Wind III","state":"MT","detail_file":"data/details/power-plants-19.json","plant_id":"66811","capacity_mw":100.0,"status_group":"Operating","energy_sources":"WND","type":"Power plant","is_nuclear":false}},{"type":"Feature","geometry":{"type":"Point","coordinates":[-106.614,45.883]},"properties":{"key":"6076-4c584c1f","layer":"power","name":"Colstrip","state":"MT","detail_file":"data/details/power-plants-53.json","plant_id":"6076","capacity_mw":1647.4,"status_group":"Operating","energy_sources":"SUB","type":"Power plant","is_nuclear":false}},{"type":"Feature","geometry":{"type":"Point","coordinates":[-106.655,45.975]},"properties":{"key":"10784-de37ece8","layer":"power","name":"Colstrip Energy LP","state":"MT","detail_file":"data/details/power-plants-37.json","plant_id":"10784","capacity_mw":46.1,"status_group":"Operating","energy_sources":"WC","type":"Power plant","is_nuclear":false}},{"type":"Feature","geometry":{"type":"Point","coordinates":[-104.184,46.275]},"properties":{"key":"56782-b91e67ae","layer":"power","name":"Diamond Willow Wind Facility","state":"MT","detail_file":"data/details/power-plants-55.json","plant_id":"56782","capacity_mw":30.0,"status_group":"Operating","energy_sources":"WND","type":"Power plant","is_nuclear":false}},{"type":"Feature","geometry":{"type":"Point","coordinates":[-104.74,47.054]},"properties":{"key":"2176-ffa44650","layer":"power","name":"Glendive GT","state":"MT","detail_file":"data/details/power-plants-17.json","plant_id":"2176","capacity_mw":83.7,"status_group":"Operating","energy_sources":"NG","type":"Power plant","is_nuclear":false}},{"type":"Feature","geometry":{"type":"Point","coordinates":[-107.6,45.758]},"properties":{"key":"55749-bd7b61d5","layer":"power","name":"Hardin Generator Project","state":"MT","detail_file":"data/details/power-plants-49.json","plant_id":"55749","capacity_mw":115.7,"status_group":"Operating","energy_sources":"SUB","type":"Power plant","is_nuclear":false}},{"type":"Feature","geometry":{"type":"Point","coordinates":[-104.157,47.678]},"properties":{"key":"6089-d4aa3a74","layer":"power","name":"Lewis & Clark","state":"MT","detail_file":"data/details/power-plants-27.json","plant_id":"6089","capacity_mw":18.6,"status_group":"Operating","energy_sources":"NG","type":"Power plant","is_nuclear":false}},{"type":"Feature","geometry":{"type":"Point","coordinates":[-105.795,46.411]},"properties":{"key":"2177-900f18aa","layer":"power","name":"Miles City GT","state":"MT","detail_file":"data/details/power-plants-26.json","plant_id":"2177","capacity_mw":23.3,"status_group":"Operating","energy_sources":"NG","type":"Power plant","is_nuclear":false}},{"type":"Feature","geometry":{"type":"Point","coordinates":[-107.633,45.73]},"properties":{"key":"61290-1b348b88","layer":"power","name":"South Mills Solar, LLC","state":"MT","detail_file":"data/details/power-plants-36.json","plant_id":"61290","capacity_mw":3.0,"status_group":"Operating","energy_sources":"SUN","type":"Power plant","is_nuclear":false}},{"type":"Feature","geometry":{"type":"Point","coordinates":[-107.957,45.307]},"properties":{"key":"2204-c8ad283b","layer":"power","name":"Yellowtail","state":"MT","detail_file":"data/details/power-plants-09.json","plant_id":"2204","capacity_mw":278.2,"status_group":"Operating","energy_sources":"WAT","type":"Power plant","is_nuclear":false}},{"type":"Feature","geometry":{"type":"Point","coordinates":[-106.109,44.69]},"properties":{"key":"8028-5394616f","layer":"power","name":"Arvada","state":"WY","detail_file":"data/details/power-plants-39.json","plant_id":"8028","capacity_mw":15.0,"status_group":"Operating","energy_sources":"NG","type":"Power plant","is_nuclear":false}},{"type":"Feature","geometry":{"type":"Point","coordinates":[-105.461,44.389]},"properties":{"key":"56609-9c63ec98","layer":"power","name":"Dry Fork Station","state":"WY","detail_file":"data/details/power-plants-23.json","plant_id":"56609","capacity_mw":483.7,"status_group":"Operating","energy_sources":"SUB","type":"Power plant","is_nuclear":false}},{"type":"Feature","geometry":{"type":"Point","coordinates":[-105.379,44.285]},"properties":{"key":"55477-9f51bf7d","layer":"power","name":"Neil Simpson Gas Turbine #2","state":"WY","detail_file":"data/details/power-plants-18.json","plant_id":"55477","capacity_mw":40.0,"status_group":"Operating","energy_sources":"NG","type":"Power plant","is_nuclear":false}},{"type":"Feature","geometry":{"type":"Point","coordinates":[-105.383,44.286]},"properties":{"key":"7504-bb988c6a","layer":"power","name":"Neil Simpson II","state":"WY","detail_file":"data/details/power-plants-05.json","plant_id":"7504","capacity_mw":130.0,"status_group":"Operating","energy_sources":"NG; SUB","type":"Power plant","is_nuclear":false}},{"type":"Feature","geometry":{"type":"Point","coordinates":[-105.383,44.286]},"properties":{"key":"55479-d75ac67b","layer":"power","name":"Wygen 1","state":"WY","detail_file":"data/details/power-plants-06.json","plant_id":"55479","capacity_mw":90.0,"status_group":"Operating","energy_sources":"SUB","type":"Power plant","is_nuclear":false}},{"type":"Feature","geometry":{"type":"Point","coordinates":[-105.381,44.292]},"properties":{"key":"56319-c3975822","layer":"power","name":"Wygen 2","state":"WY","detail_file":"data/details/power-plants-39.json","plant_id":"56319","capacity_mw":95.0,"status_group":"Operating","energy_sources":"SUB","type":"Power plant","is_nuclear":false}},{"type":"Feature","geometry":{"type":"Point","coordinates":[-105.381,44.292]},"properties":{"key":"56596-6ff4e9af","layer":"power","name":"Wygen III","state":"WY","detail_file":"data/details/power-plants-20.json","plant_id":"56596","capacity_mw":116.0,"status_group":"Operating","energy_sources":"SUB","type":"Power plant","is_nuclear":false}},{"type":"Feature","geometry":{"type":"Point","coordinates":[-105.382,44.29]},"properties":{"key":"6101-4d4b348c","layer":"power","name":"Wyodak","state":"WY","detail_file":"data/details/power-plants-59.json","plant_id":"6101","capacity_mw":362.1,"status_group":"Operating","energy_sources":"SUB","type":"Power plant","is_nuclear":false}}]}