{"type":"FeatureCollection","features":[{"type":"Feature","geometry":{"type":"Point","coordinates":[-88.01,31.007]},"properties":{"key":"3-0b81dfa8","layer":"power","name":"Barry","state":"AL","detail_file":"data/details/power-plants-18.json","plant_id":"3","capacity_mw":3343.5,"status_group":"Operating","energy_sources":"BIT; NG","type":"Power plant","is_nuclear":false}},{"type":"Feature","geometry":{"type":"Point","coordinates":[-88.058,30.748]},"properties":{"key":"55241-ae905673","layer":"power","name":"Hog Bayou Energy Center","state":"AL","detail_file":"data/details/power-plants-11.json","plant_id":"55241","capacity_mw":280.0,"status_group":"Operating","energy_sources":"NG","type":"Power plant","is_nuclear":false}},{"type":"Feature","geometry":{"type":"Point","coordinates":[-88.05,30.738]},"properties":{"key":"62449-498471c1","layer":"power","name":"Kimberly Clark Mobile - CHP Plant","state":"AL","detail_file":"data/details/power-plants-10.json","plant_id":"62449","capacity_mw":50.0,"status_group":"Operating","energy_sources":"NG","type":"Power plant","is_nuclear":false}},{"type":"Feature","geometry":{"type":"Point","coordinates":[-88.03,31.255]},"properties":{"key":"7063-5322b4c3","layer":"power","name":"McIntosh (AL)","state":"AL","detail_file":"data/details/power-plants-32.json","plant_id":"7063","capacity_mw":676.0,"status_group":"Operating","energy_sources":"NG","type":"Power plant","is_nuclear":false}},{"type":"Feature","geometry":{"type":"Point","coordinates":[-88.299,30.94]},"properties":{"key":"68558-4714859f","layer":"power","name":"SR Lott","state":"AL","detail_file":"data/details/power-plants-40.json","plant_id":"68558","capacity_mw":8.3,"status_group":"Under construction","energy_sources":"SUN","type":"Power plant","is_nuclear":false}},{"type":"Feature","geometry":{"type":"Point","coordinates":[-88.128,30.525]},"properties":{"key":"7721-95386687","layer":"power","name":"Theodore Cogen Facility","state":"AL","detail_file":"data/details/power-plants-19.json","plant_id":"7721","capacity_mw":317.4,"status_group":"Operating","energy_sources":"NG","type":"Power plant","is_nuclear":false}},{"type":"Feature","geometry":{"type":"Point","coordinates":[-88.182,30.432]},"properties":{"key":"54550-25e5c76d","layer":"power","name":"W&T Onshore Treating Facility (OTF)","state":"AL","detail_file":"data/details/power-plants-58.json","plant_id":"54550","capacity_mw":12.0,"status_group":"Operating","energy_sources":"NG","type":"Power plant","is_nuclear":false}},{"type":"Feature","geometry":{"type":"Point","coordinates":[-88.003,31.264]},"properties":{"key":"7697-8cf86749","layer":"power","name":"Washington County Cogeneration Facility","state":"AL","detail_file":"data/details/power-plants-47.json","plant_id":"7697","capacity_mw":122.5,"status_group":"Operating","energy_sources":"NG","type":"Power plant","is_nuclear":false}},{"type":"Feature","geometry":{"type":"Point","coordinates":[-90.539,30.798]},"properties":{"key":"67088-d13dea7f","layer":"power","name":"Amite Solar, LLC","state":"LA","detail_file":"data/details/power-plants-16.json","plant_id":"67088","capacity_mw":100.0,"status_group":"Operating","energy_sources":"SUN","type":"Power plant","is_nuclear":false}},{"type":"Feature","geometry":{"type":"Point","coordinates":[-90.669,30.054]},"properties":{"key":"50846-03751956","layer":"power","name":"Atlantic Alumina, Gramercy Operations","state":"LA","detail_file":"data/details/power-plants-06.json","plant_id":"50846","capacity_mw":85.3,"status_group":"Operating","energy_sources":"NG","type":"Power plant","is_nuclear":false}},{"type":"Feature","geometry":{"type":"Point","coordinates":[-91.356,30.674]},"properties":{"key":"1464-b514e492","layer":"power","name":"Big Cajun 1","state":"LA","detail_file":"data/details/power-plants-07.json","plant_id":"1464","capacity_mw":492.8,"status_group":"Operating","energy_sources":"NG","type":"Power plant","is_nuclear":false}},{"type":"Feature","geometry":{"type":"Point","coordinates":[-91.369,30.726]},"properties":{"key":"6055-d20b3b83","layer":"power","name":"Big Cajun 2","state":"LA","detail_file":"data/details/power-plants-23.json","plant_id":"6055","capacity_mw":1902.9,"status_group":"Operating","energy_sources":"NG; SUB","type":"Power plant","is_nuclear":false}},{"type":"Feature","geometry":{"type":"Point","coordinates":[-89.86,30.84]},"properties":{"key":"69990-5a6d6f82","layer":"power","name":"Bogalusa West Solar Station","state":"LA","detail_file":"data/details/power-plants-50.json","plant_id":"69990","capacity_mw":200.0,"status_group":"Planned","energy_sources":"SUN","type":"Power plant","is_nuclear":false}},{"type":"Feature","geometry":{"type":"Point","coordinates":[-89.978,29.933]},"properties":{"key":"54677-1054eab7","layer":"power","name":"CII Carbon LLC","state":"LA","detail_file":"data/details/power-plants-50.json","plant_id":"54677","capacity_mw":46.0,"status_group":"Operating","energy_sources":"WH","type":"Power plant","is_nuclear":false}},{"type":"Feature","geometry":{"type":"Point","coordinates":[-91.065,30.229]},"properties":{"key":"55404-94a2567d","layer":"power","name":"Carville Energy LLC","state":"LA","detail_file":"data/details/power-plants-27.json","plant_id":"55404","capacity_mw":555.0,"status_group":"Operating","energy_sources":"NG","type":"Power plant","is_nuclear":false}},{"type":"Feature","geometry":{"type":"Point","coordinates":[-89.97,29.938]},"properties":{"key":"50626-2d1ef988","layer":"power","name":"Chalmette Refining LLC","state":"LA","detail_file":"data/details/power-plants-29.json","plant_id":"50626","capacity_mw":5.7,"status_group":"Operating","energy_sources":"OTH","type":"Power plant","is_nuclear":false}},{"type":"Feature","geometry":{"type":"Point","coordinates":[-91.265,30.238]},"properties":{"key":"69952-a4f32dd3","layer":"power","name":"Cypress Harvest Solar Station","state":"LA","detail_file":"data/details/power-plants-24.json","plant_id":"69952","capacity_mw":400.0,"status_group":"Planned","energy_sources":"MWH; SUN","type":"Power plant","is_nuclear":false}},{"type":"Feature","geometry":{"type":"Point","coordinates":[-90.002,29.947]},"properties":{"key":"54512-c53d2943","layer":"power","name":"Domino Sugar Arabi Plant","state":"LA","detail_file":"data/details/power-plants-06.json","plant_id":"54512","capacity_mw":14.0,"status_group":"Operating","energy_sources":"NG","type":"Power plant","is_nuclear":false}},{"type":"Feature","geometry":{"type":"Point","coordinates":[-90.441,29.986]},"properties":{"key":"50152-25dbe019","layer":"power","name":"Dow St Charles Operations","state":"LA","detail_file":"data/details/power-plants-26.json","plant_id":"50152","capacity_mw":323.6,"status_group":"Operating","energy_sources":"NG","type":"Power plant","is_nuclear":false}},{"type":"Feature","geometry":{"type":"Point","coordinates":[-90.024,30.011]},"properties":{"key":"61647-e3c4ed19","layer":"power","name":"ENO Paterson Solar","state":"LA","detail_file":"data/details/power-plants-09.json","plant_id":"61647","capacity_mw":1.1,"status_group":"Operating","energy_sources":"SUN","type":"Power plant","is_nuclear":false}},{"type":"Feature","geometry":{"type":"Point","coordinates":[-91.726,29.904]},"properties":{"key":"51008-11519837","layer":"power","name":"Enterprise Sugar Factory","state":"LA","detail_file":"data/details/power-plants-56.json","plant_id":"51008","capacity_mw":1.0,"status_group":"Operating","energy_sources":"AB","type":"Power plant","is_nuclear":false}},{"type":"Feature","geometry":{"type":"Point","coordinates":[-91.187,30.49]},"properties":{"key":"10690-2c118768","layer":"power","name":"ExxonMobil Baton Rouge Turbine Generator","state":"LA","detail_file":"data/details/power-plants-50.json","plant_id":"10690","capacity_mw":85.3,"status_group":"Operating","energy_sources":"NG","type":"Power plant","is_nuclear":false}},{"type":"Feature","geometry":{"type":"Point","coordinates":[-91.187,30.499]},"properties":{"key":"54518-6062fc39","layer":"power","name":"Formosa Plastics","state":"LA","detail_file":"data/details/power-plants-42.json","plant_id":"54518","capacity_mw":100.8,"status_group":"Operating","energy_sources":"NG","type":"Power plant","is_nuclear":false}},{"type":"Feature","geometry":{"type":"Point","coordinates":[-89.858,30.781]},"properties":{"key":"54427-47ffdf0c","layer":"power","name":"Gaylord Container Bogalusa","state":"LA","detail_file":"data/details/power-plants-33.json","plant_id":"54427","capacity_mw":99.5,"status_group":"Operating","energy_sources":"BLQ","type":"Power plant","is_nuclear":false}},{"type":"Feature","geometry":{"type":"Point","coordinates":[-91.0,30.2]},"properties":{"key":"10319-173bf4e3","layer":"power","name":"Geismar","state":"LA","detail_file":"data/details/power-plants-38.json","plant_id":"10319","capacity_mw":84.1,"status_group":"Operating","energy_sources":"NG","type":"Power plant","is_nuclear":false}},{"type":"Feature","geometry":{"type":"Point","coordinates":[-90.992,30.209]},"properties":{"key":"56787-a43d8fef","layer":"power","name":"Geismar Cogen","state":"LA","detail_file":"data/details/power-plants-32.json","plant_id":"56787","capacity_mw":83.9,"status_group":"Operating","energy_sources":"NG","type":"Power plant","is_nuclear":false}},{"type":"Feature","geometry":{"type":"Point","coordinates":[-89.972,29.252]},"properties":{"key":"54927-98d18b7f","layer":"power","name":"Grand Isle Gas Plant / Treating Station","state":"LA","detail_file":"data/details/power-plants-37.json","plant_id":"54927","capacity_mw":9.0,"status_group":"Operating","energy_sources":"NG","type":"Power plant","is_nuclear":false}},{"type":"Feature","geometry":{"type":"Point","coordinates":[-91.992,30.169]},"properties":{"key":"56283-827e9b78","layer":"power","name":"Hargis-Hebert Electric Generating","state":"LA","detail_file":"data/details/power-plants-14.json","plant_id":"56283","capacity_mw":100.8,"status_group":"Operating","energy_sources":"NG","type":"Power plant","is_nuclear":false}},{"type":"Feature","geometry":{"type":"Point","coordinates":[-90.722,29.581]},"properties":{"key":"1439-e9aca096","layer":"power","name":"Houma","state":"LA","detail_file":"data/details/power-plants-37.json","plant_id":"1439","capacity_mw":78.9,"status_group":"Operating","energy_sources":"NG","type":"Power plant","is_nuclear":false}},{"type":"Feature","geometry":{"type":"Point","coordinates":[-90.195,30.782]},"properties":{"key":"63128-5166dc97","layer":"power","name":"Iris Solar LLC","state":"LA","detail_file":"data/details/power-plants-39.json","plant_id":"63128","capacity_mw":50.0,"status_group":"Operating","energy_sources":"SUN","type":"Power plant","is_nuclear":false}},{"type":"Feature","geometry":{"type":"Point","coordinates":[-91.736,29.777]},"properties":{"key":"66175-016d8355","layer":"power","name":"Ivanhoe Generation Facility","state":"LA","detail_file":"data/details/power-plants-35.json","plant_id":"66175","capacity_mw":31.0,"status_group":"Operating","energy_sources":"WH","type":"Power plant","is_nuclear":false}},{"type":"Feature","geometry":{"type":"Point","coordinates":[-91.332,30.465]},"properties":{"key":"61646-bcad22bf","layer":"power","name":"LA3 West Baton Rouge Solar Facility","state":"LA","detail_file":"data/details/power-plants-23.json","plant_id":"61646","capacity_mw":50.0,"status_group":"Operating","energy_sources":"SUN","type":"Power plant","is_nuclear":false}},{"type":"Feature","geometry":{"type":"Point","coordinates":[-91.193,29.691]},"properties":{"key":"58478-aa3d7978","layer":"power","name":"LEPA Unit No. 1","state":"LA","detail_file":"data/details/power-plants-15.json","plant_id":"58478","capacity_mw":74.1,"status_group":"Operating","energy_sources":"NG","type":"Power plant","is_nuclear":false}},{"type":"Feature","geometry":{"type":"Point","coordinates":[-91.181,30.411]},"properties":{"key":"58428-4f76dc89","layer":"power","name":"LSU Cogen","state":"LA","detail_file":"data/details/power-plants-56.json","plant_id":"58428","capacity_mw":19.6,"status_group":"Operating","energy_sources":"NG","type":"Power plant","is_nuclear":false}},{"type":"Feature","geometry":{"type":"Point","coordinates":[-90.462,30.005]},"properties":{"key":"1402-9d09929f","layer":"power","name":"Little Gypsy","state":"LA","detail_file":"data/details/power-plants-54.json","plant_id":"1402","capacity_mw":1002.9,"status_group":"Operating","energy_sources":"NG","type":"Power plant","is_nuclear":false}},{"type":"Feature","geometry":{"type":"Point","coordinates":[-91.186,30.492]},"properties":{"key":"1391-fa393b55","layer":"power","name":"Louisiana 1","state":"LA","detail_file":"data/details/power-plants-43.json","plant_id":"1391","capacity_mw":450.9,"status_group":"Operating","energy_sources":"NG; OG","type":"Power plant","is_nuclear":false}},{"type":"Feature","geometry":{"type":"Point","coordinates":[-91.186,30.492]},"properties":{"key":"1392-8119313f","layer":"power","name":"Louisiana 2","state":"LA","detail_file":"data/details/power-plants-13.json","plant_id":"1392","capacity_mw":175.0,"status_group":"Operating","energy_sources":"NG","type":"Power plant","is_nuclear":false}},{"type":"Feature","geometry":{"type":"Point","coordinates":[-90.684,30.05]},"properties":{"key":"10301-376cd0fa","layer":"power","name":"Louisiana Sugar Refining","state":"LA","detail_file":"data/details/power-plants-61.json","plant_id":"10301","capacity_mw":6.7,"status_group":"Operating","energy_sources":"NG","type":"Power plant","is_nuclear":false}},{"type":"Feature","geometry":{"type":"Point","coordinates":[-91.164,30.253]},"properties":{"key":"67005-12a42b52","layer":"power","name":"Magnolia Power","state":"LA","detail_file":"data/details/power-plants-52.json","plant_id":"67005","capacity_mw":722.9,"status_group":"Operating","energy_sources":"NG","type":"Power plant","is_nuclear":false}},{"type":"Feature","geometry":{"type":"Point","coordinates":[-91.579,30.549]},"properties":{"key":"68263-9835e779","layer":"power","name":"Mondu Solar LLC","state":"LA","detail_file":"data/details/power-plants-14.json","plant_id":"68263","capacity_mw":150.0,"status_group":"Under construction","energy_sources":"SUN","type":"Power plant","is_nuclear":false}},{"type":"Feature","geometry":{"type":"Point","coordinates":[-90.828,30.039]},"properties":{"key":"10198-68b7b556","layer":"power","name":"Mosaic Phosphates Uncle Sam","state":"LA","detail_file":"data/details/power-plants-36.json","plant_id":"10198","capacity_mw":26.0,"status_group":"Operating","energy_sources":"WH","type":"Power plant","is_nuclear":false}},{"type":"Feature","geometry":{"type":"Point","coordinates":[-91.443,29.734]},"properties":{"key":"56139-fe7d0258","layer":"power","name":"Neptune Gas Processing Plant","state":"LA","detail_file":"data/details/power-plants-24.json","plant_id":"56139","capacity_mw":4.5,"status_group":"Operating","energy_sources":"OTH","type":"Power plant","is_nuclear":false}},{"type":"Feature","geometry":{"type":"Point","coordinates":[-89.937,30.008]},"properties":{"key":"60928-a8a5c165","layer":"power","name":"New Orleans Power","state":"LA","detail_file":"data/details/power-plants-62.json","plant_id":"60928","capacity_mw":131.6,"status_group":"Operating","energy_sources":"NG","type":"Power plant","is_nuclear":false}},{"type":"Feature","geometry":{"type":"Point","coordinates":[-89.92,30.015]},"properties":{"key":"64307-1503b40a","layer":"power","name":"New Orleans Solar Station","state":"LA","detail_file":"data/details/power-plants-00.json","plant_id":"64307","capacity_mw":20.0,"status_group":"Operating","energy_sources":"SUN","type":"Power plant","is_nuclear":false}},{"type":"Feature","geometry":{"type":"Point","coordinates":[-91.368,30.726]},"properties":{"key":"1453-4889b4b1","layer":"power","name":"New Roads","state":"LA","detail_file":"data/details/power-plants-07.json","plant_id":"1453","capacity_mw":9.4,"status_group":"Operating","energy_sources":"DFO","type":"Power plant","is_nuclear":false}},{"type":"Feature","geometry":{"type":"Point","coordinates":[-90.146,29.947]},"properties":{"key":"1403-1e36edd3","layer":"power","name":"Nine Mile Point","state":"LA","detail_file":"data/details/power-plants-28.json","plant_id":"1403","capacity_mw":2439.7,"status_group":"Operating","energy_sources":"NG","type":"Power plant","is_nuclear":false}},{"type":"Feature","geometry":{"type":"Point","coordinates":[-90.008,29.812]},"properties":{"key":"55857-91f20136","layer":"power","name":"Oak Point Cogen","state":"LA","detail_file":"data/details/power-plants-60.json","plant_id":"55857","capacity_mw":23.5,"status_group":"Operating","energy_sources":"NG","type":"Power plant","is_nuclear":false}},{"type":"Feature","geometry":{"type":"Point","coordinates":[-91.392,30.668]},"properties":{"key":"65030-47b0c223","layer":"power","name":"Oxbow Solar 1","state":"LA","detail_file":"data/details/power-plants-00.json","plant_id":"65030","capacity_mw":300.0,"status_group":"Operating","energy_sources":"SUN","type":"Power plant","is_nuclear":false}},{"type":"Feature","geometry":{"type":"Point","coordinates":[-91.055,30.227]},"properties":{"key":"50341-28e40ec4","layer":"power","name":"PCS Nitrogen Fertilizer LP","state":"LA","detail_file":"data/details/power-plants-52.json","plant_id":"50341","capacity_mw":14.0,"status_group":"Operating","energy_sources":"DFO; WH","type":"Power plant","is_nuclear":false}},{"type":"Feature","geometry":{"type":"Point","coordinates":[-91.235,30.322]},"properties":{"key":"55419-de4c55ef","layer":"power","name":"Plaquemine Cogeneration Plant","state":"LA","detail_file":"data/details/power-plants-51.json","plant_id":"55419","capacity_mw":1084.8,"status_group":"Operating","energy_sources":"NG","type":"Power plant","is_nuclear":false}},{"type":"Feature","geometry":{"type":"Point","coordinates":[-91.377,30.739]},"properties":{"key":"69944-f23739d2","layer":"power","name":"Pointe Coupee Power Station","state":"LA","detail_file":"data/details/power-plants-47.json","plant_id":"69944","capacity_mw":2340.9,"status_group":"Planned","energy_sources":"NG","type":"Power plant","is_nuclear":false}},{"type":"Feature","geometry":{"type":"Point","coordinates":[-91.211,30.477]},"properties":{"key":"50389-c9b8cbd6","layer":"power","name":"Port Allen (LA)","state":"LA","detail_file":"data/details/power-plants-56.json","plant_id":"50389","capacity_mw":7.6,"status_group":"Operating","energy_sources":"NG","type":"Power plant","is_nuclear":false}},{"type":"Feature","geometry":{"type":"Point","coordinates":[-91.333,30.757]},"properties":{"key":"6462-cf9c4478","layer":"power","name":"River Bend","state":"LA","detail_file":"data/details/power-plants-47.json","plant_id":"6462","capacity_mw":1035.9,"status_group":"Operating","energy_sources":"NUC","type":"Nuclear power plant","is_nuclear":true}},{"type":"Feature","geometry":{"type":"Point","coordinates":[-90.984,30.188]},"properties":{"key":"56248-5054b041","layer":"power","name":"Shell Chemical","state":"LA","detail_file":"data/details/power-plants-45.json","plant_id":"56248","capacity_mw":80.0,"status_group":"Operating","energy_sources":"NG","type":"Power plant","is_nuclear":false}},{"type":"Feature","geometry":{"type":"Point","coordinates":[-89.944,30.013]},"properties":{"key":"69992-af74486b","layer":"power","name":"Sherwood Forest BESS","state":"LA","detail_file":"data/details/power-plants-61.json","plant_id":"69992","capacity_mw":7.7,"status_group":"Planned","energy_sources":"MWH","type":"Power plant","is_nuclear":false}},{"type":"Feature","geometry":{"type":"Point","coordinates":[-91.619,31.088]},"properties":{"key":"54678-e22fdca8","layer":"power","name":"Sidney A Murray Jr Hydroelectric","state":"LA","detail_file":"data/details/power-plants-36.json","plant_id":"54678","capacity_mw":192.0,"status_group":"Operating","energy_sources":"WAT","type":"Power plant","is_nuclear":false}},{"type":"Feature","geometry":{"type":"Point","coordinates":[-91.324,30.711]},"properties":{"key":"10697-641ff04a","layer":"power","name":"St Francisville Mill","state":"LA","detail_file":"data/details/power-plants-28.json","plant_id":"10697","capacity_mw":12.5,"status_group":"Operating","energy_sources":"BLQ","type":"Power plant","is_nuclear":false}},{"type":"Feature","geometry":{"type":"Point","coordinates":[-90.461,30.01]},"properties":{"key":"60926-c0c54d18","layer":"power","name":"St. Charles Power Station (LA)","state":"LA","detail_file":"data/details/power-plants-34.json","plant_id":"60926","capacity_mw":1000.0,"status_group":"Operating","energy_sources":"NG","type":"Power plant","is_nuclear":false}},{"type":"Feature","geometry":{"type":"Point","coordinates":[-90.734,29.973]},"properties":{"key":"62854-39b96b50","layer":"power","name":"St. James Solar (LA)","state":"LA","detail_file":"data/details/power-plants-33.json","plant_id":"62854","capacity_mw":20.0,"status_group":"Operating","energy_sources":"SUN","type":"Power plant","is_nuclear":false}},{"type":"Feature","geometry":{"type":"Point","coordinates":[-91.471,29.685]},"properties":{"key":"60610-0037899c","layer":"power","name":"St. Mary Clean Energy Center","state":"LA","detail_file":"data/details/power-plants-19.json","plant_id":"60610","capacity_mw":50.9,"status_group":"Operating","energy_sources":"WH","type":"Power plant","is_nuclear":false}},{"type":"Feature","geometry":{"type":"Point","coordinates":[-90.217,30.782]},"properties":{"key":"67071-b8204d9e","layer":"power","name":"Sunlight Road Solar","state":"LA","detail_file":"data/details/power-plants-28.json","plant_id":"67071","capacity_mw":50.0,"status_group":"Operating","energy_sources":"SUN","type":"Power plant","is_nuclear":false}},{"type":"Feature","geometry":{"type":"Point","coordinates":[-90.029,29.992]},"properties":{"key":"64306-a79ab10a","layer":"power","name":"TCI Alvar","state":"LA","detail_file":"data/details/power-plants-08.json","plant_id":"64306","capacity_mw":1.9,"status_group":"Operating","energy_sources":"SUN","type":"Power plant","is_nuclear":false}},{"type":"Feature","geometry":{"type":"Point","coordinates":[-90.029,29.984]},"properties":{"key":"64305-dbafcfd5","layer":"power","name":"TCI France","state":"LA","detail_file":"data/details/power-plants-43.json","plant_id":"64305","capacity_mw":1.5,"status_group":"Operating","energy_sources":"SUN","type":"Power plant","is_nuclear":false}},{"type":"Feature","geometry":{"type":"Point","coordinates":[-90.46,29.989]},"properties":{"key":"55089-5e1ad267","layer":"power","name":"Taft Cogeneration Facility","state":"LA","detail_file":"data/details/power-plants-57.json","plant_id":"55089","capacity_mw":894.2,"status_group":"Operating","energy_sources":"NG","type":"Power plant","is_nuclear":false}},{"type":"Feature","geometry":{"type":"Point","coordinates":[-91.543,29.822]},"properties":{"key":"1400-3cf1cd0f","layer":"power","name":"Teche","state":"LA","detail_file":"data/details/power-plants-33.json","plant_id":"1400","capacity_mw":42.2,"status_group":"Operating","energy_sources":"NG","type":"Power plant","is_nuclear":false}},{"type":"Feature","geometry":{"type":"Point","coordinates":[-90.728,29.978]},"properties":{"key":"65345-5e44854a","layer":"power","name":"Vacherie Solar Energy Center, LLC","state":"LA","detail_file":"data/details/power-plants-15.json","plant_id":"65345","capacity_mw":150.0,"status_group":"Under construction","energy_sources":"SUN","type":"Power plant","is_nuclear":false}},{"type":"Feature","geometry":{"type":"Point","coordinates":[-89.909,30.791]},"properties":{"key":"55486-1b357456","layer":"power","name":"Washington Parish Energy Center","state":"LA","detail_file":"data/details/power-plants-29.json","plant_id":"55486","capacity_mw":399.6,"status_group":"Operating","energy_sources":"NG","type":"Power plant","is_nuclear":false}},{"type":"Feature","geometry":{"type":"Point","coordinates":[-90.477,29.999]},"properties":{"key":"8056-b04f2c2f","layer":"power","name":"Waterford 1 & 2","state":"LA","detail_file":"data/details/power-plants-06.json","plant_id":"8056","capacity_mw":486.5,"status_group":"Operating","energy_sources":"DFO; NG","type":"Power plant","is_nuclear":false}},{"type":"Feature","geometry":{"type":"Point","coordinates":[-90.472,29.995]},"properties":{"key":"4270-6f7ddaae","layer":"power","name":"Waterford 3","state":"LA","detail_file":"data/details/power-plants-15.json","plant_id":"4270","capacity_mw":1199.8,"status_group":"Operating","energy_sources":"NUC","type":"Nuclear power plant","is_nuclear":true}},{"type":"Feature","geometry":{"type":"Point","coordinates":[-90.486,29.989]},"properties":{"key":"69184-f65b9338","layer":"power","name":"Waterford 5","state":"LA","detail_file":"data/details/power-plants-62.json","plant_id":"69184","capacity_mw":820.0,"status_group":"Under construction","energy_sources":"NG","type":"Power plant","is_nuclear":false}},{"type":"Feature","geometry":{"type":"Point","coordinates":[-90.486,29.989]},"properties":{"key":"69445-116404fc","layer":"power","name":"Waterford 6","state":"LA","detail_file":"data/details/power-plants-11.json","plant_id":"69445","capacity_mw":820.0,"status_group":"Planned","energy_sources":"NG","type":"Power plant","is_nuclear":false}},{"type":"Feature","geometry":{"type":"Point","coordinates":[-91.185,30.259]},"properties":{"key":"55051-72a3cf8c","layer":"power","name":"Westlake Plaquemine","state":"LA","detail_file":"data/details/power-plants-20.json","plant_id":"55051","capacity_mw":306.0,"status_group":"Operating","energy_sources":"NG","type":"Power plant","is_nuclear":false}},{"type":"Feature","geometry":{"type":"Point","coordinates":[-88.805,30.889]},"properties":{"key":"2068-6f26211a","layer":"power","name":"Benndale","state":"MS","detail_file":"data/details/power-plants-14.json","plant_id":"2068","capacity_mw":28.4,"status_group":"Operating","energy_sources":"NG","type":"Power plant","is_nuclear":false}},{"type":"Feature","geometry":{"type":"Point","coordinates":[-88.888,31.977]},"properties":{"key":"66543-60af6bde","layer":"power","name":"Cane Creek","state":"MS","detail_file":"data/details/power-plants-59.json","plant_id":"66543","capacity_mw":78.5,"status_group":"Operating","energy_sources":"SUN","type":"Power plant","is_nuclear":false}},{"type":"Feature","geometry":{"type":"Point","coordinates":[-88.492,30.34]},"properties":{"key":"2047-eadce6a1","layer":"power","name":"Chevron Oil","state":"MS","detail_file":"data/details/power-plants-55.json","plant_id":"2047","capacity_mw":170.5,"status_group":"Operating","energy_sources":"NG","type":"Power plant","is_nuclear":false}},{"type":"Feature","geometry":{"type":"Point","coordinates":[-89.485,31.439]},"properties":{"key":"65293-7fa5f1ec","layer":"power","name":"Covington (MS)","state":"MS","detail_file":"data/details/power-plants-21.json","plant_id":"65293","capacity_mw":96.0,"status_group":"Under construction","energy_sources":"SUN","type":"Power plant","is_nuclear":false}},{"type":"Feature","geometry":{"type":"Point","coordinates":[-90.199,31.248]},"properties":{"key":"54744-9d64a39b","layer":"power","name":"District 70 Transco Gas Pipe Line","state":"MS","detail_file":"data/details/power-plants-31.json","plant_id":"54744","capacity_mw":1.6,"status_group":"Operating","energy_sources":"WH","type":"Power plant","is_nuclear":false}},{"type":"Feature","geometry":{"type":"Point","coordinates":[-90.081,31.628]},"properties":{"key":"10610-1a31d5b5","layer":"power","name":"Georgia-Pacific Monticello Paper","state":"MS","detail_file":"data/details/power-plants-17.json","plant_id":"10610","capacity_mw":81.5,"status_group":"Operating","energy_sources":"BLQ","type":"Power plant","is_nuclear":false}},{"type":"Feature","geometry":{"type":"Point","coordinates":[-89.463,31.837]},"properties":{"key":"61927-c71829e7","layer":"power","name":"Georgia-Pacific Taylorsville Plywood","state":"MS","detail_file":"data/details/power-plants-39.json","plant_id":"61927","capacity_mw":7.2,"status_group":"Operating","energy_sources":"NG","type":"Power plant","is_nuclear":false}},{"type":"Feature","geometry":{"type":"Point","coordinates":[-89.119,30.38]},"properties":{"key":"61208-88bfa63f","layer":"power","name":"Gulfport Naval Base CSG PV System","state":"MS","detail_file":"data/details/power-plants-53.json","plant_id":"61208","capacity_mw":3.5,"status_group":"Operating","energy_sources":"SUN","type":"Power plant","is_nuclear":false}},{"type":"Feature","geometry":{"type":"Point","coordinates":[-89.301,31.276]},"properties":{"key":"60552-d8379566","layer":"power","name":"Hattiesburg Solar Farm","state":"MS","detail_file":"data/details/power-plants-44.json","plant_id":"60552","capacity_mw":50.0,"status_group":"Operating","energy_sources":"SUN","type":"Power plant","is_nuclear":false}},{"type":"Feature","geometry":{"type":"Point","coordinates":[-89.029,30.439]},"properties":{"key":"2049-905ee89e","layer":"power","name":"Jack Watson","state":"MS","detail_file":"data/details/power-plants-39.json","plant_id":"2049","capacity_mw":919.1,"status_group":"Operating","energy_sources":"NG","type":"Power plant","is_nuclear":false}},{"type":"Feature","geometry":{"type":"Point","coordinates":[-89.046,31.243]},"properties":{"key":"10233-07373a80","layer":"power","name":"Leaf River Cellulose LLC","state":"MS","detail_file":"data/details/power-plants-01.json","plant_id":"10233","capacity_mw":50.4,"status_group":"Operating","energy_sources":"BLQ","type":"Power plant","is_nuclear":false}},{"type":"Feature","geometry":{"type":"Point","coordinates":[-89.503,30.437]},"properties":{"key":"66544-ceda78d1","layer":"power","name":"Moonshot","state":"MS","detail_file":"data/details/power-plants-55.json","plant_id":"66544","capacity_mw":78.5,"status_group":"Operating","energy_sources":"SUN","type":"Power plant","is_nuclear":false}},{"type":"Feature","geometry":{"type":"Point","coordinates":[-89.3,31.528]},"properties":{"key":"2070-456215c6","layer":"power","name":"Moselle","state":"MS","detail_file":"data/details/power-plants-08.json","plant_id":"2070","capacity_mw":510.5,"status_group":"Operating","energy_sources":"NG","type":"Power plant","is_nuclear":false}},{"type":"Feature","geometry":{"type":"Point","coordinates":[-89.394,31.219]},"properties":{"key":"6061-50092aee","layer":"power","name":"R D Morrow","state":"MS","detail_file":"data/details/power-plants-33.json","plant_id":"6061","capacity_mw":558.0,"status_group":"Operating","energy_sources":"NG","type":"Power plant","is_nuclear":false}},{"type":"Feature","geometry":{"type":"Point","coordinates":[-89.947,31.6]},"properties":{"key":"7988-b663c5ee","layer":"power","name":"Silver Creek","state":"MS","detail_file":"data/details/power-plants-50.json","plant_id":"7988","capacity_mw":250.5,"status_group":"Operating","energy_sources":"NG","type":"Power plant","is_nuclear":false}},{"type":"Feature","geometry":{"type":"Point","coordinates":[-89.498,31.404]},"properties":{"key":"60306-07ebaf2a","layer":"power","name":"Sumrall I Solar Farm","state":"MS","detail_file":"data/details/power-plants-63.json","plant_id":"60306","capacity_mw":52.0,"status_group":"Operating","energy_sources":"SUN","type":"Power plant","is_nuclear":false}},{"type":"Feature","geometry":{"type":"Point","coordinates":[-89.486,31.397]},"properties":{"key":"60303-411d65fa","layer":"power","name":"Sumrall II Solar Farm","state":"MS","detail_file":"data/details/power-plants-48.json","plant_id":"60303","capacity_mw":52.0,"status_group":"Operating","energy_sources":"SUN","type":"Power plant","is_nuclear":false}},{"type":"Feature","geometry":{"type":"Point","coordinates":[-89.413,31.982]},"properties":{"key":"7989-dc3cc6c4","layer":"power","name":"Sylvarena","state":"MS","detail_file":"data/details/power-plants-25.json","plant_id":"7989","capacity_mw":141.0,"status_group":"Operating","energy_sources":"NG","type":"Power plant","is_nuclear":false}},{"type":"Feature","geometry":{"type":"Point","coordinates":[-88.555,30.532]},"properties":{"key":"6073-2da94e7d","layer":"power","name":"Victor J Daniel Jr","state":"MS","detail_file":"data/details/power-plants-39.json","plant_id":"6073","capacity_mw":2229.0,"status_group":"Operating","energy_sources":"NG; SUB","type":"Power plant","is_nuclear":false}}]}