{"type":"FeatureCollection","features":[{"type":"Feature","geometry":{"type":"Point","coordinates":[-88.614,46.793]},"properties":{"key":"61391-baf332b7","layer":"power","name":"A.J. Mihm Generating Station","state":"MI","detail_file":"data/details/power-plants-21.json","plant_id":"61391","capacity_mw":56.4,"status_group":"Operating","energy_sources":"NG","type":"Power plant","is_nuclear":false}},{"type":"Feature","geometry":{"type":"Point","coordinates":[-88.041,45.788]},"properties":{"key":"7821-9a2a8a82","layer":"power","name":"Big Quinnesec 61","state":"MI","detail_file":"data/details/power-plants-42.json","plant_id":"7821","capacity_mw":4.4,"status_group":"Operating","energy_sources":"WAT","type":"Power plant","is_nuclear":false}},{"type":"Feature","geometry":{"type":"Point","coordinates":[-88.041,45.788]},"properties":{"key":"7820-b2da553e","layer":"power","name":"Big Quinnesec 92","state":"MI","detail_file":"data/details/power-plants-56.json","plant_id":"7820","capacity_mw":16.0,"status_group":"Operating","energy_sources":"WAT","type":"Power plant","is_nuclear":false}},{"type":"Feature","geometry":{"type":"Point","coordinates":[-88.335,46.106]},"properties":{"key":"1821-fd68ee3a","layer":"power","name":"Crystal Falls","state":"MI","detail_file":"data/details/power-plants-62.json","plant_id":"1821","capacity_mw":1.0,"status_group":"Operating","energy_sources":"WAT","type":"Power plant","is_nuclear":false}},{"type":"Feature","geometry":{"type":"Point","coordinates":[-88.225,46.131]},"properties":{"key":"1777-44a1f22e","layer":"power","name":"Hemlock Falls","state":"MI","detail_file":"data/details/power-plants-03.json","plant_id":"1777","capacity_mw":2.8,"status_group":"Operating","energy_sources":"WAT","type":"Power plant","is_nuclear":false}},{"type":"Feature","geometry":{"type":"Point","coordinates":[-88.456,46.755]},"properties":{"key":"1772-f734f57b","layer":"power","name":"John H Warden","state":"MI","detail_file":"data/details/power-plants-05.json","plant_id":"1772","capacity_mw":22.0,"status_group":"Operating","energy_sources":"WDS","type":"Power plant","is_nuclear":false}},{"type":"Feature","geometry":{"type":"Point","coordinates":[-88.125,45.808]},"properties":{"key":"1778-14628355","layer":"power","name":"Kingsford","state":"MI","detail_file":"data/details/power-plants-33.json","plant_id":"1778","capacity_mw":7.2,"status_group":"Operating","energy_sources":"WAT","type":"Power plant","is_nuclear":false}},{"type":"Feature","geometry":{"type":"Point","coordinates":[-88.196,45.955]},"properties":{"key":"1780-cd0ff0a0","layer":"power","name":"Michigamme Falls","state":"MI","detail_file":"data/details/power-plants-62.json","plant_id":"1780","capacity_mw":9.6,"status_group":"Operating","energy_sources":"WAT","type":"Power plant","is_nuclear":false}},{"type":"Feature","geometry":{"type":"Point","coordinates":[-88.211,45.991]},"properties":{"key":"1781-022a8c7f","layer":"power","name":"Peavy Falls","state":"MI","detail_file":"data/details/power-plants-31.json","plant_id":"1781","capacity_mw":12.0,"status_group":"Operating","energy_sources":"WAT","type":"Power plant","is_nuclear":false}},{"type":"Feature","geometry":{"type":"Point","coordinates":[-88.662,46.726]},"properties":{"key":"1773-38176719","layer":"power","name":"Prickett","state":"MI","detail_file":"data/details/power-plants-07.json","plant_id":"1773","capacity_mw":2.2,"status_group":"Operating","energy_sources":"WAT","type":"Power plant","is_nuclear":false}},{"type":"Feature","geometry":{"type":"Point","coordinates":[-90.416,46.565]},"properties":{"key":"1757-66b38de9","layer":"power","name":"Superior Falls","state":"MI","detail_file":"data/details/power-plants-56.json","plant_id":"1757","capacity_mw":1.4,"status_group":"Operating","energy_sources":"WAT","type":"Power plant","is_nuclear":false}},{"type":"Feature","geometry":{"type":"Point","coordinates":[-89.209,46.696]},"properties":{"key":"1774-da421f9f","layer":"power","name":"Victoria Dam","state":"MI","detail_file":"data/details/power-plants-02.json","plant_id":"1774","capacity_mw":12.0,"status_group":"Operating","energy_sources":"WAT","type":"Power plant","is_nuclear":false}},{"type":"Feature","geometry":{"type":"Point","coordinates":[-88.235,46.159]},"properties":{"key":"1785-8a1f1e1c","layer":"power","name":"Way Dam","state":"MI","detail_file":"data/details/power-plants-53.json","plant_id":"1785","capacity_mw":1.8,"status_group":"Operating","energy_sources":"WAT","type":"Power plant","is_nuclear":false}},{"type":"Feature","geometry":{"type":"Point","coordinates":[-90.104,47.809]},"properties":{"key":"70013-fb3c9dbf","layer":"power","name":"Arrowhead Emergency Generating Station","state":"MN","detail_file":"data/details/power-plants-60.json","plant_id":"70013","capacity_mw":18.0,"status_group":"Operating","energy_sources":"DFO","type":"Power plant","is_nuclear":false}},{"type":"Feature","geometry":{"type":"Point","coordinates":[-91.997,44.34]},"properties":{"key":"68457-fd33d9ff","layer":"power","name":"DIVOCSG 14 LLC","state":"MN","detail_file":"data/details/power-plants-42.json","plant_id":"68457","capacity_mw":1.0,"status_group":"Operating","energy_sources":"SUN","type":"Power plant","is_nuclear":false}},{"type":"Feature","geometry":{"type":"Point","coordinates":[-90.357,47.75]},"properties":{"key":"1976-11f5bda4","layer":"power","name":"Grand Marais","state":"MN","detail_file":"data/details/power-plants-06.json","plant_id":"1976","capacity_mw":6.7,"status_group":"Operating","energy_sources":"DFO","type":"Power plant","is_nuclear":false}},{"type":"Feature","geometry":{"type":"Point","coordinates":[-91.763,44.101]},"properties":{"key":"64488-c1f3a88c","layer":"power","name":"Novel Denzer Solar LLC CSG","state":"MN","detail_file":"data/details/power-plants-07.json","plant_id":"64488","capacity_mw":1.0,"status_group":"Operating","energy_sources":"SUN","type":"Power plant","is_nuclear":false}},{"type":"Feature","geometry":{"type":"Point","coordinates":[-91.887,44.107]},"properties":{"key":"62966-f9d5ddff","layer":"power","name":"Novel Herber Solar CSG","state":"MN","detail_file":"data/details/power-plants-18.json","plant_id":"62966","capacity_mw":1.0,"status_group":"Operating","energy_sources":"SUN","type":"Power plant","is_nuclear":false}},{"type":"Feature","geometry":{"type":"Point","coordinates":[-91.995,44.316]},"properties":{"key":"66577-b28fc7a3","layer":"power","name":"Pepin Garden","state":"MN","detail_file":"data/details/power-plants-51.json","plant_id":"66577","capacity_mw":0.9,"status_group":"Operating","energy_sources":"SUN","type":"Power plant","is_nuclear":false}},{"type":"Feature","geometry":{"type":"Point","coordinates":[-91.791,44.114]},"properties":{"key":"62037-63c20047","layer":"power","name":"Rollingstone Holdco CSG","state":"MN","detail_file":"data/details/power-plants-02.json","plant_id":"62037","capacity_mw":4.8,"status_group":"Operating","energy_sources":"SUN","type":"Power plant","is_nuclear":false}},{"type":"Feature","geometry":{"type":"Point","coordinates":[-91.261,47.287]},"properties":{"key":"10849-0017b38f","layer":"power","name":"Silver Bay Power","state":"MN","detail_file":"data/details/power-plants-13.json","plant_id":"10849","capacity_mw":131.6,"status_group":"Operating","energy_sources":"SUB","type":"Power plant","is_nuclear":false}},{"type":"Feature","geometry":{"type":"Point","coordinates":[-91.767,44.041]},"properties":{"key":"64930-2ab9e7ba","layer":"power","name":"Stockton (MN)","state":"MN","detail_file":"data/details/power-plants-41.json","plant_id":"64930","capacity_mw":2.0,"status_group":"Operating","energy_sources":"SUN","type":"Power plant","is_nuclear":false}},{"type":"Feature","geometry":{"type":"Point","coordinates":[-91.844,44.112]},"properties":{"key":"63741-e19bfc2e","layer":"power","name":"USS Bluff Country Solar CSG","state":"MN","detail_file":"data/details/power-plants-44.json","plant_id":"63741","capacity_mw":1.0,"status_group":"Operating","energy_sources":"SUN","type":"Power plant","is_nuclear":false}},{"type":"Feature","geometry":{"type":"Point","coordinates":[-91.925,44.112]},"properties":{"key":"57547-855c1168","layer":"power","name":"Winona County Wind LLC","state":"MN","detail_file":"data/details/power-plants-21.json","plant_id":"57547","capacity_mw":1.5,"status_group":"Operating","energy_sources":"WND","type":"Power plant","is_nuclear":false}},{"type":"Feature","geometry":{"type":"Point","coordinates":[-91.929,44.106]},"properties":{"key":"66580-4a71f6e6","layer":"power","name":"Winona Garden","state":"MN","detail_file":"data/details/power-plants-04.json","plant_id":"66580","capacity_mw":0.9,"status_group":"Operating","energy_sources":"SUN","type":"Power plant","is_nuclear":false}},{"type":"Feature","geometry":{"type":"Point","coordinates":[-91.901,44.124]},"properties":{"key":"62799-551a2fa6","layer":"power","name":"Winona Solar","state":"MN","detail_file":"data/details/power-plants-07.json","plant_id":"62799","capacity_mw":1.0,"status_group":"Operating","energy_sources":"SUN","type":"Power plant","is_nuclear":false}},{"type":"Feature","geometry":{"type":"Point","coordinates":[-91.764,47.934]},"properties":{"key":"1902-1626fcaf","layer":"power","name":"Winton","state":"MN","detail_file":"data/details/power-plants-60.json","plant_id":"1902","capacity_mw":4.0,"status_group":"Operating","energy_sources":"WAT","type":"Power plant","is_nuclear":false}},{"type":"Feature","geometry":{"type":"Point","coordinates":[-89.755,45.188]},"properties":{"key":"4060-e6ebcd44","layer":"power","name":"Alexander","state":"WI","detail_file":"data/details/power-plants-39.json","plant_id":"4060","capacity_mw":4.2,"status_group":"Operating","energy_sources":"WAT","type":"Power plant","is_nuclear":false}},{"type":"Feature","geometry":{"type":"Point","coordinates":[-88.506,44.194]},"properties":{"key":"55135-699e6823","layer":"power","name":"Alliant Energy Neenah","state":"WI","detail_file":"data/details/power-plants-29.json","plant_id":"55135","capacity_mw":371.0,"status_group":"Operating","energy_sources":"NG","type":"Power plant","is_nuclear":false}},{"type":"Feature","geometry":{"type":"Point","coordinates":[-89.17,45.152]},"properties":{"key":"69432-7619fe7b","layer":"power","name":"Antigo Solar Partners, LLC","state":"WI","detail_file":"data/details/power-plants-53.json","plant_id":"69432","capacity_mw":6.0,"status_group":"Operating","energy_sources":"SUN","type":"Power plant","is_nuclear":false}},{"type":"Feature","geometry":{"type":"Point","coordinates":[-89.175,45.124]},"properties":{"key":"67724-b3f64afa","layer":"power","name":"Antigo-Forrest Street Solar Project","state":"WI","detail_file":"data/details/power-plants-26.json","plant_id":"67724","capacity_mw":6.0,"status_group":"Operating","energy_sources":"SUN","type":"Power plant","is_nuclear":false}},{"type":"Feature","geometry":{"type":"Point","coordinates":[-88.41,44.254]},"properties":{"key":"4043-0cc7c90f","layer":"power","name":"Appleton","state":"WI","detail_file":"data/details/power-plants-63.json","plant_id":"4043","capacity_mw":2.2,"status_group":"Operating","energy_sources":"WAT","type":"Power plant","is_nuclear":false}},{"type":"Feature","geometry":{"type":"Point","coordinates":[-91.503,44.252]},"properties":{"key":"4100-b00ec942","layer":"power","name":"Arcadia Electric","state":"WI","detail_file":"data/details/power-plants-17.json","plant_id":"4100","capacity_mw":16.9,"status_group":"Operating","energy_sources":"DFO; NG","type":"Power plant","is_nuclear":false}},{"type":"Feature","geometry":{"type":"Point","coordinates":[-91.458,44.243]},"properties":{"key":"62744-da145e74","layer":"power","name":"Arcadia Solar","state":"WI","detail_file":"data/details/power-plants-48.json","plant_id":"62744","capacity_mw":5.0,"status_group":"Operating","energy_sources":"SUN","type":"Power plant","is_nuclear":false}},{"type":"Feature","geometry":{"type":"Point","coordinates":[-91.203,45.752]},"properties":{"key":"3995-af04963d","layer":"power","name":"Arpin Dam","state":"WI","detail_file":"data/details/power-plants-53.json","plant_id":"3995","capacity_mw":1.4,"status_group":"Operating","energy_sources":"WAT","type":"Power plant","is_nuclear":false}},{"type":"Feature","geometry":{"type":"Point","coordinates":[-91.84,45.402]},"properties":{"key":"4102-63f4b316","layer":"power","name":"Barron","state":"WI","detail_file":"data/details/power-plants-33.json","plant_id":"4102","capacity_mw":0.1,"status_group":"Operating","energy_sources":"WAT","type":"Power plant","is_nuclear":false}},{"type":"Feature","geometry":{"type":"Point","coordinates":[-91.828,45.396]},"properties":{"key":"64969-519f4e2f","layer":"power","name":"Barron Solar Array","state":"WI","detail_file":"data/details/power-plants-24.json","plant_id":"64969","capacity_mw":3.0,"status_group":"Operating","energy_sources":"SUN","type":"Power plant","is_nuclear":false}},{"type":"Feature","geometry":{"type":"Point","coordinates":[-90.902,46.587]},"properties":{"key":"3982-c5cf50a1","layer":"power","name":"Bay Front","state":"WI","detail_file":"data/details/power-plants-15.json","plant_id":"3982","capacity_mw":47.2,"status_group":"Operating","energy_sources":"NG; WDS","type":"Power plant","is_nuclear":false}},{"type":"Feature","geometry":{"type":"Point","coordinates":[-91.047,45.492]},"properties":{"key":"3983-b635ecb9","layer":"power","name":"Big Falls","state":"WI","detail_file":"data/details/power-plants-21.json","plant_id":"3983","capacity_mw":7.7,"status_group":"Operating","energy_sources":"WAT","type":"Power plant","is_nuclear":false}},{"type":"Feature","geometry":{"type":"Point","coordinates":[-89.781,44.431]},"properties":{"key":"3971-dc9f8c64","layer":"power","name":"Biron","state":"WI","detail_file":"data/details/power-plants-24.json","plant_id":"3971","capacity_mw":5.8,"status_group":"Operating","energy_sources":"WAT","type":"Power plant","is_nuclear":false}},{"type":"Feature","geometry":{"type":"Point","coordinates":[-89.78,44.43]},"properties":{"key":"10234-080016a9","layer":"power","name":"Biron Mill","state":"WI","detail_file":"data/details/power-plants-62.json","plant_id":"10234","capacity_mw":61.6,"status_group":"Operating","energy_sources":"BIT; NG; SUB","type":"Power plant","is_nuclear":false}},{"type":"Feature","geometry":{"type":"Point","coordinates":[-91.881,45.396]},"properties":{"key":"69931-7f8249ca","layer":"power","name":"Bjorn","state":"WI","detail_file":"data/details/power-plants-09.json","plant_id":"69931","capacity_mw":5.0,"status_group":"Under construction","energy_sources":"SUN","type":"Power plant","is_nuclear":false}},{"type":"Feature","geometry":{"type":"Point","coordinates":[-90.916,44.285]},"properties":{"key":"64698-1f3032a8","layer":"power","name":"Blue Prairie Solar, LLC","state":"WI","detail_file":"data/details/power-plants-46.json","plant_id":"64698","capacity_mw":2.5,"status_group":"Operating","energy_sources":"SUN","type":"Power plant","is_nuclear":false}},{"type":"Feature","geometry":{"type":"Point","coordinates":[-88.374,44.731]},"properties":{"key":"67726-1a81eb08","layer":"power","name":"Bonduel Solar WI, LLC","state":"WI","detail_file":"data/details/power-plants-23.json","plant_id":"67726","capacity_mw":7.5,"status_group":"Operating","energy_sources":"SUN","type":"Power plant","is_nuclear":false}},{"type":"Feature","geometry":{"type":"Point","coordinates":[-91.158,44.724]},"properties":{"key":"69485-81066c7b","layer":"power","name":"Bridge Creek","state":"WI","detail_file":"data/details/power-plants-50.json","plant_id":"69485","capacity_mw":2.5,"status_group":"Operating","energy_sources":"SUN","type":"Power plant","is_nuclear":false}},{"type":"Feature","geometry":{"type":"Point","coordinates":[-88.219,45.947]},"properties":{"key":"1775-8753f25d","layer":"power","name":"Brule","state":"WI","detail_file":"data/details/power-plants-50.json","plant_id":"1775","capacity_mw":5.3,"status_group":"Operating","energy_sources":"WAT","type":"Power plant","is_nuclear":false}},{"type":"Feature","geometry":{"type":"Point","coordinates":[-88.231,45.357]},"properties":{"key":"4061-13cda89e","layer":"power","name":"Caldron Falls","state":"WI","detail_file":"data/details/power-plants-11.json","plant_id":"4061","capacity_mw":6.4,"status_group":"Operating","energy_sources":"WAT","type":"Power plant","is_nuclear":false}},{"type":"Feature","geometry":{"type":"Point","coordinates":[-91.888,44.937]},"properties":{"key":"3998-4cbdcc7b","layer":"power","name":"Cedar Falls (WI)","state":"WI","detail_file":"data/details/power-plants-56.json","plant_id":"3998","capacity_mw":6.0,"status_group":"Operating","energy_sources":"WAT","type":"Power plant","is_nuclear":false}},{"type":"Feature","geometry":{"type":"Point","coordinates":[-91.389,44.931]},"properties":{"key":"4000-25883934","layer":"power","name":"Chippewa Falls","state":"WI","detail_file":"data/details/power-plants-56.json","plant_id":"4000","capacity_mw":21.6,"status_group":"Operating","energy_sources":"WAT","type":"Power plant","is_nuclear":false}},{"type":"Feature","geometry":{"type":"Point","coordinates":[-90.659,44.929]},"properties":{"key":"69933-18ed10e6","layer":"power","name":"Clark Solar-Longwood","state":"WI","detail_file":"data/details/power-plants-02.json","plant_id":"69933","capacity_mw":2.5,"status_group":"Under construction","energy_sources":"SUN","type":"Power plant","is_nuclear":false}},{"type":"Feature","geometry":{"type":"Point","coordinates":[-88.301,44.274]},"properties":{"key":"4201-3d943468","layer":"power","name":"Combined Locks","state":"WI","detail_file":"data/details/power-plants-50.json","plant_id":"4201","capacity_mw":6.2,"status_group":"Operating","energy_sources":"WAT","type":"Power plant","is_nuclear":false}},{"type":"Feature","geometry":{"type":"Point","coordinates":[-88.301,44.272]},"properties":{"key":"55558-a3181e89","layer":"power","name":"Combined Locks Energy Center","state":"WI","detail_file":"data/details/power-plants-19.json","plant_id":"55558","capacity_mw":66.5,"status_group":"Operating","energy_sources":"NG","type":"Power plant","is_nuclear":false}},{"type":"Feature","geometry":{"type":"Point","coordinates":[-91.048,45.366]},"properties":{"key":"60889-8dfeb688","layer":"power","name":"Conrath DPC Solar","state":"WI","detail_file":"data/details/power-plants-13.json","plant_id":"60889","capacity_mw":1.0,"status_group":"Operating","energy_sources":"SUN","type":"Power plant","is_nuclear":false}},{"type":"Feature","geometry":{"type":"Point","coordinates":[-88.03,44.494]},"properties":{"key":"10360-0428d8b0","layer":"power","name":"Consumer Operations LLC","state":"WI","detail_file":"data/details/power-plants-08.json","plant_id":"10360","capacity_mw":47.6,"status_group":"Operating","energy_sources":"NG","type":"Power plant","is_nuclear":false}},{"type":"Feature","geometry":{"type":"Point","coordinates":[-91.157,45.164]},"properties":{"key":"6086-fbd84b2e","layer":"power","name":"Cornell","state":"WI","detail_file":"data/details/power-plants-10.json","plant_id":"6086","capacity_mw":35.3,"status_group":"Operating","energy_sources":"WAT","type":"Power plant","is_nuclear":false}},{"type":"Feature","geometry":{"type":"Point","coordinates":[-89.465,44.141]},"properties":{"key":"69761-bf3d4ba1","layer":"power","name":"Dawn Break Solar","state":"WI","detail_file":"data/details/power-plants-50.json","plant_id":"69761","capacity_mw":360.0,"status_group":"Under construction","energy_sources":"MWH; SUN","type":"Power plant","is_nuclear":false}},{"type":"Feature","geometry":{"type":"Point","coordinates":[-88.072,44.449]},"properties":{"key":"55029-b2c5b626","layer":"power","name":"De Pere Energy Center","state":"WI","detail_file":"data/details/power-plants-54.json","plant_id":"55029","capacity_mw":192.3,"status_group":"Operating","energy_sources":"NG","type":"Power plant","is_nuclear":false}},{"type":"Feature","geometry":{"type":"Point","coordinates":[-91.511,44.828]},"properties":{"key":"4002-03671398","layer":"power","name":"Dells","state":"WI","detail_file":"data/details/power-plants-06.json","plant_id":"4002","capacity_mw":12.3,"status_group":"Operating","energy_sources":"WAT","type":"Power plant","is_nuclear":false}},{"type":"Feature","geometry":{"type":"Point","coordinates":[-89.627,44.887]},"properties":{"key":"50190-e5d8c43e","layer":"power","name":"Domtar Paper Company Rothschild","state":"WI","detail_file":"data/details/power-plants-29.json","plant_id":"50190","capacity_mw":1.1,"status_group":"Operating","energy_sources":"WAT","type":"Power plant","is_nuclear":false}},{"type":"Feature","geometry":{"type":"Point","coordinates":[-91.884,44.814]},"properties":{"key":"60892-61dadb67","layer":"power","name":"Downsville DPC Solar","state":"WI","detail_file":"data/details/power-plants-46.json","plant_id":"60892","capacity_mw":1.0,"status_group":"Operating","energy_sources":"SUN","type":"Power plant","is_nuclear":false}},{"type":"Feature","geometry":{"type":"Point","coordinates":[-89.651,44.665]},"properties":{"key":"3972-d427f44a","layer":"power","name":"Du Bay","state":"WI","detail_file":"data/details/power-plants-02.json","plant_id":"3972","capacity_mw":7.2,"status_group":"Operating","energy_sources":"WAT","type":"Power plant","is_nuclear":false}},{"type":"Feature","geometry":{"type":"Point","coordinates":[-91.568,44.903]},"properties":{"key":"7863-b3e6cce3","layer":"power","name":"Elk Mound","state":"WI","detail_file":"data/details/power-plants-40.json","plant_id":"7863","capacity_mw":71.0,"status_group":"Operating","energy_sources":"NG","type":"Power plant","is_nuclear":false}},{"type":"Feature","geometry":{"type":"Point","coordinates":[-91.614,44.902]},"properties":{"key":"69488-c1ff5d96","layer":"power","name":"Elk Mound (PV)","state":"WI","detail_file":"data/details/power-plants-20.json","plant_id":"69488","capacity_mw":2.5,"status_group":"Operating","energy_sources":"SUN","type":"Power plant","is_nuclear":false}},{"type":"Feature","geometry":{"type":"Point","coordinates":[-90.584,45.868]},"properties":{"key":"55684-4a64574d","layer":"power","name":"Flambeau Crowley Rapids Project","state":"WI","detail_file":"data/details/power-plants-54.json","plant_id":"55684","capacity_mw":1.5,"status_group":"Operating","energy_sources":"WAT","type":"Power plant","is_nuclear":false}},{"type":"Feature","geometry":{"type":"Point","coordinates":[-91.047,45.492]},"properties":{"key":"4142-d32b21d6","layer":"power","name":"Flambeau Hydroelectric Station","state":"WI","detail_file":"data/details/power-plants-14.json","plant_id":"4142","capacity_mw":19.1,"status_group":"Operating","energy_sources":"WAT","type":"Power plant","is_nuclear":false}},{"type":"Feature","geometry":{"type":"Point","coordinates":[-90.447,45.914]},"properties":{"key":"55685-64a81c9b","layer":"power","name":"Flambeau Lower Project","state":"WI","detail_file":"data/details/power-plants-63.json","plant_id":"55685","capacity_mw":1.2,"status_group":"Operating","energy_sources":"WAT","type":"Power plant","is_nuclear":false}},{"type":"Feature","geometry":{"type":"Point","coordinates":[-90.471,45.737]},"properties":{"key":"61595-a727eb6c","layer":"power","name":"Flambeau Solar Partners","state":"WI","detail_file":"data/details/power-plants-06.json","plant_id":"61595","capacity_mw":2.5,"status_group":"Operating","energy_sources":"SUN","type":"Power plant","is_nuclear":false}},{"type":"Feature","geometry":{"type":"Point","coordinates":[-88.209,44.32]},"properties":{"key":"56031-c0efb8e1","layer":"power","name":"Fox Energy Center","state":"WI","detail_file":"data/details/power-plants-21.json","plant_id":"56031","capacity_mw":618.8,"status_group":"Operating","energy_sources":"NG","type":"Power plant","is_nuclear":false}},{"type":"Feature","geometry":{"type":"Point","coordinates":[-89.896,44.314]},"properties":{"key":"50395-08e395ba","layer":"power","name":"Georgia-Pacific Corp - Nekoosa Mill","state":"WI","detail_file":"data/details/power-plants-59.json","plant_id":"50395","capacity_mw":39.0,"status_group":"Operating","energy_sources":"BLQ; NG; WAT","type":"Power plant","is_nuclear":false}},{"type":"Feature","geometry":{"type":"Point","coordinates":[-90.874,45.119]},"properties":{"key":"69935-252dbd88","layer":"power","name":"Gilman","state":"WI","detail_file":"data/details/power-plants-20.json","plant_id":"69935","capacity_mw":3.8,"status_group":"Under construction","energy_sources":"SUN","type":"Power plant","is_nuclear":false}},{"type":"Feature","geometry":{"type":"Point","coordinates":[-91.786,46.237]},"properties":{"key":"3976-68d1e274","layer":"power","name":"Gordon","state":"WI","detail_file":"data/details/power-plants-29.json","plant_id":"3976","capacity_mw":7.0,"status_group":"Operating","energy_sources":"DFO","type":"Power plant","is_nuclear":false}},{"type":"Feature","geometry":{"type":"Point","coordinates":[-89.792,45.302]},"properties":{"key":"4063-a4d5cc3d","layer":"power","name":"Grandfather Falls","state":"WI","detail_file":"data/details/power-plants-36.json","plant_id":"4063","capacity_mw":17.2,"status_group":"Operating","energy_sources":"WAT","type":"Power plant","is_nuclear":false}},{"type":"Feature","geometry":{"type":"Point","coordinates":[-90.775,45.258]},"properties":{"key":"69491-260788b0","layer":"power","name":"Hannibal","state":"WI","detail_file":"data/details/power-plants-54.json","plant_id":"69491","capacity_mw":2.5,"status_group":"Operating","energy_sources":"SUN","type":"Power plant","is_nuclear":false}},{"type":"Feature","geometry":{"type":"Point","coordinates":[-89.481,45.571]},"properties":{"key":"4064-d7054510","layer":"power","name":"Hat Rapids","state":"WI","detail_file":"data/details/power-plants-40.json","plant_id":"4064","capacity_mw":1.7,"status_group":"Operating","energy_sources":"WAT","type":"Power plant","is_nuclear":false}},{"type":"Feature","geometry":{"type":"Point","coordinates":[-91.976,45.047]},"properties":{"key":"66993-594abc45","layer":"power","name":"Hay River (Dunn 1)","state":"WI","detail_file":"data/details/power-plants-54.json","plant_id":"66993","capacity_mw":1.5,"status_group":"Operating","energy_sources":"SUN","type":"Power plant","is_nuclear":false}},{"type":"Feature","geometry":{"type":"Point","coordinates":[-88.2,45.279]},"properties":{"key":"4065-3671990f","layer":"power","name":"High Falls (WI)","state":"WI","detail_file":"data/details/power-plants-38.json","plant_id":"4065","capacity_mw":7.0,"status_group":"Operating","energy_sources":"WAT","type":"Power plant","is_nuclear":false}},{"type":"Feature","geometry":{"type":"Point","coordinates":[-89.444,45.612]},"properties":{"key":"65968-bc78bd9d","layer":"power","name":"Hodag Solar","state":"WI","detail_file":"data/details/power-plants-51.json","plant_id":"65968","capacity_mw":7.5,"status_group":"Operating","energy_sources":"SUN","type":"Power plant","is_nuclear":false}},{"type":"Feature","geometry":{"type":"Point","coordinates":[-91.127,45.224]},"properties":{"key":"4007-bf99e177","layer":"power","name":"Holcombe","state":"WI","detail_file":"data/details/power-plants-15.json","plant_id":"4007","capacity_mw":33.9,"status_group":"Operating","energy_sources":"WAT","type":"Power plant","is_nuclear":false}},{"type":"Feature","geometry":{"type":"Point","coordinates":[-88.266,44.276]},"properties":{"key":"55836-75b6ff26","layer":"power","name":"Island Street Peaking Plant","state":"WI","detail_file":"data/details/power-plants-02.json","plant_id":"55836","capacity_mw":60.5,"status_group":"Operating","energy_sources":"NG","type":"Power plant","is_nuclear":false}},{"type":"Feature","geometry":{"type":"Point","coordinates":[-91.274,45.051]},"properties":{"key":"4008-e8b8ae43","layer":"power","name":"Jim Falls","state":"WI","detail_file":"data/details/power-plants-26.json","plant_id":"4008","capacity_mw":59.8,"status_group":"Operating","energy_sources":"WAT","type":"Power plant","is_nuclear":false}},{"type":"Feature","geometry":{"type":"Point","coordinates":[-91.913,44.304]},"properties":{"key":"4271-0adfc598","layer":"power","name":"John P Madgett","state":"WI","detail_file":"data/details/power-plants-29.json","plant_id":"4271","capacity_mw":387.0,"status_group":"Operating","energy_sources":"SUB","type":"Power plant","is_nuclear":false}},{"type":"Feature","geometry":{"type":"Point","coordinates":[-88.16,45.288]},"properties":{"key":"4067-8a943149","layer":"power","name":"Johnson Falls","state":"WI","detail_file":"data/details/power-plants-18.json","plant_id":"4067","capacity_mw":3.4,"status_group":"Operating","energy_sources":"WAT","type":"Power plant","is_nuclear":false}},{"type":"Feature","geometry":{"type":"Point","coordinates":[-88.319,44.275]},"properties":{"key":"7822-211b6e60","layer":"power","name":"Kaukauna City Hydro","state":"WI","detail_file":"data/details/power-plants-18.json","plant_id":"7822","capacity_mw":4.8,"status_group":"Operating","energy_sources":"WAT","type":"Power plant","is_nuclear":false}},{"type":"Feature","geometry":{"type":"Point","coordinates":[-88.265,44.276]},"properties":{"key":"4118-2a7718d5","layer":"power","name":"Kaukauna Gas Turbine","state":"WI","detail_file":"data/details/power-plants-33.json","plant_id":"4118","capacity_mw":18.0,"status_group":"Operating","energy_sources":"NG","type":"Power plant","is_nuclear":false}},{"type":"Feature","geometry":{"type":"Point","coordinates":[-88.253,44.283]},"properties":{"key":"54098-47465cc9","layer":"power","name":"Kaukauna Paper Mill","state":"WI","detail_file":"data/details/power-plants-62.json","plant_id":"54098","capacity_mw":44.6,"status_group":"Operating","energy_sources":"NG","type":"Power plant","is_nuclear":false}},{"type":"Feature","geometry":{"type":"Point","coordinates":[-88.334,44.277]},"properties":{"key":"54885-08ff6e5b","layer":"power","name":"Kimberly Mill","state":"WI","detail_file":"data/details/power-plants-03.json","plant_id":"54885","capacity_mw":2.1,"status_group":"Operating","energy_sources":"WAT","type":"Power plant","is_nuclear":false}},{"type":"Feature","geometry":{"type":"Point","coordinates":[-91.077,45.888]},"properties":{"key":"10453-c11518a8","layer":"power","name":"LAC Courte Oreilles Hydroelect","state":"WI","detail_file":"data/details/power-plants-12.json","plant_id":"10453","capacity_mw":3.4,"status_group":"Operating","energy_sources":"WAT","type":"Power plant","is_nuclear":false}},{"type":"Feature","geometry":{"type":"Point","coordinates":[-91.084,45.464]},"properties":{"key":"3986-f40178af","layer":"power","name":"Ladysmith Dam","state":"WI","detail_file":"data/details/power-plants-16.json","plant_id":"3986","capacity_mw":3.4,"status_group":"Operating","energy_sources":"WAT","type":"Power plant","is_nuclear":false}},{"type":"Feature","geometry":{"type":"Point","coordinates":[-91.352,44.888]},"properties":{"key":"60888-f513b098","layer":"power","name":"Lafayette DPC Solar","state":"WI","detail_file":"data/details/power-plants-18.json","plant_id":"60888","capacity_mw":1.0,"status_group":"Operating","energy_sources":"SUN","type":"Power plant","is_nuclear":false}},{"type":"Feature","geometry":{"type":"Point","coordinates":[-91.384,44.9]},"properties":{"key":"68398-49e0e737","layer":"power","name":"Lake Hallie","state":"WI","detail_file":"data/details/power-plants-21.json","plant_id":"68398","capacity_mw":5.0,"status_group":"Operating","energy_sources":"SUN","type":"Power plant","is_nuclear":false}},{"type":"Feature","geometry":{"type":"Point","coordinates":[-88.256,44.28]},"properties":{"key":"4119-15114c4d","layer":"power","name":"Little Chute","state":"WI","detail_file":"data/details/power-plants-63.json","plant_id":"4119","capacity_mw":3.3,"status_group":"Operating","energy_sources":"WAT","type":"Power plant","is_nuclear":false}},{"type":"Feature","geometry":{"type":"Point","coordinates":[-90.134,44.635]},"properties":{"key":"56480-c25bcb94","layer":"power","name":"Marshfield Utilities Gas Plant","state":"WI","detail_file":"data/details/power-plants-24.json","plant_id":"56480","capacity_mw":60.4,"status_group":"Operating","energy_sources":"NG","type":"Power plant","is_nuclear":false}},{"type":"Feature","geometry":{"type":"Point","coordinates":[-90.373,45.163]},"properties":{"key":"60894-a1e5de48","layer":"power","name":"Medford DPC Solar","state":"WI","detail_file":"data/details/power-plants-60.json","plant_id":"60894","capacity_mw":2.0,"status_group":"Operating","energy_sources":"SUN","type":"Power plant","is_nuclear":false}},{"type":"Feature","geometry":{"type":"Point","coordinates":[-91.929,44.884]},"properties":{"key":"4009-801db728","layer":"power","name":"Menomonie","state":"WI","detail_file":"data/details/power-plants-48.json","plant_id":"4009","capacity_mw":5.4,"status_group":"Operating","energy_sources":"WAT","type":"Power plant","is_nuclear":false}},{"type":"Feature","geometry":{"type":"Point","coordinates":[-89.685,45.179]},"properties":{"key":"4068-d73b2cd2","layer":"power","name":"Merrill","state":"WI","detail_file":"data/details/power-plants-05.json","plant_id":"4068","capacity_mw":2.3,"status_group":"Operating","energy_sources":"WAT","type":"Power plant","is_nuclear":false}},{"type":"Feature","geometry":{"type":"Point","coordinates":[-91.709,44.569]},"properties":{"key":"69937-4527cc15","layer":"power","name":"Mondovi","state":"WI","detail_file":"data/details/power-plants-29.json","plant_id":"69937","capacity_mw":3.0,"status_group":"Under construction","energy_sources":"SUN","type":"Power plant","is_nuclear":false}},{"type":"Feature","geometry":{"type":"Point","coordinates":[-89.692,44.788]},"properties":{"key":"50614-3190d6e3","layer":"power","name":"Mosinee Mill","state":"WI","detail_file":"data/details/power-plants-26.json","plant_id":"50614","capacity_mw":23.4,"status_group":"Operating","energy_sources":"BLQ; WAT","type":"Power plant","is_nuclear":false}},{"type":"Feature","geometry":{"type":"Point","coordinates":[-91.435,45.21]},"properties":{"key":"60936-911a685c","layer":"power","name":"New Auburn DPC Solar","state":"WI","detail_file":"data/details/power-plants-29.json","plant_id":"60936","capacity_mw":2.5,"status_group":"Operating","energy_sources":"SUN","type":"Power plant","is_nuclear":false}},{"type":"Feature","geometry":{"type":"Point","coordinates":[-88.268,44.277]},"properties":{"key":"4120-17ae8809","layer":"power","name":"New Badger","state":"WI","detail_file":"data/details/power-plants-52.json","plant_id":"4120","capacity_mw":8.2,"status_group":"Operating","energy_sources":"WAT","type":"Power plant","is_nuclear":false}},{"type":"Feature","geometry":{"type":"Point","coordinates":[-88.144,44.872]},"properties":{"key":"50439-a38d9d3b","layer":"power","name":"Oconto Falls Lower","state":"WI","detail_file":"data/details/power-plants-30.json","plant_id":"50439","capacity_mw":2.0,"status_group":"Operating","energy_sources":"WAT","type":"Power plant","is_nuclear":false}},{"type":"Feature","geometry":{"type":"Point","coordinates":[-88.147,44.876]},"properties":{"key":"4044-be29156f","layer":"power","name":"Oconto Falls Upper","state":"WI","detail_file":"data/details/power-plants-13.json","plant_id":"4044","capacity_mw":1.1,"status_group":"Operating","energy_sources":"WAT","type":"Power plant","is_nuclear":false}},{"type":"Feature","geometry":{"type":"Point","coordinates":[-90.328,45.448]},"properties":{"key":"67055-47dfc881","layer":"power","name":"Ogema","state":"WI","detail_file":"data/details/power-plants-38.json","plant_id":"67055","capacity_mw":1.4,"status_group":"Operating","energy_sources":"SUN","type":"Power plant","is_nuclear":false}},{"type":"Feature","geometry":{"type":"Point","coordinates":[-89.734,45.443]},"properties":{"key":"50476-c2c219a5","layer":"power","name":"Packaging of America Tomahawk Mill","state":"WI","detail_file":"data/details/power-plants-16.json","plant_id":"50476","capacity_mw":18.7,"status_group":"Operating","energy_sources":"WAT; WDS","type":"Power plant","is_nuclear":false}},{"type":"Feature","geometry":{"type":"Point","coordinates":[-88.516,44.11]},"properties":{"key":"69503-c4e956da","layer":"power","name":"Perch Solar WI, LLC","state":"WI","detail_file":"data/details/power-plants-36.json","plant_id":"69503","capacity_mw":6.0,"status_group":"Operating","energy_sources":"SUN","type":"Power plant","is_nuclear":false}},{"type":"Feature","geometry":{"type":"Point","coordinates":[-90.022,44.057]},"properties":{"key":"4080-131b3ef8","layer":"power","name":"Petenwell","state":"WI","detail_file":"data/details/power-plants-36.json","plant_id":"4080","capacity_mw":20.0,"status_group":"Operating","energy_sources":"WAT","type":"Power plant","is_nuclear":false}},{"type":"Feature","geometry":{"type":"Point","coordinates":[-88.248,45.828]},"properties":{"key":"4045-f6640b7b","layer":"power","name":"Pine","state":"WI","detail_file":"data/details/power-plants-33.json","plant_id":"4045","capacity_mw":3.6,"status_group":"Operating","energy_sources":"WAT","type":"Power plant","is_nuclear":false}},{"type":"Feature","geometry":{"type":"Point","coordinates":[-90.442,44.895]},"properties":{"key":"66995-7dc325f7","layer":"power","name":"Popple Creek (Clark 1)","state":"WI","detail_file":"data/details/power-plants-53.json","plant_id":"66995","capacity_mw":2.0,"status_group":"Operating","energy_sources":"SUN","type":"Power plant","is_nuclear":false}},{"type":"Feature","geometry":{"type":"Point","coordinates":[-89.867,44.336]},"properties":{"key":"54103-ec4a5be2","layer":"power","name":"Port Edwards Mill","state":"WI","detail_file":"data/details/power-plants-63.json","plant_id":"54103","capacity_mw":6.7,"status_group":"Operating","energy_sources":"WAT","type":"Power plant","is_nuclear":false}},{"type":"Feature","geometry":{"type":"Point","coordinates":[-89.544,44.456]},"properties":{"key":"69887-7228aa0e","layer":"power","name":"Portage Solar, LLC","state":"WI","detail_file":"data/details/power-plants-49.json","plant_id":"69887","capacity_mw":250.0,"status_group":"Under construction","energy_sources":"SUN","type":"Power plant","is_nuclear":false}},{"type":"Feature","geometry":{"type":"Point","coordinates":[-88.009,44.54]},"properties":{"key":"4072-8f08b024","layer":"power","name":"Pulliam","state":"WI","detail_file":"data/details/power-plants-40.json","plant_id":"4072","capacity_mw":91.0,"status_group":"Operating","energy_sources":"NG","type":"Power plant","is_nuclear":false}},{"type":"Feature","geometry":{"type":"Point","coordinates":[-88.315,44.316]},"properties":{"key":"4122-a0665bbe","layer":"power","name":"Rapide Croche","state":"WI","detail_file":"data/details/power-plants-25.json","plant_id":"4122","capacity_mw":2.4,"status_group":"Operating","energy_sources":"WAT","type":"Power plant","is_nuclear":false}},{"type":"Feature","geometry":{"type":"Point","coordinates":[-89.421,45.639]},"properties":{"key":"50933-700a42e1","layer":"power","name":"Rhinelander Mill","state":"WI","detail_file":"data/details/power-plants-39.json","plant_id":"50933","capacity_mw":21.3,"status_group":"Operating","energy_sources":"BIT; NG; WAT","type":"Power plant","is_nuclear":false}},{"type":"Feature","geometry":{"type":"Point","coordinates":[-91.756,45.526]},"properties":{"key":"69617-92620969","layer":"power","name":"Rice Lake II","state":"WI","detail_file":"data/details/power-plants-43.json","plant_id":"69617","capacity_mw":2.8,"status_group":"Operating","energy_sources":"SUN","type":"Power plant","is_nuclear":false}},{"type":"Feature","geometry":{"type":"Point","coordinates":[-91.757,45.527]},"properties":{"key":"64714-88ff65cf","layer":"power","name":"Rice Lake Solar Array","state":"WI","detail_file":"data/details/power-plants-40.json","plant_id":"64714","capacity_mw":3.8,"status_group":"Operating","energy_sources":"SUN","type":"Power plant","is_nuclear":false}},{"type":"Feature","geometry":{"type":"Point","coordinates":[-89.63,44.888]},"properties":{"key":"58124-f7f00e5e","layer":"power","name":"Rothschild Biomass Cogen Facility","state":"WI","detail_file":"data/details/power-plants-23.json","plant_id":"58124","capacity_mw":57.5,"status_group":"Operating","energy_sources":"WDS","type":"Power plant","is_nuclear":false}},{"type":"Feature","geometry":{"type":"Point","coordinates":[-88.068,45.233]},"properties":{"key":"4074-41de642c","layer":"power","name":"Sandstone Rapids","state":"WI","detail_file":"data/details/power-plants-30.json","plant_id":"4074","capacity_mw":3.8,"status_group":"Operating","energy_sources":"WAT","type":"Power plant","is_nuclear":false}},{"type":"Feature","geometry":{"type":"Point","coordinates":[-90.374,46.539]},"properties":{"key":"1756-70b3488a","layer":"power","name":"Saxon Falls","state":"WI","detail_file":"data/details/power-plants-04.json","plant_id":"1756","capacity_mw":1.6,"status_group":"Operating","energy_sources":"WAT","type":"Power plant","is_nuclear":false}},{"type":"Feature","geometry":{"type":"Point","coordinates":[-90.847,44.177]},"properties":{"key":"65087-4862b800","layer":"power","name":"Shamrock Solar LLC","state":"WI","detail_file":"data/details/power-plants-54.json","plant_id":"65087","capacity_mw":3.0,"status_group":"Operating","energy_sources":"SUN","type":"Power plant","is_nuclear":false}},{"type":"Feature","geometry":{"type":"Point","coordinates":[-91.824,46.359]},"properties":{"key":"7058-4251bd6e","layer":"power","name":"Solon Diesel","state":"WI","detail_file":"data/details/power-plants-41.json","plant_id":"7058","capacity_mw":8.0,"status_group":"Operating","energy_sources":"DFO","type":"Power plant","is_nuclear":false}},{"type":"Feature","geometry":{"type":"Point","coordinates":[-91.863,45.846]},"properties":{"key":"69939-bcc8aea8","layer":"power","name":"Spooner","state":"WI","detail_file":"data/details/power-plants-31.json","plant_id":"69939","capacity_mw":2.3,"status_group":"Under construction","energy_sources":"SUN","type":"Power plant","is_nuclear":false}},{"type":"Feature","geometry":{"type":"Point","coordinates":[-91.862,45.919]},"properties":{"key":"64976-4388b6b7","layer":"power","name":"Spooner Solar Array","state":"WI","detail_file":"data/details/power-plants-30.json","plant_id":"64976","capacity_mw":2.0,"status_group":"Operating","energy_sources":"SUN","type":"Power plant","is_nuclear":false}},{"type":"Feature","geometry":{"type":"Point","coordinates":[-89.585,44.515]},"properties":{"key":"3973-a4eb6901","layer":"power","name":"Stevens Point","state":"WI","detail_file":"data/details/power-plants-50.json","plant_id":"3973","capacity_mw":4.8,"status_group":"Operating","energy_sources":"WAT","type":"Power plant","is_nuclear":false}},{"type":"Feature","geometry":{"type":"Point","coordinates":[-89.584,44.353]},"properties":{"key":"55861-c7ae9099","layer":"power","name":"Stevens Point Mill","state":"WI","detail_file":"data/details/power-plants-39.json","plant_id":"55861","capacity_mw":7.6,"status_group":"Operating","energy_sources":"NG","type":"Power plant","is_nuclear":false}},{"type":"Feature","geometry":{"type":"Point","coordinates":[-88.159,44.875]},"properties":{"key":"4147-2fb7c71b","layer":"power","name":"Stiles","state":"WI","detail_file":"data/details/power-plants-17.json","plant_id":"4147","capacity_mw":1.0,"status_group":"Operating","energy_sources":"WAT","type":"Power plant","is_nuclear":false}},{"type":"Feature","geometry":{"type":"Point","coordinates":[-90.857,44.433]},"properties":{"key":"64862-5b249c25","layer":"power","name":"Strobus","state":"WI","detail_file":"data/details/power-plants-30.json","plant_id":"64862","capacity_mw":1.5,"status_group":"Operating","energy_sources":"SUN","type":"Power plant","is_nuclear":false}},{"type":"Feature","geometry":{"type":"Point","coordinates":[-91.809,44.2]},"properties":{"key":"65088-6f21757f","layer":"power","name":"Stromland Solar","state":"WI","detail_file":"data/details/power-plants-53.json","plant_id":"65088","capacity_mw":3.0,"status_group":"Operating","energy_sources":"SUN","type":"Power plant","is_nuclear":false}},{"type":"Feature","geometry":{"type":"Point","coordinates":[-91.218,45.411]},"properties":{"key":"3988-d6a3477f","layer":"power","name":"Thornapple","state":"WI","detail_file":"data/details/power-plants-15.json","plant_id":"3988","capacity_mw":1.4,"status_group":"Operating","energy_sources":"WAT","type":"Power plant","is_nuclear":false}},{"type":"Feature","geometry":{"type":"Point","coordinates":[-91.358,45.453]},"properties":{"key":"56525-bf26446a","layer":"power","name":"Timberline Trail Gas Recovery","state":"WI","detail_file":"data/details/power-plants-36.json","plant_id":"56525","capacity_mw":3.2,"status_group":"Operating","energy_sources":"LFG","type":"Power plant","is_nuclear":false}},{"type":"Feature","geometry":{"type":"Point","coordinates":[-89.731,45.441]},"properties":{"key":"4075-81123f3b","layer":"power","name":"Tomahawk","state":"WI","detail_file":"data/details/power-plants-53.json","plant_id":"4075","capacity_mw":2.6,"status_group":"Operating","energy_sources":"WAT","type":"Power plant","is_nuclear":false}},{"type":"Feature","geometry":{"type":"Point","coordinates":[-91.888,45.948]},"properties":{"key":"4012-ef659e6f","layer":"power","name":"Trego","state":"WI","detail_file":"data/details/power-plants-25.json","plant_id":"4012","capacity_mw":1.2,"status_group":"Operating","energy_sources":"WAT","type":"Power plant","is_nuclear":false}},{"type":"Feature","geometry":{"type":"Point","coordinates":[-88.071,45.873]},"properties":{"key":"59836-16dcf8aa","layer":"power","name":"Twin Falls (WI)","state":"WI","detail_file":"data/details/power-plants-28.json","plant_id":"59836","capacity_mw":9.2,"status_group":"Operating","energy_sources":"WAT","type":"Power plant","is_nuclear":false}},{"type":"Feature","geometry":{"type":"Point","coordinates":[-89.576,44.446]},"properties":{"key":"67551-fd39240c","layer":"power","name":"Vista Sands Solar","state":"WI","detail_file":"data/details/power-plants-54.json","plant_id":"67551","capacity_mw":1182.0,"status_group":"Under construction","energy_sources":"SUN","type":"Power plant","is_nuclear":false}},{"type":"Feature","geometry":{"type":"Point","coordinates":[-91.804,44.971]},"properties":{"key":"66994-8467f011","layer":"power","name":"Walleye (Dunn 2)","state":"WI","detail_file":"data/details/power-plants-14.json","plant_id":"66994","capacity_mw":1.5,"status_group":"Operating","energy_sources":"SUN","type":"Power plant","is_nuclear":false}},{"type":"Feature","geometry":{"type":"Point","coordinates":[-89.637,44.958]},"properties":{"key":"4077-ca042d94","layer":"power","name":"Wausau","state":"WI","detail_file":"data/details/power-plants-32.json","plant_id":"4077","capacity_mw":5.4,"status_group":"Operating","energy_sources":"WAT","type":"Power plant","is_nuclear":false}},{"type":"Feature","geometry":{"type":"Point","coordinates":[-89.302,44.062]},"properties":{"key":"65000-15edee04","layer":"power","name":"Wautoma Solar","state":"WI","detail_file":"data/details/power-plants-01.json","plant_id":"65000","capacity_mw":99.0,"status_group":"Operating","energy_sources":"SUN","type":"Power plant","is_nuclear":false}},{"type":"Feature","geometry":{"type":"Point","coordinates":[-89.655,44.861]},"properties":{"key":"4078-d1c6b671","layer":"power","name":"Weston","state":"WI","detail_file":"data/details/power-plants-42.json","plant_id":"4078","capacity_mw":945.5,"status_group":"Operating","energy_sources":"SUB","type":"Power plant","is_nuclear":false}},{"type":"Feature","geometry":{"type":"Point","coordinates":[-89.654,44.856]},"properties":{"key":"66059-62207882","layer":"power","name":"Weston RICE","state":"WI","detail_file":"data/details/power-plants-48.json","plant_id":"66059","capacity_mw":131.6,"status_group":"Operating","energy_sources":"NG","type":"Power plant","is_nuclear":false}},{"type":"Feature","geometry":{"type":"Point","coordinates":[-91.516,44.885]},"properties":{"key":"4014-1f4764e8","layer":"power","name":"Wheaton","state":"WI","detail_file":"data/details/power-plants-38.json","plant_id":"4014","capacity_mw":298.1,"status_group":"Operating","energy_sources":"NG","type":"Power plant","is_nuclear":false}},{"type":"Feature","geometry":{"type":"Point","coordinates":[-90.904,46.498]},"properties":{"key":"3989-bf6a44df","layer":"power","name":"White River (WI)","state":"WI","detail_file":"data/details/power-plants-07.json","plant_id":"3989","capacity_mw":1.0,"status_group":"Operating","energy_sources":"WAT","type":"Power plant","is_nuclear":false}},{"type":"Feature","geometry":{"type":"Point","coordinates":[-89.576,44.489]},"properties":{"key":"3975-de513e70","layer":"power","name":"Whiting","state":"WI","detail_file":"data/details/power-plants-06.json","plant_id":"3975","capacity_mw":5.1,"status_group":"Operating","energy_sources":"WAT","type":"Power plant","is_nuclear":false}},{"type":"Feature","geometry":{"type":"Point","coordinates":[-88.541,44.083]},"properties":{"key":"50936-70e0c1af","layer":"power","name":"Winnebago County Landfill Gas","state":"WI","detail_file":"data/details/power-plants-61.json","plant_id":"50936","capacity_mw":1.5,"status_group":"Operating","energy_sources":"LFG","type":"Power plant","is_nuclear":false}},{"type":"Feature","geometry":{"type":"Point","coordinates":[-90.974,45.837]},"properties":{"key":"8013-957971f6","layer":"power","name":"Winter","state":"WI","detail_file":"data/details/power-plants-27.json","plant_id":"8013","capacity_mw":5.6,"status_group":"Operating","energy_sources":"DFO","type":"Power plant","is_nuclear":false}},{"type":"Feature","geometry":{"type":"Point","coordinates":[-89.825,44.394]},"properties":{"key":"3974-de306afc","layer":"power","name":"Wisconsin Rapids","state":"WI","detail_file":"data/details/power-plants-20.json","plant_id":"3974","capacity_mw":8.1,"status_group":"Operating","energy_sources":"WAT","type":"Power plant","is_nuclear":false}},{"type":"Feature","geometry":{"type":"Point","coordinates":[-91.341,44.938]},"properties":{"key":"4015-d561963c","layer":"power","name":"Wissota","state":"WI","detail_file":"data/details/power-plants-04.json","plant_id":"4015","capacity_mw":39.4,"status_group":"Operating","energy_sources":"WAT","type":"Power plant","is_nuclear":false}},{"type":"Feature","geometry":{"type":"Point","coordinates":[-90.964,44.95]},"properties":{"key":"67057-848d5f33","layer":"power","name":"Wolf River (Chipewa 1)","state":"WI","detail_file":"data/details/power-plants-60.json","plant_id":"67057","capacity_mw":1.5,"status_group":"Operating","energy_sources":"SUN","type":"Power plant","is_nuclear":false}},{"type":"Feature","geometry":{"type":"Point","coordinates":[-89.834,44.274]},"properties":{"key":"65011-72862c12","layer":"power","name":"Wood County","state":"WI","detail_file":"data/details/power-plants-12.json","plant_id":"65011","capacity_mw":225.0,"status_group":"Operating","energy_sources":"MWH; SUN","type":"Power plant","is_nuclear":false}}]}