{"type":"FeatureCollection","features":[{"type":"Feature","geometry":{"type":"Point","coordinates":[-96.38,42.325]},"properties":{"key":"1091-444fba44","layer":"power","name":"George Neal North","state":"IA","detail_file":"data/details/power-plants-37.json","plant_id":"1091","capacity_mw":584.1,"status_group":"Operating","energy_sources":"SUB","type":"Power plant","is_nuclear":false}},{"type":"Feature","geometry":{"type":"Point","coordinates":[-96.362,42.301]},"properties":{"key":"7343-8642963f","layer":"power","name":"George Neal South","state":"IA","detail_file":"data/details/power-plants-38.json","plant_id":"7343","capacity_mw":695.9,"status_group":"Operating","energy_sources":"SUB","type":"Power plant","is_nuclear":false}},{"type":"Feature","geometry":{"type":"Point","coordinates":[-96.348,42.333]},"properties":{"key":"65393-a2eb7fb2","layer":"power","name":"Neal Energy Center Solar","state":"IA","detail_file":"data/details/power-plants-04.json","plant_id":"65393","capacity_mw":4.0,"status_group":"Operating","energy_sources":"SUN","type":"Power plant","is_nuclear":false}},{"type":"Feature","geometry":{"type":"Point","coordinates":[-96.169,43.429]},"properties":{"key":"1181-0e53e690","layer":"power","name":"Rock Rapids","state":"IA","detail_file":"data/details/power-plants-14.json","plant_id":"1181","capacity_mw":2.5,"status_group":"Operating","energy_sources":"DFO","type":"Power plant","is_nuclear":false}},{"type":"Feature","geometry":{"type":"Point","coordinates":[-96.138,43.907]},"properties":{"key":"60937-cb5c9767","layer":"power","name":"Antlia Community Solar","state":"MN","detail_file":"data/details/power-plants-06.json","plant_id":"60937","capacity_mw":2.0,"status_group":"Operating","energy_sources":"SUN","type":"Power plant","is_nuclear":false}},{"type":"Feature","geometry":{"type":"Point","coordinates":[-96.219,43.984]},"properties":{"key":"56201-319801a3","layer":"power","name":"Bisson Windfarm LLC","state":"MN","detail_file":"data/details/power-plants-20.json","plant_id":"56201","capacity_mw":2.0,"status_group":"Operating","energy_sources":"WND","type":"Power plant","is_nuclear":false}},{"type":"Feature","geometry":{"type":"Point","coordinates":[-96.219,43.993]},"properties":{"key":"56200-51916627","layer":"power","name":"CG Windfarm LLC","state":"MN","detail_file":"data/details/power-plants-53.json","plant_id":"56200","capacity_mw":2.0,"status_group":"Operating","energy_sources":"WND","type":"Power plant","is_nuclear":false}},{"type":"Feature","geometry":{"type":"Point","coordinates":[-96.333,43.994]},"properties":{"key":"68242-6d9a7a38","layer":"power","name":"DG Green Arrow","state":"MN","detail_file":"data/details/power-plants-49.json","plant_id":"68242","capacity_mw":1.0,"status_group":"Operating","energy_sources":"SUN","type":"Power plant","is_nuclear":false}},{"type":"Feature","geometry":{"type":"Point","coordinates":[-96.018,43.853]},"properties":{"key":"56617-695d6802","layer":"power","name":"Fenton Wind Farm","state":"MN","detail_file":"data/details/power-plants-45.json","plant_id":"56617","capacity_mw":205.5,"status_group":"Operating","energy_sources":"WND","type":"Power plant","is_nuclear":false}},{"type":"Feature","geometry":{"type":"Point","coordinates":[-96.193,43.913]},"properties":{"key":"61788-055c8ba8","layer":"power","name":"Hilltop Power","state":"MN","detail_file":"data/details/power-plants-23.json","plant_id":"61788","capacity_mw":2.0,"status_group":"Operating","energy_sources":"WND","type":"Power plant","is_nuclear":false}},{"type":"Feature","geometry":{"type":"Point","coordinates":[-96.187,43.912]},"properties":{"key":"61380-4e26f9c8","layer":"power","name":"Johnson Solar CSG","state":"MN","detail_file":"data/details/power-plants-50.json","plant_id":"61380","capacity_mw":4.7,"status_group":"Operating","energy_sources":"SUN","type":"Power plant","is_nuclear":false}},{"type":"Feature","geometry":{"type":"Point","coordinates":[-96.202,43.654]},"properties":{"key":"1990-c3a33e8c","layer":"power","name":"Luverne","state":"MN","detail_file":"data/details/power-plants-23.json","plant_id":"1990","capacity_mw":9.7,"status_group":"Operating","energy_sources":"DFO","type":"Power plant","is_nuclear":false}},{"type":"Feature","geometry":{"type":"Point","coordinates":[-96.304,43.556]},"properties":{"key":"56002-5313c727","layer":"power","name":"Minwind","state":"MN","detail_file":"data/details/power-plants-55.json","plant_id":"56002","capacity_mw":3.8,"status_group":"Operating","energy_sources":"WND","type":"Power plant","is_nuclear":false}},{"type":"Feature","geometry":{"type":"Point","coordinates":[-96.322,43.828]},"properties":{"key":"57644-68ef0b2a","layer":"power","name":"Prairie Rose Wind Farm","state":"MN","detail_file":"data/details/power-plants-25.json","plant_id":"57644","capacity_mw":200.0,"status_group":"Operating","energy_sources":"WND","type":"Power plant","is_nuclear":false}},{"type":"Feature","geometry":{"type":"Point","coordinates":[-96.262,43.642]},"properties":{"key":"63460-81742b61","layer":"power","name":"Rock County Wind Fuel, LLC","state":"MN","detail_file":"data/details/power-plants-44.json","plant_id":"63460","capacity_mw":5.0,"status_group":"Operating","energy_sources":"WND","type":"Power plant","is_nuclear":false}},{"type":"Feature","geometry":{"type":"Point","coordinates":[-96.224,43.99]},"properties":{"key":"56199-2535206c","layer":"power","name":"TG Windfarm LLC","state":"MN","detail_file":"data/details/power-plants-38.json","plant_id":"56199","capacity_mw":2.0,"status_group":"Operating","energy_sources":"WND","type":"Power plant","is_nuclear":false}},{"type":"Feature","geometry":{"type":"Point","coordinates":[-96.223,43.98]},"properties":{"key":"56202-860ee862","layer":"power","name":"Tofteland Windfarm LLC","state":"MN","detail_file":"data/details/power-plants-07.json","plant_id":"56202","capacity_mw":2.0,"status_group":"Operating","energy_sources":"WND","type":"Power plant","is_nuclear":false}},{"type":"Feature","geometry":{"type":"Point","coordinates":[-96.427,43.981]},"properties":{"key":"57351-0731248d","layer":"power","name":"Uilk Wind LLC","state":"MN","detail_file":"data/details/power-plants-22.json","plant_id":"57351","capacity_mw":4.5,"status_group":"Operating","energy_sources":"WND","type":"Power plant","is_nuclear":false}},{"type":"Feature","geometry":{"type":"Point","coordinates":[-96.022,43.903]},"properties":{"key":"57434-515fd89a","layer":"power","name":"Valley View Transmission LLC","state":"MN","detail_file":"data/details/power-plants-14.json","plant_id":"57434","capacity_mw":10.0,"status_group":"Operating","energy_sources":"WND","type":"Power plant","is_nuclear":false}},{"type":"Feature","geometry":{"type":"Point","coordinates":[-96.391,43.638]},"properties":{"key":"65764-895f0527","layer":"power","name":"Walleye Wind","state":"MN","detail_file":"data/details/power-plants-63.json","plant_id":"65764","capacity_mw":110.0,"status_group":"Operating","energy_sources":"WND","type":"Power plant","is_nuclear":false}},{"type":"Feature","geometry":{"type":"Point","coordinates":[-96.216,43.989]},"properties":{"key":"56203-eb81fa5a","layer":"power","name":"Westridge Windfarm LLC","state":"MN","detail_file":"data/details/power-plants-29.json","plant_id":"56203","capacity_mw":2.0,"status_group":"Operating","energy_sources":"WND","type":"Power plant","is_nuclear":false}},{"type":"Feature","geometry":{"type":"Point","coordinates":[-96.079,43.986]},"properties":{"key":"55342-3b32380a","layer":"power","name":"Woodstock Windfarm","state":"MN","detail_file":"data/details/power-plants-01.json","plant_id":"55342","capacity_mw":9.2,"status_group":"Operating","energy_sources":"WND","type":"Power plant","is_nuclear":false}},{"type":"Feature","geometry":{"type":"Point","coordinates":[-96.719,40.813]},"properties":{"key":"70226-c3a5339c","layer":"power","name":"2nd & N BESS","state":"NE","detail_file":"data/details/power-plants-30.json","plant_id":"70226","capacity_mw":3.0,"status_group":"Under construction","energy_sources":"MWH","type":"Power plant","is_nuclear":false}},{"type":"Feature","geometry":{"type":"Point","coordinates":[-99.892,42.449]},"properties":{"key":"56162-fbe3dbc5","layer":"power","name":"Ainsworth Wind","state":"NE","detail_file":"data/details/power-plants-55.json","plant_id":"56162","capacity_mw":59.4,"status_group":"Operating","energy_sources":"WND","type":"Power plant","is_nuclear":false}},{"type":"Feature","geometry":{"type":"Point","coordinates":[-99.768,40.785]},"properties":{"key":"65411-cf3f9bc3","layer":"power","name":"Airport 009239 SCS Lexington, LLC","state":"NE","detail_file":"data/details/power-plants-05.json","plant_id":"65411","capacity_mw":1.0,"status_group":"Operating","energy_sources":"SUN","type":"Power plant","is_nuclear":false}},{"type":"Feature","geometry":{"type":"Point","coordinates":[-99.386,41.289]},"properties":{"key":"2214-3ec587e8","layer":"power","name":"Ansley","state":"NE","detail_file":"data/details/power-plants-25.json","plant_id":"2214","capacity_mw":1.5,"status_group":"Operating","energy_sources":"NG","type":"Power plant","is_nuclear":false}},{"type":"Feature","geometry":{"type":"Point","coordinates":[-97.286,41.416]},"properties":{"key":"57046-2bdbba73","layer":"power","name":"Archer Daniels Midland Columbus","state":"NE","detail_file":"data/details/power-plants-25.json","plant_id":"57046","capacity_mw":71.4,"status_group":"Operating","energy_sources":"SUB","type":"Power plant","is_nuclear":false}},{"type":"Feature","geometry":{"type":"Point","coordinates":[-96.614,40.866]},"properties":{"key":"10862-d9c0edbf","layer":"power","name":"Archer Daniels Midland Lincoln","state":"NE","detail_file":"data/details/power-plants-63.json","plant_id":"10862","capacity_mw":7.9,"status_group":"Operating","energy_sources":"NG","type":"Power plant","is_nuclear":false}},{"type":"Feature","geometry":{"type":"Point","coordinates":[-96.179,40.871]},"properties":{"key":"67122-2910f6f4","layer":"power","name":"BRIGHT Battery","state":"NE","detail_file":"data/details/power-plants-61.json","plant_id":"67122","capacity_mw":1.0,"status_group":"Operating","energy_sources":"MWH","type":"Power plant","is_nuclear":false}},{"type":"Feature","geometry":{"type":"Point","coordinates":[-96.808,40.33]},"properties":{"key":"8000-0cd475e2","layer":"power","name":"Beatrice","state":"NE","detail_file":"data/details/power-plants-18.json","plant_id":"8000","capacity_mw":247.1,"status_group":"Operating","energy_sources":"NG","type":"Power plant","is_nuclear":false}},{"type":"Feature","geometry":{"type":"Point","coordinates":[-96.293,41.476]},"properties":{"key":"66113-fd03a1b0","layer":"power","name":"Big Elk Solar","state":"NE","detail_file":"data/details/power-plants-28.json","plant_id":"66113","capacity_mw":100.0,"status_group":"Under construction","energy_sources":"SUN","type":"Power plant","is_nuclear":false}},{"type":"Feature","geometry":{"type":"Point","coordinates":[-99.639,41.403]},"properties":{"key":"2221-37c4644b","layer":"power","name":"Broken Bow","state":"NE","detail_file":"data/details/power-plants-38.json","plant_id":"2221","capacity_mw":8.7,"status_group":"Operating","energy_sources":"DFO; NG","type":"Power plant","is_nuclear":false}},{"type":"Feature","geometry":{"type":"Point","coordinates":[-99.323,41.324]},"properties":{"key":"58981-e9e590f0","layer":"power","name":"Broken Bow Wind II, LLC","state":"NE","detail_file":"data/details/power-plants-18.json","plant_id":"58981","capacity_mw":73.1,"status_group":"Operating","energy_sources":"WND","type":"Power plant","is_nuclear":false}},{"type":"Feature","geometry":{"type":"Point","coordinates":[-99.568,41.455]},"properties":{"key":"57593-68639feb","layer":"power","name":"Broken Bow Wind LLC","state":"NE","detail_file":"data/details/power-plants-04.json","plant_id":"57593","capacity_mw":79.9,"status_group":"Operating","energy_sources":"WND","type":"Power plant","is_nuclear":false}},{"type":"Feature","geometry":{"type":"Point","coordinates":[-96.232,41.864]},"properties":{"key":"64222-907f8d75","layer":"power","name":"Burt County Solar Hybrid","state":"NE","detail_file":"data/details/power-plants-43.json","plant_id":"64222","capacity_mw":1.4,"status_group":"Operating","energy_sources":"MWH; SUN","type":"Power plant","is_nuclear":false}},{"type":"Feature","geometry":{"type":"Point","coordinates":[-96.345,41.886]},"properties":{"key":"61511-ddbc83b1","layer":"power","name":"Burt County Wind","state":"NE","detail_file":"data/details/power-plants-09.json","plant_id":"61511","capacity_mw":75.0,"status_group":"Under construction","energy_sources":"WND","type":"Power plant","is_nuclear":false}},{"type":"Feature","geometry":{"type":"Point","coordinates":[-99.136,41.78]},"properties":{"key":"2222-500d89ad","layer":"power","name":"Burwell","state":"NE","detail_file":"data/details/power-plants-39.json","plant_id":"2222","capacity_mw":3.9,"status_group":"Operating","energy_sources":"DFO","type":"Power plant","is_nuclear":false}},{"type":"Feature","geometry":{"type":"Point","coordinates":[-98.327,40.923]},"properties":{"key":"2241-4091e905","layer":"power","name":"C W Burdick","state":"NE","detail_file":"data/details/power-plants-46.json","plant_id":"2241","capacity_mw":142.8,"status_group":"Operating","energy_sources":"NG","type":"Power plant","is_nuclear":false}},{"type":"Feature","geometry":{"type":"Point","coordinates":[-98.334,40.57]},"properties":{"key":"60931-3990dc00","layer":"power","name":"CCC Hastings Wind Turbine","state":"NE","detail_file":"data/details/power-plants-26.json","plant_id":"60931","capacity_mw":1.7,"status_group":"Operating","energy_sources":"WND","type":"Power plant","is_nuclear":false}},{"type":"Feature","geometry":{"type":"Point","coordinates":[-98.733,40.299]},"properties":{"key":"2225-a452ff0f","layer":"power","name":"Campbell Village","state":"NE","detail_file":"data/details/power-plants-46.json","plant_id":"2225","capacity_mw":1.0,"status_group":"Operating","energy_sources":"DFO","type":"Power plant","is_nuclear":false}},{"type":"Feature","geometry":{"type":"Point","coordinates":[-99.701,40.694]},"properties":{"key":"2226-d109a39d","layer":"power","name":"Canaday","state":"NE","detail_file":"data/details/power-plants-09.json","plant_id":"2226","capacity_mw":108.8,"status_group":"Operating","energy_sources":"NG","type":"Power plant","is_nuclear":false}},{"type":"Feature","geometry":{"type":"Point","coordinates":[-96.743,40.656]},"properties":{"key":"68691-5f4eefcb","layer":"power","name":"Centerville (NE)","state":"NE","detail_file":"data/details/power-plants-61.json","plant_id":"68691","capacity_mw":1.0,"status_group":"Operating","energy_sources":"SUN","type":"Power plant","is_nuclear":false}},{"type":"Feature","geometry":{"type":"Point","coordinates":[-98.45,40.328]},"properties":{"key":"7481-59f9787a","layer":"power","name":"City Light & Water","state":"NE","detail_file":"data/details/power-plants-33.json","plant_id":"7481","capacity_mw":1.3,"status_group":"Operating","energy_sources":"DFO","type":"Power plant","is_nuclear":false}},{"type":"Feature","geometry":{"type":"Point","coordinates":[-99.734,40.757]},"properties":{"key":"61467-5788d113","layer":"power","name":"City of Lexington","state":"NE","detail_file":"data/details/power-plants-34.json","plant_id":"61467","capacity_mw":3.5,"status_group":"Operating","energy_sources":"SUN","type":"Power plant","is_nuclear":false}},{"type":"Feature","geometry":{"type":"Point","coordinates":[-98.06,40.01]},"properties":{"key":"70213-2fcf2071","layer":"power","name":"City of Superior","state":"NE","detail_file":"data/details/power-plants-44.json","plant_id":"70213","capacity_mw":1.0,"status_group":"Operating","energy_sources":"SUN","type":"Power plant","is_nuclear":false}},{"type":"Feature","geometry":{"type":"Point","coordinates":[-97.328,41.464]},"properties":{"key":"2260-0ddeb739","layer":"power","name":"Columbus","state":"NE","detail_file":"data/details/power-plants-27.json","plant_id":"2260","capacity_mw":45.6,"status_group":"Operating","energy_sources":"WAT","type":"Power plant","is_nuclear":false}},{"type":"Feature","geometry":{"type":"Point","coordinates":[-98.406,40.24]},"properties":{"key":"61407-72e84f5c","layer":"power","name":"Cottonwood Wind Energy Center","state":"NE","detail_file":"data/details/power-plants-02.json","plant_id":"61407","capacity_mw":89.7,"status_group":"Operating","energy_sources":"WND","type":"Power plant","is_nuclear":false}},{"type":"Feature","geometry":{"type":"Point","coordinates":[-97.391,41.677]},"properties":{"key":"61668-df453d6e","layer":"power","name":"Creston Ridge II, LLC","state":"NE","detail_file":"data/details/power-plants-42.json","plant_id":"61668","capacity_mw":6.9,"status_group":"Operating","energy_sources":"WND","type":"Power plant","is_nuclear":false}},{"type":"Feature","geometry":{"type":"Point","coordinates":[-97.386,41.678]},"properties":{"key":"60932-6e5ed525","layer":"power","name":"Creston Ridge Wind Farm","state":"NE","detail_file":"data/details/power-plants-57.json","plant_id":"60932","capacity_mw":6.8,"status_group":"Operating","energy_sources":"WND","type":"Power plant","is_nuclear":false}},{"type":"Feature","geometry":{"type":"Point","coordinates":[-96.96,40.625]},"properties":{"key":"2231-2b225a7e","layer":"power","name":"Crete","state":"NE","detail_file":"data/details/power-plants-57.json","plant_id":"2231","capacity_mw":6.0,"status_group":"Operating","energy_sources":"NG","type":"Power plant","is_nuclear":false}},{"type":"Feature","geometry":{"type":"Point","coordinates":[-96.964,40.685]},"properties":{"key":"70125-ea69a7d5","layer":"power","name":"Crete Solar","state":"NE","detail_file":"data/details/power-plants-43.json","plant_id":"70125","capacity_mw":1.6,"status_group":"Operating","energy_sources":"SUN","type":"Power plant","is_nuclear":false}},{"type":"Feature","geometry":{"type":"Point","coordinates":[-97.58,42.698]},"properties":{"key":"57278-38ce634c","layer":"power","name":"Crofton Bluffs Wind LLC","state":"NE","detail_file":"data/details/power-plants-42.json","plant_id":"57278","capacity_mw":40.0,"status_group":"Operating","energy_sources":"WND","type":"Power plant","is_nuclear":false}},{"type":"Feature","geometry":{"type":"Point","coordinates":[-96.862,42.02]},"properties":{"key":"63393-135f13cf","layer":"power","name":"Cuming County Renewables, LLC","state":"NE","detail_file":"data/details/power-plants-13.json","plant_id":"63393","capacity_mw":2.5,"status_group":"Operating","energy_sources":"WND","type":"Power plant","is_nuclear":false}},{"type":"Feature","geometry":{"type":"Point","coordinates":[-97.119,41.255]},"properties":{"key":"2233-b20e93e5","layer":"power","name":"David City","state":"NE","detail_file":"data/details/power-plants-23.json","plant_id":"2233","capacity_mw":10.6,"status_group":"Operating","energy_sources":"DFO; NG","type":"Power plant","is_nuclear":false}},{"type":"Feature","geometry":{"type":"Point","coordinates":[-97.724,40.141]},"properties":{"key":"2234-9152b4ef","layer":"power","name":"Deshler","state":"NE","detail_file":"data/details/power-plants-01.json","plant_id":"2234","capacity_mw":1.7,"status_group":"Operating","energy_sources":"DFO","type":"Power plant","is_nuclear":false}},{"type":"Feature","geometry":{"type":"Point","coordinates":[-97.708,40.087]},"properties":{"key":"68693-56bf11d1","layer":"power","name":"Deshler Solar","state":"NE","detail_file":"data/details/power-plants-46.json","plant_id":"68693","capacity_mw":1.0,"status_group":"Operating","energy_sources":"SUN","type":"Power plant","is_nuclear":false}},{"type":"Feature","geometry":{"type":"Point","coordinates":[-96.752,41.612]},"properties":{"key":"64223-2e997027","layer":"power","name":"Dodge County Solar Hybrid","state":"NE","detail_file":"data/details/power-plants-09.json","plant_id":"64223","capacity_mw":1.4,"status_group":"Operating","energy_sources":"MWH; SUN","type":"Power plant","is_nuclear":false}},{"type":"Feature","geometry":{"type":"Point","coordinates":[-98.42,40.583]},"properties":{"key":"2243-eca6c117","layer":"power","name":"Don Henry","state":"NE","detail_file":"data/details/power-plants-09.json","plant_id":"2243","capacity_mw":22.0,"status_group":"Operating","energy_sources":"NG","type":"Power plant","is_nuclear":false}},{"type":"Feature","geometry":{"type":"Point","coordinates":[-97.619,42.698]},"properties":{"key":"56947-886fe116","layer":"power","name":"Elkhorn Ridge Wind LLC","state":"NE","detail_file":"data/details/power-plants-50.json","plant_id":"56947","capacity_mw":81.0,"status_group":"Operating","energy_sources":"WND","type":"Power plant","is_nuclear":false}},{"type":"Feature","geometry":{"type":"Point","coordinates":[-96.729,42.276]},"properties":{"key":"2235-d7350f97","layer":"power","name":"Emerson","state":"NE","detail_file":"data/details/power-plants-07.json","plant_id":"2235","capacity_mw":1.6,"status_group":"Operating","energy_sources":"DFO; NG","type":"Power plant","is_nuclear":false}},{"type":"Feature","geometry":{"type":"Point","coordinates":[-96.005,41.457]},"properties":{"key":"63844-05a7f950","layer":"power","name":"Fort Calhoun Community Solar","state":"NE","detail_file":"data/details/power-plants-62.json","plant_id":"63844","capacity_mw":5.0,"status_group":"Operating","energy_sources":"SUN","type":"Power plant","is_nuclear":false}},{"type":"Feature","geometry":{"type":"Point","coordinates":[-98.951,40.089]},"properties":{"key":"2238-d84405c9","layer":"power","name":"Franklin (NE)","state":"NE","detail_file":"data/details/power-plants-58.json","plant_id":"2238","capacity_mw":3.9,"status_group":"Operating","energy_sources":"NG","type":"Power plant","is_nuclear":false}},{"type":"Feature","geometry":{"type":"Point","coordinates":[-98.314,40.925]},"properties":{"key":"69145-67f40e04","layer":"power","name":"GIUD Solar I","state":"NE","detail_file":"data/details/power-plants-61.json","plant_id":"69145","capacity_mw":1.0,"status_group":"Operating","energy_sources":"SUN","type":"Power plant","is_nuclear":false}},{"type":"Feature","geometry":{"type":"Point","coordinates":[-97.481,42.849]},"properties":{"key":"6624-c0369a87","layer":"power","name":"Gavins Point","state":"NE","detail_file":"data/details/power-plants-07.json","plant_id":"6624","capacity_mw":132.3,"status_group":"Operating","energy_sources":"WAT","type":"Power plant","is_nuclear":false}},{"type":"Feature","geometry":{"type":"Point","coordinates":[-98.428,42.608]},"properties":{"key":"58695-fa3869bd","layer":"power","name":"Grande Prairie Wind Farm","state":"NE","detail_file":"data/details/power-plants-57.json","plant_id":"58695","capacity_mw":400.0,"status_group":"Operating","energy_sources":"WND","type":"Power plant","is_nuclear":false}},{"type":"Feature","geometry":{"type":"Point","coordinates":[-96.786,40.559]},"properties":{"key":"2265-2de6c1aa","layer":"power","name":"Hallam","state":"NE","detail_file":"data/details/power-plants-17.json","plant_id":"2265","capacity_mw":56.7,"status_group":"Operating","energy_sources":"DFO","type":"Power plant","is_nuclear":false}},{"type":"Feature","geometry":{"type":"Point","coordinates":[-98.437,40.602]},"properties":{"key":"62833-3e5389a0","layer":"power","name":"Hastings Community Solar Farm","state":"NE","detail_file":"data/details/power-plants-50.json","plant_id":"62833","capacity_mw":1.5,"status_group":"Operating","energy_sources":"SUN","type":"Power plant","is_nuclear":false}},{"type":"Feature","geometry":{"type":"Point","coordinates":[-97.196,42.263]},"properties":{"key":"64139-0104f5d5","layer":"power","name":"Haystack Wind Project, LLC","state":"NE","detail_file":"data/details/power-plants-63.json","plant_id":"64139","capacity_mw":298.0,"status_group":"Operating","energy_sources":"WND","type":"Power plant","is_nuclear":false}},{"type":"Feature","geometry":{"type":"Point","coordinates":[-97.578,40.188]},"properties":{"key":"2266-9286356a","layer":"power","name":"Hebron","state":"NE","detail_file":"data/details/power-plants-48.json","plant_id":"2266","capacity_mw":56.7,"status_group":"Operating","energy_sources":"DFO","type":"Power plant","is_nuclear":false}},{"type":"Feature","geometry":{"type":"Point","coordinates":[-96.82,40.825]},"properties":{"key":"59713-f606b437","layer":"power","name":"Holdrege Solar Center","state":"NE","detail_file":"data/details/power-plants-16.json","plant_id":"59713","capacity_mw":4.0,"status_group":"Operating","energy_sources":"SUN","type":"Power plant","is_nuclear":false}},{"type":"Feature","geometry":{"type":"Point","coordinates":[-96.711,40.808]},"properties":{"key":"2250-c9e8ef79","layer":"power","name":"J Street","state":"NE","detail_file":"data/details/power-plants-01.json","plant_id":"2250","capacity_mw":27.0,"status_group":"Operating","energy_sources":"NG","type":"Power plant","is_nuclear":false}},{"type":"Feature","geometry":{"type":"Point","coordinates":[-99.818,40.694]},"properties":{"key":"2228-ec90e5ba","layer":"power","name":"Johnson 1","state":"NE","detail_file":"data/details/power-plants-53.json","plant_id":"2228","capacity_mw":21.6,"status_group":"Operating","energy_sources":"WAT","type":"Power plant","is_nuclear":false}},{"type":"Feature","geometry":{"type":"Point","coordinates":[-99.745,40.684]},"properties":{"key":"2229-e71e9545","layer":"power","name":"Johnson 2","state":"NE","detail_file":"data/details/power-plants-26.json","plant_id":"2229","capacity_mw":22.5,"status_group":"Operating","energy_sources":"WAT","type":"Power plant","is_nuclear":false}},{"type":"Feature","geometry":{"type":"Point","coordinates":[-99.101,40.704]},"properties":{"key":"2268-528c4b21","layer":"power","name":"Kearney","state":"NE","detail_file":"data/details/power-plants-24.json","plant_id":"2268","capacity_mw":1.5,"status_group":"Operating","energy_sources":"WAT","type":"Power plant","is_nuclear":false}},{"type":"Feature","geometry":{"type":"Point","coordinates":[-99.041,40.722]},"properties":{"key":"61884-44b828e3","layer":"power","name":"Kearney NPPD Solar Project","state":"NE","detail_file":"data/details/power-plants-32.json","plant_id":"61884","capacity_mw":5.8,"status_group":"Operating","energy_sources":"SUN","type":"Power plant","is_nuclear":false}},{"type":"Feature","geometry":{"type":"Point","coordinates":[-98.024,41.88]},"properties":{"key":"57262-939d3e0f","layer":"power","name":"Laredo Ridge Wind LLC","state":"NE","detail_file":"data/details/power-plants-30.json","plant_id":"57262","capacity_mw":79.9,"status_group":"Operating","energy_sources":"WND","type":"Power plant","is_nuclear":false}},{"type":"Feature","geometry":{"type":"Point","coordinates":[-97.091,42.431]},"properties":{"key":"2249-65b3cf1a","layer":"power","name":"Laurel","state":"NE","detail_file":"data/details/power-plants-62.json","plant_id":"2249","capacity_mw":3.5,"status_group":"Operating","energy_sources":"NG","type":"Power plant","is_nuclear":false}},{"type":"Feature","geometry":{"type":"Point","coordinates":[-98.408,40.284]},"properties":{"key":"64336-4d6e1b3c","layer":"power","name":"Little Blue Wind Project, LLC","state":"NE","detail_file":"data/details/power-plants-59.json","plant_id":"64336","capacity_mw":250.7,"status_group":"Operating","energy_sources":"WND","type":"Power plant","is_nuclear":false}},{"type":"Feature","geometry":{"type":"Point","coordinates":[-96.462,41.428]},"properties":{"key":"2240-6525d13d","layer":"power","name":"Lon Wright","state":"NE","detail_file":"data/details/power-plants-56.json","plant_id":"2240","capacity_mw":172.3,"status_group":"Operating","energy_sources":"NG; SUB; SUN","type":"Power plant","is_nuclear":false}},{"type":"Feature","geometry":{"type":"Point","coordinates":[-96.467,41.937]},"properties":{"key":"2253-f9f2d8d8","layer":"power","name":"Lyons","state":"NE","detail_file":"data/details/power-plants-22.json","plant_id":"2253","capacity_mw":2.5,"status_group":"Operating","energy_sources":"DFO","type":"Power plant","is_nuclear":false}},{"type":"Feature","geometry":{"type":"Point","coordinates":[-97.445,41.848]},"properties":{"key":"69009-a87d6477","layer":"power","name":"Madison Solar (NE)","state":"NE","detail_file":"data/details/power-plants-01.json","plant_id":"69009","capacity_mw":2.0,"status_group":"Operating","energy_sources":"SUN","type":"Power plant","is_nuclear":false}},{"type":"Feature","geometry":{"type":"Point","coordinates":[-97.456,41.83]},"properties":{"key":"7469-53fc633a","layer":"power","name":"Madison Utilities","state":"NE","detail_file":"data/details/power-plants-16.json","plant_id":"7469","capacity_mw":5.8,"status_group":"Operating","energy_sources":"DFO","type":"Power plant","is_nuclear":false}},{"type":"Feature","geometry":{"type":"Point","coordinates":[-97.221,40.479]},"properties":{"key":"64377-946262ca","layer":"power","name":"Milligan 1 Wind Farm","state":"NE","detail_file":"data/details/power-plants-03.json","plant_id":"64377","capacity_mw":300.0,"status_group":"Operating","energy_sources":"WND","type":"Power plant","is_nuclear":false}},{"type":"Feature","geometry":{"type":"Point","coordinates":[-97.601,40.883]},"properties":{"key":"6229-a03a188d","layer":"power","name":"Mobile","state":"NE","detail_file":"data/details/power-plants-51.json","plant_id":"6229","capacity_mw":3.1,"status_group":"Operating","energy_sources":"DFO","type":"Power plant","is_nuclear":false}},{"type":"Feature","geometry":{"type":"Point","coordinates":[-97.608,41.487]},"properties":{"key":"2273-1e653d47","layer":"power","name":"Monroe (NE)","state":"NE","detail_file":"data/details/power-plants-26.json","plant_id":"2273","capacity_mw":7.8,"status_group":"Operating","energy_sources":"WAT","type":"Power plant","is_nuclear":false}},{"type":"Feature","geometry":{"type":"Point","coordinates":[-99.979,40.873]},"properties":{"key":"65416-0aed4819","layer":"power","name":"Monroe 009452 SCS Cozad, LLC","state":"NE","detail_file":"data/details/power-plants-30.json","plant_id":"65416","capacity_mw":2.0,"status_group":"Operating","energy_sources":"SUN","type":"Power plant","is_nuclear":false}},{"type":"Feature","geometry":{"type":"Point","coordinates":[-98.311,40.925]},"properties":{"key":"68678-ca559ef1","layer":"power","name":"Museum Drive East Solar","state":"NE","detail_file":"data/details/power-plants-25.json","plant_id":"68678","capacity_mw":9.9,"status_group":"Operating","energy_sources":"SUN","type":"Power plant","is_nuclear":false}},{"type":"Feature","geometry":{"type":"Point","coordinates":[-98.389,40.599]},"properties":{"key":"2244-f40b3d45","layer":"power","name":"North Denver","state":"NE","detail_file":"data/details/power-plants-31.json","plant_id":"2244","capacity_mw":39.0,"status_group":"Operating","energy_sources":"NG","type":"Power plant","is_nuclear":false}},{"type":"Feature","geometry":{"type":"Point","coordinates":[-98.926,41.604]},"properties":{"key":"2294-54351c14","layer":"power","name":"Ord","state":"NE","detail_file":"data/details/power-plants-54.json","plant_id":"2294","capacity_mw":12.0,"status_group":"Operating","energy_sources":"DFO","type":"Power plant","is_nuclear":false}},{"type":"Feature","geometry":{"type":"Point","coordinates":[-97.597,42.366]},"properties":{"key":"69928-bc59351f","layer":"power","name":"Osmond 1","state":"NE","detail_file":"data/details/power-plants-02.json","plant_id":"69928","capacity_mw":1.6,"status_group":"Operating","energy_sources":"DFO","type":"Power plant","is_nuclear":false}},{"type":"Feature","geometry":{"type":"Point","coordinates":[-99.611,40.258]},"properties":{"key":"2295-e2c288fe","layer":"power","name":"Oxford (NE)","state":"NE","detail_file":"data/details/power-plants-54.json","plant_id":"2295","capacity_mw":3.4,"status_group":"Operating","energy_sources":"NG","type":"Power plant","is_nuclear":false}},{"type":"Feature","geometry":{"type":"Point","coordinates":[-96.705,42.115]},"properties":{"key":"2296-6225d206","layer":"power","name":"Pender","state":"NE","detail_file":"data/details/power-plants-31.json","plant_id":"2296","capacity_mw":4.9,"status_group":"Operating","energy_sources":"DFO","type":"Power plant","is_nuclear":false}},{"type":"Feature","geometry":{"type":"Point","coordinates":[-97.643,40.632]},"properties":{"key":"61677-0954a10b","layer":"power","name":"Perennial Windfarm","state":"NE","detail_file":"data/details/power-plants-31.json","plant_id":"61677","capacity_mw":6.9,"status_group":"Operating","energy_sources":"WND","type":"Power plant","is_nuclear":false}},{"type":"Feature","geometry":{"type":"Point","coordinates":[-98.348,40.855]},"properties":{"key":"59-e4cb081a","layer":"power","name":"Platte","state":"NE","detail_file":"data/details/power-plants-61.json","plant_id":"59","capacity_mw":109.8,"status_group":"Operating","energy_sources":"SUB","type":"Power plant","is_nuclear":false}},{"type":"Feature","geometry":{"type":"Point","coordinates":[-96.379,41.191]},"properties":{"key":"65334-11ad020b","layer":"power","name":"Platteview Solar LLC","state":"NE","detail_file":"data/details/power-plants-41.json","plant_id":"65334","capacity_mw":81.0,"status_group":"Operating","energy_sources":"SUN","type":"Power plant","is_nuclear":false}},{"type":"Feature","geometry":{"type":"Point","coordinates":[-97.204,42.162]},"properties":{"key":"62711-839c3c15","layer":"power","name":"Plum Creek Wind Project (NE)","state":"NE","detail_file":"data/details/power-plants-07.json","plant_id":"62711","capacity_mw":230.0,"status_group":"Operating","energy_sources":"WND","type":"Power plant","is_nuclear":false}},{"type":"Feature","geometry":{"type":"Point","coordinates":[-97.57,41.165]},"properties":{"key":"62333-0c73397d","layer":"power","name":"Polk County Renewables, LLC","state":"NE","detail_file":"data/details/power-plants-22.json","plant_id":"62333","capacity_mw":2.5,"status_group":"Operating","energy_sources":"WND","type":"Power plant","is_nuclear":false}},{"type":"Feature","geometry":{"type":"Point","coordinates":[-98.077,41.952]},"properties":{"key":"58322-eeb17fff","layer":"power","name":"Prairie Breeze","state":"NE","detail_file":"data/details/power-plants-13.json","plant_id":"58322","capacity_mw":206.5,"status_group":"Operating","energy_sources":"WND","type":"Power plant","is_nuclear":false}},{"type":"Feature","geometry":{"type":"Point","coordinates":[-98.21,41.988]},"properties":{"key":"60262-79f2a37a","layer":"power","name":"Prairie Breeze II","state":"NE","detail_file":"data/details/power-plants-46.json","plant_id":"60262","capacity_mw":73.4,"status_group":"Operating","energy_sources":"WND","type":"Power plant","is_nuclear":false}},{"type":"Feature","geometry":{"type":"Point","coordinates":[-98.21,41.988]},"properties":{"key":"60314-2dfd1888","layer":"power","name":"Prairie Breeze III","state":"NE","detail_file":"data/details/power-plants-09.json","plant_id":"60314","capacity_mw":35.8,"status_group":"Operating","energy_sources":"WND","type":"Power plant","is_nuclear":false}},{"type":"Feature","geometry":{"type":"Point","coordinates":[-96.786,40.57]},"properties":{"key":"69808-08566e4d","layer":"power","name":"Princeton Road Station","state":"NE","detail_file":"data/details/power-plants-49.json","plant_id":"69808","capacity_mw":748.0,"status_group":"Planned","energy_sources":"NG","type":"Power plant","is_nuclear":false}},{"type":"Feature","geometry":{"type":"Point","coordinates":[-96.829,42.375]},"properties":{"key":"59292-aa6dd3e2","layer":"power","name":"Rattlesnake Creek Wind Project","state":"NE","detail_file":"data/details/power-plants-07.json","plant_id":"59292","capacity_mw":318.1,"status_group":"Operating","energy_sources":"WND","type":"Power plant","is_nuclear":false}},{"type":"Feature","geometry":{"type":"Point","coordinates":[-98.519,40.098]},"properties":{"key":"2299-85eccf97","layer":"power","name":"Red Cloud","state":"NE","detail_file":"data/details/power-plants-14.json","plant_id":"2299","capacity_mw":5.7,"status_group":"Operating","energy_sources":"DFO","type":"Power plant","is_nuclear":false}},{"type":"Feature","geometry":{"type":"Point","coordinates":[-96.736,40.732]},"properties":{"key":"6373-e69e38fa","layer":"power","name":"Rokeby","state":"NE","detail_file":"data/details/power-plants-20.json","plant_id":"6373","capacity_mw":266.1,"status_group":"Operating","energy_sources":"DFO; NG","type":"Power plant","is_nuclear":false}},{"type":"Feature","geometry":{"type":"Point","coordinates":[-97.078,40.829]},"properties":{"key":"68714-c639baa4","layer":"power","name":"Ruby-Norris","state":"NE","detail_file":"data/details/power-plants-31.json","plant_id":"68714","capacity_mw":1.0,"status_group":"Operating","energy_sources":"SUN","type":"Power plant","is_nuclear":false}},{"type":"Feature","geometry":{"type":"Point","coordinates":[-98.96,40.314]},"properties":{"key":"66195-41451b40","layer":"power","name":"SPPW1, LLC","state":"NE","detail_file":"data/details/power-plants-29.json","plant_id":"66195","capacity_mw":5.6,"status_group":"Operating","energy_sources":"WND","type":"Power plant","is_nuclear":false}},{"type":"Feature","geometry":{"type":"Point","coordinates":[-99.37,41.642]},"properties":{"key":"2300-036ed426","layer":"power","name":"Sargent","state":"NE","detail_file":"data/details/power-plants-10.json","plant_id":"2300","capacity_mw":2.4,"status_group":"Operating","energy_sources":"DFO","type":"Power plant","is_nuclear":false}},{"type":"Feature","geometry":{"type":"Point","coordinates":[-96.669,41.668]},"properties":{"key":"64420-6fb6b9b7","layer":"power","name":"Scribner Diesel Generation Facility","state":"NE","detail_file":"data/details/power-plants-05.json","plant_id":"64420","capacity_mw":4.0,"status_group":"Operating","energy_sources":"OBL","type":"Power plant","is_nuclear":false}},{"type":"Feature","geometry":{"type":"Point","coordinates":[-97.195,40.895]},"properties":{"key":"61056-9e9fdc38","layer":"power","name":"Seward Wind Farm","state":"NE","detail_file":"data/details/power-plants-36.json","plant_id":"61056","capacity_mw":1.7,"status_group":"Operating","energy_sources":"WND","type":"Power plant","is_nuclear":false}},{"type":"Feature","geometry":{"type":"Point","coordinates":[-96.785,40.559]},"properties":{"key":"2277-a4c87665","layer":"power","name":"Sheldon","state":"NE","detail_file":"data/details/power-plants-22.json","plant_id":"2277","capacity_mw":228.7,"status_group":"Operating","energy_sources":"SUB","type":"Power plant","is_nuclear":false}},{"type":"Feature","geometry":{"type":"Point","coordinates":[-97.365,42.312]},"properties":{"key":"61889-d63e8b98","layer":"power","name":"Sholes Wind Energy Center","state":"NE","detail_file":"data/details/power-plants-40.json","plant_id":"61889","capacity_mw":160.0,"status_group":"Operating","energy_sources":"WND","type":"Power plant","is_nuclear":false}},{"type":"Feature","geometry":{"type":"Point","coordinates":[-97.483,42.031]},"properties":{"key":"66178-8a0968f9","layer":"power","name":"South 49th 013445 SCS Norfolk, LLC","state":"NE","detail_file":"data/details/power-plants-04.json","plant_id":"66178","capacity_mw":10.6,"status_group":"Operating","energy_sources":"MWH; SUN","type":"Power plant","is_nuclear":false}},{"type":"Feature","geometry":{"type":"Point","coordinates":[-96.407,42.433]},"properties":{"key":"65098-d0dfc656","layer":"power","name":"South Sioux City Energy Storage","state":"NE","detail_file":"data/details/power-plants-08.json","plant_id":"65098","capacity_mw":1.5,"status_group":"Operating","energy_sources":"MWH","type":"Power plant","is_nuclear":false}},{"type":"Feature","geometry":{"type":"Point","coordinates":[-96.44,42.458]},"properties":{"key":"60823-188f95b8","layer":"power","name":"South Sioux City Solar","state":"NE","detail_file":"data/details/power-plants-46.json","plant_id":"60823","capacity_mw":2.3,"status_group":"Operating","energy_sources":"SUN","type":"Power plant","is_nuclear":false}},{"type":"Feature","geometry":{"type":"Point","coordinates":[-98.368,41.681]},"properties":{"key":"2303-62393a0f","layer":"power","name":"Spalding","state":"NE","detail_file":"data/details/power-plants-50.json","plant_id":"2303","capacity_mw":2.1,"status_group":"Operating","energy_sources":"DFO; WAT","type":"Power plant","is_nuclear":false}},{"type":"Feature","geometry":{"type":"Point","coordinates":[-99.777,42.826]},"properties":{"key":"7771-77363190","layer":"power","name":"Springview","state":"NE","detail_file":"data/details/power-plants-04.json","plant_id":"7771","capacity_mw":3.0,"status_group":"Operating","energy_sources":"WND","type":"Power plant","is_nuclear":false}},{"type":"Feature","geometry":{"type":"Point","coordinates":[-98.446,41.214]},"properties":{"key":"68721-008453a2","layer":"power","name":"St. Paul-Howard Greeley","state":"NE","detail_file":"data/details/power-plants-32.json","plant_id":"68721","capacity_mw":1.0,"status_group":"Operating","energy_sources":"SUN","type":"Power plant","is_nuclear":false}},{"type":"Feature","geometry":{"type":"Point","coordinates":[-96.094,41.316]},"properties":{"key":"64548-3f458ffb","layer":"power","name":"Standing Bear Lake","state":"NE","detail_file":"data/details/power-plants-30.json","plant_id":"64548","capacity_mw":162.9,"status_group":"Operating","energy_sources":"NG","type":"Power plant","is_nuclear":false}},{"type":"Feature","geometry":{"type":"Point","coordinates":[-96.952,40.049]},"properties":{"key":"58594-9ff744e9","layer":"power","name":"Steele Flats Wind Project LLC","state":"NE","detail_file":"data/details/power-plants-19.json","plant_id":"58594","capacity_mw":78.8,"status_group":"Operating","energy_sources":"WND","type":"Power plant","is_nuclear":false}},{"type":"Feature","geometry":{"type":"Point","coordinates":[-97.579,41.125]},"properties":{"key":"68723-739f5920","layer":"power","name":"Stromsburg-Polk County","state":"NE","detail_file":"data/details/power-plants-20.json","plant_id":"68723","capacity_mw":1.0,"status_group":"Operating","energy_sources":"SUN","type":"Power plant","is_nuclear":false}},{"type":"Feature","geometry":{"type":"Point","coordinates":[-99.144,42.599]},"properties":{"key":"2305-06150e34","layer":"power","name":"Stuart (NE)","state":"NE","detail_file":"data/details/power-plants-41.json","plant_id":"2305","capacity_mw":1.5,"status_group":"Operating","energy_sources":"DFO; NG","type":"Power plant","is_nuclear":false}},{"type":"Feature","geometry":{"type":"Point","coordinates":[-96.178,40.676]},"properties":{"key":"2256-e9f3b4e2","layer":"power","name":"Syracuse # 2","state":"NE","detail_file":"data/details/power-plants-31.json","plant_id":"2256","capacity_mw":4.0,"status_group":"Operating","energy_sources":"NG","type":"Power plant","is_nuclear":false}},{"type":"Feature","geometry":{"type":"Point","coordinates":[-97.961,41.865]},"properties":{"key":"57755-931b2719","layer":"power","name":"TPW Petersburg","state":"NE","detail_file":"data/details/power-plants-45.json","plant_id":"57755","capacity_mw":40.5,"status_group":"Operating","energy_sources":"WND","type":"Power plant","is_nuclear":false}},{"type":"Feature","geometry":{"type":"Point","coordinates":[-96.19,40.366]},"properties":{"key":"2308-9207e94a","layer":"power","name":"Tecumseh","state":"NE","detail_file":"data/details/power-plants-10.json","plant_id":"2308","capacity_mw":7.0,"status_group":"Operating","energy_sources":"DFO; NG","type":"Power plant","is_nuclear":false}},{"type":"Feature","geometry":{"type":"Point","coordinates":[-96.19,40.366]},"properties":{"key":"2308-dbdb9f2a","layer":"power","name":"Tecumseh","state":"NE","detail_file":"data/details/power-plants-50.json","plant_id":"2308","capacity_mw":4.2,"status_group":"Under construction","energy_sources":"DFO","type":"Power plant","is_nuclear":false}},{"type":"Feature","geometry":{"type":"Point","coordinates":[-96.613,40.91]},"properties":{"key":"7887-6ac1b396","layer":"power","name":"Terry Bundy Generating Station","state":"NE","detail_file":"data/details/power-plants-63.json","plant_id":"7887","capacity_mw":216.3,"status_group":"Operating","energy_sources":"DFO; LFG; NG","type":"Power plant","is_nuclear":false}},{"type":"Feature","geometry":{"type":"Point","coordinates":[-96.613,40.91]},"properties":{"key":"7887-28a25048","layer":"power","name":"Terry Bundy Generating Station","state":"NE","detail_file":"data/details/power-plants-45.json","plant_id":"7887","capacity_mw":104.0,"status_group":"Under construction","energy_sources":"NG","type":"Power plant","is_nuclear":false}},{"type":"Feature","geometry":{"type":"Point","coordinates":[-98.239,42.062]},"properties":{"key":"62956-593582d6","layer":"power","name":"Thunderhead Wind Energy LLC","state":"NE","detail_file":"data/details/power-plants-47.json","plant_id":"62956","capacity_mw":300.0,"status_group":"Operating","energy_sources":"WND","type":"Power plant","is_nuclear":false}},{"type":"Feature","geometry":{"type":"Point","coordinates":[-96.168,41.092]},"properties":{"key":"64547-31a0b9b2","layer":"power","name":"Turtle Creek","state":"NE","detail_file":"data/details/power-plants-21.json","plant_id":"64547","capacity_mw":528.0,"status_group":"Operating","energy_sources":"NG","type":"Power plant","is_nuclear":false}},{"type":"Feature","geometry":{"type":"Point","coordinates":[-96.168,41.092]},"properties":{"key":"64547-eb9a0a04","layer":"power","name":"Turtle Creek","state":"NE","detail_file":"data/details/power-plants-50.json","plant_id":"64547","capacity_mw":264.0,"status_group":"Under construction","energy_sources":"NG","type":"Power plant","is_nuclear":false}},{"type":"Feature","geometry":{"type":"Point","coordinates":[-97.965,42.184]},"properties":{"key":"61784-fea4bc48","layer":"power","name":"Upstream Wind Energy LLC","state":"NE","detail_file":"data/details/power-plants-46.json","plant_id":"61784","capacity_mw":202.5,"status_group":"Operating","energy_sources":"WND","type":"Power plant","is_nuclear":false}},{"type":"Feature","geometry":{"type":"Point","coordinates":[-96.612,41.212]},"properties":{"key":"2310-901e2bd1","layer":"power","name":"Wahoo","state":"NE","detail_file":"data/details/power-plants-56.json","plant_id":"2310","capacity_mw":14.2,"status_group":"Operating","energy_sources":"DFO; NG","type":"Power plant","is_nuclear":false}},{"type":"Feature","geometry":{"type":"Point","coordinates":[-96.862,42.269]},"properties":{"key":"2311-eb80287a","layer":"power","name":"Wakefield","state":"NE","detail_file":"data/details/power-plants-45.json","plant_id":"2311","capacity_mw":4.1,"status_group":"Operating","energy_sources":"DFO","type":"Power plant","is_nuclear":false}},{"type":"Feature","geometry":{"type":"Point","coordinates":[-97.018,42.228]},"properties":{"key":"2312-886ea703","layer":"power","name":"Wayne IC","state":"NE","detail_file":"data/details/power-plants-11.json","plant_id":"2312","capacity_mw":21.8,"status_group":"Operating","energy_sources":"DFO","type":"Power plant","is_nuclear":false}},{"type":"Feature","geometry":{"type":"Point","coordinates":[-96.713,41.845]},"properties":{"key":"2313-33fb79e8","layer":"power","name":"West Point Municipal","state":"NE","detail_file":"data/details/power-plants-07.json","plant_id":"2313","capacity_mw":4.4,"status_group":"Operating","energy_sources":"DFO","type":"Power plant","is_nuclear":false}},{"type":"Feature","geometry":{"type":"Point","coordinates":[-98.312,40.581]},"properties":{"key":"60-dbd4c827","layer":"power","name":"Whelan Energy Center","state":"NE","detail_file":"data/details/power-plants-27.json","plant_id":"60","capacity_mw":324.3,"status_group":"Operating","energy_sources":"SUB","type":"Power plant","is_nuclear":false}},{"type":"Feature","geometry":{"type":"Point","coordinates":[-96.96,40.48]},"properties":{"key":"2315-6cdbb9a9","layer":"power","name":"Wilber","state":"NE","detail_file":"data/details/power-plants-51.json","plant_id":"2315","capacity_mw":3.6,"status_group":"Operating","energy_sources":"DFO","type":"Power plant","is_nuclear":false}},{"type":"Feature","geometry":{"type":"Point","coordinates":[-96.916,41.988]},"properties":{"key":"2316-1cb8318e","layer":"power","name":"Wisner","state":"NE","detail_file":"data/details/power-plants-63.json","plant_id":"2316","capacity_mw":3.0,"status_group":"Operating","energy_sources":"DFO","type":"Power plant","is_nuclear":false}},{"type":"Feature","geometry":{"type":"Point","coordinates":[-96.916,41.988]},"properties":{"key":"2316-99650f91","layer":"power","name":"Wisner","state":"NE","detail_file":"data/details/power-plants-34.json","plant_id":"2316","capacity_mw":1.5,"status_group":"Under construction","energy_sources":"DFO","type":"Power plant","is_nuclear":false}},{"type":"Feature","geometry":{"type":"Point","coordinates":[-96.636,43.603]},"properties":{"key":"7237-916b7bdf","layer":"power","name":"Angus Anson","state":"SD","detail_file":"data/details/power-plants-26.json","plant_id":"7237","capacity_mw":405.7,"status_group":"Operating","energy_sources":"NG","type":"Power plant","is_nuclear":false}},{"type":"Feature","geometry":{"type":"Point","coordinates":[-98.764,43.731]},"properties":{"key":"61745-2ac4921c","layer":"power","name":"Aurora County Wind","state":"SD","detail_file":"data/details/power-plants-51.json","plant_id":"61745","capacity_mw":20.0,"status_group":"Operating","energy_sources":"WND","type":"Power plant","is_nuclear":false}},{"type":"Feature","geometry":{"type":"Point","coordinates":[-98.08,43.16]},"properties":{"key":"59187-5dd1e5a3","layer":"power","name":"Beethoven Wind","state":"SD","detail_file":"data/details/power-plants-59.json","plant_id":"59187","capacity_mw":80.0,"status_group":"Operating","energy_sources":"WND","type":"Power plant","is_nuclear":false}},{"type":"Feature","geometry":{"type":"Point","coordinates":[-98.922,43.717]},"properties":{"key":"61746-65132780","layer":"power","name":"Brule County Wind","state":"SD","detail_file":"data/details/power-plants-54.json","plant_id":"61746","capacity_mw":20.0,"status_group":"Operating","energy_sources":"WND","type":"Power plant","is_nuclear":false}},{"type":"Feature","geometry":{"type":"Point","coordinates":[-98.554,43.065]},"properties":{"key":"3373-c51fc7f8","layer":"power","name":"Fort Randall","state":"SD","detail_file":"data/details/power-plants-38.json","plant_id":"3373","capacity_mw":320.0,"status_group":"Operating","energy_sources":"WAT","type":"Power plant","is_nuclear":false}},{"type":"Feature","geometry":{"type":"Point","coordinates":[-97.267,43.55]},"properties":{"key":"69981-c9b09fd4","layer":"power","name":"Grant Solar, LLC","state":"SD","detail_file":"data/details/power-plants-35.json","plant_id":"69981","capacity_mw":99.0,"status_group":"Under construction","energy_sources":"SUN","type":"Power plant","is_nuclear":false}},{"type":"Feature","geometry":{"type":"Point","coordinates":[-98.102,43.802]},"properties":{"key":"65367-6d4c5a14","layer":"power","name":"POET Bioprocessing- Mitchell","state":"SD","detail_file":"data/details/power-plants-08.json","plant_id":"65367","capacity_mw":3.9,"status_group":"Operating","energy_sources":"NG","type":"Power plant","is_nuclear":false}},{"type":"Feature","geometry":{"type":"Point","coordinates":[-96.96,43.37]},"properties":{"key":"63853-72eb7715","layer":"power","name":"POET Biorefining - Chancellor","state":"SD","detail_file":"data/details/power-plants-07.json","plant_id":"63853","capacity_mw":5.4,"status_group":"Operating","energy_sources":"WDS","type":"Power plant","is_nuclear":false}},{"type":"Feature","geometry":{"type":"Point","coordinates":[-96.477,43.097]},"properties":{"key":"63918-f1b7e2e5","layer":"power","name":"POET Biorefining - Hudson","state":"SD","detail_file":"data/details/power-plants-47.json","plant_id":"63918","capacity_mw":3.6,"status_group":"Operating","energy_sources":"NG","type":"Power plant","is_nuclear":false}},{"type":"Feature","geometry":{"type":"Point","coordinates":[-98.787,43.886]},"properties":{"key":"56608-8aa55f61","layer":"power","name":"Prairie Winds SD1","state":"SD","detail_file":"data/details/power-plants-33.json","plant_id":"56608","capacity_mw":162.0,"status_group":"Operating","energy_sources":"WND","type":"Power plant","is_nuclear":false}},{"type":"Feature","geometry":{"type":"Point","coordinates":[-97.526,43.039]},"properties":{"key":"62247-7413bfbf","layer":"power","name":"Prevailing Wind Park","state":"SD","detail_file":"data/details/power-plants-60.json","plant_id":"62247","capacity_mw":220.0,"status_group":"Operating","energy_sources":"WND","type":"Power plant","is_nuclear":false}},{"type":"Feature","geometry":{"type":"Point","coordinates":[-96.99,42.898]},"properties":{"key":"6092-3bd8d12d","layer":"power","name":"Spirit Mound","state":"SD","detail_file":"data/details/power-plants-35.json","plant_id":"6092","capacity_mw":135.0,"status_group":"Operating","energy_sources":"DFO","type":"Power plant","is_nuclear":false}},{"type":"Feature","geometry":{"type":"Point","coordinates":[-97.353,42.893]},"properties":{"key":"8034-fa156bcb","layer":"power","name":"Yankton","state":"SD","detail_file":"data/details/power-plants-21.json","plant_id":"8034","capacity_mw":13.4,"status_group":"Operating","energy_sources":"DFO; NG","type":"Power plant","is_nuclear":false}}]}