{"type":"FeatureCollection","features":[{"type":"Feature","geometry":{"type":"Point","coordinates":[-158.469,59.043]},"properties":{"key":"109-56c22f22","layer":"power","name":"Dillingham","state":"AK","detail_file":"data/details/power-plants-13.json","plant_id":"109","capacity_mw":10.5,"status_group":"Operating","energy_sources":"DFO","type":"Power plant","is_nuclear":false}},{"type":"Feature","geometry":{"type":"Point","coordinates":[-157.007,58.73]},"properties":{"key":"6301-1e8f7a14","layer":"power","name":"Naknek","state":"AK","detail_file":"data/details/power-plants-06.json","plant_id":"6301","capacity_mw":16.5,"status_group":"Operating","energy_sources":"DFO","type":"Power plant","is_nuclear":false}},{"type":"Feature","geometry":{"type":"Point","coordinates":[-157.326,59.448]},"properties":{"key":"60245-5586f3b5","layer":"power","name":"New Stuyahok","state":"AK","detail_file":"data/details/power-plants-09.json","plant_id":"60245","capacity_mw":1.3,"status_group":"Operating","energy_sources":"DFO","type":"Power plant","is_nuclear":false}}]}