{"type":"FeatureCollection","features":[{"type":"Feature","geometry":{"type":"Point","coordinates":[-162.264,64.617]},"properties":{"key":"57060-12926bb5","layer":"power","name":"Elim","state":"AK","detail_file":"data/details/power-plants-34.json","plant_id":"57060","capacity_mw":1.1,"status_group":"Operating","energy_sources":"DFO","type":"Power plant","is_nuclear":false}},{"type":"Feature","geometry":{"type":"Point","coordinates":[-160.429,66.974]},"properties":{"key":"6323-6cedff1a","layer":"power","name":"Kiana","state":"AK","detail_file":"data/details/power-plants-51.json","plant_id":"6323","capacity_mw":1.3,"status_group":"Operating","energy_sources":"DFO","type":"Power plant","is_nuclear":false}},{"type":"Feature","geometry":{"type":"Point","coordinates":[-162.557,66.838]},"properties":{"key":"6304-32813b16","layer":"power","name":"Kotzebue Hybrid","state":"AK","detail_file":"data/details/power-plants-61.json","plant_id":"6304","capacity_mw":16.5,"status_group":"Operating","energy_sources":"DFO; MWH; SUN; WND","type":"Power plant","is_nuclear":false}},{"type":"Feature","geometry":{"type":"Point","coordinates":[-161.167,64.932]},"properties":{"key":"57059-dd54014b","layer":"power","name":"Koyuk","state":"AK","detail_file":"data/details/power-plants-10.json","plant_id":"57059","capacity_mw":1.1,"status_group":"Operating","energy_sources":"DFO","type":"Power plant","is_nuclear":false}},{"type":"Feature","geometry":{"type":"Point","coordinates":[-162.966,67.571]},"properties":{"key":"57051-5d09dd67","layer":"power","name":"Noatak","state":"AK","detail_file":"data/details/power-plants-00.json","plant_id":"57051","capacity_mw":1.3,"status_group":"Operating","energy_sources":"DFO","type":"Power plant","is_nuclear":false}},{"type":"Feature","geometry":{"type":"Point","coordinates":[-161.039,66.835]},"properties":{"key":"6330-b75a591b","layer":"power","name":"Noorvik","state":"AK","detail_file":"data/details/power-plants-25.json","plant_id":"6330","capacity_mw":1.9,"status_group":"Operating","energy_sources":"DFO","type":"Power plant","is_nuclear":false}},{"type":"Feature","geometry":{"type":"Point","coordinates":[-160.015,66.607]},"properties":{"key":"6341-3047ad65","layer":"power","name":"Selawik","state":"AK","detail_file":"data/details/power-plants-41.json","plant_id":"6341","capacity_mw":2.2,"status_group":"Operating","energy_sources":"DFO","type":"Power plant","is_nuclear":false}}]}