{"type":"FeatureCollection","features":[{"type":"Feature","geometry":{"type":"Point","coordinates":[-112.719,44.027]},"properties":{"key":"10140-ffc0764a","layer":"power","name":"Birch Creek Power","state":"ID","detail_file":"data/details/power-plants-01.json","plant_id":"10140","capacity_mw":2.6,"status_group":"Operating","energy_sources":"WAT","type":"Power plant","is_nuclear":false}},{"type":"Feature","geometry":{"type":"Point","coordinates":[-112.719,44.027]},"properties":{"key":"54394-88c53f45","layer":"power","name":"Dry Creek Project","state":"ID","detail_file":"data/details/power-plants-50.json","plant_id":"54394","capacity_mw":3.6,"status_group":"Operating","energy_sources":"WAT","type":"Power plant","is_nuclear":false}},{"type":"Feature","geometry":{"type":"Point","coordinates":[-115.949,46.384]},"properties":{"key":"54674-5d5a9ee6","layer":"power","name":"Ford Hydro LP","state":"ID","detail_file":"data/details/power-plants-26.json","plant_id":"54674","capacity_mw":1.2,"status_group":"Operating","energy_sources":"WAT","type":"Power plant","is_nuclear":false}},{"type":"Feature","geometry":{"type":"Point","coordinates":[-113.885,45.183]},"properties":{"key":"817-5e1d909f","layer":"power","name":"Salmon Diesel","state":"ID","detail_file":"data/details/power-plants-47.json","plant_id":"817","capacity_mw":5.0,"status_group":"Operating","energy_sources":"DFO","type":"Power plant","is_nuclear":false}},{"type":"Feature","geometry":{"type":"Point","coordinates":[-113.059,45.05]},"properties":{"key":"68315-25795d95","layer":"power","name":"Anthelope Hills Solar Generation BESS","state":"MT","detail_file":"data/details/power-plants-00.json","plant_id":"68315","capacity_mw":400.0,"status_group":"Under construction","energy_sources":"MWH; SUN","type":"Power plant","is_nuclear":false}},{"type":"Feature","geometry":{"type":"Point","coordinates":[-112.746,45.236]},"properties":{"key":"64189-6ce29399","layer":"power","name":"Apex Solar","state":"MT","detail_file":"data/details/power-plants-59.json","plant_id":"64189","capacity_mw":80.0,"status_group":"Operating","energy_sources":"SUN","type":"Power plant","is_nuclear":false}},{"type":"Feature","geometry":{"type":"Point","coordinates":[-112.519,45.929]},"properties":{"key":"55866-7284b963","layer":"power","name":"Basin Creek Plant","state":"MT","detail_file":"data/details/power-plants-23.json","plant_id":"55866","capacity_mw":54.9,"status_group":"Operating","energy_sources":"NG","type":"Power plant","is_nuclear":false}},{"type":"Feature","geometry":{"type":"Point","coordinates":[-112.877,46.105]},"properties":{"key":"56908-ceca9d87","layer":"power","name":"Dave Gates Generating Station","state":"MT","detail_file":"data/details/power-plants-23.json","plant_id":"56908","capacity_mw":203.1,"status_group":"Operating","energy_sources":"NG","type":"Power plant","is_nuclear":false}},{"type":"Feature","geometry":{"type":"Point","coordinates":[-113.295,46.227]},"properties":{"key":"58392-12c20c9e","layer":"power","name":"Flint Creek Hydroelectric LLC","state":"MT","detail_file":"data/details/power-plants-44.json","plant_id":"58392","capacity_mw":2.0,"status_group":"Operating","energy_sources":"WAT","type":"Power plant","is_nuclear":false}},{"type":"Feature","geometry":{"type":"Point","coordinates":[-112.249,46.806]},"properties":{"key":"61335-5e0b5726","layer":"power","name":"Great Divide Solar, LLC","state":"MT","detail_file":"data/details/power-plants-14.json","plant_id":"61335","capacity_mw":3.0,"status_group":"Operating","energy_sources":"SUN","type":"Power plant","is_nuclear":false}},{"type":"Feature","geometry":{"type":"Point","coordinates":[-112.064,46.694]},"properties":{"key":"61291-82f88ba8","layer":"power","name":"Green Meadow Solar, LLC","state":"MT","detail_file":"data/details/power-plants-54.json","plant_id":"61291","capacity_mw":3.0,"status_group":"Operating","energy_sources":"SUN","type":"Power plant","is_nuclear":false}},{"type":"Feature","geometry":{"type":"Point","coordinates":[-112.005,46.992]},"properties":{"key":"2186-77051bc4","layer":"power","name":"Holter","state":"MT","detail_file":"data/details/power-plants-25.json","plant_id":"2186","capacity_mw":54.6,"status_group":"Operating","energy_sources":"WAT","type":"Power plant","is_nuclear":false}},{"type":"Feature","geometry":{"type":"Point","coordinates":[-115.734,47.96]},"properties":{"key":"2199-d938b923","layer":"power","name":"Noxon Rapids","state":"MT","detail_file":"data/details/power-plants-45.json","plant_id":"2199","capacity_mw":487.8,"status_group":"Operating","energy_sources":"WAT","type":"Power plant","is_nuclear":false}},{"type":"Feature","geometry":{"type":"Point","coordinates":[-114.234,47.678]},"properties":{"key":"2188-15586571","layer":"power","name":"Selis Ksanka Qlispe","state":"MT","detail_file":"data/details/power-plants-30.json","plant_id":"2188","capacity_mw":227.8,"status_group":"Operating","energy_sources":"WAT","type":"Power plant","is_nuclear":false}},{"type":"Feature","geometry":{"type":"Point","coordinates":[-115.358,47.593]},"properties":{"key":"2195-ba8de1cf","layer":"power","name":"Thompson Falls","state":"MT","detail_file":"data/details/power-plants-05.json","plant_id":"2195","capacity_mw":98.1,"status_group":"Operating","energy_sources":"WAT","type":"Power plant","is_nuclear":false}},{"type":"Feature","geometry":{"type":"Point","coordinates":[-112.097,47.605]},"properties":{"key":"57690-7e3b04f2","layer":"power","name":"Turnbull Hydro","state":"MT","detail_file":"data/details/power-plants-28.json","plant_id":"57690","capacity_mw":13.0,"status_group":"Operating","energy_sources":"WAT","type":"Power plant","is_nuclear":false}},{"type":"Feature","geometry":{"type":"Point","coordinates":[-113.983,46.863]},"properties":{"key":"69880-00548bd1","layer":"power","name":"University of Montana CHP","state":"MT","detail_file":"data/details/power-plants-47.json","plant_id":"69880","capacity_mw":6.1,"status_group":"Operating","energy_sources":"DFO; NG","type":"Power plant","is_nuclear":false}}]}