{"type":"FeatureCollection","features":[{"type":"Feature","geometry":{"type":"Point","coordinates":[-146.353,61.084]},"properties":{"key":"58982-849cbca2","layer":"power","name":"Allison Creek Hydro","state":"AK","detail_file":"data/details/power-plants-21.json","plant_id":"58982","capacity_mw":6.5,"status_group":"Operating","energy_sources":"WAT","type":"Power plant","is_nuclear":false}},{"type":"Feature","geometry":{"type":"Point","coordinates":[-145.741,60.54]},"properties":{"key":"62714-cee7af3d","layer":"power","name":"Eyak Service Center BESS","state":"AK","detail_file":"data/details/power-plants-06.json","plant_id":"62714","capacity_mw":1.0,"status_group":"Operating","energy_sources":"MWH","type":"Power plant","is_nuclear":false}},{"type":"Feature","geometry":{"type":"Point","coordinates":[-145.717,63.974]},"properties":{"key":"54834-0c0d5109","layer":"power","name":"Fort Greely Power Plant","state":"AK","detail_file":"data/details/power-plants-13.json","plant_id":"54834","capacity_mw":7.4,"status_group":"Operating","energy_sources":"DFO","type":"Power plant","is_nuclear":false}},{"type":"Feature","geometry":{"type":"Point","coordinates":[-145.532,62.11]},"properties":{"key":"6305-c8147277","layer":"power","name":"Glennallen","state":"AK","detail_file":"data/details/power-plants-08.json","plant_id":"6305","capacity_mw":9.2,"status_group":"Operating","energy_sources":"DFO","type":"Power plant","is_nuclear":false}},{"type":"Feature","geometry":{"type":"Point","coordinates":[-145.679,60.613]},"properties":{"key":"7042-7d5a3194","layer":"power","name":"Humpback Creek","state":"AK","detail_file":"data/details/power-plants-25.json","plant_id":"7042","capacity_mw":1.2,"status_group":"Operating","energy_sources":"WAT","type":"Power plant","is_nuclear":false}},{"type":"Feature","geometry":{"type":"Point","coordinates":[-145.753,60.556]},"properties":{"key":"789-59581d3b","layer":"power","name":"Orca","state":"AK","detail_file":"data/details/power-plants-49.json","plant_id":"789","capacity_mw":8.7,"status_group":"Operating","energy_sources":"DFO","type":"Power plant","is_nuclear":false}},{"type":"Feature","geometry":{"type":"Point","coordinates":[-145.605,60.589]},"properties":{"key":"7862-1784a2e1","layer":"power","name":"Power Creek","state":"AK","detail_file":"data/details/power-plants-07.json","plant_id":"7862","capacity_mw":6.0,"status_group":"Operating","energy_sources":"WAT","type":"Power plant","is_nuclear":false}},{"type":"Feature","geometry":{"type":"Point","coordinates":[-146.303,61.083]},"properties":{"key":"390-112c209d","layer":"power","name":"Solomon Gulch","state":"AK","detail_file":"data/details/power-plants-00.json","plant_id":"390","capacity_mw":12.0,"status_group":"Operating","energy_sources":"WAT","type":"Power plant","is_nuclear":false}},{"type":"Feature","geometry":{"type":"Point","coordinates":[-146.365,61.13]},"properties":{"key":"6306-d581b070","layer":"power","name":"Valdez","state":"AK","detail_file":"data/details/power-plants-50.json","plant_id":"6306","capacity_mw":8.6,"status_group":"Operating","energy_sources":"DFO","type":"Power plant","is_nuclear":false}},{"type":"Feature","geometry":{"type":"Point","coordinates":[-146.253,61.084]},"properties":{"key":"7841-a860bf82","layer":"power","name":"Valdez Cogen","state":"AK","detail_file":"data/details/power-plants-35.json","plant_id":"7841","capacity_mw":5.3,"status_group":"Operating","energy_sources":"WO","type":"Power plant","is_nuclear":false}}]}