{"type":"FeatureCollection","features":[{"type":"Feature","geometry":{"type":"Point","coordinates":[-87.489,31.582]},"properties":{"key":"54429-5f1580b2","layer":"power","name":"Alabama Pine Pulp","state":"AL","detail_file":"data/details/power-plants-50.json","plant_id":"54429","capacity_mw":69.0,"status_group":"Operating","energy_sources":"BLQ","type":"Power plant","is_nuclear":false}},{"type":"Feature","geometry":{"type":"Point","coordinates":[-87.489,31.582]},"properties":{"key":"10216-3a962b0c","layer":"power","name":"Alabama River Pulp","state":"AL","detail_file":"data/details/power-plants-12.json","plant_id":"10216","capacity_mw":48.0,"status_group":"Operating","energy_sources":"BLQ","type":"Power plant","is_nuclear":false}},{"type":"Feature","geometry":{"type":"Point","coordinates":[-85.403,31.262]},"properties":{"key":"54985-5f1b484b","layer":"power","name":"Crestwood Dothan","state":"AL","detail_file":"data/details/power-plants-57.json","plant_id":"54985","capacity_mw":8.6,"status_group":"Operating","energy_sources":"DFO","type":"Power plant","is_nuclear":false}},{"type":"Feature","geometry":{"type":"Point","coordinates":[-87.358,31.02]},"properties":{"key":"67957-013ab2e4","layer":"power","name":"East Atmore Solar","state":"AL","detail_file":"data/details/power-plants-10.json","plant_id":"67957","capacity_mw":80.0,"status_group":"Operating","energy_sources":"SUN","type":"Power plant","is_nuclear":false}},{"type":"Feature","geometry":{"type":"Point","coordinates":[-87.728,30.377]},"properties":{"key":"68002-7e9051a7","layer":"power","name":"Foley Solar, LLC","state":"AL","detail_file":"data/details/power-plants-03.json","plant_id":"68002","capacity_mw":80.0,"status_group":"Under construction","energy_sources":"SUN","type":"Power plant","is_nuclear":false}},{"type":"Feature","geometry":{"type":"Point","coordinates":[-85.73,31.331]},"properties":{"key":"60679-c3d13705","layer":"power","name":"Fort Rucker Solar Array","state":"AL","detail_file":"data/details/power-plants-52.json","plant_id":"60679","capacity_mw":10.6,"status_group":"Operating","energy_sources":"SUN","type":"Power plant","is_nuclear":false}},{"type":"Feature","geometry":{"type":"Point","coordinates":[-86.479,31.403]},"properties":{"key":"53-05abd7f2","layer":"power","name":"Gantt","state":"AL","detail_file":"data/details/power-plants-54.json","plant_id":"53","capacity_mw":3.0,"status_group":"Operating","energy_sources":"WAT","type":"Power plant","is_nuclear":false}},{"type":"Feature","geometry":{"type":"Point","coordinates":[-87.112,31.077]},"properties":{"key":"54789-281a5ea0","layer":"power","name":"Georgia-Pacific Brewton Mill","state":"AL","detail_file":"data/details/power-plants-54.json","plant_id":"54789","capacity_mw":103.4,"status_group":"Operating","energy_sources":"BLQ; NG","type":"Power plant","is_nuclear":false}},{"type":"Feature","geometry":{"type":"Point","coordinates":[-87.481,31.97]},"properties":{"key":"54752-fead7db5","layer":"power","name":"International Paper Pine Hill Mill","state":"AL","detail_file":"data/details/power-plants-11.json","plant_id":"54752","capacity_mw":77.4,"status_group":"Operating","energy_sources":"BLQ; WDS","type":"Power plant","is_nuclear":false}},{"type":"Feature","geometry":{"type":"Point","coordinates":[-85.112,31.223]},"properties":{"key":"6001-11ca52ec","layer":"power","name":"Joseph M Farley","state":"AL","detail_file":"data/details/power-plants-07.json","plant_id":"6001","capacity_mw":1776.4,"status_group":"Operating","energy_sources":"NUC","type":"Nuclear power plant","is_nuclear":true}},{"type":"Feature","geometry":{"type":"Point","coordinates":[-87.911,31.488]},"properties":{"key":"56-813c80cc","layer":"power","name":"Lowman Energy Center","state":"AL","detail_file":"data/details/power-plants-36.json","plant_id":"56","capacity_mw":732.7,"status_group":"Operating","energy_sources":"NG","type":"Power plant","is_nuclear":false}},{"type":"Feature","geometry":{"type":"Point","coordinates":[-87.911,31.488]},"properties":{"key":"56-dcdce14f","layer":"power","name":"Lowman Energy Center","state":"AL","detail_file":"data/details/power-plants-57.json","plant_id":"56","capacity_mw":438.0,"status_group":"Under construction","energy_sources":"NG","type":"Power plant","is_nuclear":false}},{"type":"Feature","geometry":{"type":"Point","coordinates":[-86.476,31.4]},"properties":{"key":"533-af7e8b3d","layer":"power","name":"McWilliams","state":"AL","detail_file":"data/details/power-plants-58.json","plant_id":"533","capacity_mw":654.0,"status_group":"Operating","energy_sources":"NG","type":"Power plant","is_nuclear":false}},{"type":"Feature","geometry":{"type":"Point","coordinates":[-87.899,31.489]},"properties":{"key":"55044-80a77cd4","layer":"power","name":"Packaging Corp. of America Jackson Mill","state":"AL","detail_file":"data/details/power-plants-40.json","plant_id":"55044","capacity_mw":44.4,"status_group":"Operating","energy_sources":"BLQ; NG","type":"Power plant","is_nuclear":false}},{"type":"Feature","geometry":{"type":"Point","coordinates":[-86.518,31.361]},"properties":{"key":"55-81c5f989","layer":"power","name":"Point A","state":"AL","detail_file":"data/details/power-plants-45.json","plant_id":"55","capacity_mw":5.2,"status_group":"Operating","energy_sources":"WAT","type":"Power plant","is_nuclear":false}},{"type":"Feature","geometry":{"type":"Point","coordinates":[-87.705,31.435]},"properties":{"key":"68670-738ffa0a","layer":"power","name":"Walker Springs I","state":"AL","detail_file":"data/details/power-plants-41.json","plant_id":"68670","capacity_mw":80.0,"status_group":"Operating","energy_sources":"SUN","type":"Power plant","is_nuclear":false}},{"type":"Feature","geometry":{"type":"Point","coordinates":[-87.705,31.435]},"properties":{"key":"68669-d6aeca49","layer":"power","name":"Walker Springs II","state":"AL","detail_file":"data/details/power-plants-06.json","plant_id":"68669","capacity_mw":80.0,"status_group":"Operating","energy_sources":"SUN","type":"Power plant","is_nuclear":false}},{"type":"Feature","geometry":{"type":"Point","coordinates":[-86.592,31.008]},"properties":{"key":"64469-1ec8d304","layer":"power","name":"Wing","state":"AL","detail_file":"data/details/power-plants-01.json","plant_id":"64469","capacity_mw":80.0,"status_group":"Operating","energy_sources":"SUN","type":"Power plant","is_nuclear":false}},{"type":"Feature","geometry":{"type":"Point","coordinates":[-85.07,30.761]},"properties":{"key":"65432-17b1c88d","layer":"power","name":"Apalachee","state":"FL","detail_file":"data/details/power-plants-50.json","plant_id":"65432","capacity_mw":74.5,"status_group":"Operating","energy_sources":"SUN","type":"Power plant","is_nuclear":false}},{"type":"Feature","geometry":{"type":"Point","coordinates":[-84.4,30.452]},"properties":{"key":"688-96c80fc0","layer":"power","name":"Arvah B Hopkins","state":"FL","detail_file":"data/details/power-plants-60.json","plant_id":"688","capacity_mw":673.1,"status_group":"Operating","energy_sources":"NG","type":"Power plant","is_nuclear":false}},{"type":"Feature","geometry":{"type":"Point","coordinates":[-85.492,30.165]},"properties":{"key":"65171-ed13b274","layer":"power","name":"Bay Ranch Solar Power Plant","state":"FL","detail_file":"data/details/power-plants-04.json","plant_id":"65171","capacity_mw":74.9,"status_group":"Operating","energy_sources":"SUN","type":"Power plant","is_nuclear":false}},{"type":"Feature","geometry":{"type":"Point","coordinates":[-85.262,30.443]},"properties":{"key":"68820-2d67b1a7","layer":"power","name":"Big Brook","state":"FL","detail_file":"data/details/power-plants-21.json","plant_id":"68820","capacity_mw":74.5,"status_group":"Operating","energy_sources":"SUN","type":"Power plant","is_nuclear":false}},{"type":"Feature","geometry":{"type":"Point","coordinates":[-86.926,30.639]},"properties":{"key":"65862-b6e46beb","layer":"power","name":"Big Juniper Solar","state":"FL","detail_file":"data/details/power-plants-58.json","plant_id":"65862","capacity_mw":74.5,"status_group":"Operating","energy_sources":"SUN","type":"Power plant","is_nuclear":false}},{"type":"Feature","geometry":{"type":"Point","coordinates":[-86.938,30.647]},"properties":{"key":"65433-6b50694d","layer":"power","name":"Blackwater River Solar Energy Center","state":"FL","detail_file":"data/details/power-plants-05.json","plant_id":"65433","capacity_mw":149.0,"status_group":"Operating","energy_sources":"MWH; SUN","type":"Power plant","is_nuclear":false}},{"type":"Feature","geometry":{"type":"Point","coordinates":[-85.079,30.783]},"properties":{"key":"64757-eabf946b","layer":"power","name":"Blue Springs","state":"FL","detail_file":"data/details/power-plants-16.json","plant_id":"64757","capacity_mw":74.5,"status_group":"Operating","energy_sources":"SUN","type":"Power plant","is_nuclear":false}},{"type":"Feature","geometry":{"type":"Point","coordinates":[-86.78,30.68]},"properties":{"key":"65866-0d7175ac","layer":"power","name":"Canoe","state":"FL","detail_file":"data/details/power-plants-44.json","plant_id":"65866","capacity_mw":149.0,"status_group":"Operating","energy_sources":"MWH; SUN","type":"Power plant","is_nuclear":false}},{"type":"Feature","geometry":{"type":"Point","coordinates":[-85.391,29.732]},"properties":{"key":"63996-45b99966","layer":"power","name":"Cape San Blas","state":"FL","detail_file":"data/details/power-plants-09.json","plant_id":"63996","capacity_mw":5.5,"status_group":"Operating","energy_sources":"MWH","type":"Power plant","is_nuclear":false}},{"type":"Feature","geometry":{"type":"Point","coordinates":[-85.294,30.872]},"properties":{"key":"68331-bd764522","layer":"power","name":"Caverns Solar","state":"FL","detail_file":"data/details/power-plants-56.json","plant_id":"68331","capacity_mw":75.0,"status_group":"Under construction","energy_sources":"SUN","type":"Power plant","is_nuclear":false}},{"type":"Feature","geometry":{"type":"Point","coordinates":[-86.208,30.876]},"properties":{"key":"65421-f9e812c3","layer":"power","name":"Chautauqua Solar Energy Center","state":"FL","detail_file":"data/details/power-plants-24.json","plant_id":"65421","capacity_mw":74.5,"status_group":"Operating","energy_sources":"SUN","type":"Power plant","is_nuclear":false}},{"type":"Feature","geometry":{"type":"Point","coordinates":[-84.354,30.379]},"properties":{"key":"60582-2e6355d2","layer":"power","name":"CoTAL Solar Farm","state":"FL","detail_file":"data/details/power-plants-48.json","plant_id":"60582","capacity_mw":20.0,"status_group":"Operating","energy_sources":"SUN","type":"Power plant","is_nuclear":false}},{"type":"Feature","geometry":{"type":"Point","coordinates":[-87.344,30.842]},"properties":{"key":"65036-96edfab1","layer":"power","name":"Cotton Creek Solar Energy Center","state":"FL","detail_file":"data/details/power-plants-06.json","plant_id":"65036","capacity_mw":74.5,"status_group":"Operating","energy_sources":"SUN","type":"Power plant","is_nuclear":false}},{"type":"Feature","geometry":{"type":"Point","coordinates":[-84.223,30.235]},"properties":{"key":"63187-c4b8c236","layer":"power","name":"FL Solar 4, LLC","state":"FL","detail_file":"data/details/power-plants-58.json","plant_id":"63187","capacity_mw":42.0,"status_group":"Operating","energy_sources":"SUN","type":"Power plant","is_nuclear":false}},{"type":"Feature","geometry":{"type":"Point","coordinates":[-84.428,30.655]},"properties":{"key":"70179-1cc975c2","layer":"power","name":"FL Solar D1, LLC","state":"FL","detail_file":"data/details/power-plants-18.json","plant_id":"70179","capacity_mw":4.0,"status_group":"Operating","energy_sources":"SUN","type":"Power plant","is_nuclear":false}},{"type":"Feature","geometry":{"type":"Point","coordinates":[-84.359,30.28]},"properties":{"key":"70180-a8c18a80","layer":"power","name":"FL Solar D2, LLC","state":"FL","detail_file":"data/details/power-plants-05.json","plant_id":"70180","capacity_mw":2.0,"status_group":"Operating","energy_sources":"SUN","type":"Power plant","is_nuclear":false}},{"type":"Feature","geometry":{"type":"Point","coordinates":[-85.279,30.455]},"properties":{"key":"65422-eb8e2b75","layer":"power","name":"FPL Chipola River Solar Energy Center","state":"FL","detail_file":"data/details/power-plants-01.json","plant_id":"65422","capacity_mw":149.0,"status_group":"Operating","energy_sources":"MWH; SUN","type":"Power plant","is_nuclear":false}},{"type":"Feature","geometry":{"type":"Point","coordinates":[-85.441,30.421]},"properties":{"key":"65593-f9eb9104","layer":"power","name":"FPL Cypress Pond Solar","state":"FL","detail_file":"data/details/power-plants-30.json","plant_id":"65593","capacity_mw":74.5,"status_group":"Operating","energy_sources":"SUN","type":"Power plant","is_nuclear":false}},{"type":"Feature","geometry":{"type":"Point","coordinates":[-85.04,30.57]},"properties":{"key":"65427-a432429f","layer":"power","name":"FPL Flowers Creek Solar Energy Center","state":"FL","detail_file":"data/details/power-plants-07.json","plant_id":"65427","capacity_mw":74.5,"status_group":"Operating","energy_sources":"SUN","type":"Power plant","is_nuclear":false}},{"type":"Feature","geometry":{"type":"Point","coordinates":[-85.441,30.42]},"properties":{"key":"65592-cfed229f","layer":"power","name":"FPL Saw Palmetto Solar Energy Center","state":"FL","detail_file":"data/details/power-plants-41.json","plant_id":"65592","capacity_mw":74.5,"status_group":"Operating","energy_sources":"SUN","type":"Power plant","is_nuclear":false}},{"type":"Feature","geometry":{"type":"Point","coordinates":[-85.28,30.396]},"properties":{"key":"65429-d9a97557","layer":"power","name":"FPL Shirer Branch Solar Energy Center","state":"FL","detail_file":"data/details/power-plants-45.json","plant_id":"65429","capacity_mw":149.0,"status_group":"Operating","energy_sources":"MWH; SUN","type":"Power plant","is_nuclear":false}},{"type":"Feature","geometry":{"type":"Point","coordinates":[-87.34,30.92]},"properties":{"key":"65424-31a8e362","layer":"power","name":"First City Solar Energy Center","state":"FL","detail_file":"data/details/power-plants-13.json","plant_id":"65424","capacity_mw":74.5,"status_group":"Operating","energy_sources":"SUN","type":"Power plant","is_nuclear":false}},{"type":"Feature","geometry":{"type":"Point","coordinates":[-85.276,30.44]},"properties":{"key":"65927-cc7fd2d1","layer":"power","name":"Fourmile Creek","state":"FL","detail_file":"data/details/power-plants-26.json","plant_id":"65927","capacity_mw":149.0,"status_group":"Operating","energy_sources":"MWH; SUN","type":"Power plant","is_nuclear":false}},{"type":"Feature","geometry":{"type":"Point","coordinates":[-84.724,30.657]},"properties":{"key":"67205-ec697e7e","layer":"power","name":"Gadsden County Solar","state":"FL","detail_file":"data/details/power-plants-45.json","plant_id":"67205","capacity_mw":74.5,"status_group":"Operating","energy_sources":"SUN","type":"Power plant","is_nuclear":false}},{"type":"Feature","geometry":{"type":"Point","coordinates":[-87.224,30.566]},"properties":{"key":"641-c9a2774d","layer":"power","name":"Gulf Clean Energy Center","state":"FL","detail_file":"data/details/power-plants-59.json","plant_id":"641","capacity_mw":2107.5,"status_group":"Operating","energy_sources":"NG","type":"Power plant","is_nuclear":false}},{"type":"Feature","geometry":{"type":"Point","coordinates":[-86.518,30.515]},"properties":{"key":"59689-1fb04685","layer":"power","name":"Gulf Coast Solar Center I","state":"FL","detail_file":"data/details/power-plants-44.json","plant_id":"59689","capacity_mw":30.0,"status_group":"Operating","energy_sources":"SUN","type":"Power plant","is_nuclear":false}},{"type":"Feature","geometry":{"type":"Point","coordinates":[-86.895,30.431]},"properties":{"key":"59690-83ed7401","layer":"power","name":"Gulf Coast Solar Center II","state":"FL","detail_file":"data/details/power-plants-11.json","plant_id":"59690","capacity_mw":40.0,"status_group":"Operating","energy_sources":"SUN","type":"Power plant","is_nuclear":false}},{"type":"Feature","geometry":{"type":"Point","coordinates":[-87.335,30.47]},"properties":{"key":"59691-3cc6d415","layer":"power","name":"Gulf Coast Solar Center III","state":"FL","detail_file":"data/details/power-plants-41.json","plant_id":"59691","capacity_mw":50.0,"status_group":"Operating","energy_sources":"SUN","type":"Power plant","is_nuclear":false}},{"type":"Feature","geometry":{"type":"Point","coordinates":[-85.401,30.877]},"properties":{"key":"63754-4768e74c","layer":"power","name":"Gulf Power Blue Indigo Energy","state":"FL","detail_file":"data/details/power-plants-11.json","plant_id":"63754","capacity_mw":74.5,"status_group":"Operating","energy_sources":"SUN","type":"Power plant","is_nuclear":false}},{"type":"Feature","geometry":{"type":"Point","coordinates":[-87.326,30.597]},"properties":{"key":"50250-63b9ae8a","layer":"power","name":"International Paper Pensacola","state":"FL","detail_file":"data/details/power-plants-40.json","plant_id":"50250","capacity_mw":82.8,"status_group":"Operating","energy_sources":"BLQ","type":"Power plant","is_nuclear":false}},{"type":"Feature","geometry":{"type":"Point","coordinates":[-84.864,30.709]},"properties":{"key":"690-37f8cc03","layer":"power","name":"J Woodruff","state":"FL","detail_file":"data/details/power-plants-57.json","plant_id":"690","capacity_mw":43.5,"status_group":"Operating","energy_sources":"WAT","type":"Power plant","is_nuclear":false}},{"type":"Feature","geometry":{"type":"Point","coordinates":[-86.423,30.415]},"properties":{"key":"65888-aac276cb","layer":"power","name":"Kayak","state":"FL","detail_file":"data/details/power-plants-11.json","plant_id":"65888","capacity_mw":149.0,"status_group":"Operating","energy_sources":"MWH; SUN","type":"Power plant","is_nuclear":false}},{"type":"Feature","geometry":{"type":"Point","coordinates":[-85.7,30.269]},"properties":{"key":"643-fb91818a","layer":"power","name":"Lansing Smith","state":"FL","detail_file":"data/details/power-plants-22.json","plant_id":"643","capacity_mw":661.5,"status_group":"Operating","energy_sources":"DFO; NG","type":"Power plant","is_nuclear":false}},{"type":"Feature","geometry":{"type":"Point","coordinates":[-87.264,30.929]},"properties":{"key":"65911-e7313123","layer":"power","name":"Mitchell Creek","state":"FL","detail_file":"data/details/power-plants-32.json","plant_id":"65911","capacity_mw":74.5,"status_group":"Operating","energy_sources":"SUN","type":"Power plant","is_nuclear":false}},{"type":"Feature","geometry":{"type":"Point","coordinates":[-85.398,30.111]},"properties":{"key":"65501-809c0d2b","layer":"power","name":"Mule Creek Renewable Energy Center","state":"FL","detail_file":"data/details/power-plants-07.json","plant_id":"65501","capacity_mw":74.9,"status_group":"Operating","energy_sources":"SUN","type":"Power plant","is_nuclear":false}},{"type":"Feature","geometry":{"type":"Point","coordinates":[-87.135,30.592]},"properties":{"key":"7715-b4be3e13","layer":"power","name":"Pea Ridge","state":"FL","detail_file":"data/details/power-plants-30.json","plant_id":"7715","capacity_mw":14.1,"status_group":"Operating","energy_sources":"NG","type":"Power plant","is_nuclear":false}},{"type":"Feature","geometry":{"type":"Point","coordinates":[-86.24,30.938]},"properties":{"key":"65879-87cc1095","layer":"power","name":"Pecan Tree","state":"FL","detail_file":"data/details/power-plants-46.json","plant_id":"65879","capacity_mw":74.5,"status_group":"Operating","energy_sources":"SUN","type":"Power plant","is_nuclear":false}},{"type":"Feature","geometry":{"type":"Point","coordinates":[-87.252,30.596]},"properties":{"key":"10416-ae709612","layer":"power","name":"Pensacola Florida Plant","state":"FL","detail_file":"data/details/power-plants-10.json","plant_id":"10416","capacity_mw":102.0,"status_group":"Operating","energy_sources":"NG","type":"Power plant","is_nuclear":false}},{"type":"Feature","geometry":{"type":"Point","coordinates":[-87.39,30.57]},"properties":{"key":"57502-2c291279","layer":"power","name":"Perdido","state":"FL","detail_file":"data/details/power-plants-24.json","plant_id":"57502","capacity_mw":3.2,"status_group":"Operating","energy_sources":"LFG","type":"Power plant","is_nuclear":false}},{"type":"Feature","geometry":{"type":"Point","coordinates":[-85.255,30.439]},"properties":{"key":"68825-3eeffedf","layer":"power","name":"Pinecone","state":"FL","detail_file":"data/details/power-plants-02.json","plant_id":"68825","capacity_mw":74.5,"status_group":"Under construction","energy_sources":"SUN","type":"Power plant","is_nuclear":false}},{"type":"Feature","geometry":{"type":"Point","coordinates":[-84.201,30.162]},"properties":{"key":"689-1e3a76b1","layer":"power","name":"S O Purdom","state":"FL","detail_file":"data/details/power-plants-62.json","plant_id":"689","capacity_mw":270.1,"status_group":"Operating","energy_sources":"NG","type":"Power plant","is_nuclear":false}},{"type":"Feature","geometry":{"type":"Point","coordinates":[-85.255,30.439]},"properties":{"key":"68826-5d9dd051","layer":"power","name":"Saddle","state":"FL","detail_file":"data/details/power-plants-51.json","plant_id":"68826","capacity_mw":74.5,"status_group":"Under construction","energy_sources":"SUN","type":"Power plant","is_nuclear":false}},{"type":"Feature","geometry":{"type":"Point","coordinates":[-85.264,30.448]},"properties":{"key":"68818-20180265","layer":"power","name":"Sand Pine","state":"FL","detail_file":"data/details/power-plants-46.json","plant_id":"68818","capacity_mw":74.5,"status_group":"Operating","energy_sources":"SUN","type":"Power plant","is_nuclear":false}},{"type":"Feature","geometry":{"type":"Point","coordinates":[-85.41,30.103]},"properties":{"key":"64146-fd6c8d52","layer":"power","name":"Sandy Creek Solar Power Plant","state":"FL","detail_file":"data/details/power-plants-46.json","plant_id":"64146","capacity_mw":74.9,"status_group":"Operating","energy_sources":"SUN","type":"Power plant","is_nuclear":false}},{"type":"Feature","geometry":{"type":"Point","coordinates":[-87.115,30.566]},"properties":{"key":"55242-99de988e","layer":"power","name":"Santa Rosa Energy Center","state":"FL","detail_file":"data/details/power-plants-24.json","plant_id":"55242","capacity_mw":274.5,"status_group":"Operating","energy_sources":"NG","type":"Power plant","is_nuclear":false}},{"type":"Feature","geometry":{"type":"Point","coordinates":[-87.433,30.763]},"properties":{"key":"65867-2ee8273c","layer":"power","name":"Sparkleberry","state":"FL","detail_file":"data/details/power-plants-62.json","plant_id":"65867","capacity_mw":74.5,"status_group":"Operating","energy_sources":"SUN","type":"Power plant","is_nuclear":false}},{"type":"Feature","geometry":{"type":"Point","coordinates":[-85.426,30.928]},"properties":{"key":"56522-404d65f1","layer":"power","name":"Springhill Gas Recovery Plant","state":"FL","detail_file":"data/details/power-plants-39.json","plant_id":"56522","capacity_mw":4.8,"status_group":"Operating","energy_sources":"LFG","type":"Power plant","is_nuclear":false}},{"type":"Feature","geometry":{"type":"Point","coordinates":[-87.236,30.474]},"properties":{"key":"50310-64e89af7","layer":"power","name":"Standby Generation Plant","state":"FL","detail_file":"data/details/power-plants-54.json","plant_id":"50310","capacity_mw":13.7,"status_group":"Operating","energy_sources":"NG","type":"Power plant","is_nuclear":false}},{"type":"Feature","geometry":{"type":"Point","coordinates":[-84.26,30.46]},"properties":{"key":"61080-3501261d","layer":"power","name":"Sub 12","state":"FL","detail_file":"data/details/power-plants-55.json","plant_id":"61080","capacity_mw":18.6,"status_group":"Operating","energy_sources":"NG","type":"Power plant","is_nuclear":false}},{"type":"Feature","geometry":{"type":"Point","coordinates":[-86.231,30.924]},"properties":{"key":"67673-715cfe70","layer":"power","name":"Swallowtail","state":"FL","detail_file":"data/details/power-plants-50.json","plant_id":"67673","capacity_mw":74.5,"status_group":"Operating","energy_sources":"SUN","type":"Power plant","is_nuclear":false}},{"type":"Feature","geometry":{"type":"Point","coordinates":[-85.167,30.504]},"properties":{"key":"65886-80a26d53","layer":"power","name":"Tenmile Creek","state":"FL","detail_file":"data/details/power-plants-63.json","plant_id":"65886","capacity_mw":149.0,"status_group":"Operating","energy_sources":"MWH; SUN","type":"Power plant","is_nuclear":false}},{"type":"Feature","geometry":{"type":"Point","coordinates":[-84.74,30.676]},"properties":{"key":"65430-6546a2ef","layer":"power","name":"Wild Azalea Solar Energy Center","state":"FL","detail_file":"data/details/power-plants-59.json","plant_id":"65430","capacity_mw":74.5,"status_group":"Operating","energy_sources":"SUN","type":"Power plant","is_nuclear":false}},{"type":"Feature","geometry":{"type":"Point","coordinates":[-86.25,30.898]},"properties":{"key":"65910-4cb41f73","layer":"power","name":"Wild Quail","state":"FL","detail_file":"data/details/power-plants-17.json","plant_id":"65910","capacity_mw":74.5,"status_group":"Operating","energy_sources":"SUN","type":"Power plant","is_nuclear":false}},{"type":"Feature","geometry":{"type":"Point","coordinates":[-84.11,31.556]},"properties":{"key":"60340-a2dc1a64","layer":"power","name":"Albany Green Energy","state":"GA","detail_file":"data/details/power-plants-30.json","plant_id":"60340","capacity_mw":54.5,"status_group":"Operating","energy_sources":"WDS","type":"Power plant","is_nuclear":false}},{"type":"Feature","geometry":{"type":"Point","coordinates":[-84.548,30.91]},"properties":{"key":"65728-72981eff","layer":"power","name":"BE Solar LLC","state":"GA","detail_file":"data/details/power-plants-25.json","plant_id":"65728","capacity_mw":3.0,"status_group":"Operating","energy_sources":"SUN","type":"Power plant","is_nuclear":false}},{"type":"Feature","geometry":{"type":"Point","coordinates":[-84.08,31.387]},"properties":{"key":"55304-7fa607e7","layer":"power","name":"Baconton Power Plant","state":"GA","detail_file":"data/details/power-plants-61.json","plant_id":"55304","capacity_mw":121.0,"status_group":"Operating","energy_sources":"NG","type":"Power plant","is_nuclear":false}},{"type":"Feature","geometry":{"type":"Point","coordinates":[-84.626,30.967]},"properties":{"key":"64011-e9c2cfa4","layer":"power","name":"Bainbridge Solar","state":"GA","detail_file":"data/details/power-plants-44.json","plant_id":"64011","capacity_mw":1.0,"status_group":"Operating","energy_sources":"SUN","type":"Power plant","is_nuclear":false}},{"type":"Feature","geometry":{"type":"Point","coordinates":[-84.229,30.911]},"properties":{"key":"66199-92fdc0b3","layer":"power","name":"Cairo Solar Farm, LLC","state":"GA","detail_file":"data/details/power-plants-50.json","plant_id":"66199","capacity_mw":2.0,"status_group":"Operating","energy_sources":"SUN","type":"Power plant","is_nuclear":false}},{"type":"Feature","geometry":{"type":"Point","coordinates":[-84.229,31.27]},"properties":{"key":"61785-de4668e4","layer":"power","name":"Camilla Solar Energy Project","state":"GA","detail_file":"data/details/power-plants-25.json","plant_id":"61785","capacity_mw":171.4,"status_group":"Operating","energy_sources":"SUN","type":"Power plant","is_nuclear":false}},{"type":"Feature","geometry":{"type":"Point","coordinates":[-84.132,31.184]},"properties":{"key":"58892-e50d35a5","layer":"power","name":"Camilla Solar Plant","state":"GA","detail_file":"data/details/power-plants-07.json","plant_id":"58892","capacity_mw":16.0,"status_group":"Operating","energy_sources":"SUN","type":"Power plant","is_nuclear":false}},{"type":"Feature","geometry":{"type":"Point","coordinates":[-84.68,30.748]},"properties":{"key":"63721-d1ce60fe","layer":"power","name":"Cool Springs Solar (Hybrid)","state":"GA","detail_file":"data/details/power-plants-05.json","plant_id":"63721","capacity_mw":253.0,"status_group":"Operating","energy_sources":"MWH; SUN","type":"Power plant","is_nuclear":false}},{"type":"Feature","geometry":{"type":"Point","coordinates":[-84.626,30.965]},"properties":{"key":"59449-db123faa","layer":"power","name":"Decatur County Solar Project","state":"GA","detail_file":"data/details/power-plants-41.json","plant_id":"59449","capacity_mw":20.0,"status_group":"Operating","energy_sources":"SUN","type":"Power plant","is_nuclear":false}},{"type":"Feature","geometry":{"type":"Point","coordinates":[-84.634,30.992]},"properties":{"key":"59450-5b059e5a","layer":"power","name":"Decatur Parkway Solar Project, LLC","state":"GA","detail_file":"data/details/power-plants-22.json","plant_id":"59450","capacity_mw":80.0,"status_group":"Operating","energy_sources":"SUN","type":"Power plant","is_nuclear":false}},{"type":"Feature","geometry":{"type":"Point","coordinates":[-84.445,30.855]},"properties":{"key":"67047-0a0d3bbe","layer":"power","name":"Decatur Solar","state":"GA","detail_file":"data/details/power-plants-14.json","plant_id":"67047","capacity_mw":200.0,"status_group":"Operating","energy_sources":"SUN","type":"Power plant","is_nuclear":false}},{"type":"Feature","geometry":{"type":"Point","coordinates":[-84.044,31.512]},"properties":{"key":"62375-d8e4d2db","layer":"power","name":"Dougherty County Solar, LLC","state":"GA","detail_file":"data/details/power-plants-37.json","plant_id":"62375","capacity_mw":120.0,"status_group":"Operating","energy_sources":"SUN","type":"Power plant","is_nuclear":false}},{"type":"Feature","geometry":{"type":"Point","coordinates":[-84.137,31.603]},"properties":{"key":"706-aec41b27","layer":"power","name":"Flint River","state":"GA","detail_file":"data/details/power-plants-63.json","plant_id":"706","capacity_mw":5.4,"status_group":"Operating","energy_sources":"WAT","type":"Power plant","is_nuclear":false}},{"type":"Feature","geometry":{"type":"Point","coordinates":[-85.031,31.138]},"properties":{"key":"61397-7979131c","layer":"power","name":"Georgia Power at Jakin GA PV","state":"GA","detail_file":"data/details/power-plants-22.json","plant_id":"61397","capacity_mw":1.5,"status_group":"Operating","energy_sources":"SUN","type":"Power plant","is_nuclear":false}},{"type":"Feature","geometry":{"type":"Point","coordinates":[-84.176,31.27]},"properties":{"key":"63522-b0126146","layer":"power","name":"Hickory Park Solar Hybrid","state":"GA","detail_file":"data/details/power-plants-44.json","plant_id":"63522","capacity_mw":235.5,"status_group":"Operating","energy_sources":"MWH; SUN","type":"Power plant","is_nuclear":false}},{"type":"Feature","geometry":{"type":"Point","coordinates":[-84.797,31.767]},"properties":{"key":"64150-068a71dc","layer":"power","name":"Lancaster Solar GA","state":"GA","detail_file":"data/details/power-plants-07.json","plant_id":"64150","capacity_mw":80.0,"status_group":"Operating","energy_sources":"SUN","type":"Power plant","is_nuclear":false}},{"type":"Feature","geometry":{"type":"Point","coordinates":[-84.106,31.554]},"properties":{"key":"69745-a0345155","layer":"power","name":"MCLB Biosteam to Energy","state":"GA","detail_file":"data/details/power-plants-61.json","plant_id":"69745","capacity_mw":8.5,"status_group":"Operating","energy_sources":"PUR","type":"Power plant","is_nuclear":false}},{"type":"Feature","geometry":{"type":"Point","coordinates":[-84.067,31.546]},"properties":{"key":"59335-d2fd1e3c","layer":"power","name":"MCLB Landfill Gas to Energy","state":"GA","detail_file":"data/details/power-plants-51.json","plant_id":"59335","capacity_mw":4.0,"status_group":"Operating","energy_sources":"LFG","type":"Power plant","is_nuclear":false}},{"type":"Feature","geometry":{"type":"Point","coordinates":[-84.093,31.561]},"properties":{"key":"59876-de4f9137","layer":"power","name":"Marine Corps Logistics Base Solar","state":"GA","detail_file":"data/details/power-plants-41.json","plant_id":"59876","capacity_mw":31.0,"status_group":"Operating","energy_sources":"SUN","type":"Power plant","is_nuclear":false}},{"type":"Feature","geometry":{"type":"Point","coordinates":[-84.386,31.825]},"properties":{"key":"62878-55b273b2","layer":"power","name":"McCleskey Cotton","state":"GA","detail_file":"data/details/power-plants-40.json","plant_id":"62878","capacity_mw":1.9,"status_group":"Operating","energy_sources":"SUN","type":"Power plant","is_nuclear":false}},{"type":"Feature","geometry":{"type":"Point","coordinates":[-84.148,31.196]},"properties":{"key":"63350-d86c3b98","layer":"power","name":"OE_GA3","state":"GA","detail_file":"data/details/power-plants-58.json","plant_id":"63350","capacity_mw":57.5,"status_group":"Operating","energy_sources":"SUN","type":"Power plant","is_nuclear":false}},{"type":"Feature","geometry":{"type":"Point","coordinates":[-84.066,30.991]},"properties":{"key":"62882-b2343a6e","layer":"power","name":"Oil Dri 2 Solar","state":"GA","detail_file":"data/details/power-plants-26.json","plant_id":"62882","capacity_mw":1.4,"status_group":"Operating","energy_sources":"SUN","type":"Power plant","is_nuclear":false}},{"type":"Feature","geometry":{"type":"Point","coordinates":[-84.213,31.343]},"properties":{"key":"69635-171d55ea","layer":"power","name":"Peach Wood Solar","state":"GA","detail_file":"data/details/power-plants-40.json","plant_id":"69635","capacity_mw":261.0,"status_group":"Planned","energy_sources":"SUN","type":"Power plant","is_nuclear":false}},{"type":"Feature","geometry":{"type":"Point","coordinates":[-84.837,31.403]},"properties":{"key":"62436-373db018","layer":"power","name":"SR Arlington I","state":"GA","detail_file":"data/details/power-plants-56.json","plant_id":"62436","capacity_mw":20.0,"status_group":"Operating","energy_sources":"SUN","type":"Power plant","is_nuclear":false}},{"type":"Feature","geometry":{"type":"Point","coordinates":[-84.831,31.416]},"properties":{"key":"62367-c81cf88c","layer":"power","name":"SR Arlington II","state":"GA","detail_file":"data/details/power-plants-35.json","plant_id":"62367","capacity_mw":102.5,"status_group":"Operating","energy_sources":"SUN","type":"Power plant","is_nuclear":false}},{"type":"Feature","geometry":{"type":"Point","coordinates":[-85.087,31.245]},"properties":{"key":"64840-5de92b55","layer":"power","name":"SR Cedar Springs, LLC","state":"GA","detail_file":"data/details/power-plants-13.json","plant_id":"64840","capacity_mw":70.0,"status_group":"Operating","energy_sources":"SUN","type":"Power plant","is_nuclear":false}},{"type":"Feature","geometry":{"type":"Point","coordinates":[-84.901,31.545]},"properties":{"key":"64838-597eebb8","layer":"power","name":"SR Clay, LLC","state":"GA","detail_file":"data/details/power-plants-10.json","plant_id":"64838","capacity_mw":106.0,"status_group":"Operating","energy_sources":"SUN","type":"Power plant","is_nuclear":false}},{"type":"Feature","geometry":{"type":"Point","coordinates":[-84.022,31.886]},"properties":{"key":"64841-e8ecc8eb","layer":"power","name":"SR DeSoto I, LLC","state":"GA","detail_file":"data/details/power-plants-21.json","plant_id":"64841","capacity_mw":165.0,"status_group":"Operating","energy_sources":"SUN","type":"Power plant","is_nuclear":false}},{"type":"Feature","geometry":{"type":"Point","coordinates":[-84.036,31.87]},"properties":{"key":"66172-dd43cba9","layer":"power","name":"SR DeSoto II","state":"GA","detail_file":"data/details/power-plants-19.json","plant_id":"66172","capacity_mw":65.0,"status_group":"Operating","energy_sources":"SUN","type":"Power plant","is_nuclear":false}},{"type":"Feature","geometry":{"type":"Point","coordinates":[-84.008,31.868]},"properties":{"key":"66825-80944ae2","layer":"power","name":"SR DeSoto III","state":"GA","detail_file":"data/details/power-plants-61.json","plant_id":"66825","capacity_mw":60.0,"status_group":"Operating","energy_sources":"SUN","type":"Power plant","is_nuclear":false}},{"type":"Feature","geometry":{"type":"Point","coordinates":[-84.362,31.871]},"properties":{"key":"62058-e8d80879","layer":"power","name":"SR Terrell","state":"GA","detail_file":"data/details/power-plants-17.json","plant_id":"62058","capacity_mw":74.0,"status_group":"Operating","energy_sources":"SUN","type":"Power plant","is_nuclear":false}},{"type":"Feature","geometry":{"type":"Point","coordinates":[-84.932,31.065]},"properties":{"key":"60514-7b6fe428","layer":"power","name":"Seminole (GA)","state":"GA","detail_file":"data/details/power-plants-19.json","plant_id":"60514","capacity_mw":1.6,"status_group":"Operating","energy_sources":"SUN","type":"Power plant","is_nuclear":false}},{"type":"Feature","geometry":{"type":"Point","coordinates":[-84.08,31.387]},"properties":{"key":"7768-c76097da","layer":"power","name":"Sowega Power","state":"GA","detail_file":"data/details/power-plants-09.json","plant_id":"7768","capacity_mw":99.6,"status_group":"Operating","energy_sources":"NG","type":"Power plant","is_nuclear":false}},{"type":"Feature","geometry":{"type":"Point","coordinates":[-84.448,31.786]},"properties":{"key":"64283-e73e797f","layer":"power","name":"Terrell Riles Stovall","state":"GA","detail_file":"data/details/power-plants-48.json","plant_id":"64283","capacity_mw":1.7,"status_group":"Operating","energy_sources":"SUN","type":"Power plant","is_nuclear":false}},{"type":"Feature","geometry":{"type":"Point","coordinates":[-85.065,31.625]},"properties":{"key":"761-ba505242","layer":"power","name":"Walter F George","state":"GA","detail_file":"data/details/power-plants-36.json","plant_id":"761","capacity_mw":168.0,"status_group":"Operating","energy_sources":"WAT","type":"Power plant","is_nuclear":false}},{"type":"Feature","geometry":{"type":"Point","coordinates":[-84.547,30.911]},"properties":{"key":"56015-63295b7d","layer":"power","name":"Walton Bainbridge Power Facility","state":"GA","detail_file":"data/details/power-plants-12.json","plant_id":"56015","capacity_mw":80.0,"status_group":"Operating","energy_sources":"DFO","type":"Power plant","is_nuclear":false}}]}