{"type":"FeatureCollection","features":[{"type":"Feature","geometry":{"type":"Point","coordinates":[-163.006,69.741]},"properties":{"key":"7486-71aafaa5","layer":"power","name":"NSB Point Lay Utility","state":"AK","detail_file":"data/details/power-plants-27.json","plant_id":"7486","capacity_mw":2.4,"status_group":"Operating","energy_sources":"DFO","type":"Power plant","is_nuclear":false}},{"type":"Feature","geometry":{"type":"Point","coordinates":[-160.02,70.643]},"properties":{"key":"7488-5c5f6036","layer":"power","name":"NSB Wainwright Utility","state":"AK","detail_file":"data/details/power-plants-13.json","plant_id":"7488","capacity_mw":3.0,"status_group":"Operating","energy_sources":"DFO","type":"Power plant","is_nuclear":false}}]}