{"type":"FeatureCollection","features":[{"type":"Feature","geometry":{"type":"Point","coordinates":[-159.762,22.001]},"properties":{"key":"63280-162f726a","layer":"power","name":"AES Kekaha Solar, LLC Hybrid","state":"HI","detail_file":"data/details/power-plants-34.json","plant_id":"63280","capacity_mw":28.0,"status_group":"Operating","energy_sources":"MWH; SUN","type":"Power plant","is_nuclear":false}},{"type":"Feature","geometry":{"type":"Point","coordinates":[-159.492,21.908]},"properties":{"key":"61068-9b174e64","layer":"power","name":"AES Lawai Solar Hybrid","state":"HI","detail_file":"data/details/power-plants-58.json","plant_id":"61068","capacity_mw":40.0,"status_group":"Operating","energy_sources":"MWH; SUN","type":"Power plant","is_nuclear":false}},{"type":"Feature","geometry":{"type":"Point","coordinates":[-156.485,20.844]},"properties":{"key":"64256-0a04f8a1","layer":"power","name":"AES Maui Kuihelani Solar Hybrid","state":"HI","detail_file":"data/details/power-plants-50.json","plant_id":"64256","capacity_mw":120.0,"status_group":"Operating","energy_sources":"MWH; SUN","type":"Power plant","is_nuclear":false}},{"type":"Feature","geometry":{"type":"Point","coordinates":[-158.177,21.458]},"properties":{"key":"66002-5139313f","layer":"power","name":"AES Mountain View Solar","state":"HI","detail_file":"data/details/power-plants-29.json","plant_id":"66002","capacity_mw":14.0,"status_group":"Under construction","energy_sources":"MWH; SUN","type":"Power plant","is_nuclear":false}},{"type":"Feature","geometry":{"type":"Point","coordinates":[-157.978,21.43]},"properties":{"key":"66066-e915e75c","layer":"power","name":"AES Waiawa Phase 2 Solar","state":"HI","detail_file":"data/details/power-plants-26.json","plant_id":"66066","capacity_mw":60.0,"status_group":"Under construction","energy_sources":"MWH; SUN","type":"Power plant","is_nuclear":false}},{"type":"Feature","geometry":{"type":"Point","coordinates":[-158.062,21.372]},"properties":{"key":"64656-d621f2dc","layer":"power","name":"AES West Oahu Solar Hybrid","state":"HI","detail_file":"data/details/power-plants-03.json","plant_id":"64656","capacity_mw":25.0,"status_group":"Operating","energy_sources":"MWH; SUN","type":"Power plant","is_nuclear":false}},{"type":"Feature","geometry":{"type":"Point","coordinates":[-158.151,21.407]},"properties":{"key":"58659-99f329b5","layer":"power","name":"Aloha Solar Energy Fund 1 PK1","state":"HI","detail_file":"data/details/power-plants-17.json","plant_id":"58659","capacity_mw":5.0,"status_group":"Operating","energy_sources":"SUN","type":"Power plant","is_nuclear":false}},{"type":"Feature","geometry":{"type":"Point","coordinates":[-156.318,20.596]},"properties":{"key":"57996-5badc956","layer":"power","name":"Auwahi Wind Energy Hybrid","state":"HI","detail_file":"data/details/power-plants-27.json","plant_id":"57996","capacity_mw":35.0,"status_group":"Operating","energy_sources":"MWH; WND","type":"Power plant","is_nuclear":false}},{"type":"Feature","geometry":{"type":"Point","coordinates":[-156.654,21.0]},"properties":{"key":"69738-13d3b43c","layer":"power","name":"BRE - Ritz Carlton Kapalua","state":"HI","detail_file":"data/details/power-plants-19.json","plant_id":"69738","capacity_mw":1.5,"status_group":"Operating","energy_sources":"SUN","type":"Power plant","is_nuclear":false}},{"type":"Feature","geometry":{"type":"Point","coordinates":[-157.925,21.641]},"properties":{"key":"64400-30990a6e","layer":"power","name":"BYU - Hawaii","state":"HI","detail_file":"data/details/power-plants-28.json","plant_id":"64400","capacity_mw":5.0,"status_group":"Operating","energy_sources":"MWH; SUN","type":"Power plant","is_nuclear":false}},{"type":"Feature","geometry":{"type":"Point","coordinates":[-159.461,21.965]},"properties":{"key":"59035-389747f4","layer":"power","name":"Biomass to Energy Facility, Kauai","state":"HI","detail_file":"data/details/power-plants-32.json","plant_id":"59035","capacity_mw":10.3,"status_group":"Operating","energy_sources":"AB; DFO","type":"Power plant","is_nuclear":false}},{"type":"Feature","geometry":{"type":"Point","coordinates":[-158.102,21.302]},"properties":{"key":"56329-b9aa1b31","layer":"power","name":"Campbell Industrial Park","state":"HI","detail_file":"data/details/power-plants-09.json","plant_id":"56329","capacity_mw":113.0,"status_group":"Operating","energy_sources":"DFO","type":"Power plant","is_nuclear":false}},{"type":"Feature","geometry":{"type":"Point","coordinates":[-158.188,21.452]},"properties":{"key":"61172-ab3247e8","layer":"power","name":"EE Waianae Solar Project","state":"HI","detail_file":"data/details/power-plants-09.json","plant_id":"61172","capacity_mw":28.3,"status_group":"Operating","energy_sources":"SUN","type":"Power plant","is_nuclear":false}},{"type":"Feature","geometry":{"type":"Point","coordinates":[-159.629,21.918]},"properties":{"key":"50333-1630ded9","layer":"power","name":"Gay Robinson","state":"HI","detail_file":"data/details/power-plants-13.json","plant_id":"50333","capacity_mw":8.7,"status_group":"Operating","energy_sources":"DFO; WAT","type":"Power plant","is_nuclear":false}},{"type":"Feature","geometry":{"type":"Point","coordinates":[-158.099,21.3]},"properties":{"key":"10334-7e79239c","layer":"power","name":"H Power","state":"HI","detail_file":"data/details/power-plants-12.json","plant_id":"10334","capacity_mw":100.2,"status_group":"Operating","energy_sources":"MSW; SUN","type":"Power plant","is_nuclear":false}},{"type":"Feature","geometry":{"type":"Point","coordinates":[-157.919,21.336]},"properties":{"key":"58469-625509f3","layer":"power","name":"HNL Emergency Power Facility","state":"HI","detail_file":"data/details/power-plants-37.json","plant_id":"58469","capacity_mw":10.0,"status_group":"Operating","energy_sources":"OBL","type":"Power plant","is_nuclear":false}},{"type":"Feature","geometry":{"type":"Point","coordinates":[-158.114,21.312]},"properties":{"key":"10194-c0a4357b","layer":"power","name":"Hawaii Cogen","state":"HI","detail_file":"data/details/power-plants-23.json","plant_id":"10194","capacity_mw":12.2,"status_group":"Operating","energy_sources":"WO","type":"Power plant","is_nuclear":false}},{"type":"Feature","geometry":{"type":"Point","coordinates":[-158.033,21.419]},"properties":{"key":"63723-a806307f","layer":"power","name":"Ho'Ohana Solar 1","state":"HI","detail_file":"data/details/power-plants-39.json","plant_id":"63723","capacity_mw":117.3,"status_group":"Operating","energy_sources":"MWH; SUN","type":"Power plant","is_nuclear":false}},{"type":"Feature","geometry":{"type":"Point","coordinates":[-159.379,21.997]},"properties":{"key":"60546-8f58b99d","layer":"power","name":"KIUC Kapaia PV and BA Storage Project Hy","state":"HI","detail_file":"data/details/power-plants-43.json","plant_id":"60546","capacity_mw":28.0,"status_group":"Operating","energy_sources":"MWH; SUN","type":"Power plant","is_nuclear":false}},{"type":"Feature","geometry":{"type":"Point","coordinates":[-159.303,22.132]},"properties":{"key":"58639-f2f54bb5","layer":"power","name":"KRS I Anahola Solar Hybrid","state":"HI","detail_file":"data/details/power-plants-32.json","plant_id":"58639","capacity_mw":12.0,"status_group":"Operating","energy_sources":"SUN","type":"Power plant","is_nuclear":false}},{"type":"Feature","geometry":{"type":"Point","coordinates":[-159.303,22.132]},"properties":{"key":"58639-48dac602","layer":"power","name":"KRS I Anahola Solar Hybrid","state":"HI","detail_file":"data/details/power-plants-11.json","plant_id":"58639","capacity_mw":12.0,"status_group":"Planned","energy_sources":"MWH","type":"Power plant","is_nuclear":false}},{"type":"Feature","geometry":{"type":"Point","coordinates":[-159.45,21.901]},"properties":{"key":"58640-e14de09a","layer":"power","name":"KRS II Koloa Solar","state":"HI","detail_file":"data/details/power-plants-06.json","plant_id":"58640","capacity_mw":12.0,"status_group":"Operating","energy_sources":"SUN","type":"Power plant","is_nuclear":false}},{"type":"Feature","geometry":{"type":"Point","coordinates":[-159.45,21.901]},"properties":{"key":"58640-5a97800c","layer":"power","name":"KRS II Koloa Solar","state":"HI","detail_file":"data/details/power-plants-47.json","plant_id":"58640","capacity_mw":12.0,"status_group":"Planned","energy_sources":"MWH","type":"Power plant","is_nuclear":false}},{"type":"Feature","geometry":{"type":"Point","coordinates":[-158.129,21.356]},"properties":{"key":"765-6106caa4","layer":"power","name":"Kahe","state":"HI","detail_file":"data/details/power-plants-12.json","plant_id":"765","capacity_mw":609.7,"status_group":"Operating","energy_sources":"RFO","type":"Power plant","is_nuclear":false}},{"type":"Feature","geometry":{"type":"Point","coordinates":[-156.551,20.814]},"properties":{"key":"56449-110a27ad","layer":"power","name":"Kaheawa Pastures Wind Farm Hybrid","state":"HI","detail_file":"data/details/power-plants-44.json","plant_id":"56449","capacity_mw":30.0,"status_group":"Operating","energy_sources":"WND","type":"Power plant","is_nuclear":false}},{"type":"Feature","geometry":{"type":"Point","coordinates":[-156.536,20.795]},"properties":{"key":"57082-ea651b75","layer":"power","name":"Kaheawa Wind Power II LLC","state":"HI","detail_file":"data/details/power-plants-51.json","plant_id":"57082","capacity_mw":31.0,"status_group":"Operating","energy_sources":"MWH; WND","type":"Power plant","is_nuclear":false}},{"type":"Feature","geometry":{"type":"Point","coordinates":[-156.357,20.889]},"properties":{"key":"55864-af4a60c6","layer":"power","name":"Kaheka Hydro","state":"HI","detail_file":"data/details/power-plants-28.json","plant_id":"55864","capacity_mw":4.5,"status_group":"Operating","energy_sources":"WAT","type":"Power plant","is_nuclear":false}},{"type":"Feature","geometry":{"type":"Point","coordinates":[-157.975,21.681]},"properties":{"key":"57087-55f3425a","layer":"power","name":"Kahuku Wind Power LLC","state":"HI","detail_file":"data/details/power-plants-03.json","plant_id":"57087","capacity_mw":30.0,"status_group":"Operating","energy_sources":"WND","type":"Power plant","is_nuclear":false}},{"type":"Feature","geometry":{"type":"Point","coordinates":[-156.463,20.897]},"properties":{"key":"6056-64ebb696","layer":"power","name":"Kahului","state":"HI","detail_file":"data/details/power-plants-30.json","plant_id":"6056","capacity_mw":34.0,"status_group":"Operating","energy_sources":"RFO","type":"Power plant","is_nuclear":false}},{"type":"Feature","geometry":{"type":"Point","coordinates":[-158.096,21.302]},"properties":{"key":"54646-34d768c7","layer":"power","name":"Kalaeloa Cogen Plant","state":"HI","detail_file":"data/details/power-plants-54.json","plant_id":"54646","capacity_mw":299.4,"status_group":"Operating","energy_sources":"DFO; RFO","type":"Power plant","is_nuclear":false}},{"type":"Feature","geometry":{"type":"Point","coordinates":[-158.086,21.311]},"properties":{"key":"69766-0d029894","layer":"power","name":"Kalaeloa Home Lands Solar","state":"HI","detail_file":"data/details/power-plants-23.json","plant_id":"69766","capacity_mw":1.7,"status_group":"Under construction","energy_sources":"SUN","type":"Power plant","is_nuclear":false}},{"type":"Feature","geometry":{"type":"Point","coordinates":[-158.04,21.328]},"properties":{"key":"58651-0a8d5d0f","layer":"power","name":"Kalaeloa Renewable Energy Park","state":"HI","detail_file":"data/details/power-plants-35.json","plant_id":"58651","capacity_mw":5.0,"status_group":"Operating","energy_sources":"SUN","type":"Power plant","is_nuclear":false}},{"type":"Feature","geometry":{"type":"Point","coordinates":[-158.087,21.32]},"properties":{"key":"58259-b24ef009","layer":"power","name":"Kalaeloa Solar Two","state":"HI","detail_file":"data/details/power-plants-45.json","plant_id":"58259","capacity_mw":5.0,"status_group":"Operating","energy_sources":"SUN","type":"Power plant","is_nuclear":false}},{"type":"Feature","geometry":{"type":"Point","coordinates":[-159.529,21.936]},"properties":{"key":"10412-30a319c9","layer":"power","name":"Kalaheo Hydro","state":"HI","detail_file":"data/details/power-plants-41.json","plant_id":"10412","capacity_mw":2.0,"status_group":"Operating","energy_sources":"WAT","type":"Power plant","is_nuclear":false}},{"type":"Feature","geometry":{"type":"Point","coordinates":[-159.332,22.08]},"properties":{"key":"57525-c92caf67","layer":"power","name":"Kapaa Photovoltaic Project","state":"HI","detail_file":"data/details/power-plants-55.json","plant_id":"57525","capacity_mw":1.0,"status_group":"Operating","energy_sources":"SUN","type":"Power plant","is_nuclear":false}},{"type":"Feature","geometry":{"type":"Point","coordinates":[-159.376,21.996]},"properties":{"key":"56258-adb8695f","layer":"power","name":"Kapaia Power Station","state":"HI","detail_file":"data/details/power-plants-62.json","plant_id":"56258","capacity_mw":39.1,"status_group":"Operating","energy_sources":"OTH","type":"Power plant","is_nuclear":false}},{"type":"Feature","geometry":{"type":"Point","coordinates":[-158.105,21.328]},"properties":{"key":"66067-e639bdec","layer":"power","name":"Kapolei Energy Storage","state":"HI","detail_file":"data/details/power-plants-18.json","plant_id":"66067","capacity_mw":185.0,"status_group":"Operating","energy_sources":"MWH","type":"Power plant","is_nuclear":false}},{"type":"Feature","geometry":{"type":"Point","coordinates":[-158.118,21.321]},"properties":{"key":"58684-26d31ea2","layer":"power","name":"Kapolei Solar Energy Park","state":"HI","detail_file":"data/details/power-plants-51.json","plant_id":"58684","capacity_mw":1.0,"status_group":"Operating","energy_sources":"SUN","type":"Power plant","is_nuclear":false}},{"type":"Feature","geometry":{"type":"Point","coordinates":[-158.055,21.624]},"properties":{"key":"60125-ac75480d","layer":"power","name":"Kawailoa Solar","state":"HI","detail_file":"data/details/power-plants-12.json","plant_id":"60125","capacity_mw":49.0,"status_group":"Operating","energy_sources":"SUN","type":"Power plant","is_nuclear":false}},{"type":"Feature","geometry":{"type":"Point","coordinates":[-158.041,21.61]},"properties":{"key":"57529-83bf8301","layer":"power","name":"Kawailoa Wind","state":"HI","detail_file":"data/details/power-plants-32.json","plant_id":"57529","capacity_mw":69.0,"status_group":"Operating","energy_sources":"WND","type":"Power plant","is_nuclear":false}},{"type":"Feature","geometry":{"type":"Point","coordinates":[-156.434,20.794]},"properties":{"key":"61099-49a94691","layer":"power","name":"Kihei Solar Farm","state":"HI","detail_file":"data/details/power-plants-57.json","plant_id":"61099","capacity_mw":2.9,"status_group":"Operating","energy_sources":"SUN","type":"Power plant","is_nuclear":false}},{"type":"Feature","geometry":{"type":"Point","coordinates":[-156.658,20.886]},"properties":{"key":"61101-72b7aa62","layer":"power","name":"Ku'ia Solar","state":"HI","detail_file":"data/details/power-plants-15.json","plant_id":"61101","capacity_mw":2.9,"status_group":"Operating","energy_sources":"SUN","type":"Power plant","is_nuclear":false}},{"type":"Feature","geometry":{"type":"Point","coordinates":[-156.498,20.803]},"properties":{"key":"69743-2d85a6dd","layer":"power","name":"Kuihelani Phase 2","state":"HI","detail_file":"data/details/power-plants-29.json","plant_id":"69743","capacity_mw":40.0,"status_group":"Under construction","energy_sources":"SUN","type":"Power plant","is_nuclear":false}},{"type":"Feature","geometry":{"type":"Point","coordinates":[-156.475,20.862]},"properties":{"key":"68447-42c9abcf","layer":"power","name":"Kuihelani Substation","state":"HI","detail_file":"data/details/power-plants-57.json","plant_id":"68447","capacity_mw":1.0,"status_group":"Operating","energy_sources":"DFO","type":"Power plant","is_nuclear":false}},{"type":"Feature","geometry":{"type":"Point","coordinates":[-156.923,20.767]},"properties":{"key":"56667-c375e6b2","layer":"power","name":"Lanai Solar-Electric Plant","state":"HI","detail_file":"data/details/power-plants-61.json","plant_id":"56667","capacity_mw":1.2,"status_group":"Operating","energy_sources":"SUN","type":"Power plant","is_nuclear":false}},{"type":"Feature","geometry":{"type":"Point","coordinates":[-158.024,21.429]},"properties":{"key":"58281-1f222414","layer":"power","name":"Lanikuhana Solar LLC","state":"HI","detail_file":"data/details/power-plants-11.json","plant_id":"58281","capacity_mw":14.7,"status_group":"Operating","energy_sources":"SUN","type":"Power plant","is_nuclear":false}},{"type":"Feature","geometry":{"type":"Point","coordinates":[-156.493,20.801]},"properties":{"key":"6504-4a4d13a0","layer":"power","name":"Maalaea","state":"HI","detail_file":"data/details/power-plants-04.json","plant_id":"6504","capacity_mw":229.8,"status_group":"Operating","energy_sources":"DFO","type":"Power plant","is_nuclear":false}},{"type":"Feature","geometry":{"type":"Point","coordinates":[-157.984,21.68]},"properties":{"key":"58662-65d79081","layer":"power","name":"Mauka FIT One","state":"HI","detail_file":"data/details/power-plants-30.json","plant_id":"58662","capacity_mw":3.5,"status_group":"Operating","energy_sources":"SUN","type":"Power plant","is_nuclear":false}},{"type":"Feature","geometry":{"type":"Point","coordinates":[-156.934,20.79]},"properties":{"key":"7264-b12b565c","layer":"power","name":"Miki Basin","state":"HI","detail_file":"data/details/power-plants-26.json","plant_id":"7264","capacity_mw":10.4,"status_group":"Operating","energy_sources":"DFO","type":"Power plant","is_nuclear":false}},{"type":"Feature","geometry":{"type":"Point","coordinates":[-158.02,21.428]},"properties":{"key":"57242-16aba88b","layer":"power","name":"Mililani South Solar Farm","state":"HI","detail_file":"data/details/power-plants-62.json","plant_id":"57242","capacity_mw":78.0,"status_group":"Operating","energy_sources":"MWH; SUN","type":"Power plant","is_nuclear":false}},{"type":"Feature","geometry":{"type":"Point","coordinates":[-157.97,21.667]},"properties":{"key":"58837-55df1a2a","layer":"power","name":"Na Pua Makani Wind Project","state":"HI","detail_file":"data/details/power-plants-46.json","plant_id":"58837","capacity_mw":27.6,"status_group":"Operating","energy_sources":"WND","type":"Power plant","is_nuclear":false}},{"type":"Feature","geometry":{"type":"Point","coordinates":[-156.338,20.887]},"properties":{"key":"58277-1fd31f72","layer":"power","name":"Paia Hydroelectric Plant","state":"HI","detail_file":"data/details/power-plants-40.json","plant_id":"58277","capacity_mw":1.3,"status_group":"Operating","energy_sources":"WAT","type":"Power plant","is_nuclear":false}},{"type":"Feature","geometry":{"type":"Point","coordinates":[-157.065,21.106]},"properties":{"key":"792-14752f6e","layer":"power","name":"Palaau Power Hybrid","state":"HI","detail_file":"data/details/power-plants-57.json","plant_id":"792","capacity_mw":17.1,"status_group":"Operating","energy_sources":"DFO; MWH","type":"Power plant","is_nuclear":false}},{"type":"Feature","geometry":{"type":"Point","coordinates":[-157.968,21.376]},"properties":{"key":"58676-f8c4ce94","layer":"power","name":"Pearl City Peninsula Solar Park","state":"HI","detail_file":"data/details/power-plants-42.json","plant_id":"58676","capacity_mw":1.0,"status_group":"Operating","energy_sources":"SUN","type":"Power plant","is_nuclear":false}},{"type":"Feature","geometry":{"type":"Point","coordinates":[-159.585,21.9]},"properties":{"key":"6474-5976159e","layer":"power","name":"Port Allen (HI)","state":"HI","detail_file":"data/details/power-plants-16.json","plant_id":"6474","capacity_mw":89.5,"status_group":"Operating","energy_sources":"DFO","type":"Power plant","is_nuclear":false}},{"type":"Feature","geometry":{"type":"Point","coordinates":[-159.582,21.902]},"properties":{"key":"58549-2d03608a","layer":"power","name":"Port Allen Solar","state":"HI","detail_file":"data/details/power-plants-34.json","plant_id":"58549","capacity_mw":6.0,"status_group":"Operating","energy_sources":"SUN","type":"Power plant","is_nuclear":false}},{"type":"Feature","geometry":{"type":"Point","coordinates":[-157.951,21.348]},"properties":{"key":"68284-450e1924","layer":"power","name":"Puuloa Energy","state":"HI","detail_file":"data/details/power-plants-37.json","plant_id":"68284","capacity_mw":103.4,"status_group":"Planned","energy_sources":"OBL","type":"Power plant","is_nuclear":false}},{"type":"Feature","geometry":{"type":"Point","coordinates":[-157.927,21.352]},"properties":{"key":"68285-6d5df7fe","layer":"power","name":"Puuloa Solar","state":"HI","detail_file":"data/details/power-plants-44.json","plant_id":"68285","capacity_mw":12.4,"status_group":"Planned","energy_sources":"MWH; SUN","type":"Power plant","is_nuclear":false}},{"type":"Feature","geometry":{"type":"Point","coordinates":[-158.058,21.479]},"properties":{"key":"60328-ae10e834","layer":"power","name":"Schofield Generating Station","state":"HI","detail_file":"data/details/power-plants-43.json","plant_id":"60328","capacity_mw":50.4,"status_group":"Operating","energy_sources":"OBL","type":"Power plant","is_nuclear":false}},{"type":"Feature","geometry":{"type":"Point","coordinates":[-158.091,21.303]},"properties":{"key":"10093-95acdede","layer":"power","name":"Tesoro Hawaii","state":"HI","detail_file":"data/details/power-plants-45.json","plant_id":"10093","capacity_mw":20.0,"status_group":"Operating","energy_sources":"WO","type":"Power plant","is_nuclear":false}},{"type":"Feature","geometry":{"type":"Point","coordinates":[-157.962,21.389]},"properties":{"key":"766-79fc2d04","layer":"power","name":"Waiau","state":"HI","detail_file":"data/details/power-plants-00.json","plant_id":"766","capacity_mw":374.6,"status_group":"Operating","energy_sources":"DFO; RFO","type":"Power plant","is_nuclear":false}},{"type":"Feature","geometry":{"type":"Point","coordinates":[-157.971,21.42]},"properties":{"key":"65058-d4e7fcf6","layer":"power","name":"Waiawa Solar Power Hybrid","state":"HI","detail_file":"data/details/power-plants-51.json","plant_id":"65058","capacity_mw":72.0,"status_group":"Operating","energy_sources":"MWH; SUN","type":"Power plant","is_nuclear":false}},{"type":"Feature","geometry":{"type":"Point","coordinates":[-158.013,21.471]},"properties":{"key":"58655-5b07f255","layer":"power","name":"Waihonu North Solar","state":"HI","detail_file":"data/details/power-plants-46.json","plant_id":"58655","capacity_mw":5.0,"status_group":"Operating","energy_sources":"SUN","type":"Power plant","is_nuclear":false}},{"type":"Feature","geometry":{"type":"Point","coordinates":[-158.016,21.469]},"properties":{"key":"58656-98e5738f","layer":"power","name":"Waihonu South Solar","state":"HI","detail_file":"data/details/power-plants-37.json","plant_id":"58656","capacity_mw":1.5,"status_group":"Operating","energy_sources":"SUN","type":"Power plant","is_nuclear":false}},{"type":"Feature","geometry":{"type":"Point","coordinates":[-159.556,22.196]},"properties":{"key":"10413-6045aa22","layer":"power","name":"Wainiha Hydro","state":"HI","detail_file":"data/details/power-plants-13.json","plant_id":"10413","capacity_mw":3.6,"status_group":"Operating","energy_sources":"WAT","type":"Power plant","is_nuclear":false}},{"type":"Feature","geometry":{"type":"Point","coordinates":[-157.986,21.364]},"properties":{"key":"64190-b3cd6fde","layer":"power","name":"Waipio Peninsula","state":"HI","detail_file":"data/details/power-plants-30.json","plant_id":"64190","capacity_mw":11.0,"status_group":"Operating","energy_sources":"SUN","type":"Power plant","is_nuclear":false}},{"type":"Feature","geometry":{"type":"Point","coordinates":[-157.982,21.456]},"properties":{"key":"60024-1266591f","layer":"power","name":"Waipio Solar","state":"HI","detail_file":"data/details/power-plants-33.json","plant_id":"60024","capacity_mw":45.9,"status_group":"Operating","energy_sources":"SUN","type":"Power plant","is_nuclear":false}},{"type":"Feature","geometry":{"type":"Point","coordinates":[-158.015,21.34]},"properties":{"key":"61987-062bfe55","layer":"power","name":"West Loch Solar One","state":"HI","detail_file":"data/details/power-plants-02.json","plant_id":"61987","capacity_mw":20.0,"status_group":"Operating","energy_sources":"SUN","type":"Power plant","is_nuclear":false}}]}