{"type":"FeatureCollection","features":[{"type":"Feature","geometry":{"type":"Point","coordinates":[-162.293,55.048]},"properties":{"key":"7493-6245d486","layer":"power","name":"King Cove","state":"AK","detail_file":"data/details/power-plants-50.json","plant_id":"7493","capacity_mw":3.9,"status_group":"Operating","energy_sources":"DFO; WAT","type":"Power plant","is_nuclear":false}},{"type":"Feature","geometry":{"type":"Point","coordinates":[-160.497,55.34]},"properties":{"key":"1-49a3de3c","layer":"power","name":"Sand Point","state":"AK","detail_file":"data/details/power-plants-10.json","plant_id":"1","capacity_mw":3.7,"status_group":"Operating","energy_sources":"DFO; WND","type":"Power plant","is_nuclear":false}}]}