{"type":"FeatureCollection","features":[{"type":"Feature","geometry":{"type":"Point","coordinates":[-90.643,36.419]},"properties":{"key":"66607-da05af22","layer":"power","name":"Clay County Electrical Cooperative","state":"AR","detail_file":"data/details/power-plants-13.json","plant_id":"66607","capacity_mw":1.0,"status_group":"Operating","energy_sources":"SUN","type":"Power plant","is_nuclear":false}},{"type":"Feature","geometry":{"type":"Point","coordinates":[-90.187,36.386]},"properties":{"key":"193-80873609","layer":"power","name":"Municipal Light","state":"AR","detail_file":"data/details/power-plants-12.json","plant_id":"193","capacity_mw":7.2,"status_group":"Operating","energy_sources":"DFO","type":"Power plant","is_nuclear":false}},{"type":"Feature","geometry":{"type":"Point","coordinates":[-91.878,36.391]},"properties":{"key":"68709-c90b10cb","layer":"power","name":"North Arkansas Electric Cooperative","state":"AR","detail_file":"data/details/power-plants-48.json","plant_id":"68709","capacity_mw":1.0,"status_group":"Operating","energy_sources":"SUN","type":"Power plant","is_nuclear":false}},{"type":"Feature","geometry":{"type":"Point","coordinates":[-90.509,36.024]},"properties":{"key":"8015-0ef57352","layer":"power","name":"Paragould Reciprocating","state":"AR","detail_file":"data/details/power-plants-28.json","plant_id":"8015","capacity_mw":19.2,"status_group":"Operating","energy_sources":"NG","type":"Power plant","is_nuclear":false}},{"type":"Feature","geometry":{"type":"Point","coordinates":[-90.488,36.026]},"properties":{"key":"67188-4cae525e","layer":"power","name":"Paragould Solar Farm","state":"AR","detail_file":"data/details/power-plants-35.json","plant_id":"67188","capacity_mw":1.5,"status_group":"Operating","energy_sources":"SUN","type":"Power plant","is_nuclear":false}},{"type":"Feature","geometry":{"type":"Point","coordinates":[-90.509,36.024]},"properties":{"key":"7283-761a9b73","layer":"power","name":"Paragould Turbine","state":"AR","detail_file":"data/details/power-plants-33.json","plant_id":"7283","capacity_mw":13.9,"status_group":"Operating","energy_sources":"DFO; NG","type":"Power plant","is_nuclear":false}},{"type":"Feature","geometry":{"type":"Point","coordinates":[-89.553,38.17]},"properties":{"key":"70084-7d7dde36","layer":"power","name":"Alligator Creek Solar","state":"GA","detail_file":"data/details/power-plants-49.json","plant_id":"70084","capacity_mw":80.0,"status_group":"Under construction","energy_sources":"SUN","type":"Power plant","is_nuclear":false}},{"type":"Feature","geometry":{"type":"Point","coordinates":[-89.477,39.164]},"properties":{"key":"69787-deb5a9e3","layer":"power","name":"AC IL - Hillsboro CSG","state":"IL","detail_file":"data/details/power-plants-58.json","plant_id":"69787","capacity_mw":5.0,"status_group":"Operating","energy_sources":"SUN","type":"Power plant","is_nuclear":false}},{"type":"Feature","geometry":{"type":"Point","coordinates":[-90.013,38.487]},"properties":{"key":"65127-349082bb","layer":"power","name":"AES Belleville Solar LLC","state":"IL","detail_file":"data/details/power-plants-39.json","plant_id":"65127","capacity_mw":9.9,"status_group":"Operating","energy_sources":"SUN","type":"Power plant","is_nuclear":false}},{"type":"Feature","geometry":{"type":"Point","coordinates":[-90.436,39.57]},"properties":{"key":"7818-dbdc0812","layer":"power","name":"Alsey","state":"IL","detail_file":"data/details/power-plants-41.json","plant_id":"7818","capacity_mw":173.0,"status_group":"Operating","energy_sources":"NG","type":"Power plant","is_nuclear":false}},{"type":"Feature","geometry":{"type":"Point","coordinates":[-88.756,39.069]},"properties":{"key":"7990-c306f7a4","layer":"power","name":"Altamont","state":"IL","detail_file":"data/details/power-plants-44.json","plant_id":"7990","capacity_mw":7.2,"status_group":"Operating","energy_sources":"DFO","type":"Power plant","is_nuclear":false}},{"type":"Feature","geometry":{"type":"Point","coordinates":[-89.45,39.148]},"properties":{"key":"69070-62099ac9","layer":"power","name":"Anacott","state":"IL","detail_file":"data/details/power-plants-42.json","plant_id":"69070","capacity_mw":5.0,"status_group":"Operating","energy_sources":"SUN","type":"Power plant","is_nuclear":false}},{"type":"Feature","geometry":{"type":"Point","coordinates":[-88.891,39.87]},"properties":{"key":"10865-5f309075","layer":"power","name":"Archer Daniels Midland Decatur","state":"IL","detail_file":"data/details/power-plants-00.json","plant_id":"10865","capacity_mw":335.0,"status_group":"Operating","energy_sources":"BIT","type":"Power plant","is_nuclear":false}},{"type":"Feature","geometry":{"type":"Point","coordinates":[-88.812,39.99]},"properties":{"key":"69813-c63aa358","layer":"power","name":"Argenta Solar","state":"IL","detail_file":"data/details/power-plants-06.json","plant_id":"69813","capacity_mw":1.5,"status_group":"Under construction","energy_sources":"SUN","type":"Power plant","is_nuclear":false}},{"type":"Feature","geometry":{"type":"Point","coordinates":[-89.199,38.325]},"properties":{"key":"68974-05061c57","layer":"power","name":"Ashley Solar LLC PV","state":"IL","detail_file":"data/details/power-plants-47.json","plant_id":"68974","capacity_mw":5.0,"status_group":"Operating","energy_sources":"SUN","type":"Power plant","is_nuclear":false}},{"type":"Feature","geometry":{"type":"Point","coordinates":[-91.315,39.79]},"properties":{"key":"66703-a292568c","layer":"power","name":"Austin Creek Solar","state":"IL","detail_file":"data/details/power-plants-59.json","plant_id":"66703","capacity_mw":140.0,"status_group":"Planned","energy_sources":"SUN","type":"Power plant","is_nuclear":false}},{"type":"Feature","geometry":{"type":"Point","coordinates":[-89.854,38.205]},"properties":{"key":"889-831de95a","layer":"power","name":"Baldwin Energy Complex","state":"IL","detail_file":"data/details/power-plants-56.json","plant_id":"889","capacity_mw":1259.6,"status_group":"Operating","energy_sources":"SUB","type":"Power plant","is_nuclear":false}},{"type":"Feature","geometry":{"type":"Point","coordinates":[-89.854,38.204]},"properties":{"key":"68148-91abe473","layer":"power","name":"Baldwin Solar BESS","state":"IL","detail_file":"data/details/power-plants-18.json","plant_id":"68148","capacity_mw":70.4,"status_group":"Operating","energy_sources":"MWH; SUN","type":"Power plant","is_nuclear":false}},{"type":"Feature","geometry":{"type":"Point","coordinates":[-89.75,38.323]},"properties":{"key":"69874-5f56a712","layer":"power","name":"Bee Hollow Solar, LLC","state":"IL","detail_file":"data/details/power-plants-04.json","plant_id":"69874","capacity_mw":150.0,"status_group":"Under construction","energy_sources":"SUN","type":"Power plant","is_nuclear":false}},{"type":"Feature","geometry":{"type":"Point","coordinates":[-90.14,39.071]},"properties":{"key":"69043-479aad32","layer":"power","name":"Big Creek Solar (IL) (CSG)","state":"IL","detail_file":"data/details/power-plants-37.json","plant_id":"69043","capacity_mw":5.0,"status_group":"Operating","energy_sources":"SUN","type":"Power plant","is_nuclear":false}},{"type":"Feature","geometry":{"type":"Point","coordinates":[-89.3,37.86]},"properties":{"key":"69629-01d94c87","layer":"power","name":"Big Muddy Solar","state":"IL","detail_file":"data/details/power-plants-06.json","plant_id":"69629","capacity_mw":95.0,"status_group":"Under construction","energy_sources":"SUN","type":"Power plant","is_nuclear":false}},{"type":"Feature","geometry":{"type":"Point","coordinates":[-88.296,38.05]},"properties":{"key":"64637-45a6fe44","layer":"power","name":"Big River Solar","state":"IL","detail_file":"data/details/power-plants-36.json","plant_id":"64637","capacity_mw":149.0,"status_group":"Operating","energy_sources":"SUN","type":"Power plant","is_nuclear":false}},{"type":"Feature","geometry":{"type":"Point","coordinates":[-88.969,37.468]},"properties":{"key":"69977-6ecd4c3f","layer":"power","name":"Blue Branch Solar","state":"IL","detail_file":"data/details/power-plants-49.json","plant_id":"69977","capacity_mw":25.0,"status_group":"Under construction","energy_sources":"SUN","type":"Power plant","is_nuclear":false}},{"type":"Feature","geometry":{"type":"Point","coordinates":[-89.451,39.15]},"properties":{"key":"69841-ba96a4d6","layer":"power","name":"Bluestar Solar Project, LLC","state":"IL","detail_file":"data/details/power-plants-58.json","plant_id":"69841","capacity_mw":5.0,"status_group":"Under construction","energy_sources":"SUN","type":"Power plant","is_nuclear":false}},{"type":"Feature","geometry":{"type":"Point","coordinates":[-88.187,38.17]},"properties":{"key":"68770-8748318e","layer":"power","name":"Boomtown Renewable Energy Center","state":"IL","detail_file":"data/details/power-plants-21.json","plant_id":"68770","capacity_mw":150.0,"status_group":"Operating","energy_sources":"SUN","type":"Power plant","is_nuclear":false}},{"type":"Feature","geometry":{"type":"Point","coordinates":[-89.525,38.607]},"properties":{"key":"934-c1bbe308","layer":"power","name":"Breese","state":"IL","detail_file":"data/details/power-plants-03.json","plant_id":"934","capacity_mw":16.9,"status_group":"Operating","energy_sources":"DFO","type":"Power plant","is_nuclear":false}},{"type":"Feature","geometry":{"type":"Point","coordinates":[-90.699,39.973]},"properties":{"key":"57767-f4dad6e5","layer":"power","name":"Brown County Wind Turbine","state":"IL","detail_file":"data/details/power-plants-05.json","plant_id":"57767","capacity_mw":1.5,"status_group":"Operating","energy_sources":"WND","type":"Power plant","is_nuclear":false}},{"type":"Feature","geometry":{"type":"Point","coordinates":[-88.438,38.632]},"properties":{"key":"70198-e9442f41","layer":"power","name":"CF IL Solar Marigold Lane, Flora2 LLC","state":"IL","detail_file":"data/details/power-plants-54.json","plant_id":"70198","capacity_mw":2.0,"status_group":"Under construction","energy_sources":"SUN","type":"Power plant","is_nuclear":false}},{"type":"Feature","geometry":{"type":"Point","coordinates":[-89.186,38.14]},"properties":{"key":"69845-a3e957df","layer":"power","name":"CVE US IL TAMAROA 316 LLC","state":"IL","detail_file":"data/details/power-plants-15.json","plant_id":"69845","capacity_mw":3.6,"status_group":"Operating","energy_sources":"SUN","type":"Power plant","is_nuclear":false}},{"type":"Feature","geometry":{"type":"Point","coordinates":[-89.358,38.611]},"properties":{"key":"936-f0812aeb","layer":"power","name":"Carlyle","state":"IL","detail_file":"data/details/power-plants-20.json","plant_id":"936","capacity_mw":12.3,"status_group":"Operating","energy_sources":"DFO","type":"Power plant","is_nuclear":false}},{"type":"Feature","geometry":{"type":"Point","coordinates":[-88.163,38.097]},"properties":{"key":"937-7e798203","layer":"power","name":"Carmi","state":"IL","detail_file":"data/details/power-plants-05.json","plant_id":"937","capacity_mw":13.4,"status_group":"Operating","energy_sources":"DFO","type":"Power plant","is_nuclear":false}},{"type":"Feature","geometry":{"type":"Point","coordinates":[-88.876,38.452]},"properties":{"key":"69578-3d55b3b4","layer":"power","name":"Casey Fork Solar, LLC","state":"IL","detail_file":"data/details/power-plants-27.json","plant_id":"69578","capacity_mw":150.0,"status_group":"Under construction","energy_sources":"SUN","type":"Power plant","is_nuclear":false}},{"type":"Feature","geometry":{"type":"Point","coordinates":[-90.471,39.978]},"properties":{"key":"68771-3af03e1d","layer":"power","name":"Cass County Renewable Energy Center","state":"IL","detail_file":"data/details/power-plants-61.json","plant_id":"68771","capacity_mw":150.0,"status_group":"Operating","energy_sources":"SUN","type":"Power plant","is_nuclear":false}},{"type":"Feature","geometry":{"type":"Point","coordinates":[-88.507,38.751]},"properties":{"key":"66032-e27af312","layer":"power","name":"Clay FC","state":"IL","detail_file":"data/details/power-plants-42.json","plant_id":"66032","capacity_mw":2.0,"status_group":"Operating","energy_sources":"SUN","type":"Power plant","is_nuclear":false}},{"type":"Feature","geometry":{"type":"Point","coordinates":[-89.011,37.829]},"properties":{"key":"64464-f708411e","layer":"power","name":"Clendenin A Community Solar, LLC CSG","state":"IL","detail_file":"data/details/power-plants-07.json","plant_id":"64464","capacity_mw":2.0,"status_group":"Operating","energy_sources":"SUN","type":"Power plant","is_nuclear":false}},{"type":"Feature","geometry":{"type":"Point","coordinates":[-89.148,38.507]},"properties":{"key":"68955-9385893f","layer":"power","name":"Clinton Solar 2","state":"IL","detail_file":"data/details/power-plants-62.json","plant_id":"68955","capacity_mw":2.0,"status_group":"Operating","energy_sources":"SUN","type":"Power plant","is_nuclear":false}},{"type":"Feature","geometry":{"type":"Point","coordinates":[-89.148,38.506]},"properties":{"key":"68963-b9e310a0","layer":"power","name":"Clinton Solar 2b","state":"IL","detail_file":"data/details/power-plants-38.json","plant_id":"68963","capacity_mw":2.0,"status_group":"Operating","energy_sources":"SUN","type":"Power plant","is_nuclear":false}},{"type":"Feature","geometry":{"type":"Point","coordinates":[-89.275,38.596]},"properties":{"key":"63945-2a675b79","layer":"power","name":"Clinton Solar 4 LLC CSG","state":"IL","detail_file":"data/details/power-plants-25.json","plant_id":"63945","capacity_mw":2.0,"status_group":"Operating","energy_sources":"SUN","type":"Power plant","is_nuclear":false}},{"type":"Feature","geometry":{"type":"Point","coordinates":[-89.273,38.596]},"properties":{"key":"68961-3c1973d7","layer":"power","name":"Clinton Solar 4b","state":"IL","detail_file":"data/details/power-plants-18.json","plant_id":"68961","capacity_mw":2.0,"status_group":"Operating","energy_sources":"SUN","type":"Power plant","is_nuclear":false}},{"type":"Feature","geometry":{"type":"Point","coordinates":[-89.393,39.069]},"properties":{"key":"68147-72b9cb9e","layer":"power","name":"Coffeen Solar BESS","state":"IL","detail_file":"data/details/power-plants-26.json","plant_id":"68147","capacity_mw":46.2,"status_group":"Operating","energy_sources":"MWH; SUN","type":"Power plant","is_nuclear":false}},{"type":"Feature","geometry":{"type":"Point","coordinates":[-88.18,39.606]},"properties":{"key":"68184-1031d26a","layer":"power","name":"Coles Wind","state":"IL","detail_file":"data/details/power-plants-58.json","plant_id":"68184","capacity_mw":300.0,"status_group":"Under construction","energy_sources":"WND","type":"Power plant","is_nuclear":false}},{"type":"Feature","geometry":{"type":"Point","coordinates":[-88.844,39.011]},"properties":{"key":"63830-0f8c4931","layer":"power","name":"Conagra Foods at St. Elmo","state":"IL","detail_file":"data/details/power-plants-61.json","plant_id":"63830","capacity_mw":1.8,"status_group":"Operating","energy_sources":"SUN","type":"Power plant","is_nuclear":false}},{"type":"Feature","geometry":{"type":"Point","coordinates":[-88.42,39.521]},"properties":{"key":"67991-ca9d7788","layer":"power","name":"Cooks Mill PV I","state":"IL","detail_file":"data/details/power-plants-01.json","plant_id":"67991","capacity_mw":99.0,"status_group":"Operating","energy_sources":"SUN","type":"Power plant","is_nuclear":false}},{"type":"Feature","geometry":{"type":"Point","coordinates":[-89.8,39.125]},"properties":{"key":"69849-880fcef7","layer":"power","name":"Corfee Solar LLC","state":"IL","detail_file":"data/details/power-plants-44.json","plant_id":"69849","capacity_mw":5.0,"status_group":"Operating","energy_sources":"SUN","type":"Power plant","is_nuclear":false}},{"type":"Feature","geometry":{"type":"Point","coordinates":[-89.0,38.645]},"properties":{"key":"67993-6e519b9c","layer":"power","name":"Crooked Creek PV I","state":"IL","detail_file":"data/details/power-plants-19.json","plant_id":"67993","capacity_mw":99.0,"status_group":"Operating","energy_sources":"SUN","type":"Power plant","is_nuclear":false}},{"type":"Feature","geometry":{"type":"Point","coordinates":[-89.602,39.755]},"properties":{"key":"963-8d7f83ee","layer":"power","name":"Dallman","state":"IL","detail_file":"data/details/power-plants-22.json","plant_id":"963","capacity_mw":230.1,"status_group":"Operating","energy_sources":"BIT","type":"Power plant","is_nuclear":false}},{"type":"Feature","geometry":{"type":"Point","coordinates":[-89.81,39.537]},"properties":{"key":"66624-9561cbc2","layer":"power","name":"Double Back Diamond","state":"IL","detail_file":"data/details/power-plants-25.json","plant_id":"66624","capacity_mw":592.8,"status_group":"Operating","energy_sources":"SUN","type":"Power plant","is_nuclear":false}},{"type":"Feature","geometry":{"type":"Point","coordinates":[-89.031,39.186]},"properties":{"key":"64224-4f484e6b","layer":"power","name":"Dressor Plains Solar, LLC","state":"IL","detail_file":"data/details/power-plants-61.json","plant_id":"64224","capacity_mw":99.0,"status_group":"Operating","energy_sources":"SUN","type":"Power plant","is_nuclear":false}},{"type":"Feature","geometry":{"type":"Point","coordinates":[-89.997,38.815]},"properties":{"key":"64016-a36627b5","layer":"power","name":"Edwardsville Solar II","state":"IL","detail_file":"data/details/power-plants-48.json","plant_id":"64016","capacity_mw":2.0,"status_group":"Operating","energy_sources":"SUN","type":"Power plant","is_nuclear":false}},{"type":"Feature","geometry":{"type":"Point","coordinates":[-88.449,37.853]},"properties":{"key":"67972-eeb3cb15","layer":"power","name":"Eldorado Solar I","state":"IL","detail_file":"data/details/power-plants-54.json","plant_id":"67972","capacity_mw":150.0,"status_group":"Operating","energy_sources":"SUN","type":"Power plant","is_nuclear":false}},{"type":"Feature","geometry":{"type":"Point","coordinates":[-88.426,37.869]},"properties":{"key":"69143-8f4b64c0","layer":"power","name":"Eldorado Solar II","state":"IL","detail_file":"data/details/power-plants-08.json","plant_id":"69143","capacity_mw":120.0,"status_group":"Operating","energy_sources":"SUN","type":"Power plant","is_nuclear":false}},{"type":"Feature","geometry":{"type":"Point","coordinates":[-88.014,39.372]},"properties":{"key":"69675-70467e84","layer":"power","name":"Emily Solar, LLC","state":"IL","detail_file":"data/details/power-plants-47.json","plant_id":"69675","capacity_mw":273.6,"status_group":"Operating","energy_sources":"SUN","type":"Power plant","is_nuclear":false}},{"type":"Feature","geometry":{"type":"Point","coordinates":[-89.637,39.826]},"properties":{"key":"8016-fd3e9181","layer":"power","name":"Factory","state":"IL","detail_file":"data/details/power-plants-34.json","plant_id":"8016","capacity_mw":26.6,"status_group":"Operating","energy_sources":"DFO","type":"Power plant","is_nuclear":false}},{"type":"Feature","geometry":{"type":"Point","coordinates":[-89.368,39.568]},"properties":{"key":"56529-3a25cbbb","layer":"power","name":"Five Oaks Gas Recovery","state":"IL","detail_file":"data/details/power-plants-47.json","plant_id":"56529","capacity_mw":3.2,"status_group":"Operating","energy_sources":"LFG","type":"Power plant","is_nuclear":false}},{"type":"Feature","geometry":{"type":"Point","coordinates":[-88.463,38.669]},"properties":{"key":"56117-985a64ca","layer":"power","name":"Flora Site A","state":"IL","detail_file":"data/details/power-plants-60.json","plant_id":"56117","capacity_mw":5.4,"status_group":"Operating","energy_sources":"DFO","type":"Power plant","is_nuclear":false}},{"type":"Feature","geometry":{"type":"Point","coordinates":[-88.489,38.671]},"properties":{"key":"56118-fcd1c88c","layer":"power","name":"Flora Site B","state":"IL","detail_file":"data/details/power-plants-04.json","plant_id":"56118","capacity_mw":3.6,"status_group":"Operating","energy_sources":"DFO","type":"Power plant","is_nuclear":false}},{"type":"Feature","geometry":{"type":"Point","coordinates":[-88.514,38.649]},"properties":{"key":"67937-8d336c0a","layer":"power","name":"Flora Solar","state":"IL","detail_file":"data/details/power-plants-45.json","plant_id":"67937","capacity_mw":125.0,"status_group":"Planned","energy_sources":"SUN","type":"Power plant","is_nuclear":false}},{"type":"Feature","geometry":{"type":"Point","coordinates":[-89.914,38.426]},"properties":{"key":"943-b2bf06c1","layer":"power","name":"Freeburg","state":"IL","detail_file":"data/details/power-plants-37.json","plant_id":"943","capacity_mw":15.8,"status_group":"Operating","energy_sources":"DFO","type":"Power plant","is_nuclear":false}},{"type":"Feature","geometry":{"type":"Point","coordinates":[-88.902,39.779]},"properties":{"key":"54360-9c8b3a6b","layer":"power","name":"Fuyao Glass Illinois Inc.","state":"IL","detail_file":"data/details/power-plants-36.json","plant_id":"54360","capacity_mw":4.7,"status_group":"Operating","energy_sources":"DFO","type":"Power plant","is_nuclear":false}},{"type":"Feature","geometry":{"type":"Point","coordinates":[-89.298,37.744]},"properties":{"key":"69846-9894c952","layer":"power","name":"Gerstenschlager Family Solar 1, LLC","state":"IL","detail_file":"data/details/power-plants-53.json","plant_id":"69846","capacity_mw":5.0,"status_group":"Under construction","energy_sources":"SUN","type":"Power plant","is_nuclear":false}},{"type":"Feature","geometry":{"type":"Point","coordinates":[-90.128,38.697]},"properties":{"key":"57072-83edfcec","layer":"power","name":"Granite City Works","state":"IL","detail_file":"data/details/power-plants-05.json","plant_id":"57072","capacity_mw":78.0,"status_group":"Operating","energy_sources":"PUR","type":"Power plant","is_nuclear":false}},{"type":"Feature","geometry":{"type":"Point","coordinates":[-89.553,38.178]},"properties":{"key":"69586-a74564c8","layer":"power","name":"Great Plains Solar, LLC","state":"IL","detail_file":"data/details/power-plants-32.json","plant_id":"69586","capacity_mw":100.0,"status_group":"Under construction","energy_sources":"SUN","type":"Power plant","is_nuclear":false}},{"type":"Feature","geometry":{"type":"Point","coordinates":[-88.915,38.302]},"properties":{"key":"70001-59717b2c","layer":"power","name":"Harper Creek Solar, LLC","state":"IL","detail_file":"data/details/power-plants-07.json","plant_id":"70001","capacity_mw":5.0,"status_group":"Under construction","energy_sources":"SUN","type":"Power plant","is_nuclear":false}},{"type":"Feature","geometry":{"type":"Point","coordinates":[-88.072,39.832]},"properties":{"key":"61161-2985f642","layer":"power","name":"Harvest Ridge Wind Farm","state":"IL","detail_file":"data/details/power-plants-61.json","plant_id":"61161","capacity_mw":202.0,"status_group":"Operating","energy_sources":"WND","type":"Power plant","is_nuclear":false}},{"type":"Feature","geometry":{"type":"Point","coordinates":[-90.366,39.133]},"properties":{"key":"67786-629343d7","layer":"power","name":"Hickory Solar","state":"IL","detail_file":"data/details/power-plants-25.json","plant_id":"67786","capacity_mw":110.0,"status_group":"Operating","energy_sources":"SUN","type":"Power plant","is_nuclear":false}},{"type":"Feature","geometry":{"type":"Point","coordinates":[-89.685,38.741]},"properties":{"key":"946-3d9fff77","layer":"power","name":"Highland","state":"IL","detail_file":"data/details/power-plants-46.json","plant_id":"946","capacity_mw":13.6,"status_group":"Operating","energy_sources":"DFO","type":"Power plant","is_nuclear":false}},{"type":"Feature","geometry":{"type":"Point","coordinates":[-89.701,38.737]},"properties":{"key":"70066-b5ddd113","layer":"power","name":"Highland Solar 1, LLC","state":"IL","detail_file":"data/details/power-plants-56.json","plant_id":"70066","capacity_mw":2.0,"status_group":"Operating","energy_sources":"SUN","type":"Power plant","is_nuclear":false}},{"type":"Feature","geometry":{"type":"Point","coordinates":[-88.758,39.223]},"properties":{"key":"55334-f3b2f511","layer":"power","name":"Holland Energy Facility","state":"IL","detail_file":"data/details/power-plants-28.json","plant_id":"55334","capacity_mw":702.1,"status_group":"Operating","energy_sources":"NG","type":"Power plant","is_nuclear":false}},{"type":"Feature","geometry":{"type":"Point","coordinates":[-89.443,39.147]},"properties":{"key":"69844-fe238cf2","layer":"power","name":"Horseshoe Solar Project, LLC","state":"IL","detail_file":"data/details/power-plants-19.json","plant_id":"69844","capacity_mw":5.0,"status_group":"Under construction","energy_sources":"SUN","type":"Power plant","is_nuclear":false}},{"type":"Feature","geometry":{"type":"Point","coordinates":[-89.059,37.79]},"properties":{"key":"64786-53e656fb","layer":"power","name":"Hurricane Creek CSG","state":"IL","detail_file":"data/details/power-plants-14.json","plant_id":"64786","capacity_mw":2.0,"status_group":"Operating","energy_sources":"SUN","type":"Power plant","is_nuclear":false}},{"type":"Feature","geometry":{"type":"Point","coordinates":[-89.3,39.85]},"properties":{"key":"69053-09a1ea7a","layer":"power","name":"ILL060-Sangamon-Atchison","state":"IL","detail_file":"data/details/power-plants-40.json","plant_id":"69053","capacity_mw":2.0,"status_group":"Under construction","energy_sources":"SUN","type":"Power plant","is_nuclear":false}},{"type":"Feature","geometry":{"type":"Point","coordinates":[-88.463,38.666]},"properties":{"key":"56116-f844ad22","layer":"power","name":"IMEA Flora","state":"IL","detail_file":"data/details/power-plants-42.json","plant_id":"56116","capacity_mw":9.0,"status_group":"Operating","energy_sources":"DFO","type":"Power plant","is_nuclear":false}},{"type":"Feature","geometry":{"type":"Point","coordinates":[-89.685,38.742]},"properties":{"key":"56114-53b18666","layer":"power","name":"IMEA Highland","state":"IL","detail_file":"data/details/power-plants-14.json","plant_id":"56114","capacity_mw":3.6,"status_group":"Operating","energy_sources":"DFO","type":"Power plant","is_nuclear":false}},{"type":"Feature","geometry":{"type":"Point","coordinates":[-91.341,39.964]},"properties":{"key":"69957-d611152a","layer":"power","name":"Illinois PV Adams 1A","state":"IL","detail_file":"data/details/power-plants-00.json","plant_id":"69957","capacity_mw":2.0,"status_group":"Operating","energy_sources":"SUN","type":"Power plant","is_nuclear":false}},{"type":"Feature","geometry":{"type":"Point","coordinates":[-91.341,39.964]},"properties":{"key":"69958-1d7520e9","layer":"power","name":"Illinois PV Adams 1B","state":"IL","detail_file":"data/details/power-plants-47.json","plant_id":"69958","capacity_mw":2.0,"status_group":"Operating","energy_sources":"SUN","type":"Power plant","is_nuclear":false}},{"type":"Feature","geometry":{"type":"Point","coordinates":[-91.37,39.984]},"properties":{"key":"69959-9717dddf","layer":"power","name":"Illinois PV Adams 2A","state":"IL","detail_file":"data/details/power-plants-40.json","plant_id":"69959","capacity_mw":2.0,"status_group":"Operating","energy_sources":"SUN","type":"Power plant","is_nuclear":false}},{"type":"Feature","geometry":{"type":"Point","coordinates":[-91.37,39.984]},"properties":{"key":"69960-65539c81","layer":"power","name":"Illinois PV Adams 2B","state":"IL","detail_file":"data/details/power-plants-09.json","plant_id":"69960","capacity_mw":2.0,"status_group":"Operating","energy_sources":"SUN","type":"Power plant","is_nuclear":false}},{"type":"Feature","geometry":{"type":"Point","coordinates":[-89.589,39.823]},"properties":{"key":"7425-a8ea6be2","layer":"power","name":"Interstate","state":"IL","detail_file":"data/details/power-plants-30.json","plant_id":"7425","capacity_mw":138.6,"status_group":"Operating","energy_sources":"NG","type":"Power plant","is_nuclear":false}},{"type":"Feature","geometry":{"type":"Point","coordinates":[-91.4,39.859]},"properties":{"key":"64629-bd25832d","layer":"power","name":"JM Huber at Quincy","state":"IL","detail_file":"data/details/power-plants-15.json","plant_id":"64629","capacity_mw":1.5,"status_group":"Operating","energy_sources":"SUN","type":"Power plant","is_nuclear":false}},{"type":"Feature","geometry":{"type":"Point","coordinates":[-89.085,37.751]},"properties":{"key":"61878-ccd0fadc","layer":"power","name":"John A Logan College Solar","state":"IL","detail_file":"data/details/power-plants-01.json","plant_id":"61878","capacity_mw":1.3,"status_group":"Operating","energy_sources":"SUN","type":"Power plant","is_nuclear":false}},{"type":"Feature","geometry":{"type":"Point","coordinates":[-88.952,37.898]},"properties":{"key":"64465-ab4e4ee6","layer":"power","name":"Kern A Community Solar, LLC CSG","state":"IL","detail_file":"data/details/power-plants-50.json","plant_id":"64465","capacity_mw":2.0,"status_group":"Operating","energy_sources":"SUN","type":"Power plant","is_nuclear":false}},{"type":"Feature","geometry":{"type":"Point","coordinates":[-89.213,38.05]},"properties":{"key":"66632-4763fcde","layer":"power","name":"Kimmel Road Solar, LLC","state":"IL","detail_file":"data/details/power-plants-07.json","plant_id":"66632","capacity_mw":50.0,"status_group":"Operating","energy_sources":"SUN","type":"Power plant","is_nuclear":false}},{"type":"Feature","geometry":{"type":"Point","coordinates":[-89.496,39.591]},"properties":{"key":"876-7e48bb69","layer":"power","name":"Kincaid Generation LLC","state":"IL","detail_file":"data/details/power-plants-60.json","plant_id":"876","capacity_mw":1319.0,"status_group":"Operating","energy_sources":"SUB","type":"Power plant","is_nuclear":false}},{"type":"Feature","geometry":{"type":"Point","coordinates":[-89.013,38.762]},"properties":{"key":"55204-95fdeb5c","layer":"power","name":"Kinmundy","state":"IL","detail_file":"data/details/power-plants-49.json","plant_id":"55204","capacity_mw":270.0,"status_group":"Operating","energy_sources":"NG","type":"Power plant","is_nuclear":false}},{"type":"Feature","geometry":{"type":"Point","coordinates":[-89.601,39.757]},"properties":{"key":"964-e54e2e09","layer":"power","name":"Lakeside","state":"IL","detail_file":"data/details/power-plants-53.json","plant_id":"964","capacity_mw":5.4,"status_group":"Operating","energy_sources":"DFO","type":"Power plant","is_nuclear":false}},{"type":"Feature","geometry":{"type":"Point","coordinates":[-89.58,39.579]},"properties":{"key":"62022-2ccd3d92","layer":"power","name":"Lincoln Land Energy Center","state":"IL","detail_file":"data/details/power-plants-07.json","plant_id":"62022","capacity_mw":1276.8,"status_group":"Planned","energy_sources":"NG","type":"Power plant","is_nuclear":false}},{"type":"Feature","geometry":{"type":"Point","coordinates":[-89.956,39.822]},"properties":{"key":"58925-f03183d8","layer":"power","name":"Lincoln Land Wind","state":"IL","detail_file":"data/details/power-plants-56.json","plant_id":"58925","capacity_mw":302.0,"status_group":"Operating","energy_sources":"WND","type":"Power plant","is_nuclear":false}},{"type":"Feature","geometry":{"type":"Point","coordinates":[-89.93,39.498]},"properties":{"key":"68192-d701e556","layer":"power","name":"Lotus Wind","state":"IL","detail_file":"data/details/power-plants-48.json","plant_id":"68192","capacity_mw":200.0,"status_group":"Operating","energy_sources":"WND","type":"Power plant","is_nuclear":false}},{"type":"Feature","geometry":{"type":"Point","coordinates":[-89.042,37.836]},"properties":{"key":"64466-a5027be3","layer":"power","name":"Lukuc B Community Solar LLC CSG","state":"IL","detail_file":"data/details/power-plants-63.json","plant_id":"64466","capacity_mw":2.0,"status_group":"Operating","energy_sources":"SUN","type":"Power plant","is_nuclear":false}},{"type":"Feature","geometry":{"type":"Point","coordinates":[-88.896,39.917]},"properties":{"key":"68919-97f4bcc5","layer":"power","name":"Macon County IL S1","state":"IL","detail_file":"data/details/power-plants-45.json","plant_id":"68919","capacity_mw":2.0,"status_group":"Operating","energy_sources":"SUN","type":"Power plant","is_nuclear":false}},{"type":"Feature","geometry":{"type":"Point","coordinates":[-88.547,38.748]},"properties":{"key":"66191-3f88fe34","layer":"power","name":"Maple Flats","state":"IL","detail_file":"data/details/power-plants-47.json","plant_id":"66191","capacity_mw":250.0,"status_group":"Operating","energy_sources":"SUN","type":"Power plant","is_nuclear":false}},{"type":"Feature","geometry":{"type":"Point","coordinates":[-89.789,38.795]},"properties":{"key":"70069-f75b7531","layer":"power","name":"Marine Solar 1, LLC","state":"IL","detail_file":"data/details/power-plants-09.json","plant_id":"70069","capacity_mw":2.0,"status_group":"Operating","energy_sources":"SUN","type":"Power plant","is_nuclear":false}},{"type":"Feature","geometry":{"type":"Point","coordinates":[-89.79,38.793]},"properties":{"key":"70070-75375395","layer":"power","name":"Marine Solar 2, LLC","state":"IL","detail_file":"data/details/power-plants-06.json","plant_id":"70070","capacity_mw":2.0,"status_group":"Operating","energy_sources":"SUN","type":"Power plant","is_nuclear":false}},{"type":"Feature","geometry":{"type":"Point","coordinates":[-88.953,37.62]},"properties":{"key":"976-ac27bbf7","layer":"power","name":"Marion","state":"IL","detail_file":"data/details/power-plants-26.json","plant_id":"976","capacity_mw":249.0,"status_group":"Operating","energy_sources":"BIT; NG","type":"Power plant","is_nuclear":false}},{"type":"Feature","geometry":{"type":"Point","coordinates":[-89.112,38.637]},"properties":{"key":"68956-f272c8eb","layer":"power","name":"Marion Solar 2","state":"IL","detail_file":"data/details/power-plants-16.json","plant_id":"68956","capacity_mw":1.0,"status_group":"Operating","energy_sources":"SUN","type":"Power plant","is_nuclear":false}},{"type":"Feature","geometry":{"type":"Point","coordinates":[-89.114,38.625]},"properties":{"key":"68049-7114cb77","layer":"power","name":"Marion Solar 4b LLC","state":"IL","detail_file":"data/details/power-plants-21.json","plant_id":"68049","capacity_mw":2.0,"status_group":"Operating","energy_sources":"SUN","type":"Power plant","is_nuclear":false}},{"type":"Feature","geometry":{"type":"Point","coordinates":[-88.756,38.315]},"properties":{"key":"64122-e0f7ad85","layer":"power","name":"Marlow Solar, LLC CSG","state":"IL","detail_file":"data/details/power-plants-13.json","plant_id":"64122","capacity_mw":2.0,"status_group":"Operating","energy_sources":"SUN","type":"Power plant","is_nuclear":false}},{"type":"Feature","geometry":{"type":"Point","coordinates":[-89.413,38.892]},"properties":{"key":"69852-8cf08476","layer":"power","name":"McCray Solar 1, LLC","state":"IL","detail_file":"data/details/power-plants-44.json","plant_id":"69852","capacity_mw":5.0,"status_group":"Under construction","energy_sources":"SUN","type":"Power plant","is_nuclear":false}},{"type":"Feature","geometry":{"type":"Point","coordinates":[-88.541,38.095]},"properties":{"key":"948-a9b83fa7","layer":"power","name":"McLeansboro","state":"IL","detail_file":"data/details/power-plants-54.json","plant_id":"948","capacity_mw":6.1,"status_group":"Operating","energy_sources":"DFO","type":"Power plant","is_nuclear":false}},{"type":"Feature","geometry":{"type":"Point","coordinates":[-88.284,38.029]},"properties":{"key":"67986-ac498278","layer":"power","name":"Meadow Springs Renewable Energy (Hybrid)","state":"IL","detail_file":"data/details/power-plants-16.json","plant_id":"67986","capacity_mw":300.0,"status_group":"Planned","energy_sources":"MWH; SUN","type":"Power plant","is_nuclear":false}},{"type":"Feature","geometry":{"type":"Point","coordinates":[-89.753,38.987]},"properties":{"key":"69918-9dd3b958","layer":"power","name":"Midwest Power Partners LLC (Pirolo)","state":"IL","detail_file":"data/details/power-plants-07.json","plant_id":"69918","capacity_mw":5.0,"status_group":"Operating","energy_sources":"SUN","type":"Power plant","is_nuclear":false}},{"type":"Feature","geometry":{"type":"Point","coordinates":[-90.132,38.66]},"properties":{"key":"50566-2c7661ad","layer":"power","name":"Milam Gas Recovery","state":"IL","detail_file":"data/details/power-plants-46.json","plant_id":"50566","capacity_mw":2.4,"status_group":"Operating","energy_sources":"NG","type":"Power plant","is_nuclear":false}},{"type":"Feature","geometry":{"type":"Point","coordinates":[-90.555,39.822]},"properties":{"key":"64741-bac56d4f","layer":"power","name":"Morgan Solar 1 CSG","state":"IL","detail_file":"data/details/power-plants-27.json","plant_id":"64741","capacity_mw":2.0,"status_group":"Operating","energy_sources":"SUN","type":"Power plant","is_nuclear":false}},{"type":"Feature","geometry":{"type":"Point","coordinates":[-90.555,39.822]},"properties":{"key":"64742-24e8eb47","layer":"power","name":"Morgan Solar 1b CSG","state":"IL","detail_file":"data/details/power-plants-26.json","plant_id":"64742","capacity_mw":2.0,"status_group":"Operating","energy_sources":"SUN","type":"Power plant","is_nuclear":false}},{"type":"Feature","geometry":{"type":"Point","coordinates":[-90.227,39.607]},"properties":{"key":"64159-460b4337","layer":"power","name":"Morgan Solar 2, LLC CSG","state":"IL","detail_file":"data/details/power-plants-14.json","plant_id":"64159","capacity_mw":2.0,"status_group":"Operating","energy_sources":"SUN","type":"Power plant","is_nuclear":false}},{"type":"Feature","geometry":{"type":"Point","coordinates":[-90.221,39.614]},"properties":{"key":"64100-0528a655","layer":"power","name":"Morgan Solar 4, LLC CSG","state":"IL","detail_file":"data/details/power-plants-56.json","plant_id":"64100","capacity_mw":2.0,"status_group":"Operating","energy_sources":"SUN","type":"Power plant","is_nuclear":false}},{"type":"Feature","geometry":{"type":"Point","coordinates":[-89.176,37.09]},"properties":{"key":"69228-8db02f02","layer":"power","name":"Mound City Solar","state":"IL","detail_file":"data/details/power-plants-15.json","plant_id":"69228","capacity_mw":5.0,"status_group":"Operating","energy_sources":"SUN","type":"Power plant","is_nuclear":false}},{"type":"Feature","geometry":{"type":"Point","coordinates":[-90.135,38.729]},"properties":{"key":"67108-85f0126c","layer":"power","name":"Mulberry Solar, LLC","state":"IL","detail_file":"data/details/power-plants-54.json","plant_id":"67108","capacity_mw":2.0,"status_group":"Operating","energy_sources":"SUN","type":"Power plant","is_nuclear":false}},{"type":"Feature","geometry":{"type":"Point","coordinates":[-89.351,37.795]},"properties":{"key":"69859-50db0869","layer":"power","name":"Murphysboro 1","state":"IL","detail_file":"data/details/power-plants-18.json","plant_id":"69859","capacity_mw":5.0,"status_group":"Under construction","energy_sources":"SUN","type":"Power plant","is_nuclear":false}},{"type":"Feature","geometry":{"type":"Point","coordinates":[-89.351,37.795]},"properties":{"key":"69860-8fb4a813","layer":"power","name":"Murphysboro 2","state":"IL","detail_file":"data/details/power-plants-41.json","plant_id":"69860","capacity_mw":1.3,"status_group":"Under construction","energy_sources":"SUN","type":"Power plant","is_nuclear":false}},{"type":"Feature","geometry":{"type":"Point","coordinates":[-89.325,38.09]},"properties":{"key":"69420-b3de403b","layer":"power","name":"NL IL - Kiwi","state":"IL","detail_file":"data/details/power-plants-09.json","plant_id":"69420","capacity_mw":2.0,"status_group":"Operating","energy_sources":"SUN","type":"Power plant","is_nuclear":false}},{"type":"Feature","geometry":{"type":"Point","coordinates":[-88.278,38.936]},"properties":{"key":"6017-fd0332cc","layer":"power","name":"Newton","state":"IL","detail_file":"data/details/power-plants-60.json","plant_id":"6017","capacity_mw":617.4,"status_group":"Operating","energy_sources":"SUB","type":"Power plant","is_nuclear":false}},{"type":"Feature","geometry":{"type":"Point","coordinates":[-88.278,38.936]},"properties":{"key":"65401-59968ecc","layer":"power","name":"Newton Solar BESS LLC","state":"IL","detail_file":"data/details/power-plants-08.json","plant_id":"65401","capacity_mw":53.8,"status_group":"Operating","energy_sources":"MWH; SUN","type":"Power plant","is_nuclear":false}},{"type":"Feature","geometry":{"type":"Point","coordinates":[-88.273,38.021]},"properties":{"key":"69861-8a36feda","layer":"power","name":"Norris City 2","state":"IL","detail_file":"data/details/power-plants-36.json","plant_id":"69861","capacity_mw":3.2,"status_group":"Under construction","energy_sources":"SUN","type":"Power plant","is_nuclear":false}},{"type":"Feature","geometry":{"type":"Point","coordinates":[-88.127,38.722]},"properties":{"key":"64043-e1b0b4aa","layer":"power","name":"Olney Solar II CSG","state":"IL","detail_file":"data/details/power-plants-44.json","plant_id":"64043","capacity_mw":2.0,"status_group":"Operating","energy_sources":"SUN","type":"Power plant","is_nuclear":false}},{"type":"Feature","geometry":{"type":"Point","coordinates":[-88.839,39.954]},"properties":{"key":"69655-eb899adb","layer":"power","name":"Oreana Renewables","state":"IL","detail_file":"data/details/power-plants-24.json","plant_id":"69655","capacity_mw":5.0,"status_group":"Operating","energy_sources":"SUN","type":"Power plant","is_nuclear":false}},{"type":"Feature","geometry":{"type":"Point","coordinates":[-88.892,39.935]},"properties":{"key":"69800-2e77e730","layer":"power","name":"Oreana Solar","state":"IL","detail_file":"data/details/power-plants-28.json","plant_id":"69800","capacity_mw":5.0,"status_group":"Operating","energy_sources":"SUN","type":"Power plant","is_nuclear":false}},{"type":"Feature","geometry":{"type":"Point","coordinates":[-89.169,38.958]},"properties":{"key":"70108-ed0f2b65","layer":"power","name":"PIKE Solar","state":"IL","detail_file":"data/details/power-plants-45.json","plant_id":"70108","capacity_mw":18.0,"status_group":"Under construction","energy_sources":"SUN","type":"Power plant","is_nuclear":false}},{"type":"Feature","geometry":{"type":"Point","coordinates":[-90.876,39.621]},"properties":{"key":"63907-0c4c3e76","layer":"power","name":"Panther Creek Wind Project","state":"IL","detail_file":"data/details/power-plants-16.json","plant_id":"63907","capacity_mw":54.4,"status_group":"Operating","energy_sources":"WND","type":"Power plant","is_nuclear":false}},{"type":"Feature","geometry":{"type":"Point","coordinates":[-89.789,39.486]},"properties":{"key":"69838-154d2b16","layer":"power","name":"Paris Solar, LLC","state":"IL","detail_file":"data/details/power-plants-02.json","plant_id":"69838","capacity_mw":5.0,"status_group":"Under construction","energy_sources":"SUN","type":"Power plant","is_nuclear":false}},{"type":"Feature","geometry":{"type":"Point","coordinates":[-90.614,39.449]},"properties":{"key":"6238-acdf5280","layer":"power","name":"Pearl Station","state":"IL","detail_file":"data/details/power-plants-19.json","plant_id":"6238","capacity_mw":24.0,"status_group":"Operating","energy_sources":"DFO","type":"Power plant","is_nuclear":false}},{"type":"Feature","geometry":{"type":"Point","coordinates":[-90.846,39.619]},"properties":{"key":"69724-866906d6","layer":"power","name":"Pike County Solar","state":"IL","detail_file":"data/details/power-plants-33.json","plant_id":"69724","capacity_mw":1.0,"status_group":"Under construction","energy_sources":"SUN","type":"Power plant","is_nuclear":false}},{"type":"Feature","geometry":{"type":"Point","coordinates":[-89.347,38.111]},"properties":{"key":"55202-df7d7595","layer":"power","name":"Pinckneyville","state":"IL","detail_file":"data/details/power-plants-14.json","plant_id":"55202","capacity_mw":380.0,"status_group":"Operating","energy_sources":"NG","type":"Power plant","is_nuclear":false}},{"type":"Feature","geometry":{"type":"Point","coordinates":[-90.224,39.806]},"properties":{"key":"66826-50790b1d","layer":"power","name":"Prairie Creek Solar","state":"IL","detail_file":"data/details/power-plants-24.json","plant_id":"66826","capacity_mw":30.0,"status_group":"Operating","energy_sources":"SUN","type":"Power plant","is_nuclear":false}},{"type":"Feature","geometry":{"type":"Point","coordinates":[-89.032,39.543]},"properties":{"key":"66707-62eeb05b","layer":"power","name":"Prairie Oak Solar","state":"IL","detail_file":"data/details/power-plants-14.json","plant_id":"66707","capacity_mw":250.0,"status_group":"Planned","energy_sources":"SUN","type":"Power plant","is_nuclear":false}},{"type":"Feature","geometry":{"type":"Point","coordinates":[-89.667,38.279]},"properties":{"key":"55856-dbc5c401","layer":"power","name":"Prairie State Generating Station","state":"IL","detail_file":"data/details/power-plants-39.json","plant_id":"55856","capacity_mw":1766.0,"status_group":"Operating","energy_sources":"BIT","type":"Power plant","is_nuclear":false}},{"type":"Feature","geometry":{"type":"Point","coordinates":[-89.579,38.208]},"properties":{"key":"62420-e6377823","layer":"power","name":"Prairie State Solar Project","state":"IL","detail_file":"data/details/power-plants-11.json","plant_id":"62420","capacity_mw":99.0,"status_group":"Operating","energy_sources":"SUN","type":"Power plant","is_nuclear":false}},{"type":"Feature","geometry":{"type":"Point","coordinates":[-88.932,39.849]},"properties":{"key":"10867-feacb521","layer":"power","name":"Primient Decatur Plant Cogen","state":"IL","detail_file":"data/details/power-plants-21.json","plant_id":"10867","capacity_mw":64.8,"status_group":"Operating","energy_sources":"NG","type":"Power plant","is_nuclear":false}},{"type":"Feature","geometry":{"type":"Point","coordinates":[-88.952,37.265]},"properties":{"key":"69025-cf9892f1","layer":"power","name":"Pulaski Solar","state":"IL","detail_file":"data/details/power-plants-14.json","plant_id":"69025","capacity_mw":417.4,"status_group":"Under construction","energy_sources":"SUN","type":"Power plant","is_nuclear":false}},{"type":"Feature","geometry":{"type":"Point","coordinates":[-88.539,38.7]},"properties":{"key":"55417-dc0b27a3","layer":"power","name":"Raccoon Creek Energy Center","state":"IL","detail_file":"data/details/power-plants-02.json","plant_id":"55417","capacity_mw":456.0,"status_group":"Operating","energy_sources":"NG","type":"Power plant","is_nuclear":false}},{"type":"Feature","geometry":{"type":"Point","coordinates":[-89.999,38.217]},"properties":{"key":"959-3cc70263","layer":"power","name":"Red Bud","state":"IL","detail_file":"data/details/power-plants-32.json","plant_id":"959","capacity_mw":15.0,"status_group":"Operating","energy_sources":"DFO","type":"Power plant","is_nuclear":false}},{"type":"Feature","geometry":{"type":"Point","coordinates":[-89.642,39.807]},"properties":{"key":"965-002f451f","layer":"power","name":"Reynolds","state":"IL","detail_file":"data/details/power-plants-26.json","plant_id":"965","capacity_mw":17.5,"status_group":"Operating","energy_sources":"DFO","type":"Power plant","is_nuclear":false}},{"type":"Feature","geometry":{"type":"Point","coordinates":[-89.17,38.596]},"properties":{"key":"68929-014c6068","layer":"power","name":"Ruby Solar, LLC","state":"IL","detail_file":"data/details/power-plants-40.json","plant_id":"68929","capacity_mw":50.0,"status_group":"Under construction","energy_sources":"SUN","type":"Power plant","is_nuclear":false}},{"type":"Feature","geometry":{"type":"Point","coordinates":[-89.32,39.528]},"properties":{"key":"68882-d09d66d4","layer":"power","name":"SAE Taylorville IL S1","state":"IL","detail_file":"data/details/power-plants-02.json","plant_id":"68882","capacity_mw":1.1,"status_group":"Operating","energy_sources":"SUN","type":"Power plant","is_nuclear":false}},{"type":"Feature","geometry":{"type":"Point","coordinates":[-90.183,38.592]},"properties":{"key":"64362-99f8407e","layer":"power","name":"SCS American Bottoms 009885 Sauget, LLC","state":"IL","detail_file":"data/details/power-plants-42.json","plant_id":"64362","capacity_mw":1.8,"status_group":"Operating","energy_sources":"SUN","type":"Power plant","is_nuclear":false}},{"type":"Feature","geometry":{"type":"Point","coordinates":[-89.215,37.712]},"properties":{"key":"57928-8a5376f0","layer":"power","name":"SIUC","state":"IL","detail_file":"data/details/power-plants-63.json","plant_id":"57928","capacity_mw":5.1,"status_group":"Operating","energy_sources":"BIT; DFO","type":"Power plant","is_nuclear":false}},{"type":"Feature","geometry":{"type":"Point","coordinates":[-88.53,37.716]},"properties":{"key":"69811-6449384f","layer":"power","name":"SV CSG Angelly 1","state":"IL","detail_file":"data/details/power-plants-22.json","plant_id":"69811","capacity_mw":3.6,"status_group":"Under construction","energy_sources":"SUN","type":"Power plant","is_nuclear":false}},{"type":"Feature","geometry":{"type":"Point","coordinates":[-88.849,37.727]},"properties":{"key":"65803-3b858691","layer":"power","name":"SV CSG Barrass Farms II LL","state":"IL","detail_file":"data/details/power-plants-13.json","plant_id":"65803","capacity_mw":2.0,"status_group":"Operating","energy_sources":"SUN","type":"Power plant","is_nuclear":false}},{"type":"Feature","geometry":{"type":"Point","coordinates":[-89.049,37.794]},"properties":{"key":"67684-49ba9c9a","layer":"power","name":"SV CSG Bishop 1 LLC","state":"IL","detail_file":"data/details/power-plants-57.json","plant_id":"67684","capacity_mw":2.0,"status_group":"Operating","energy_sources":"SUN","type":"Power plant","is_nuclear":false}},{"type":"Feature","geometry":{"type":"Point","coordinates":[-89.018,38.972]},"properties":{"key":"69812-01425100","layer":"power","name":"SV CSG Brownstown 1","state":"IL","detail_file":"data/details/power-plants-45.json","plant_id":"69812","capacity_mw":1.0,"status_group":"Under construction","energy_sources":"SUN","type":"Power plant","is_nuclear":false}},{"type":"Feature","geometry":{"type":"Point","coordinates":[-89.057,37.758]},"properties":{"key":"68933-f7ebcdc8","layer":"power","name":"SV CSG Corbell","state":"IL","detail_file":"data/details/power-plants-07.json","plant_id":"68933","capacity_mw":2.0,"status_group":"Under construction","energy_sources":"SUN","type":"Power plant","is_nuclear":false}},{"type":"Feature","geometry":{"type":"Point","coordinates":[-88.222,38.708]},"properties":{"key":"69159-0e6068e1","layer":"power","name":"SV CSG Diel 1","state":"IL","detail_file":"data/details/power-plants-55.json","plant_id":"69159","capacity_mw":5.0,"status_group":"Under construction","energy_sources":"SUN","type":"Power plant","is_nuclear":false}},{"type":"Feature","geometry":{"type":"Point","coordinates":[-90.07,38.606]},"properties":{"key":"68934-f8611444","layer":"power","name":"SV CSG East St Louis","state":"IL","detail_file":"data/details/power-plants-32.json","plant_id":"68934","capacity_mw":5.0,"status_group":"Under construction","energy_sources":"SUN","type":"Power plant","is_nuclear":false}},{"type":"Feature","geometry":{"type":"Point","coordinates":[-89.039,37.751]},"properties":{"key":"69161-f8f2adfe","layer":"power","name":"SV CSG Gander Farms 1 A","state":"IL","detail_file":"data/details/power-plants-01.json","plant_id":"69161","capacity_mw":2.0,"status_group":"Operating","energy_sources":"SUN","type":"Power plant","is_nuclear":false}},{"type":"Feature","geometry":{"type":"Point","coordinates":[-89.986,38.47]},"properties":{"key":"70155-dfeb3dac","layer":"power","name":"SV CSG Reifschneider I A, LLC","state":"IL","detail_file":"data/details/power-plants-04.json","plant_id":"70155","capacity_mw":1.0,"status_group":"Operating","energy_sources":"SUN","type":"Power plant","is_nuclear":false}},{"type":"Feature","geometry":{"type":"Point","coordinates":[-89.988,38.47]},"properties":{"key":"70156-2d56c23e","layer":"power","name":"SV CSG Reifschneider I B, LLC","state":"IL","detail_file":"data/details/power-plants-01.json","plant_id":"70156","capacity_mw":2.0,"status_group":"Operating","energy_sources":"SUN","type":"Power plant","is_nuclear":false}},{"type":"Feature","geometry":{"type":"Point","coordinates":[-89.978,38.474]},"properties":{"key":"70157-02742de3","layer":"power","name":"SV CSG Reifschneider II A, LLC","state":"IL","detail_file":"data/details/power-plants-41.json","plant_id":"70157","capacity_mw":2.0,"status_group":"Operating","energy_sources":"SUN","type":"Power plant","is_nuclear":false}},{"type":"Feature","geometry":{"type":"Point","coordinates":[-89.976,38.474]},"properties":{"key":"70151-60d4b253","layer":"power","name":"SV CSG Reifschneider II B, LLC","state":"IL","detail_file":"data/details/power-plants-01.json","plant_id":"70151","capacity_mw":2.0,"status_group":"Operating","energy_sources":"SUN","type":"Power plant","is_nuclear":false}},{"type":"Feature","geometry":{"type":"Point","coordinates":[-89.978,38.48]},"properties":{"key":"70152-a89a9046","layer":"power","name":"SV CSG Reifschneider III A, LLC","state":"IL","detail_file":"data/details/power-plants-14.json","plant_id":"70152","capacity_mw":2.0,"status_group":"Operating","energy_sources":"SUN","type":"Power plant","is_nuclear":false}},{"type":"Feature","geometry":{"type":"Point","coordinates":[-90.037,38.836]},"properties":{"key":"68935-0a23dc95","layer":"power","name":"SV CSG Roxana 1","state":"IL","detail_file":"data/details/power-plants-31.json","plant_id":"68935","capacity_mw":2.5,"status_group":"Under construction","energy_sources":"SUN","type":"Power plant","is_nuclear":false}},{"type":"Feature","geometry":{"type":"Point","coordinates":[-90.052,38.812]},"properties":{"key":"69821-76fe2d27","layer":"power","name":"SV CSG South Roxana","state":"IL","detail_file":"data/details/power-plants-46.json","plant_id":"69821","capacity_mw":5.0,"status_group":"Under construction","energy_sources":"SUN","type":"Power plant","is_nuclear":false}},{"type":"Feature","geometry":{"type":"Point","coordinates":[-89.703,38.161]},"properties":{"key":"67688-1abd3755","layer":"power","name":"SV CSG Wagner A LLC","state":"IL","detail_file":"data/details/power-plants-39.json","plant_id":"67688","capacity_mw":2.0,"status_group":"Operating","energy_sources":"SUN","type":"Power plant","is_nuclear":false}},{"type":"Feature","geometry":{"type":"Point","coordinates":[-89.854,38.177]},"properties":{"key":"67689-43266867","layer":"power","name":"SV CSG Wagner B LLC","state":"IL","detail_file":"data/details/power-plants-50.json","plant_id":"67689","capacity_mw":2.0,"status_group":"Operating","energy_sources":"SUN","type":"Power plant","is_nuclear":false}},{"type":"Feature","geometry":{"type":"Point","coordinates":[-89.149,38.59]},"properties":{"key":"64416-01841f43","layer":"power","name":"Sandoval","state":"IL","detail_file":"data/details/power-plants-19.json","plant_id":"64416","capacity_mw":2.0,"status_group":"Operating","energy_sources":"SUN","type":"Power plant","is_nuclear":false}},{"type":"Feature","geometry":{"type":"Point","coordinates":[-89.952,38.488]},"properties":{"key":"67685-66f25962","layer":"power","name":"Schmidt CSG 1","state":"IL","detail_file":"data/details/power-plants-41.json","plant_id":"67685","capacity_mw":2.0,"status_group":"Operating","energy_sources":"SUN","type":"Power plant","is_nuclear":false}},{"type":"Feature","geometry":{"type":"Point","coordinates":[-88.477,39.279]},"properties":{"key":"55237-3706148b","layer":"power","name":"Shelby Energy County","state":"IL","detail_file":"data/details/power-plants-06.json","plant_id":"55237","capacity_mw":483.0,"status_group":"Operating","energy_sources":"NG","type":"Power plant","is_nuclear":false}},{"type":"Feature","geometry":{"type":"Point","coordinates":[-89.27,39.564]},"properties":{"key":"67642-3fcd2099","layer":"power","name":"Skyline","state":"IL","detail_file":"data/details/power-plants-26.json","plant_id":"67642","capacity_mw":5.0,"status_group":"Operating","energy_sources":"SUN","type":"Power plant","is_nuclear":false}},{"type":"Feature","geometry":{"type":"Point","coordinates":[-89.553,38.17]},"properties":{"key":"70090-f576265e","layer":"power","name":"Snapdragon Solar, LLC","state":"IL","detail_file":"data/details/power-plants-59.json","plant_id":"70090","capacity_mw":28.0,"status_group":"Under construction","energy_sources":"SUN","type":"Power plant","is_nuclear":false}},{"type":"Feature","geometry":{"type":"Point","coordinates":[-88.818,37.206]},"properties":{"key":"69215-774f2087","layer":"power","name":"Sommer","state":"IL","detail_file":"data/details/power-plants-32.json","plant_id":"69215","capacity_mw":2.0,"status_group":"Under construction","energy_sources":"SUN","type":"Power plant","is_nuclear":false}},{"type":"Feature","geometry":{"type":"Point","coordinates":[-89.988,38.481]},"properties":{"key":"69421-2e44e8c1","layer":"power","name":"South Belleville Solar, LLC","state":"IL","detail_file":"data/details/power-plants-58.json","plant_id":"69421","capacity_mw":5.0,"status_group":"Operating","energy_sources":"SUN","type":"Power plant","is_nuclear":false}},{"type":"Feature","geometry":{"type":"Point","coordinates":[-88.923,37.762]},"properties":{"key":"69848-c4752f79","layer":"power","name":"Spillertown CSG 1 LLC","state":"IL","detail_file":"data/details/power-plants-40.json","plant_id":"69848","capacity_mw":5.0,"status_group":"Under construction","energy_sources":"SUN","type":"Power plant","is_nuclear":false}},{"type":"Feature","geometry":{"type":"Point","coordinates":[-88.916,37.771]},"properties":{"key":"69847-cb6ce18f","layer":"power","name":"Spillertown CSG 2 LLC","state":"IL","detail_file":"data/details/power-plants-54.json","plant_id":"69847","capacity_mw":5.0,"status_group":"Under construction","energy_sources":"SUN","type":"Power plant","is_nuclear":false}},{"type":"Feature","geometry":{"type":"Point","coordinates":[-90.087,38.623]},"properties":{"key":"68232-8e92ae4e","layer":"power","name":"St. Clair Solar 3","state":"IL","detail_file":"data/details/power-plants-43.json","plant_id":"68232","capacity_mw":2.0,"status_group":"Operating","energy_sources":"SUN","type":"Power plant","is_nuclear":false}},{"type":"Feature","geometry":{"type":"Point","coordinates":[-89.81,38.587]},"properties":{"key":"69006-025de93a","layer":"power","name":"St. Clair Solar 5","state":"IL","detail_file":"data/details/power-plants-61.json","plant_id":"69006","capacity_mw":5.0,"status_group":"Operating","energy_sources":"SUN","type":"Power plant","is_nuclear":false}},{"type":"Feature","geometry":{"type":"Point","coordinates":[-88.612,39.597]},"properties":{"key":"969-50603050","layer":"power","name":"Sullivan (IL)","state":"IL","detail_file":"data/details/power-plants-40.json","plant_id":"969","capacity_mw":23.7,"status_group":"Operating","energy_sources":"DFO","type":"Power plant","is_nuclear":false}},{"type":"Feature","geometry":{"type":"Point","coordinates":[-89.768,39.151]},"properties":{"key":"69231-1ee8ec51","layer":"power","name":"Sunset Road Solar 3 Community Solar","state":"IL","detail_file":"data/details/power-plants-52.json","plant_id":"69231","capacity_mw":5.0,"status_group":"Operating","energy_sources":"SUN","type":"Power plant","is_nuclear":false}},{"type":"Feature","geometry":{"type":"Point","coordinates":[-89.768,39.151]},"properties":{"key":"69232-58921e6d","layer":"power","name":"Sunset Road Solar 4 Community Solar","state":"IL","detail_file":"data/details/power-plants-59.json","plant_id":"69232","capacity_mw":2.5,"status_group":"Operating","energy_sources":"SUN","type":"Power plant","is_nuclear":false}},{"type":"Feature","geometry":{"type":"Point","coordinates":[-89.058,39.172]},"properties":{"key":"69594-b04c6800","layer":"power","name":"Switchgrass Plains Solar, LLC","state":"IL","detail_file":"data/details/power-plants-61.json","plant_id":"69594","capacity_mw":100.0,"status_group":"Under construction","energy_sources":"SUN","type":"Power plant","is_nuclear":false}},{"type":"Feature","geometry":{"type":"Point","coordinates":[-89.037,39.513]},"properties":{"key":"63968-d8a60589","layer":"power","name":"The GSI Group LLC at Assumption","state":"IL","detail_file":"data/details/power-plants-23.json","plant_id":"63968","capacity_mw":1.5,"status_group":"Operating","energy_sources":"SUN","type":"Power plant","is_nuclear":false}},{"type":"Feature","geometry":{"type":"Point","coordinates":[-89.684,38.191]},"properties":{"key":"69164-9d7ffcf3","layer":"power","name":"Tilden Solar","state":"IL","detail_file":"data/details/power-plants-56.json","plant_id":"69164","capacity_mw":150.0,"status_group":"Operating","energy_sources":"SUN","type":"Power plant","is_nuclear":false}},{"type":"Feature","geometry":{"type":"Point","coordinates":[-89.691,38.582]},"properties":{"key":"67626-3a38749b","layer":"power","name":"Trenton East","state":"IL","detail_file":"data/details/power-plants-03.json","plant_id":"67626","capacity_mw":2.0,"status_group":"Operating","energy_sources":"SUN","type":"Power plant","is_nuclear":false}},{"type":"Feature","geometry":{"type":"Point","coordinates":[-89.677,38.583]},"properties":{"key":"69598-1216aa5f","layer":"power","name":"Trenton East Phase 2","state":"IL","detail_file":"data/details/power-plants-47.json","plant_id":"69598","capacity_mw":2.0,"status_group":"Operating","energy_sources":"SUN","type":"Power plant","is_nuclear":false}},{"type":"Feature","geometry":{"type":"Point","coordinates":[-89.7,38.582]},"properties":{"key":"67627-c8e3500f","layer":"power","name":"Trenton West","state":"IL","detail_file":"data/details/power-plants-05.json","plant_id":"67627","capacity_mw":2.0,"status_group":"Operating","energy_sources":"SUN","type":"Power plant","is_nuclear":false}},{"type":"Feature","geometry":{"type":"Point","coordinates":[-89.7,38.582]},"properties":{"key":"69599-f8b93bf4","layer":"power","name":"Trenton West Phase 2","state":"IL","detail_file":"data/details/power-plants-15.json","plant_id":"69599","capacity_mw":2.0,"status_group":"Operating","energy_sources":"SUN","type":"Power plant","is_nuclear":false}},{"type":"Feature","geometry":{"type":"Point","coordinates":[-89.37,38.163]},"properties":{"key":"70092-0e9d39e0","layer":"power","name":"Two Blues Solar, LLC","state":"IL","detail_file":"data/details/power-plants-33.json","plant_id":"70092","capacity_mw":40.0,"status_group":"Under construction","energy_sources":"SUN","type":"Power plant","is_nuclear":false}},{"type":"Feature","geometry":{"type":"Point","coordinates":[-90.354,39.989]},"properties":{"key":"68757-abe0b3c6","layer":"power","name":"USS Beard Solar","state":"IL","detail_file":"data/details/power-plants-23.json","plant_id":"68757","capacity_mw":3.5,"status_group":"Operating","energy_sources":"SUN","type":"Power plant","is_nuclear":false}},{"type":"Feature","geometry":{"type":"Point","coordinates":[-90.219,39.954]},"properties":{"key":"69921-666b7e95","layer":"power","name":"USS Clear Creek Solar","state":"IL","detail_file":"data/details/power-plants-09.json","plant_id":"69921","capacity_mw":3.0,"status_group":"Operating","energy_sources":"SUN","type":"Power plant","is_nuclear":false}},{"type":"Feature","geometry":{"type":"Point","coordinates":[-89.793,39.35]},"properties":{"key":"63618-65d5557a","layer":"power","name":"USS Solar Brick","state":"IL","detail_file":"data/details/power-plants-36.json","plant_id":"63618","capacity_mw":2.0,"status_group":"Operating","energy_sources":"SUN","type":"Power plant","is_nuclear":false}},{"type":"Feature","geometry":{"type":"Point","coordinates":[-90.176,38.664]},"properties":{"key":"913-ca39a220","layer":"power","name":"Venice","state":"IL","detail_file":"data/details/power-plants-58.json","plant_id":"913","capacity_mw":586.0,"status_group":"Operating","energy_sources":"NG","type":"Power plant","is_nuclear":false}},{"type":"Feature","geometry":{"type":"Point","coordinates":[-89.996,39.405]},"properties":{"key":"64787-772d9013","layer":"power","name":"Viking Solar CSG","state":"IL","detail_file":"data/details/power-plants-53.json","plant_id":"64787","capacity_mw":2.0,"status_group":"Operating","energy_sources":"SUN","type":"Power plant","is_nuclear":false}},{"type":"Feature","geometry":{"type":"Point","coordinates":[-90.159,38.335]},"properties":{"key":"971-efa49ed6","layer":"power","name":"Waterloo","state":"IL","detail_file":"data/details/power-plants-27.json","plant_id":"971","capacity_mw":38.2,"status_group":"Operating","energy_sources":"DFO; NG","type":"Power plant","is_nuclear":false}},{"type":"Feature","geometry":{"type":"Point","coordinates":[-89.19,39.929]},"properties":{"key":"62606-0eec1582","layer":"power","name":"Whitney Hill Wind Power LLC","state":"IL","detail_file":"data/details/power-plants-22.json","plant_id":"62606","capacity_mw":65.0,"status_group":"Operating","energy_sources":"WND","type":"Power plant","is_nuclear":false}},{"type":"Feature","geometry":{"type":"Point","coordinates":[-89.224,37.473]},"properties":{"key":"69843-bc8241c1","layer":"power","name":"Wild Cat Solar 22 LLC","state":"IL","detail_file":"data/details/power-plants-39.json","plant_id":"69843","capacity_mw":2.3,"status_group":"Operating","energy_sources":"SUN","type":"Power plant","is_nuclear":false}},{"type":"Feature","geometry":{"type":"Point","coordinates":[-89.842,39.118]},"properties":{"key":"70009-5aab2c62","layer":"power","name":"Willis Solar 1, LLC - (IL)","state":"IL","detail_file":"data/details/power-plants-21.json","plant_id":"70009","capacity_mw":5.0,"status_group":"Under construction","energy_sources":"SUN","type":"Power plant","is_nuclear":false}},{"type":"Feature","geometry":{"type":"Point","coordinates":[-90.359,39.792]},"properties":{"key":"68056-20c2d84c","layer":"power","name":"Wolf Run Solar","state":"IL","detail_file":"data/details/power-plants-00.json","plant_id":"68056","capacity_mw":140.0,"status_group":"Operating","energy_sources":"SUN","type":"Power plant","is_nuclear":false}},{"type":"Feature","geometry":{"type":"Point","coordinates":[-88.081,37.023]},"properties":{"key":"67701-a8b71c75","layer":"power","name":"Ashwood Solar I","state":"KY","detail_file":"data/details/power-plants-39.json","plant_id":"67701","capacity_mw":86.0,"status_group":"Operating","energy_sources":"SUN","type":"Power plant","is_nuclear":false}},{"type":"Feature","geometry":{"type":"Point","coordinates":[-88.221,37.022]},"properties":{"key":"1371-6c157907","layer":"power","name":"Barkley","state":"KY","detail_file":"data/details/power-plants-15.json","plant_id":"1371","capacity_mw":130.0,"status_group":"Operating","energy_sources":"WAT","type":"Power plant","is_nuclear":false}},{"type":"Feature","geometry":{"type":"Point","coordinates":[-88.354,37.048]},"properties":{"key":"55308-a4178168","layer":"power","name":"Calvert City","state":"KY","detail_file":"data/details/power-plants-35.json","plant_id":"55308","capacity_mw":26.7,"status_group":"Operating","energy_sources":"NG","type":"Power plant","is_nuclear":false}},{"type":"Feature","geometry":{"type":"Point","coordinates":[-88.779,37.097]},"properties":{"key":"68292-c775189d","layer":"power","name":"Gage Solar","state":"KY","detail_file":"data/details/power-plants-42.json","plant_id":"68292","capacity_mw":200.0,"status_group":"Under construction","energy_sources":"SUN","type":"Power plant","is_nuclear":false}},{"type":"Feature","geometry":{"type":"Point","coordinates":[-88.269,37.013]},"properties":{"key":"1377-bd4eab7f","layer":"power","name":"Kentucky Dam","state":"KY","detail_file":"data/details/power-plants-10.json","plant_id":"1377","capacity_mw":218.6,"status_group":"Operating","energy_sources":"WAT","type":"Power plant","is_nuclear":false}},{"type":"Feature","geometry":{"type":"Point","coordinates":[-88.396,37.029]},"properties":{"key":"55232-8a06a12a","layer":"power","name":"Marshall Energy Facility","state":"KY","detail_file":"data/details/power-plants-54.json","plant_id":"55232","capacity_mw":688.0,"status_group":"Operating","energy_sources":"NG","type":"Power plant","is_nuclear":false}},{"type":"Feature","geometry":{"type":"Point","coordinates":[-88.659,36.886]},"properties":{"key":"68368-93695bcb","layer":"power","name":"Mayfield Solar and Storage","state":"KY","detail_file":"data/details/power-plants-62.json","plant_id":"68368","capacity_mw":200.0,"status_group":"Under construction","energy_sources":"SUN","type":"Power plant","is_nuclear":false}},{"type":"Feature","geometry":{"type":"Point","coordinates":[-88.616,37.034]},"properties":{"key":"56556-601a17e4","layer":"power","name":"PPS Power Plant No 1","state":"KY","detail_file":"data/details/power-plants-14.json","plant_id":"56556","capacity_mw":120.0,"status_group":"Operating","energy_sources":"NG","type":"Power plant","is_nuclear":false}},{"type":"Feature","geometry":{"type":"Point","coordinates":[-88.775,37.152]},"properties":{"key":"1379-f450f9f9","layer":"power","name":"Shawnee","state":"KY","detail_file":"data/details/power-plants-10.json","plant_id":"1379","capacity_mw":1575.0,"status_group":"Operating","energy_sources":"SUB","type":"Power plant","is_nuclear":false}},{"type":"Feature","geometry":{"type":"Point","coordinates":[-88.42,37.17]},"properties":{"key":"57400-d90bd805","layer":"power","name":"Smithland Hydroelectric Plant","state":"KY","detail_file":"data/details/power-plants-16.json","plant_id":"57400","capacity_mw":75.9,"status_group":"Operating","energy_sources":"WAT","type":"Power plant","is_nuclear":false}},{"type":"Feature","geometry":{"type":"Point","coordinates":[-90.211,38.598]},"properties":{"key":"10430-c0ada378","layer":"power","name":"Anheuser-Busch St Louis","state":"MO","detail_file":"data/details/power-plants-06.json","plant_id":"10430","capacity_mw":26.1,"status_group":"Operating","energy_sources":"NG","type":"Power plant","is_nuclear":false}},{"type":"Feature","geometry":{"type":"Point","coordinates":[-91.537,39.309]},"properties":{"key":"55234-aa1b7c80","layer":"power","name":"Audrain Generating Station","state":"MO","detail_file":"data/details/power-plants-55.json","plant_id":"55234","capacity_mw":814.4,"status_group":"Operating","energy_sources":"NG","type":"Power plant","is_nuclear":false}},{"type":"Feature","geometry":{"type":"Point","coordinates":[-91.137,38.895]},"properties":{"key":"66747-09f0f24f","layer":"power","name":"Blue Bird Solar, LLC","state":"MO","detail_file":"data/details/power-plants-29.json","plant_id":"66747","capacity_mw":139.0,"status_group":"Operating","energy_sources":"SUN","type":"Power plant","is_nuclear":false}},{"type":"Feature","geometry":{"type":"Point","coordinates":[-91.532,39.381]},"properties":{"key":"68926-fd7efad6","layer":"power","name":"Blue Jay Road Solar, LLC","state":"MO","detail_file":"data/details/power-plants-28.json","plant_id":"68926","capacity_mw":60.0,"status_group":"Under construction","energy_sources":"SUN","type":"Power plant","is_nuclear":false}},{"type":"Feature","geometry":{"type":"Point","coordinates":[-91.23,39.36]},"properties":{"key":"70041-583d42b1","layer":"power","name":"Bowling Green Renewable Energy Center","state":"MO","detail_file":"data/details/power-plants-17.json","plant_id":"70041","capacity_mw":50.0,"status_group":"Operating","energy_sources":"SUN","type":"Power plant","is_nuclear":false}},{"type":"Feature","geometry":{"type":"Point","coordinates":[-91.779,38.759]},"properties":{"key":"6153-bff5947e","layer":"power","name":"Callaway","state":"MO","detail_file":"data/details/power-plants-42.json","plant_id":"6153","capacity_mw":1235.8,"status_group":"Operating","energy_sources":"NUC","type":"Nuclear power plant","is_nuclear":true}},{"type":"Feature","geometry":{"type":"Point","coordinates":[-89.526,37.32]},"properties":{"key":"66159-94d6e253","layer":"power","name":"Cape Girardeau Renewable Energy Center","state":"MO","detail_file":"data/details/power-plants-39.json","plant_id":"66159","capacity_mw":1.2,"status_group":"Operating","energy_sources":"SUN","type":"Power plant","is_nuclear":false}},{"type":"Feature","geometry":{"type":"Point","coordinates":[-90.336,38.402]},"properties":{"key":"67576-0c53761e","layer":"power","name":"Castle Bluff Energy Center","state":"MO","detail_file":"data/details/power-plants-62.json","plant_id":"67576","capacity_mw":648.0,"status_group":"Planned","energy_sources":"NG","type":"Power plant","is_nuclear":false}},{"type":"Feature","geometry":{"type":"Point","coordinates":[-91.869,36.749]},"properties":{"key":"59664-e6986f68","layer":"power","name":"City of West Plains Power Station","state":"MO","detail_file":"data/details/power-plants-52.json","plant_id":"59664","capacity_mw":47.4,"status_group":"Operating","energy_sources":"NG","type":"Power plant","is_nuclear":false}},{"type":"Feature","geometry":{"type":"Point","coordinates":[-91.644,39.525]},"properties":{"key":"6140-1112dc87","layer":"power","name":"Clarence Cannon","state":"MO","detail_file":"data/details/power-plants-17.json","plant_id":"6140","capacity_mw":58.0,"status_group":"Operating","energy_sources":"WAT","type":"Power plant","is_nuclear":false}},{"type":"Feature","geometry":{"type":"Point","coordinates":[-90.416,37.781]},"properties":{"key":"56597-f130c293","layer":"power","name":"Elm Street Substation Generators","state":"MO","detail_file":"data/details/power-plants-04.json","plant_id":"56597","capacity_mw":6.0,"status_group":"Operating","energy_sources":"DFO","type":"Power plant","is_nuclear":false}},{"type":"Feature","geometry":{"type":"Point","coordinates":[-91.848,39.157]},"properties":{"key":"66629-4a9f04d3","layer":"power","name":"Envoy Solar, LLC","state":"MO","detail_file":"data/details/power-plants-02.json","plant_id":"66629","capacity_mw":50.0,"status_group":"Operating","energy_sources":"SUN","type":"Power plant","is_nuclear":false}},{"type":"Feature","geometry":{"type":"Point","coordinates":[-89.84,36.868]},"properties":{"key":"7749-e55a5623","layer":"power","name":"Essex","state":"MO","detail_file":"data/details/power-plants-42.json","plant_id":"7749","capacity_mw":121.2,"status_group":"Operating","energy_sources":"NG","type":"Power plant","is_nuclear":false}},{"type":"Feature","geometry":{"type":"Point","coordinates":[-90.428,37.755]},"properties":{"key":"61450-376290ab","layer":"power","name":"Farmington Solar Farm","state":"MO","detail_file":"data/details/power-plants-15.json","plant_id":"61450","capacity_mw":2.5,"status_group":"Operating","energy_sources":"SUN","type":"Power plant","is_nuclear":false}},{"type":"Feature","geometry":{"type":"Point","coordinates":[-90.317,37.572]},"properties":{"key":"57946-49e5918c","layer":"power","name":"Fredericktown Energy Center","state":"MO","detail_file":"data/details/power-plants-42.json","plant_id":"57946","capacity_mw":27.6,"status_group":"Operating","energy_sources":"NG","type":"Power plant","is_nuclear":false}},{"type":"Feature","geometry":{"type":"Point","coordinates":[-91.948,38.868]},"properties":{"key":"2126-42e4b5d7","layer":"power","name":"Fulton (MO)","state":"MO","detail_file":"data/details/power-plants-05.json","plant_id":"2126","capacity_mw":33.2,"status_group":"Operating","energy_sources":"DFO; NG","type":"Power plant","is_nuclear":false}},{"type":"Feature","geometry":{"type":"Point","coordinates":[-91.948,38.868]},"properties":{"key":"69868-c83dd3cf","layer":"power","name":"Fulton Energy Center","state":"MO","detail_file":"data/details/power-plants-41.json","plant_id":"69868","capacity_mw":16.5,"status_group":"Planned","energy_sources":"NG","type":"Power plant","is_nuclear":false}},{"type":"Feature","geometry":{"type":"Point","coordinates":[-91.44,39.71]},"properties":{"key":"69869-a9cc5533","layer":"power","name":"Hannibal Energy Center","state":"MO","detail_file":"data/details/power-plants-09.json","plant_id":"69869","capacity_mw":76.0,"status_group":"Planned","energy_sources":"NG","type":"Power plant","is_nuclear":false}},{"type":"Feature","geometry":{"type":"Point","coordinates":[-91.543,39.314]},"properties":{"key":"68644-69f621ba","layer":"power","name":"Huck Finn Renewable Energy Center","state":"MO","detail_file":"data/details/power-plants-60.json","plant_id":"68644","capacity_mw":200.0,"status_group":"Operating","energy_sources":"SUN","type":"Power plant","is_nuclear":false}},{"type":"Feature","geometry":{"type":"Point","coordinates":[-90.246,38.635]},"properties":{"key":"59714-3b4e11d7","layer":"power","name":"IKEA St. Louis 410","state":"MO","detail_file":"data/details/power-plants-60.json","plant_id":"59714","capacity_mw":1.0,"status_group":"Operating","energy_sources":"SUN","type":"Power plant","is_nuclear":false}},{"type":"Feature","geometry":{"type":"Point","coordinates":[-89.661,37.385]},"properties":{"key":"2137-df315c9a","layer":"power","name":"Jackson (MO)","state":"MO","detail_file":"data/details/power-plants-62.json","plant_id":"2137","capacity_mw":26.3,"status_group":"Operating","energy_sources":"DFO","type":"Power plant","is_nuclear":false}},{"type":"Feature","geometry":{"type":"Point","coordinates":[-89.52,37.05]},"properties":{"key":"69321-c44f4358","layer":"power","name":"Kelso 2 Solar","state":"MO","detail_file":"data/details/power-plants-35.json","plant_id":"69321","capacity_mw":149.0,"status_group":"Operating","energy_sources":"SUN","type":"Power plant","is_nuclear":false}},{"type":"Feature","geometry":{"type":"Point","coordinates":[-89.52,37.05]},"properties":{"key":"69319-0b7de995","layer":"power","name":"Kelso Solar","state":"MO","detail_file":"data/details/power-plants-26.json","plant_id":"69319","capacity_mw":200.0,"status_group":"Operating","energy_sources":"SUN","type":"Power plant","is_nuclear":false}},{"type":"Feature","geometry":{"type":"Point","coordinates":[-90.052,36.234]},"properties":{"key":"2139-c87e2a3e","layer":"power","name":"Kennett","state":"MO","detail_file":"data/details/power-plants-55.json","plant_id":"2139","capacity_mw":31.4,"status_group":"Operating","energy_sources":"DFO; NG","type":"Power plant","is_nuclear":false}},{"type":"Feature","geometry":{"type":"Point","coordinates":[-90.057,36.208]},"properties":{"key":"68286-b07575b5","layer":"power","name":"Kennett Solar","state":"MO","detail_file":"data/details/power-plants-24.json","plant_id":"68286","capacity_mw":4.9,"status_group":"Operating","energy_sources":"SUN","type":"Power plant","is_nuclear":false}},{"type":"Feature","geometry":{"type":"Point","coordinates":[-90.838,38.562]},"properties":{"key":"2103-431fe85e","layer":"power","name":"Labadie","state":"MO","detail_file":"data/details/power-plants-05.json","plant_id":"2103","capacity_mw":2389.4,"status_group":"Operating","energy_sources":"SUB","type":"Power plant","is_nuclear":false}},{"type":"Feature","geometry":{"type":"Point","coordinates":[-91.64,39.251]},"properties":{"key":"56478-889da87b","layer":"power","name":"MJMEUC Generating Station #1","state":"MO","detail_file":"data/details/power-plants-50.json","plant_id":"56478","capacity_mw":13.3,"status_group":"Operating","energy_sources":"NG","type":"Power plant","is_nuclear":false}},{"type":"Feature","geometry":{"type":"Point","coordinates":[-89.968,36.553]},"properties":{"key":"2142-64d353e9","layer":"power","name":"Malden","state":"MO","detail_file":"data/details/power-plants-21.json","plant_id":"2142","capacity_mw":15.9,"status_group":"Operating","energy_sources":"DFO","type":"Power plant","is_nuclear":false}},{"type":"Feature","geometry":{"type":"Point","coordinates":[-91.831,39.148]},"properties":{"key":"6650-37f990a3","layer":"power","name":"Mexico","state":"MO","detail_file":"data/details/power-plants-15.json","plant_id":"6650","capacity_mw":60.7,"status_group":"Operating","energy_sources":"DFO","type":"Power plant","is_nuclear":false}},{"type":"Feature","geometry":{"type":"Point","coordinates":[-91.423,38.891]},"properties":{"key":"65726-064504d9","layer":"power","name":"Montgomery County Community Solar Center","state":"MO","detail_file":"data/details/power-plants-52.json","plant_id":"65726","capacity_mw":5.7,"status_group":"Operating","energy_sources":"SUN","type":"Power plant","is_nuclear":false}},{"type":"Feature","geometry":{"type":"Point","coordinates":[-89.562,36.515]},"properties":{"key":"2167-5183823b","layer":"power","name":"New Madrid","state":"MO","detail_file":"data/details/power-plants-08.json","plant_id":"2167","capacity_mw":1300.0,"status_group":"Operating","energy_sources":"SUB","type":"Power plant","is_nuclear":false}},{"type":"Feature","geometry":{"type":"Point","coordinates":[-89.636,36.5]},"properties":{"key":"69166-65889cb2","layer":"power","name":"New Madrid Solar, LLC","state":"MO","detail_file":"data/details/power-plants-15.json","plant_id":"69166","capacity_mw":200.0,"status_group":"Operating","energy_sources":"SUN","type":"Power plant","is_nuclear":false}},{"type":"Feature","geometry":{"type":"Point","coordinates":[-90.678,38.827]},"properties":{"key":"61826-ddc57e68","layer":"power","name":"O'Fallon Renewable Energy Center","state":"MO","detail_file":"data/details/power-plants-08.json","plant_id":"61826","capacity_mw":4.5,"status_group":"Operating","energy_sources":"SUN","type":"Power plant","is_nuclear":false}},{"type":"Feature","geometry":{"type":"Point","coordinates":[-90.453,37.761]},"properties":{"key":"56600-199369aa","layer":"power","name":"Overall Road Station","state":"MO","detail_file":"data/details/power-plants-60.json","plant_id":"56600","capacity_mw":8.0,"status_group":"Operating","energy_sources":"DFO","type":"Power plant","is_nuclear":false}},{"type":"Feature","geometry":{"type":"Point","coordinates":[-91.23,39.353]},"properties":{"key":"7964-7951c4be","layer":"power","name":"Peno Creek","state":"MO","detail_file":"data/details/power-plants-14.json","plant_id":"7964","capacity_mw":240.0,"status_group":"Operating","energy_sources":"NG","type":"Power plant","is_nuclear":false}},{"type":"Feature","geometry":{"type":"Point","coordinates":[-90.39,36.76]},"properties":{"key":"7392-4c8c3eff","layer":"power","name":"Poplar Bluff Generating Station","state":"MO","detail_file":"data/details/power-plants-23.json","plant_id":"7392","capacity_mw":34.1,"status_group":"Operating","energy_sources":"NG","type":"Power plant","is_nuclear":false}},{"type":"Feature","geometry":{"type":"Point","coordinates":[-90.258,38.636]},"properties":{"key":"64288-27efcd2c","layer":"power","name":"Renewable Energy Center at BJH","state":"MO","detail_file":"data/details/power-plants-45.json","plant_id":"64288","capacity_mw":1.6,"status_group":"Operating","energy_sources":"SUN","type":"Power plant","is_nuclear":false}},{"type":"Feature","geometry":{"type":"Point","coordinates":[-91.717,37.985]},"properties":{"key":"60705-d7b3b51a","layer":"power","name":"Rolla Solar Farm (MO)","state":"MO","detail_file":"data/details/power-plants-60.json","plant_id":"60705","capacity_mw":2.8,"status_group":"Operating","energy_sources":"SUN","type":"Power plant","is_nuclear":false}},{"type":"Feature","geometry":{"type":"Point","coordinates":[-89.899,37.392]},"properties":{"key":"68031-88a4b977","layer":"power","name":"Scopus Solar","state":"MO","detail_file":"data/details/power-plants-43.json","plant_id":"68031","capacity_mw":400.0,"status_group":"Planned","energy_sources":"MWH; SUN","type":"Power plant","is_nuclear":false}},{"type":"Feature","geometry":{"type":"Point","coordinates":[-91.945,38.959]},"properties":{"key":"68325-fb767d4d","layer":"power","name":"Show Me State Solar","state":"MO","detail_file":"data/details/power-plants-24.json","plant_id":"68325","capacity_mw":250.0,"status_group":"Under construction","energy_sources":"SUN","type":"Power plant","is_nuclear":false}},{"type":"Feature","geometry":{"type":"Point","coordinates":[-89.621,36.879]},"properties":{"key":"6768-f883887a","layer":"power","name":"Sikeston Power Station","state":"MO","detail_file":"data/details/power-plants-15.json","plant_id":"6768","capacity_mw":261.0,"status_group":"Operating","energy_sources":"SUB","type":"Power plant","is_nuclear":false}},{"type":"Feature","geometry":{"type":"Point","coordinates":[-90.29,38.915]},"properties":{"key":"2107-5dc28960","layer":"power","name":"Sioux","state":"MO","detail_file":"data/details/power-plants-02.json","plant_id":"2107","capacity_mw":1099.4,"status_group":"Operating","energy_sources":"SUB","type":"Power plant","is_nuclear":false}},{"type":"Feature","geometry":{"type":"Point","coordinates":[-90.193,38.628]},"properties":{"key":"54858-25c59c43","layer":"power","name":"Southwestern Bell Telephone","state":"MO","detail_file":"data/details/power-plants-41.json","plant_id":"54858","capacity_mw":17.2,"status_group":"Operating","energy_sources":"DFO","type":"Power plant","is_nuclear":false}},{"type":"Feature","geometry":{"type":"Point","coordinates":[-91.209,38.901]},"properties":{"key":"69475-ca700526","layer":"power","name":"Split Rail Solar Energy LLC","state":"MO","detail_file":"data/details/power-plants-62.json","plant_id":"69475","capacity_mw":300.0,"status_group":"Operating","energy_sources":"SUN","type":"Power plant","is_nuclear":false}},{"type":"Feature","geometry":{"type":"Point","coordinates":[-90.178,36.585]},"properties":{"key":"7604-3ba3cc33","layer":"power","name":"St Francis Energy Facility","state":"MO","detail_file":"data/details/power-plants-19.json","plant_id":"7604","capacity_mw":506.6,"status_group":"Operating","energy_sources":"NG","type":"Power plant","is_nuclear":false}},{"type":"Feature","geometry":{"type":"Point","coordinates":[-90.835,37.521]},"properties":{"key":"2108-e5f02729","layer":"power","name":"Taum Sauk","state":"MO","detail_file":"data/details/power-plants-07.json","plant_id":"2108","capacity_mw":408.0,"status_group":"Operating","energy_sources":"WAT","type":"Power plant","is_nuclear":false}},{"type":"Feature","geometry":{"type":"Point","coordinates":[-90.181,38.636]},"properties":{"key":"56309-cc078b71","layer":"power","name":"Trigen St. Louis","state":"MO","detail_file":"data/details/power-plants-37.json","plant_id":"56309","capacity_mw":34.2,"status_group":"Operating","energy_sources":"NG","type":"Power plant","is_nuclear":false}},{"type":"Feature","geometry":{"type":"Point","coordinates":[-91.506,39.27]},"properties":{"key":"69236-582fb436","layer":"power","name":"Vandalia Renewable Energy Center","state":"MO","detail_file":"data/details/power-plants-09.json","plant_id":"69236","capacity_mw":50.0,"status_group":"Operating","energy_sources":"SUN","type":"Power plant","is_nuclear":false}},{"type":"Feature","geometry":{"type":"Point","coordinates":[-91.826,38.168]},"properties":{"key":"68036-c3182a83","layer":"power","name":"Vichy Solar","state":"MO","detail_file":"data/details/power-plants-48.json","plant_id":"68036","capacity_mw":400.0,"status_group":"Planned","energy_sources":"MWH; SUN","type":"Power plant","is_nuclear":false}},{"type":"Feature","geometry":{"type":"Point","coordinates":[-90.434,37.788]},"properties":{"key":"56598-44964021","layer":"power","name":"Walton Street Substation","state":"MO","detail_file":"data/details/power-plants-23.json","plant_id":"56598","capacity_mw":2.0,"status_group":"Operating","energy_sources":"DFO","type":"Power plant","is_nuclear":false}},{"type":"Feature","geometry":{"type":"Point","coordinates":[-91.867,36.785]},"properties":{"key":"64982-009ae7ba","layer":"power","name":"West Plains Solar I","state":"MO","detail_file":"data/details/power-plants-54.json","plant_id":"64982","capacity_mw":8.0,"status_group":"Operating","energy_sources":"SUN","type":"Power plant","is_nuclear":false}},{"type":"Feature","geometry":{"type":"Point","coordinates":[-90.855,39.02]},"properties":{"key":"66696-d251a7a2","layer":"power","name":"Winfield Solar","state":"MO","detail_file":"data/details/power-plants-07.json","plant_id":"66696","capacity_mw":150.0,"status_group":"Operating","energy_sources":"SUN","type":"Power plant","is_nuclear":false}},{"type":"Feature","geometry":{"type":"Point","coordinates":[-88.612,36.245]},"properties":{"key":"55251-11da2f88","layer":"power","name":"Gleason Generating Facility","state":"TN","detail_file":"data/details/power-plants-28.json","plant_id":"55251","capacity_mw":567.8,"status_group":"Operating","energy_sources":"NG","type":"Power plant","is_nuclear":false}},{"type":"Feature","geometry":{"type":"Point","coordinates":[-88.992,36.386]},"properties":{"key":"64507-8d57d69e","layer":"power","name":"OETN1","state":"TN","detail_file":"data/details/power-plants-53.json","plant_id":"64507","capacity_mw":100.0,"status_group":"Operating","energy_sources":"SUN","type":"Power plant","is_nuclear":false}},{"type":"Feature","geometry":{"type":"Point","coordinates":[-89.462,36.306]},"properties":{"key":"65445-9f90ac98","layer":"power","name":"Ridgely Energy Farm","state":"TN","detail_file":"data/details/power-plants-27.json","plant_id":"65445","capacity_mw":177.0,"status_group":"Operating","energy_sources":"SUN","type":"Power plant","is_nuclear":false}},{"type":"Feature","geometry":{"type":"Point","coordinates":[-89.462,36.306]},"properties":{"key":"65445-578199f7","layer":"power","name":"Ridgely Energy Farm","state":"TN","detail_file":"data/details/power-plants-30.json","plant_id":"65445","capacity_mw":50.0,"status_group":"Planned","energy_sources":"MWH","type":"Power plant","is_nuclear":false}},{"type":"Feature","geometry":{"type":"Point","coordinates":[-88.328,36.446]},"properties":{"key":"65641-a88f2b51","layer":"power","name":"SR Paris","state":"TN","detail_file":"data/details/power-plants-58.json","plant_id":"65641","capacity_mw":6.8,"status_group":"Operating","energy_sources":"SUN","type":"Power plant","is_nuclear":false}},{"type":"Feature","geometry":{"type":"Point","coordinates":[-88.301,36.45]},"properties":{"key":"68564-cd4068ff","layer":"power","name":"SR Puryear","state":"TN","detail_file":"data/details/power-plants-40.json","plant_id":"68564","capacity_mw":50.0,"status_group":"Under construction","energy_sources":"SUN","type":"Power plant","is_nuclear":false}},{"type":"Feature","geometry":{"type":"Point","coordinates":[-88.619,36.001]},"properties":{"key":"68114-280c7b64","layer":"power","name":"SR Trezevant","state":"TN","detail_file":"data/details/power-plants-19.json","plant_id":"68114","capacity_mw":6.5,"status_group":"Operating","energy_sources":"SUN","type":"Power plant","is_nuclear":false}},{"type":"Feature","geometry":{"type":"Point","coordinates":[-88.142,36.058]},"properties":{"key":"57409-7ec1796e","layer":"power","name":"West Camden","state":"TN","detail_file":"data/details/power-plants-42.json","plant_id":"57409","capacity_mw":4.8,"status_group":"Operating","energy_sources":"LFG","type":"Power plant","is_nuclear":false}}]}