{"type":"FeatureCollection","features":[{"type":"Feature","geometry":{"type":"Point","coordinates":[-83.772,38.43]},"properties":{"key":"64658-d2d313f4","layer":"power","name":"AEUG Fleming Solar, LLC","state":"KY","detail_file":"data/details/power-plants-00.json","plant_id":"64658","capacity_mw":188.5,"status_group":"Under construction","energy_sources":"SUN","type":"Power plant","is_nuclear":false}},{"type":"Feature","geometry":{"type":"Point","coordinates":[-82.618,38.171]},"properties":{"key":"1353-5a8ddfa9","layer":"power","name":"Big Sandy","state":"KY","detail_file":"data/details/power-plants-08.json","plant_id":"1353","capacity_mw":280.5,"status_group":"Operating","energy_sources":"NG","type":"Power plant","is_nuclear":false}},{"type":"Feature","geometry":{"type":"Point","coordinates":[-83.989,37.741]},"properties":{"key":"59392-85994445","layer":"power","name":"Blue Ridge Generating","state":"KY","detail_file":"data/details/power-plants-61.json","plant_id":"59392","capacity_mw":1.6,"status_group":"Operating","energy_sources":"LFG","type":"Power plant","is_nuclear":false}},{"type":"Feature","geometry":{"type":"Point","coordinates":[-83.283,37.29]},"properties":{"key":"67990-30a5ba5b","layer":"power","name":"Bright Mountain Solar","state":"KY","detail_file":"data/details/power-plants-11.json","plant_id":"67990","capacity_mw":80.0,"status_group":"Planned","energy_sources":"SUN","type":"Power plant","is_nuclear":false}},{"type":"Feature","geometry":{"type":"Point","coordinates":[-83.833,37.602]},"properties":{"key":"62748-1106ea0a","layer":"power","name":"Evelyn Hydroelectric Project","state":"KY","detail_file":"data/details/power-plants-17.json","plant_id":"62748","capacity_mw":2.8,"status_group":"Under construction","energy_sources":"WAT","type":"Power plant","is_nuclear":false}},{"type":"Feature","geometry":{"type":"Point","coordinates":[-82.809,38.397]},"properties":{"key":"56278-59d1792b","layer":"power","name":"Green Valley LFGTE","state":"KY","detail_file":"data/details/power-plants-54.json","plant_id":"56278","capacity_mw":2.4,"status_group":"Operating","energy_sources":"LFG","type":"Power plant","is_nuclear":false}},{"type":"Feature","geometry":{"type":"Point","coordinates":[-83.818,38.7]},"properties":{"key":"6041-036aebf0","layer":"power","name":"H L Spurlock","state":"KY","detail_file":"data/details/power-plants-19.json","plant_id":"6041","capacity_mw":1608.5,"status_group":"Operating","energy_sources":"BIT","type":"Power plant","is_nuclear":false}},{"type":"Feature","geometry":{"type":"Point","coordinates":[-83.77,37.552]},"properties":{"key":"62749-156490e0","layer":"power","name":"Heidelberg Hydroelectric Project","state":"KY","detail_file":"data/details/power-plants-60.json","plant_id":"62749","capacity_mw":2.8,"status_group":"Under construction","energy_sources":"WAT","type":"Power plant","is_nuclear":false}},{"type":"Feature","geometry":{"type":"Point","coordinates":[-82.474,37.765]},"properties":{"key":"66646-e917b4dd","layer":"power","name":"Martin County Solar Project, LLC","state":"KY","detail_file":"data/details/power-plants-02.json","plant_id":"66646","capacity_mw":111.0,"status_group":"Operating","energy_sources":"SUN","type":"Power plant","is_nuclear":false}},{"type":"Feature","geometry":{"type":"Point","coordinates":[-83.949,37.677]},"properties":{"key":"62747-b80a631a","layer":"power","name":"Matilda Hamilton Fee Hydroelectric Stati","state":"KY","detail_file":"data/details/power-plants-30.json","plant_id":"62747","capacity_mw":2.5,"status_group":"Operating","energy_sources":"WAT","type":"Power plant","is_nuclear":false}},{"type":"Feature","geometry":{"type":"Point","coordinates":[-83.544,38.191]},"properties":{"key":"62641-07758fc9","layer":"power","name":"Morehead Generating Facility","state":"KY","detail_file":"data/details/power-plants-32.json","plant_id":"62641","capacity_mw":1.4,"status_group":"Operating","energy_sources":"LFG","type":"Power plant","is_nuclear":false}},{"type":"Feature","geometry":{"type":"Point","coordinates":[-82.605,38.192]},"properties":{"key":"55198-fe6b7352","layer":"power","name":"Riverside Generating LLC","state":"KY","detail_file":"data/details/power-plants-50.json","plant_id":"55198","capacity_mw":1150.0,"status_group":"Operating","energy_sources":"NG","type":"Power plant","is_nuclear":false}},{"type":"Feature","geometry":{"type":"Point","coordinates":[-83.121,37.412]},"properties":{"key":"68369-287730ca","layer":"power","name":"Starfire Mountain Solar","state":"KY","detail_file":"data/details/power-plants-25.json","plant_id":"68369","capacity_mw":410.0,"status_group":"Under construction","energy_sources":"SUN","type":"Power plant","is_nuclear":false}},{"type":"Feature","geometry":{"type":"Point","coordinates":[-80.843,36.284]},"properties":{"key":"63444-2e569cf4","layer":"power","name":"1001 Ebenezer Church Solar","state":"NC","detail_file":"data/details/power-plants-41.json","plant_id":"63444","capacity_mw":5.0,"status_group":"Operating","energy_sources":"SUN","type":"Power plant","is_nuclear":false}},{"type":"Feature","geometry":{"type":"Point","coordinates":[-80.552,36.217]},"properties":{"key":"63447-a002f226","layer":"power","name":"1008 Matthews Solar","state":"NC","detail_file":"data/details/power-plants-48.json","plant_id":"63447","capacity_mw":4.9,"status_group":"Operating","energy_sources":"SUN","type":"Power plant","is_nuclear":false}},{"type":"Feature","geometry":{"type":"Point","coordinates":[-80.656,36.147]},"properties":{"key":"63445-c22aae5e","layer":"power","name":"1009 Yadkin Solar","state":"NC","detail_file":"data/details/power-plants-37.json","plant_id":"63445","capacity_mw":4.9,"status_group":"Operating","energy_sources":"SUN","type":"Power plant","is_nuclear":false}},{"type":"Feature","geometry":{"type":"Point","coordinates":[-80.807,36.197]},"properties":{"key":"62661-61d11328","layer":"power","name":"1047 Little Mountain Solar, LLC","state":"NC","detail_file":"data/details/power-plants-53.json","plant_id":"62661","capacity_mw":3.0,"status_group":"Operating","energy_sources":"SUN","type":"Power plant","is_nuclear":false}},{"type":"Feature","geometry":{"type":"Point","coordinates":[-80.82,36.149]},"properties":{"key":"64271-871dd76c","layer":"power","name":"1051 Lucky Solar, LLC","state":"NC","detail_file":"data/details/power-plants-10.json","plant_id":"64271","capacity_mw":3.0,"status_group":"Operating","energy_sources":"SUN","type":"Power plant","is_nuclear":false}},{"type":"Feature","geometry":{"type":"Point","coordinates":[-80.601,36.461]},"properties":{"key":"58492-09d32d6c","layer":"power","name":"Ararat Rock Solar, LLC","state":"NC","detail_file":"data/details/power-plants-22.json","plant_id":"58492","capacity_mw":3.5,"status_group":"Operating","energy_sources":"SUN","type":"Power plant","is_nuclear":false}},{"type":"Feature","geometry":{"type":"Point","coordinates":[-80.799,36.126]},"properties":{"key":"59566-2e756d36","layer":"power","name":"Ashley Solar Farm","state":"NC","detail_file":"data/details/power-plants-21.json","plant_id":"59566","capacity_mw":4.0,"status_group":"Operating","energy_sources":"SUN","type":"Power plant","is_nuclear":false}},{"type":"Feature","geometry":{"type":"Point","coordinates":[-80.13,36.34]},"properties":{"key":"64168-154455ea","layer":"power","name":"Bear Branch Solar","state":"NC","detail_file":"data/details/power-plants-61.json","plant_id":"64168","capacity_mw":34.5,"status_group":"Under construction","energy_sources":"SUN","type":"Power plant","is_nuclear":false}},{"type":"Feature","geometry":{"type":"Point","coordinates":[-80.06,36.281]},"properties":{"key":"8042-beb674cc","layer":"power","name":"Belews Creek","state":"NC","detail_file":"data/details/power-plants-60.json","plant_id":"8042","capacity_mw":2491.2,"status_group":"Operating","energy_sources":"NG","type":"Power plant","is_nuclear":false}},{"type":"Feature","geometry":{"type":"Point","coordinates":[-80.568,36.439]},"properties":{"key":"59439-eab319c1","layer":"power","name":"COC Surry LFG, LLC","state":"NC","detail_file":"data/details/power-plants-58.json","plant_id":"59439","capacity_mw":1.6,"status_group":"Operating","energy_sources":"LFG","type":"Power plant","is_nuclear":false}},{"type":"Feature","geometry":{"type":"Point","coordinates":[-80.144,36.316]},"properties":{"key":"59017-582ac366","layer":"power","name":"Carol Jean Solar","state":"NC","detail_file":"data/details/power-plants-20.json","plant_id":"59017","capacity_mw":4.0,"status_group":"Operating","energy_sources":"SUN","type":"Power plant","is_nuclear":false}},{"type":"Feature","geometry":{"type":"Point","coordinates":[-80.41,36.414]},"properties":{"key":"67043-fea4a9ba","layer":"power","name":"Double Creek","state":"NC","detail_file":"data/details/power-plants-42.json","plant_id":"67043","capacity_mw":5.0,"status_group":"Operating","energy_sources":"MWH","type":"Power plant","is_nuclear":false}},{"type":"Feature","geometry":{"type":"Point","coordinates":[-80.255,36.246]},"properties":{"key":"60480-8d1f6046","layer":"power","name":"Germantown Solar, LLC","state":"NC","detail_file":"data/details/power-plants-06.json","plant_id":"60480","capacity_mw":1.5,"status_group":"Operating","energy_sources":"SUN","type":"Power plant","is_nuclear":false}},{"type":"Feature","geometry":{"type":"Point","coordinates":[-80.737,36.388]},"properties":{"key":"63974-ef879067","layer":"power","name":"Hayes Solar, LLC","state":"NC","detail_file":"data/details/power-plants-40.json","plant_id":"63974","capacity_mw":3.0,"status_group":"Operating","energy_sources":"SUN","type":"Power plant","is_nuclear":false}},{"type":"Feature","geometry":{"type":"Point","coordinates":[-80.227,36.034]},"properties":{"key":"54618-642c1b88","layer":"power","name":"Ingredion Winston Salem","state":"NC","detail_file":"data/details/power-plants-12.json","plant_id":"54618","capacity_mw":8.4,"status_group":"Operating","energy_sources":"WDS","type":"Power plant","is_nuclear":false}},{"type":"Feature","geometry":{"type":"Point","coordinates":[-80.128,36.283]},"properties":{"key":"63811-98eb2970","layer":"power","name":"Lick Creek Solar, LLC","state":"NC","detail_file":"data/details/power-plants-31.json","plant_id":"63811","capacity_mw":50.0,"status_group":"Operating","energy_sources":"SUN","type":"Power plant","is_nuclear":false}},{"type":"Feature","geometry":{"type":"Point","coordinates":[-80.601,36.477]},"properties":{"key":"57321-04716cf4","layer":"power","name":"Mayberry Solar LLC","state":"NC","detail_file":"data/details/power-plants-62.json","plant_id":"57321","capacity_mw":1.2,"status_group":"Operating","energy_sources":"SUN","type":"Power plant","is_nuclear":false}},{"type":"Feature","geometry":{"type":"Point","coordinates":[-80.822,36.268]},"properties":{"key":"63827-357420dc","layer":"power","name":"Partin Solar","state":"NC","detail_file":"data/details/power-plants-38.json","plant_id":"63827","capacity_mw":50.0,"status_group":"Operating","energy_sources":"SUN","type":"Power plant","is_nuclear":false}},{"type":"Feature","geometry":{"type":"Point","coordinates":[-80.376,36.271]},"properties":{"key":"63835-28e9134b","layer":"power","name":"Pilot Mountain Solar, LLC","state":"NC","detail_file":"data/details/power-plants-47.json","plant_id":"63835","capacity_mw":4.9,"status_group":"Operating","energy_sources":"SUN","type":"Power plant","is_nuclear":false}},{"type":"Feature","geometry":{"type":"Point","coordinates":[-80.183,36.191]},"properties":{"key":"54984-03b603c9","layer":"power","name":"Salem Energy Systems LLC","state":"NC","detail_file":"data/details/power-plants-45.json","plant_id":"54984","capacity_mw":4.5,"status_group":"Operating","energy_sources":"LFG","type":"Power plant","is_nuclear":false}},{"type":"Feature","geometry":{"type":"Point","coordinates":[-80.302,36.029]},"properties":{"key":"60409-b5a2c994","layer":"power","name":"South Winston Farm, LLC","state":"NC","detail_file":"data/details/power-plants-59.json","plant_id":"60409","capacity_mw":5.2,"status_group":"Operating","energy_sources":"SUN","type":"Power plant","is_nuclear":false}},{"type":"Feature","geometry":{"type":"Point","coordinates":[-80.656,36.288]},"properties":{"key":"62820-8fe177d1","layer":"power","name":"Stony Knoll Solar, LLC","state":"NC","detail_file":"data/details/power-plants-11.json","plant_id":"62820","capacity_mw":22.6,"status_group":"Operating","energy_sources":"SUN","type":"Power plant","is_nuclear":false}},{"type":"Feature","geometry":{"type":"Point","coordinates":[-80.657,36.161]},"properties":{"key":"63807-1dac88f1","layer":"power","name":"Sugar Solar, LLC","state":"NC","detail_file":"data/details/power-plants-40.json","plant_id":"63807","capacity_mw":60.0,"status_group":"Operating","energy_sources":"SUN","type":"Power plant","is_nuclear":false}},{"type":"Feature","geometry":{"type":"Point","coordinates":[-80.563,36.235]},"properties":{"key":"67969-4a67b70c","layer":"power","name":"Two Hearted Solar","state":"NC","detail_file":"data/details/power-plants-37.json","plant_id":"67969","capacity_mw":22.0,"status_group":"Operating","energy_sources":"SUN","type":"Power plant","is_nuclear":false}},{"type":"Feature","geometry":{"type":"Point","coordinates":[-80.041,36.194]},"properties":{"key":"57169-a1feb2fe","layer":"power","name":"Waste Management Piedmont LFGTE Project","state":"NC","detail_file":"data/details/power-plants-26.json","plant_id":"57169","capacity_mw":2.4,"status_group":"Operating","energy_sources":"LFG","type":"Power plant","is_nuclear":false}},{"type":"Feature","geometry":{"type":"Point","coordinates":[-80.697,36.199]},"properties":{"key":"59587-d29a563f","layer":"power","name":"Yadkin 601 Farm","state":"NC","detail_file":"data/details/power-plants-39.json","plant_id":"59587","capacity_mw":3.0,"status_group":"Operating","energy_sources":"SUN","type":"Power plant","is_nuclear":false}},{"type":"Feature","geometry":{"type":"Point","coordinates":[-80.596,36.137]},"properties":{"key":"59950-a025bbd4","layer":"power","name":"Yadkinville Solar","state":"NC","detail_file":"data/details/power-plants-22.json","plant_id":"59950","capacity_mw":3.5,"status_group":"Operating","energy_sources":"SUN","type":"Power plant","is_nuclear":false}},{"type":"Feature","geometry":{"type":"Point","coordinates":[-83.029,39.957]},"properties":{"key":"68391-e8e20bb3","layer":"power","name":"3100 Valleyview Drive","state":"OH","detail_file":"data/details/power-plants-31.json","plant_id":"68391","capacity_mw":1.0,"status_group":"Operating","energy_sources":"SUN","type":"Power plant","is_nuclear":false}},{"type":"Feature","geometry":{"type":"Point","coordinates":[-81.115,39.757]},"properties":{"key":"2945-24061d59","layer":"power","name":"Anadarko","state":"OH","detail_file":"data/details/power-plants-08.json","plant_id":"2945","capacity_mw":7.8,"status_group":"Operating","energy_sources":"DFO","type":"Power plant","is_nuclear":false}},{"type":"Feature","geometry":{"type":"Point","coordinates":[-83.328,39.856]},"properties":{"key":"64635-b2511072","layer":"power","name":"Big Plain Solar, LLC","state":"OH","detail_file":"data/details/power-plants-62.json","plant_id":"64635","capacity_mw":196.0,"status_group":"Operating","energy_sources":"SUN","type":"Power plant","is_nuclear":false}},{"type":"Feature","geometry":{"type":"Point","coordinates":[-83.903,38.895]},"properties":{"key":"61145-59081512","layer":"power","name":"Brown County LFGTE Power Station","state":"OH","detail_file":"data/details/power-plants-25.json","plant_id":"61145","capacity_mw":4.8,"status_group":"Operating","energy_sources":"LFG","type":"Power plant","is_nuclear":false}},{"type":"Feature","geometry":{"type":"Point","coordinates":[-83.156,39.6]},"properties":{"key":"69028-103f47a9","layer":"power","name":"Buckeye Solar","state":"OH","detail_file":"data/details/power-plants-08.json","plant_id":"69028","capacity_mw":100.0,"status_group":"Operating","energy_sources":"SUN","type":"Power plant","is_nuclear":false}},{"type":"Feature","geometry":{"type":"Point","coordinates":[-83.817,39.742]},"properties":{"key":"58386-503a4e04","layer":"power","name":"CU Solar Plant","state":"OH","detail_file":"data/details/power-plants-17.json","plant_id":"58386","capacity_mw":1.8,"status_group":"Operating","energy_sources":"SUN","type":"Power plant","is_nuclear":false}},{"type":"Feature","geometry":{"type":"Point","coordinates":[-83.769,39.341]},"properties":{"key":"68482-fe917832","layer":"power","name":"Clinton Solar (OH)","state":"OH","detail_file":"data/details/power-plants-18.json","plant_id":"68482","capacity_mw":49.9,"status_group":"Operating","energy_sources":"SUN","type":"Power plant","is_nuclear":false}},{"type":"Feature","geometry":{"type":"Point","coordinates":[-83.178,39.714]},"properties":{"key":"55247-25edb70c","layer":"power","name":"Darby Power, LLC","state":"OH","detail_file":"data/details/power-plants-30.json","plant_id":"55247","capacity_mw":564.0,"status_group":"Operating","energy_sources":"NG","type":"Power plant","is_nuclear":false}},{"type":"Feature","geometry":{"type":"Point","coordinates":[-83.014,39.952]},"properties":{"key":"56423-2ea5a173","layer":"power","name":"Dodge Park Engine No 1","state":"OH","detail_file":"data/details/power-plants-38.json","plant_id":"56423","capacity_mw":2.0,"status_group":"Operating","energy_sources":"DFO","type":"Power plant","is_nuclear":false}},{"type":"Feature","geometry":{"type":"Point","coordinates":[-83.768,39.181]},"properties":{"key":"69550-46f16d73","layer":"power","name":"Dodson Creek Solar, LLC","state":"OH","detail_file":"data/details/power-plants-45.json","plant_id":"69550","capacity_mw":117.0,"status_group":"Operating","energy_sources":"SUN","type":"Power plant","is_nuclear":false}},{"type":"Feature","geometry":{"type":"Point","coordinates":[-82.495,39.844]},"properties":{"key":"69108-e9522b51","layer":"power","name":"Eastern Cottontail Solar","state":"OH","detail_file":"data/details/power-plants-10.json","plant_id":"69108","capacity_mw":220.0,"status_group":"Under construction","energy_sources":"SUN","type":"Power plant","is_nuclear":false}},{"type":"Feature","geometry":{"type":"Point","coordinates":[-83.4,39.383]},"properties":{"key":"67166-cdd517d2","layer":"power","name":"Fayette Solar","state":"OH","detail_file":"data/details/power-plants-17.json","plant_id":"67166","capacity_mw":45.0,"status_group":"Operating","energy_sources":"SUN","type":"Power plant","is_nuclear":false}},{"type":"Feature","geometry":{"type":"Point","coordinates":[-83.367,39.777]},"properties":{"key":"67239-6b7232b6","layer":"power","name":"Fox Squirrel Solar","state":"OH","detail_file":"data/details/power-plants-01.json","plant_id":"67239","capacity_mw":577.0,"status_group":"Operating","energy_sources":"SUN","type":"Power plant","is_nuclear":false}},{"type":"Feature","geometry":{"type":"Point","coordinates":[-82.116,38.935]},"properties":{"key":"8102-45e3b7cc","layer":"power","name":"Gavin Power, LLC","state":"OH","detail_file":"data/details/power-plants-33.json","plant_id":"8102","capacity_mw":2600.0,"status_group":"Operating","energy_sources":"BIT","type":"Power plant","is_nuclear":false}},{"type":"Feature","geometry":{"type":"Point","coordinates":[-81.771,39.003]},"properties":{"key":"67834-96199a84","layer":"power","name":"Great Bend Solar Project","state":"OH","detail_file":"data/details/power-plants-16.json","plant_id":"67834","capacity_mw":48.0,"status_group":"Operating","energy_sources":"SUN","type":"Power plant","is_nuclear":false}},{"type":"Feature","geometry":{"type":"Point","coordinates":[-82.859,38.647]},"properties":{"key":"4258-6b51f31c","layer":"power","name":"Greenup Hydro","state":"OH","detail_file":"data/details/power-plants-15.json","plant_id":"4258","capacity_mw":70.2,"status_group":"Operating","energy_sources":"WAT","type":"Power plant","is_nuclear":false}},{"type":"Feature","geometry":{"type":"Point","coordinates":[-81.535,39.936]},"properties":{"key":"62949-91e1aad1","layer":"power","name":"Guernsey Power Station","state":"OH","detail_file":"data/details/power-plants-24.json","plant_id":"62949","capacity_mw":2055.0,"status_group":"Operating","energy_sources":"NG","type":"Power plant","is_nuclear":false}},{"type":"Feature","geometry":{"type":"Point","coordinates":[-82.783,38.573]},"properties":{"key":"55736-21e566fe","layer":"power","name":"Hanging Rock Energy Facility","state":"OH","detail_file":"data/details/power-plants-08.json","plant_id":"55736","capacity_mw":1429.8,"status_group":"Operating","energy_sources":"NG","type":"Power plant","is_nuclear":false}},{"type":"Feature","geometry":{"type":"Point","coordinates":[-82.829,38.597]},"properties":{"key":"56848-08cb3543","layer":"power","name":"Haverhill North Cogeneration Facility","state":"OH","detail_file":"data/details/power-plants-09.json","plant_id":"56848","capacity_mw":67.0,"status_group":"Operating","energy_sources":"OG","type":"Power plant","is_nuclear":false}},{"type":"Feature","geometry":{"type":"Point","coordinates":[-83.81,39.084]},"properties":{"key":"62670-817a663c","layer":"power","name":"Hecate Energy Highland LLC","state":"OH","detail_file":"data/details/power-plants-45.json","plant_id":"62670","capacity_mw":300.0,"status_group":"Operating","energy_sources":"SUN","type":"Power plant","is_nuclear":false}},{"type":"Feature","geometry":{"type":"Point","coordinates":[-83.906,39.077]},"properties":{"key":"62200-69582487","layer":"power","name":"Hillcrest Solar","state":"OH","detail_file":"data/details/power-plants-19.json","plant_id":"62200","capacity_mw":200.0,"status_group":"Operating","energy_sources":"SUN","type":"Power plant","is_nuclear":false}},{"type":"Feature","geometry":{"type":"Point","coordinates":[-83.318,39.943]},"properties":{"key":"66010-c1510d43","layer":"power","name":"IGS CMH4, LLC","state":"OH","detail_file":"data/details/power-plants-33.json","plant_id":"66010","capacity_mw":4.2,"status_group":"Operating","energy_sources":"SUN","type":"Power plant","is_nuclear":false}},{"type":"Feature","geometry":{"type":"Point","coordinates":[-83.017,39.911]},"properties":{"key":"67264-74fb03de","layer":"power","name":"Jackson Pike WWTP Cogen Engines","state":"OH","detail_file":"data/details/power-plants-11.json","plant_id":"67264","capacity_mw":2.8,"status_group":"Operating","energy_sources":"OBG","type":"Power plant","is_nuclear":false}},{"type":"Feature","geometry":{"type":"Point","coordinates":[-83.83,39.782]},"properties":{"key":"65425-e7cd64ba","layer":"power","name":"Kingwood Solar","state":"OH","detail_file":"data/details/power-plants-07.json","plant_id":"65425","capacity_mw":175.0,"status_group":"Planned","energy_sources":"SUN","type":"Power plant","is_nuclear":false}},{"type":"Feature","geometry":{"type":"Point","coordinates":[-82.129,38.914]},"properties":{"key":"2876-94e7fb39","layer":"power","name":"Kyger Creek","state":"OH","detail_file":"data/details/power-plants-02.json","plant_id":"2876","capacity_mw":1086.5,"status_group":"Operating","energy_sources":"BIT","type":"Power plant","is_nuclear":false}},{"type":"Feature","geometry":{"type":"Point","coordinates":[-80.846,39.703]},"properties":{"key":"61322-aa7bb944","layer":"power","name":"Long Ridge Energy Generation","state":"OH","detail_file":"data/details/power-plants-38.json","plant_id":"61322","capacity_mw":521.9,"status_group":"Operating","energy_sources":"NG","type":"Power plant","is_nuclear":false}},{"type":"Feature","geometry":{"type":"Point","coordinates":[-83.796,39.072]},"properties":{"key":"64853-949bb09f","layer":"power","name":"New Market Solar","state":"OH","detail_file":"data/details/power-plants-60.json","plant_id":"64853","capacity_mw":100.0,"status_group":"Operating","energy_sources":"SUN","type":"Power plant","is_nuclear":false}},{"type":"Feature","geometry":{"type":"Point","coordinates":[-82.996,39.018]},"properties":{"key":"oklo-aurora-pike-county-oh-e26dc52e","layer":"power","name":"Oklo Aurora Powerhouse","state":"OH","detail_file":"data/details/power-plants-08.json","plant_id":"oklo-aurora-pike-county-oh","capacity_mw":1200.0,"status_group":"Proposed","energy_sources":"nuclear_smr","type":"Nuclear power plant","is_nuclear":true}},{"type":"Feature","geometry":{"type":"Point","coordinates":[-83.049,39.961]},"properties":{"key":"56421-f8f63d2c","layer":"power","name":"PS ST-8 Engine No 1","state":"OH","detail_file":"data/details/power-plants-62.json","plant_id":"56421","capacity_mw":2.0,"status_group":"Operating","energy_sources":"DFO","type":"Power plant","is_nuclear":false}},{"type":"Feature","geometry":{"type":"Point","coordinates":[-83.777,39.216]},"properties":{"key":"63784-8aa4ed80","layer":"power","name":"Palomino Solar","state":"OH","detail_file":"data/details/power-plants-30.json","plant_id":"63784","capacity_mw":200.0,"status_group":"Under construction","energy_sources":"SUN","type":"Power plant","is_nuclear":false}},{"type":"Feature","geometry":{"type":"Point","coordinates":[-83.176,39.56]},"properties":{"key":"69029-88342fa9","layer":"power","name":"Pickaway Solar","state":"OH","detail_file":"data/details/power-plants-30.json","plant_id":"69029","capacity_mw":100.0,"status_group":"Operating","energy_sources":"SUN","type":"Power plant","is_nuclear":false}},{"type":"Feature","geometry":{"type":"Point","coordinates":[-82.974,39.325]},"properties":{"key":"10244-2f629fd7","layer":"power","name":"Pixelle Specialty Solutions LLC - Chilli","state":"OH","detail_file":"data/details/power-plants-00.json","plant_id":"10244","capacity_mw":92.8,"status_group":"Operating","energy_sources":"BLQ; NG","type":"Power plant","is_nuclear":false}},{"type":"Feature","geometry":{"type":"Point","coordinates":[-83.204,39.945]},"properties":{"key":"69477-389ec67e","layer":"power","name":"Pleasant Prairie Solar Energy LLC","state":"OH","detail_file":"data/details/power-plants-61.json","plant_id":"69477","capacity_mw":200.0,"status_group":"Under construction","energy_sources":"SUN","type":"Power plant","is_nuclear":false}},{"type":"Feature","geometry":{"type":"Point","coordinates":[-81.908,38.915]},"properties":{"key":"6006-a62b40a9","layer":"power","name":"Racine","state":"OH","detail_file":"data/details/power-plants-10.json","plant_id":"6006","capacity_mw":47.4,"status_group":"Operating","energy_sources":"WAT","type":"Power plant","is_nuclear":false}},{"type":"Feature","geometry":{"type":"Point","coordinates":[-83.012,39.929]},"properties":{"key":"56420-5bd4d9ab","layer":"power","name":"Renick Run Pumping Station 03-04","state":"OH","detail_file":"data/details/power-plants-43.json","plant_id":"56420","capacity_mw":2.8,"status_group":"Operating","energy_sources":"DFO","type":"Power plant","is_nuclear":false}},{"type":"Feature","geometry":{"type":"Point","coordinates":[-82.333,39.084]},"properties":{"key":"55401-2a9c8a78","layer":"power","name":"Rolling Hills Generating","state":"OH","detail_file":"data/details/power-plants-05.json","plant_id":"55401","capacity_mw":977.5,"status_group":"Operating","energy_sources":"NG","type":"Power plant","is_nuclear":false}},{"type":"Feature","geometry":{"type":"Point","coordinates":[-83.353,39.326]},"properties":{"key":"65343-4e1c2db0","layer":"power","name":"Ross County Solar, LLC","state":"OH","detail_file":"data/details/power-plants-50.json","plant_id":"65343","capacity_mw":120.0,"status_group":"Operating","energy_sources":"SUN","type":"Power plant","is_nuclear":false}},{"type":"Feature","geometry":{"type":"Point","coordinates":[-83.016,39.95]},"properties":{"key":"56422-8be53400","layer":"power","name":"ST-1/1A Engine No 1","state":"OH","detail_file":"data/details/power-plants-48.json","plant_id":"56422","capacity_mw":1.3,"status_group":"Operating","energy_sources":"DFO","type":"Power plant","is_nuclear":false}},{"type":"Feature","geometry":{"type":"Point","coordinates":[-82.963,39.415]},"properties":{"key":"65302-f1e697a4","layer":"power","name":"Salt City Solar Project - Hybrid","state":"OH","detail_file":"data/details/power-plants-60.json","plant_id":"65302","capacity_mw":49.9,"status_group":"Operating","energy_sources":"SUN","type":"Power plant","is_nuclear":false}},{"type":"Feature","geometry":{"type":"Point","coordinates":[-82.963,39.415]},"properties":{"key":"65302-940b3bf5","layer":"power","name":"Salt City Solar Project - Hybrid","state":"OH","detail_file":"data/details/power-plants-24.json","plant_id":"65302","capacity_mw":12.5,"status_group":"Planned","energy_sources":"MWH","type":"Power plant","is_nuclear":false}},{"type":"Feature","geometry":{"type":"Point","coordinates":[-83.806,39.894]},"properties":{"key":"59545-95cbbee4","layer":"power","name":"Springfield Solar LLC","state":"OH","detail_file":"data/details/power-plants-16.json","plant_id":"59545","capacity_mw":1.5,"status_group":"Operating","energy_sources":"SUN","type":"Power plant","is_nuclear":false}},{"type":"Feature","geometry":{"type":"Point","coordinates":[-83.25,39.83]},"properties":{"key":"65900-a01a7794","layer":"power","name":"Springwater Solar, LLC","state":"OH","detail_file":"data/details/power-plants-25.json","plant_id":"65900","capacity_mw":155.0,"status_group":"Under construction","energy_sources":"SUN","type":"Power plant","is_nuclear":false}},{"type":"Feature","geometry":{"type":"Point","coordinates":[-82.245,39.912]},"properties":{"key":"57170-58fb0ffc","layer":"power","name":"Suburban Landfill Gas Recovery","state":"OH","detail_file":"data/details/power-plants-59.json","plant_id":"57170","capacity_mw":5.6,"status_group":"Operating","energy_sources":"LFG","type":"Power plant","is_nuclear":false}},{"type":"Feature","geometry":{"type":"Point","coordinates":[-82.641,39.984]},"properties":{"key":"65338-7599db48","layer":"power","name":"Union Ridge Solar","state":"OH","detail_file":"data/details/power-plants-57.json","plant_id":"65338","capacity_mw":108.0,"status_group":"Under construction","energy_sources":"SUN","type":"Power plant","is_nuclear":false}},{"type":"Feature","geometry":{"type":"Point","coordinates":[-81.656,39.58]},"properties":{"key":"55397-9c328d48","layer":"power","name":"Washington Energy Facility","state":"OH","detail_file":"data/details/power-plants-60.json","plant_id":"55397","capacity_mw":714.9,"status_group":"Operating","energy_sources":"NG","type":"Power plant","is_nuclear":false}},{"type":"Feature","geometry":{"type":"Point","coordinates":[-81.718,39.533]},"properties":{"key":"55503-3bf68baa","layer":"power","name":"Waterford Power, LLC","state":"OH","detail_file":"data/details/power-plants-18.json","plant_id":"55503","capacity_mw":921.6,"status_group":"Operating","energy_sources":"NG","type":"Power plant","is_nuclear":false}},{"type":"Feature","geometry":{"type":"Point","coordinates":[-83.705,39.022]},"properties":{"key":"63877-b837a14f","layer":"power","name":"Willowbrook Solar I, LLC","state":"OH","detail_file":"data/details/power-plants-37.json","plant_id":"63877","capacity_mw":150.0,"status_group":"Operating","energy_sources":"SUN","type":"Power plant","is_nuclear":false}},{"type":"Feature","geometry":{"type":"Point","coordinates":[-83.79,39.271]},"properties":{"key":"69963-ed7de9e5","layer":"power","name":"Yellow Wood Solar Energy LLC","state":"OH","detail_file":"data/details/power-plants-50.json","plant_id":"69963","capacity_mw":300.0,"status_group":"Under construction","energy_sources":"SUN","type":"Power plant","is_nuclear":false}},{"type":"Feature","geometry":{"type":"Point","coordinates":[-83.066,39.503]},"properties":{"key":"64832-10ed0f82","layer":"power","name":"Yellowbud Solar, LLC","state":"OH","detail_file":"data/details/power-plants-07.json","plant_id":"64832","capacity_mw":274.0,"status_group":"Operating","energy_sources":"SUN","type":"Power plant","is_nuclear":false}},{"type":"Feature","geometry":{"type":"Point","coordinates":[-82.438,36.44]},"properties":{"key":"3395-2a683b29","layer":"power","name":"Boone Dam","state":"TN","detail_file":"data/details/power-plants-45.json","plant_id":"3395","capacity_mw":105.9,"status_group":"Operating","energy_sources":"WAT","type":"Power plant","is_nuclear":false}},{"type":"Feature","geometry":{"type":"Point","coordinates":[-83.498,36.168]},"properties":{"key":"3397-9a56aa50","layer":"power","name":"Cherokee Dam","state":"TN","detail_file":"data/details/power-plants-62.json","plant_id":"3397","capacity_mw":135.0,"status_group":"Operating","energy_sources":"WAT","type":"Power plant","is_nuclear":false}},{"type":"Feature","geometry":{"type":"Point","coordinates":[-82.567,36.549]},"properties":{"key":"10252-cc8df220","layer":"power","name":"Domtar Kingsport Mill","state":"TN","detail_file":"data/details/power-plants-63.json","plant_id":"10252","capacity_mw":50.0,"status_group":"Operating","energy_sources":"NG","type":"Power plant","is_nuclear":false}},{"type":"Feature","geometry":{"type":"Point","coordinates":[-82.509,36.498]},"properties":{"key":"3401-b6620fb2","layer":"power","name":"Fort Patrick Henry","state":"TN","detail_file":"data/details/power-plants-28.json","plant_id":"3401","capacity_mw":59.4,"status_group":"Operating","energy_sources":"WAT","type":"Power plant","is_nuclear":false}},{"type":"Feature","geometry":{"type":"Point","coordinates":[-82.964,36.377]},"properties":{"key":"3405-12d0a197","layer":"power","name":"John Sevier","state":"TN","detail_file":"data/details/power-plants-22.json","plant_id":"3405","capacity_mw":996.9,"status_group":"Operating","energy_sources":"NG","type":"Power plant","is_nuclear":false}},{"type":"Feature","geometry":{"type":"Point","coordinates":[-82.377,36.31]},"properties":{"key":"59809-6bb84cb4","layer":"power","name":"Mountain Home Energy Center","state":"TN","detail_file":"data/details/power-plants-59.json","plant_id":"59809","capacity_mw":3.6,"status_group":"Operating","energy_sources":"DFO","type":"Power plant","is_nuclear":false}},{"type":"Feature","geometry":{"type":"Point","coordinates":[-83.032,36.575]},"properties":{"key":"7883-97b082ab","layer":"power","name":"Powell Valley","state":"TN","detail_file":"data/details/power-plants-33.json","plant_id":"7883","capacity_mw":22.0,"status_group":"Operating","energy_sources":"DFO","type":"Power plant","is_nuclear":false}},{"type":"Feature","geometry":{"type":"Point","coordinates":[-82.909,36.244]},"properties":{"key":"67126-fe82dfe1","layer":"power","name":"SR Albany, LLC","state":"TN","detail_file":"data/details/power-plants-50.json","plant_id":"67126","capacity_mw":4.3,"status_group":"Operating","energy_sources":"SUN","type":"Power plant","is_nuclear":false}},{"type":"Feature","geometry":{"type":"Point","coordinates":[-82.474,36.44]},"properties":{"key":"68248-9659f665","layer":"power","name":"SR Gray","state":"TN","detail_file":"data/details/power-plants-61.json","plant_id":"68248","capacity_mw":6.0,"status_group":"Operating","energy_sources":"SUN","type":"Power plant","is_nuclear":false}},{"type":"Feature","geometry":{"type":"Point","coordinates":[-82.699,36.295]},"properties":{"key":"65638-9debe877","layer":"power","name":"SR Greenville I","state":"TN","detail_file":"data/details/power-plants-50.json","plant_id":"65638","capacity_mw":4.8,"status_group":"Operating","energy_sources":"SUN","type":"Power plant","is_nuclear":false}},{"type":"Feature","geometry":{"type":"Point","coordinates":[-82.74,36.191]},"properties":{"key":"65639-716d1562","layer":"power","name":"SR Greenville II","state":"TN","detail_file":"data/details/power-plants-63.json","plant_id":"65639","capacity_mw":4.8,"status_group":"Operating","energy_sources":"SUN","type":"Power plant","is_nuclear":false}},{"type":"Feature","geometry":{"type":"Point","coordinates":[-82.521,36.252]},"properties":{"key":"62173-1e115282","layer":"power","name":"SR Jonesborough","state":"TN","detail_file":"data/details/power-plants-08.json","plant_id":"62173","capacity_mw":4.4,"status_group":"Operating","energy_sources":"SUN","type":"Power plant","is_nuclear":false}},{"type":"Feature","geometry":{"type":"Point","coordinates":[-82.598,36.347]},"properties":{"key":"64843-6a73c97f","layer":"power","name":"SR Washington I, LLC","state":"TN","detail_file":"data/details/power-plants-01.json","plant_id":"64843","capacity_mw":9.0,"status_group":"Operating","energy_sources":"SUN","type":"Power plant","is_nuclear":false}},{"type":"Feature","geometry":{"type":"Point","coordinates":[-83.284,36.123]},"properties":{"key":"67192-e8697606","layer":"power","name":"SR White Pine, LLC","state":"TN","detail_file":"data/details/power-plants-58.json","plant_id":"67192","capacity_mw":2.0,"status_group":"Operating","energy_sources":"SUN","type":"Power plant","is_nuclear":false}},{"type":"Feature","geometry":{"type":"Point","coordinates":[-82.09,36.523]},"properties":{"key":"3416-8354a82c","layer":"power","name":"South Holston","state":"TN","detail_file":"data/details/power-plants-37.json","plant_id":"3416","capacity_mw":38.5,"status_group":"Operating","energy_sources":"WAT","type":"Power plant","is_nuclear":false}},{"type":"Feature","geometry":{"type":"Point","coordinates":[-82.543,36.522]},"properties":{"key":"50481-81e0eb63","layer":"power","name":"Tennessee Eastman Operations","state":"TN","detail_file":"data/details/power-plants-49.json","plant_id":"50481","capacity_mw":194.3,"status_group":"Operating","energy_sources":"BIT; NG","type":"Power plant","is_nuclear":false}},{"type":"Feature","geometry":{"type":"Point","coordinates":[-82.126,36.341]},"properties":{"key":"3418-75120e17","layer":"power","name":"Watauga","state":"TN","detail_file":"data/details/power-plants-40.json","plant_id":"3418","capacity_mw":57.6,"status_group":"Operating","energy_sources":"WAT","type":"Power plant","is_nuclear":false}},{"type":"Feature","geometry":{"type":"Point","coordinates":[-82.126,36.342]},"properties":{"key":"3421-8d9c4e77","layer":"power","name":"Wilbur","state":"TN","detail_file":"data/details/power-plants-63.json","plant_id":"3421","capacity_mw":10.6,"status_group":"Operating","energy_sources":"WAT","type":"Power plant","is_nuclear":false}},{"type":"Feature","geometry":{"type":"Point","coordinates":[-81.961,37.175]},"properties":{"key":"55738-c07ae8c5","layer":"power","name":"Buchanan Generation LLC","state":"VA","detail_file":"data/details/power-plants-02.json","plant_id":"55738","capacity_mw":88.0,"status_group":"Operating","energy_sources":"NG","type":"Power plant","is_nuclear":false}},{"type":"Feature","geometry":{"type":"Point","coordinates":[-80.939,36.808]},"properties":{"key":"3772-f424e2ba","layer":"power","name":"Buck Hydro","state":"VA","detail_file":"data/details/power-plants-35.json","plant_id":"3772","capacity_mw":8.4,"status_group":"Operating","energy_sources":"WAT","type":"Power plant","is_nuclear":false}},{"type":"Feature","geometry":{"type":"Point","coordinates":[-80.933,36.786]},"properties":{"key":"3773-c037c1e7","layer":"power","name":"Byllesby 2","state":"VA","detail_file":"data/details/power-plants-06.json","plant_id":"3773","capacity_mw":21.6,"status_group":"Operating","energy_sources":"WAT","type":"Power plant","is_nuclear":false}},{"type":"Feature","geometry":{"type":"Point","coordinates":[-81.05,36.964]},"properties":{"key":"65314-6f93afdc","layer":"power","name":"Caden Energix Wytheville LLC","state":"VA","detail_file":"data/details/power-plants-50.json","plant_id":"65314","capacity_mw":20.0,"status_group":"Operating","energy_sources":"SUN","type":"Power plant","is_nuclear":false}},{"type":"Feature","geometry":{"type":"Point","coordinates":[-80.765,37.344]},"properties":{"key":"52089-2ca65588","layer":"power","name":"Celanese Acetate LLC","state":"VA","detail_file":"data/details/power-plants-57.json","plant_id":"52089","capacity_mw":27.2,"status_group":"Operating","energy_sources":"NG","type":"Power plant","is_nuclear":false}},{"type":"Feature","geometry":{"type":"Point","coordinates":[-80.585,37.075]},"properties":{"key":"3774-cfe18ef1","layer":"power","name":"Claytor","state":"VA","detail_file":"data/details/power-plants-61.json","plant_id":"3774","capacity_mw":74.8,"status_group":"Operating","energy_sources":"WAT","type":"Power plant","is_nuclear":false}},{"type":"Feature","geometry":{"type":"Point","coordinates":[-82.2,36.933]},"properties":{"key":"3775-536665e4","layer":"power","name":"Clinch River","state":"VA","detail_file":"data/details/power-plants-24.json","plant_id":"3775","capacity_mw":475.0,"status_group":"Operating","energy_sources":"NG","type":"Power plant","is_nuclear":false}},{"type":"Feature","geometry":{"type":"Point","coordinates":[-80.986,36.715]},"properties":{"key":"10798-7ad9e1e2","layer":"power","name":"Fries Hydroelectric Project","state":"VA","detail_file":"data/details/power-plants-19.json","plant_id":"10798","capacity_mw":5.4,"status_group":"Operating","energy_sources":"WAT","type":"Power plant","is_nuclear":false}},{"type":"Feature","geometry":{"type":"Point","coordinates":[-82.677,36.932]},"properties":{"key":"68278-83cbd8da","layer":"power","name":"Greater Wise Solar Project","state":"VA","detail_file":"data/details/power-plants-39.json","plant_id":"68278","capacity_mw":20.0,"status_group":"Planned","energy_sources":"SUN","type":"Power plant","is_nuclear":false}},{"type":"Feature","geometry":{"type":"Point","coordinates":[-80.687,37.14]},"properties":{"key":"65665-789e7f32","layer":"power","name":"Hecate Energy Pulaski 1","state":"VA","detail_file":"data/details/power-plants-14.json","plant_id":"65665","capacity_mw":150.0,"status_group":"Under construction","energy_sources":"SUN","type":"Power plant","is_nuclear":false}},{"type":"Feature","geometry":{"type":"Point","coordinates":[-82.53,36.99]},"properties":{"key":"red-post-maverick-project-wise-va-1efbefc2","layer":"power","name":"Maverick Project (Wise Innovation Hub power supply)","state":"VA","detail_file":"data/details/power-plants-51.json","plant_id":"red-post-maverick-project-wise-va","capacity_mw":600.0,"status_group":"Proposed","energy_sources":"other","type":"Power plant","is_nuclear":false}},{"type":"Feature","geometry":{"type":"Point","coordinates":[-82.527,36.997]},"properties":{"key":"67463-1c887a23","layer":"power","name":"Mineral Gap","state":"VA","detail_file":"data/details/power-plants-36.json","plant_id":"67463","capacity_mw":3.0,"status_group":"Operating","energy_sources":"SUN","type":"Power plant","is_nuclear":false}},{"type":"Feature","geometry":{"type":"Point","coordinates":[-80.699,37.183]},"properties":{"key":"59845-71d2f8ee","layer":"power","name":"New River","state":"VA","detail_file":"data/details/power-plants-32.json","plant_id":"59845","capacity_mw":5.4,"status_group":"Operating","energy_sources":"LFG","type":"Power plant","is_nuclear":false}},{"type":"Feature","geometry":{"type":"Point","coordinates":[-80.028,36.78]},"properties":{"key":"3834-b19d4758","layer":"power","name":"Philpott Lake","state":"VA","detail_file":"data/details/power-plants-41.json","plant_id":"3834","capacity_mw":14.0,"status_group":"Operating","energy_sources":"WAT","type":"Power plant","is_nuclear":false}},{"type":"Feature","geometry":{"type":"Point","coordinates":[-80.448,36.667]},"properties":{"key":"3825-698ca901","layer":"power","name":"Pinnacles","state":"VA","detail_file":"data/details/power-plants-56.json","plant_id":"3825","capacity_mw":11.8,"status_group":"Operating","energy_sources":"WAT","type":"Power plant","is_nuclear":false}},{"type":"Feature","geometry":{"type":"Point","coordinates":[-80.573,37.078]},"properties":{"key":"3827-b0bb9bf2","layer":"power","name":"Radford","state":"VA","detail_file":"data/details/power-plants-33.json","plant_id":"3827","capacity_mw":1.0,"status_group":"Operating","energy_sources":"WAT","type":"Power plant","is_nuclear":false}},{"type":"Feature","geometry":{"type":"Point","coordinates":[-80.543,37.18]},"properties":{"key":"52072-1063826b","layer":"power","name":"Radford Army Ammunition Plant","state":"VA","detail_file":"data/details/power-plants-35.json","plant_id":"52072","capacity_mw":18.0,"status_group":"Operating","energy_sources":"NG","type":"Power plant","is_nuclear":false}},{"type":"Feature","geometry":{"type":"Point","coordinates":[-80.885,36.709]},"properties":{"key":"67218-9674db02","layer":"power","name":"River Trail Solar, LLC","state":"VA","detail_file":"data/details/power-plants-14.json","plant_id":"67218","capacity_mw":20.0,"status_group":"Operating","energy_sources":"SUN","type":"Power plant","is_nuclear":false}},{"type":"Feature","geometry":{"type":"Point","coordinates":[-80.07,37.289]},"properties":{"key":"56519-6bf696ed","layer":"power","name":"Salem Electric Department","state":"VA","detail_file":"data/details/power-plants-19.json","plant_id":"56519","capacity_mw":1.3,"status_group":"Operating","energy_sources":"DFO","type":"Power plant","is_nuclear":false}},{"type":"Feature","geometry":{"type":"Point","coordinates":[-80.045,37.279]},"properties":{"key":"56289-bdb61f9b","layer":"power","name":"Salem Street Dept","state":"VA","detail_file":"data/details/power-plants-26.json","plant_id":"56289","capacity_mw":1.8,"status_group":"Operating","energy_sources":"DFO","type":"Power plant","is_nuclear":false}},{"type":"Feature","geometry":{"type":"Point","coordinates":[-80.077,37.288]},"properties":{"key":"56288-136228e5","layer":"power","name":"Salem Water Plant","state":"VA","detail_file":"data/details/power-plants-05.json","plant_id":"56288","capacity_mw":2.0,"status_group":"Operating","energy_sources":"DFO","type":"Power plant","is_nuclear":false}},{"type":"Feature","geometry":{"type":"Point","coordinates":[-82.338,36.916]},"properties":{"key":"56808-b3f15351","layer":"power","name":"Virginia City Hybrid Energy Center","state":"VA","detail_file":"data/details/power-plants-20.json","plant_id":"56808","capacity_mw":668.0,"status_group":"Operating","energy_sources":"BIT","type":"Power plant","is_nuclear":false}},{"type":"Feature","geometry":{"type":"Point","coordinates":[-80.421,37.232]},"properties":{"key":"56785-c9d6bd32","layer":"power","name":"Virginia Tech Power Plant","state":"VA","detail_file":"data/details/power-plants-38.json","plant_id":"56785","capacity_mw":6.3,"status_group":"Operating","energy_sources":"NG","type":"Power plant","is_nuclear":false}},{"type":"Feature","geometry":{"type":"Point","coordinates":[-82.104,36.664]},"properties":{"key":"55285-9013d0a9","layer":"power","name":"Wolf Hills Energy","state":"VA","detail_file":"data/details/power-plants-38.json","plant_id":"55285","capacity_mw":285.0,"status_group":"Operating","energy_sources":"NG","type":"Power plant","is_nuclear":false}},{"type":"Feature","geometry":{"type":"Point","coordinates":[-80.837,36.876]},"properties":{"key":"64448-1e4dda25","layer":"power","name":"Wythe County Solar","state":"VA","detail_file":"data/details/power-plants-49.json","plant_id":"64448","capacity_mw":75.0,"status_group":"Operating","energy_sources":"SUN","type":"Power plant","is_nuclear":false}},{"type":"Feature","geometry":{"type":"Point","coordinates":[-80.855,39.748]},"properties":{"key":"50491-64617ed8","layer":"power","name":"Axiall Natrium Plant","state":"WV","detail_file":"data/details/power-plants-08.json","plant_id":"50491","capacity_mw":115.5,"status_group":"Operating","energy_sources":"NG","type":"Power plant","is_nuclear":false}},{"type":"Feature","geometry":{"type":"Point","coordinates":[-81.826,38.915]},"properties":{"key":"69680-0106b136","layer":"power","name":"BHER Ravenswood Solar 1","state":"WV","detail_file":"data/details/power-plants-18.json","plant_id":"69680","capacity_mw":192.1,"status_group":"Operating","energy_sources":"MWH; SUN","type":"Power plant","is_nuclear":false}},{"type":"Feature","geometry":{"type":"Point","coordinates":[-80.493,38.088]},"properties":{"key":"57151-613fb055","layer":"power","name":"Beech Ridge Energy LLC","state":"WV","detail_file":"data/details/power-plants-63.json","plant_id":"57151","capacity_mw":100.5,"status_group":"Operating","energy_sources":"WND","type":"Power plant","is_nuclear":false}},{"type":"Feature","geometry":{"type":"Point","coordinates":[-80.493,38.088]},"properties":{"key":"60390-89529a9b","layer":"power","name":"Beech Ridge Energy Storage","state":"WV","detail_file":"data/details/power-plants-36.json","plant_id":"60390","capacity_mw":31.5,"status_group":"Operating","energy_sources":"MWH","type":"Power plant","is_nuclear":false}},{"type":"Feature","geometry":{"type":"Point","coordinates":[-80.613,38.112]},"properties":{"key":"62482-31fde25b","layer":"power","name":"Beech Ridge II Wind Energy Center","state":"WV","detail_file":"data/details/power-plants-42.json","plant_id":"62482","capacity_mw":56.2,"status_group":"Operating","energy_sources":"WND","type":"Power plant","is_nuclear":false}},{"type":"Feature","geometry":{"type":"Point","coordinates":[-81.737,39.119]},"properties":{"key":"7594-2f24b33f","layer":"power","name":"Belleville Dam","state":"WV","detail_file":"data/details/power-plants-14.json","plant_id":"7594","capacity_mw":42.0,"status_group":"Operating","energy_sources":"WAT","type":"Power plant","is_nuclear":false}},{"type":"Feature","geometry":{"type":"Point","coordinates":[-82.594,38.344]},"properties":{"key":"55284-1441cba7","layer":"power","name":"Big Sandy Peaker Plant","state":"WV","detail_file":"data/details/power-plants-06.json","plant_id":"55284","capacity_mw":353.4,"status_group":"Operating","energy_sources":"NG","type":"Power plant","is_nuclear":false}},{"type":"Feature","geometry":{"type":"Point","coordinates":[-82.534,38.368]},"properties":{"key":"55276-9af0bc7a","layer":"power","name":"Ceredo Generating Station","state":"WV","detail_file":"data/details/power-plants-56.json","plant_id":"55276","capacity_mw":519.0,"status_group":"Operating","energy_sources":"NG","type":"Power plant","is_nuclear":false}},{"type":"Feature","geometry":{"type":"Point","coordinates":[-80.332,39.384]},"properties":{"key":"3944-ecaeb273","layer":"power","name":"FirstEnergy Harrison Power Station","state":"WV","detail_file":"data/details/power-plants-14.json","plant_id":"3944","capacity_mw":2052.0,"status_group":"Operating","energy_sources":"RC","type":"Power plant","is_nuclear":false}},{"type":"Feature","geometry":{"type":"Point","coordinates":[-80.891,38.219]},"properties":{"key":"56333-eb4b5fb6","layer":"power","name":"Gauley River Power Partners","state":"WV","detail_file":"data/details/power-plants-35.json","plant_id":"56333","capacity_mw":80.0,"status_group":"Operating","energy_sources":"WAT","type":"Power plant","is_nuclear":false}},{"type":"Feature","geometry":{"type":"Point","coordinates":[-81.215,38.148]},"properties":{"key":"50010-8f4adc3d","layer":"power","name":"Glen Ferris Hydro","state":"WV","detail_file":"data/details/power-plants-19.json","plant_id":"50010","capacity_mw":6.2,"status_group":"Operating","energy_sources":"WAT","type":"Power plant","is_nuclear":false}},{"type":"Feature","geometry":{"type":"Point","coordinates":[-80.163,39.562]},"properties":{"key":"10151-b2ee9986","layer":"power","name":"Grant Town Power Plant","state":"WV","detail_file":"data/details/power-plants-27.json","plant_id":"10151","capacity_mw":95.7,"status_group":"Operating","energy_sources":"WC","type":"Power plant","is_nuclear":false}},{"type":"Feature","geometry":{"type":"Point","coordinates":[-81.175,38.148]},"properties":{"key":"50011-2362cb0c","layer":"power","name":"Hawks Nest Hydro","state":"WV","detail_file":"data/details/power-plants-31.json","plant_id":"50011","capacity_mw":102.0,"status_group":"Operating","energy_sources":"WAT","type":"Power plant","is_nuclear":false}},{"type":"Feature","geometry":{"type":"Point","coordinates":[-81.823,38.473]},"properties":{"key":"3935-9da04c0c","layer":"power","name":"John E Amos","state":"WV","detail_file":"data/details/power-plants-29.json","plant_id":"3935","capacity_mw":2932.6,"status_group":"Operating","energy_sources":"BIT","type":"Power plant","is_nuclear":false}},{"type":"Feature","geometry":{"type":"Point","coordinates":[-81.371,38.194]},"properties":{"key":"6560-3305c795","layer":"power","name":"London","state":"WV","detail_file":"data/details/power-plants-56.json","plant_id":"6560","capacity_mw":14.4,"status_group":"Operating","energy_sources":"WAT","type":"Power plant","is_nuclear":false}},{"type":"Feature","geometry":{"type":"Point","coordinates":[-81.57,38.253]},"properties":{"key":"6561-ca747c68","layer":"power","name":"Marmet","state":"WV","detail_file":"data/details/power-plants-24.json","plant_id":"6561","capacity_mw":14.4,"status_group":"Operating","energy_sources":"WAT","type":"Power plant","is_nuclear":false}},{"type":"Feature","geometry":{"type":"Point","coordinates":[-80.815,39.83]},"properties":{"key":"3948-c27d7558","layer":"power","name":"Mitchell (WV)","state":"WV","detail_file":"data/details/power-plants-35.json","plant_id":"3948","capacity_mw":1632.6,"status_group":"Operating","energy_sources":"BIT","type":"Power plant","is_nuclear":false}},{"type":"Feature","geometry":{"type":"Point","coordinates":[-81.934,38.979]},"properties":{"key":"6264-ca27eb31","layer":"power","name":"Mountaineer","state":"WV","detail_file":"data/details/power-plants-40.json","plant_id":"6264","capacity_mw":1300.0,"status_group":"Operating","energy_sources":"BIT","type":"Power plant","is_nuclear":false}},{"type":"Feature","geometry":{"type":"Point","coordinates":[-80.864,39.667]},"properties":{"key":"50036-6f153ffa","layer":"power","name":"New Martinsville Hannibal Hydro","state":"WV","detail_file":"data/details/power-plants-12.json","plant_id":"50036","capacity_mw":37.4,"status_group":"Operating","energy_sources":"WAT","type":"Power plant","is_nuclear":false}},{"type":"Feature","geometry":{"type":"Point","coordinates":[-81.162,37.816]},"properties":{"key":"63246-7618c03c","layer":"power","name":"New River Clean Energy","state":"WV","detail_file":"data/details/power-plants-06.json","plant_id":"63246","capacity_mw":3.2,"status_group":"Operating","energy_sources":"LFG","type":"Power plant","is_nuclear":false}},{"type":"Feature","geometry":{"type":"Point","coordinates":[-80.051,39.565]},"properties":{"key":"62386-67abc2d4","layer":"power","name":"Opekiska L&D Hydroelectric Project","state":"WV","detail_file":"data/details/power-plants-15.json","plant_id":"62386","capacity_mw":6.0,"status_group":"Planned","energy_sources":"WAT","type":"Power plant","is_nuclear":false}},{"type":"Feature","geometry":{"type":"Point","coordinates":[-81.364,39.333]},"properties":{"key":"55349-2d8c0683","layer":"power","name":"Pleasants Energy LLC","state":"WV","detail_file":"data/details/power-plants-52.json","plant_id":"55349","capacity_mw":382.8,"status_group":"Operating","energy_sources":"NG","type":"Power plant","is_nuclear":false}},{"type":"Feature","geometry":{"type":"Point","coordinates":[-81.294,39.367]},"properties":{"key":"6004-8551476c","layer":"power","name":"Pleasants Power Station","state":"WV","detail_file":"data/details/power-plants-57.json","plant_id":"6004","capacity_mw":1368.0,"status_group":"Operating","energy_sources":"BIT","type":"Power plant","is_nuclear":false}},{"type":"Feature","geometry":{"type":"Point","coordinates":[-82.179,38.68]},"properties":{"key":"69704-e1456d14","layer":"power","name":"R.C. Byrd L&D Hydroelectric Project","state":"WV","detail_file":"data/details/power-plants-51.json","plant_id":"69704","capacity_mw":28.8,"status_group":"Under construction","energy_sources":"WAT","type":"Power plant","is_nuclear":false}},{"type":"Feature","geometry":{"type":"Point","coordinates":[-80.094,39.539]},"properties":{"key":"66900-4950be1c","layer":"power","name":"Rivesville Solar","state":"WV","detail_file":"data/details/power-plants-53.json","plant_id":"66900","capacity_mw":5.5,"status_group":"Operating","energy_sources":"SUN","type":"Power plant","is_nuclear":false}},{"type":"Feature","geometry":{"type":"Point","coordinates":[-80.009,39.279]},"properties":{"key":"64171-a7ff5cf6","layer":"power","name":"Tygart Hydropower","state":"WV","detail_file":"data/details/power-plants-40.json","plant_id":"64171","capacity_mw":30.0,"status_group":"Under construction","energy_sources":"WAT","type":"Power plant","is_nuclear":false}},{"type":"Feature","geometry":{"type":"Point","coordinates":[-81.318,39.358]},"properties":{"key":"57401-cfe54ea3","layer":"power","name":"Willow Island Hydroelectric Plant","state":"WV","detail_file":"data/details/power-plants-27.json","plant_id":"57401","capacity_mw":44.0,"status_group":"Operating","energy_sources":"WAT","type":"Power plant","is_nuclear":false}},{"type":"Feature","geometry":{"type":"Point","coordinates":[-81.914,38.527]},"properties":{"key":"6562-03c55eab","layer":"power","name":"Winfield","state":"WV","detail_file":"data/details/power-plants-62.json","plant_id":"6562","capacity_mw":24.5,"status_group":"Operating","energy_sources":"WAT","type":"Power plant","is_nuclear":false}},{"type":"Feature","geometry":{"type":"Point","coordinates":[-80.323,39.287]},"properties":{"key":"60206-c7319c2b","layer":"power","name":"Wolf Summit Energy","state":"WV","detail_file":"data/details/power-plants-17.json","plant_id":"60206","capacity_mw":578.9,"status_group":"Under construction","energy_sources":"NG","type":"Power plant","is_nuclear":false}}]}