{"type":"FeatureCollection","features":[{"type":"Feature","geometry":{"type":"Point","coordinates":[-164.654,62.683]},"properties":{"key":"57053-b9b4f698","layer":"power","name":"Alakanuk","state":"AK","detail_file":"data/details/power-plants-26.json","plant_id":"57053","capacity_mw":0.8,"status_group":"Operating","energy_sources":"DFO","type":"Power plant","is_nuclear":false}},{"type":"Feature","geometry":{"type":"Point","coordinates":[-165.59,61.525]},"properties":{"key":"6311-d2cdc023","layer":"power","name":"Chevak","state":"AK","detail_file":"data/details/power-plants-24.json","plant_id":"6311","capacity_mw":1.8,"status_group":"Operating","energy_sources":"DFO","type":"Power plant","is_nuclear":false}},{"type":"Feature","geometry":{"type":"Point","coordinates":[-164.531,62.778]},"properties":{"key":"6314-83a362e8","layer":"power","name":"Emmonak","state":"AK","detail_file":"data/details/power-plants-61.json","plant_id":"6314","capacity_mw":1.4,"status_group":"Operating","energy_sources":"DFO","type":"Power plant","is_nuclear":false}},{"type":"Feature","geometry":{"type":"Point","coordinates":[-166.102,61.531]},"properties":{"key":"6319-15508c4e","layer":"power","name":"Hooper Bay","state":"AK","detail_file":"data/details/power-plants-60.json","plant_id":"6319","capacity_mw":2.2,"status_group":"Operating","energy_sources":"DFO","type":"Power plant","is_nuclear":false}},{"type":"Feature","geometry":{"type":"Point","coordinates":[-165.582,61.843]},"properties":{"key":"57056-f1611781","layer":"power","name":"Scammon Bay","state":"AK","detail_file":"data/details/power-plants-36.json","plant_id":"57056","capacity_mw":1.3,"status_group":"Operating","energy_sources":"DFO","type":"Power plant","is_nuclear":false}},{"type":"Feature","geometry":{"type":"Point","coordinates":[-165.109,60.53]},"properties":{"key":"57067-6ff470e8","layer":"power","name":"Toksook Bay","state":"AK","detail_file":"data/details/power-plants-58.json","plant_id":"57067","capacity_mw":2.1,"status_group":"Operating","energy_sources":"DFO","type":"Power plant","is_nuclear":false}}]}