{"type":"FeatureCollection","features":[{"type":"Feature","geometry":{"type":"Point","coordinates":[-124.203,40.8]},"properties":{"key":"10052-e0b45e69","layer":"power","name":"Fairhaven Power","state":"CA","detail_file":"data/details/power-plants-37.json","plant_id":"10052","capacity_mw":18.8,"status_group":"Operating","energy_sources":"WDS","type":"Power plant","is_nuclear":false}},{"type":"Feature","geometry":{"type":"Point","coordinates":[-124.101,40.882]},"properties":{"key":"67288-a73e258a","layer":"power","name":"Foster Clean Power A","state":"CA","detail_file":"data/details/power-plants-62.json","plant_id":"67288","capacity_mw":4.3,"status_group":"Operating","energy_sources":"MWH; SUN","type":"Power plant","is_nuclear":false}},{"type":"Feature","geometry":{"type":"Point","coordinates":[-124.101,40.882]},"properties":{"key":"67859-78c26934","layer":"power","name":"Foster Clean Power B","state":"CA","detail_file":"data/details/power-plants-17.json","plant_id":"67859","capacity_mw":5.2,"status_group":"Operating","energy_sources":"MWH; SUN","type":"Power plant","is_nuclear":false}},{"type":"Feature","geometry":{"type":"Point","coordinates":[-124.21,40.742]},"properties":{"key":"246-dbbba91e","layer":"power","name":"Humboldt Bay","state":"CA","detail_file":"data/details/power-plants-62.json","plant_id":"246","capacity_mw":167.0,"status_group":"Operating","energy_sources":"NG","type":"Power plant","is_nuclear":false}},{"type":"Feature","geometry":{"type":"Point","coordinates":[-124.101,40.473]},"properties":{"key":"50049-fa846978","layer":"power","name":"Humboldt Sawmill Company","state":"CA","detail_file":"data/details/power-plants-47.json","plant_id":"50049","capacity_mw":32.5,"status_group":"Operating","energy_sources":"WDS","type":"Power plant","is_nuclear":false}},{"type":"Feature","geometry":{"type":"Point","coordinates":[-124.104,40.967]},"properties":{"key":"64766-1524667e","layer":"power","name":"Redwood Coast Airport Microgrid","state":"CA","detail_file":"data/details/power-plants-04.json","plant_id":"64766","capacity_mw":4.4,"status_group":"Operating","energy_sources":"MWH; SUN","type":"Power plant","is_nuclear":false}}]}