{"type":"FeatureCollection","features":[{"type":"Feature","geometry":{"type":"Point","coordinates":[-136.22,57.957]},"properties":{"key":"6702-004e60c6","layer":"power","name":"Pelican","state":"AK","detail_file":"data/details/power-plants-33.json","plant_id":"6702","capacity_mw":2.4,"status_group":"Operating","energy_sources":"DFO; WAT","type":"Power plant","is_nuclear":false}},{"type":"Feature","geometry":{"type":"Point","coordinates":[-139.724,59.545]},"properties":{"key":"6637-0b4442f5","layer":"power","name":"Yakutat","state":"AK","detail_file":"data/details/power-plants-40.json","plant_id":"6637","capacity_mw":3.8,"status_group":"Operating","energy_sources":"DFO","type":"Power plant","is_nuclear":false}}]}