{"type":"FeatureCollection","features":[{"type":"Feature","geometry":{"type":"Point","coordinates":[-102.271,30.993]},"properties":{"key":"59206-b034a43b","layer":"power","name":"Alamo 6","state":"TX","detail_file":"data/details/power-plants-50.json","plant_id":"59206","capacity_mw":105.0,"status_group":"Operating","energy_sources":"SUN","type":"Power plant","is_nuclear":false}},{"type":"Feature","geometry":{"type":"Point","coordinates":[-102.873,30.902]},"properties":{"key":"69453-772c14d1","layer":"power","name":"Alamo Clean Energy Center (BESS)","state":"TX","detail_file":"data/details/power-plants-35.json","plant_id":"69453","capacity_mw":10.1,"status_group":"Operating","energy_sources":"MWH","type":"Power plant","is_nuclear":false}},{"type":"Feature","geometry":{"type":"Point","coordinates":[-101.06,29.45]},"properties":{"key":"6128-880607cb","layer":"power","name":"Amistad Dam & Power","state":"TX","detail_file":"data/details/power-plants-17.json","plant_id":"6128","capacity_mw":66.0,"status_group":"Operating","energy_sources":"WAT","type":"Power plant","is_nuclear":false}},{"type":"Feature","geometry":{"type":"Point","coordinates":[-100.209,29.235]},"properties":{"key":"58000-0eecb544","layer":"power","name":"Anacacho Wind Farm, LLC","state":"TX","detail_file":"data/details/power-plants-22.json","plant_id":"58000","capacity_mw":99.8,"status_group":"Operating","energy_sources":"WND","type":"Power plant","is_nuclear":false}},{"type":"Feature","geometry":{"type":"Point","coordinates":[-100.58,31.51]},"properties":{"key":"68145-4762470c","layer":"power","name":"Angelo Solar","state":"TX","detail_file":"data/details/power-plants-17.json","plant_id":"68145","capacity_mw":195.0,"status_group":"Operating","energy_sources":"SUN","type":"Power plant","is_nuclear":false}},{"type":"Feature","geometry":{"type":"Point","coordinates":[-100.584,31.514]},"properties":{"key":"68146-245c5908","layer":"power","name":"Angelo Storage","state":"TX","detail_file":"data/details/power-plants-27.json","plant_id":"68146","capacity_mw":100.0,"status_group":"Operating","energy_sources":"MWH","type":"Power plant","is_nuclear":false}},{"type":"Feature","geometry":{"type":"Point","coordinates":[-100.805,29.806]},"properties":{"key":"65588-142b6d12","layer":"power","name":"Antlia","state":"TX","detail_file":"data/details/power-plants-04.json","plant_id":"65588","capacity_mw":70.0,"status_group":"Operating","energy_sources":"MWH","type":"Power plant","is_nuclear":false}},{"type":"Feature","geometry":{"type":"Point","coordinates":[-101.832,31.157]},"properties":{"key":"65335-71f24d06","layer":"power","name":"Appaloosa Run Wind","state":"TX","detail_file":"data/details/power-plants-03.json","plant_id":"65335","capacity_mw":171.8,"status_group":"Operating","energy_sources":"WND","type":"Power plant","is_nuclear":false}},{"type":"Feature","geometry":{"type":"Point","coordinates":[-102.364,31.676]},"properties":{"key":"69318-8c311b7f","layer":"power","name":"Apple BESS","state":"TX","detail_file":"data/details/power-plants-32.json","plant_id":"69318","capacity_mw":9.9,"status_group":"Under construction","energy_sources":"MWH","type":"Power plant","is_nuclear":false}},{"type":"Feature","geometry":{"type":"Point","coordinates":[-100.697,31.793]},"properties":{"key":"63209-4b24a05d","layer":"power","name":"Aviator Wind","state":"TX","detail_file":"data/details/power-plants-25.json","plant_id":"63209","capacity_mw":525.0,"status_group":"Operating","energy_sources":"WND","type":"Power plant","is_nuclear":false}},{"type":"Feature","geometry":{"type":"Point","coordinates":[-102.916,30.905]},"properties":{"key":"65860-2ab93bfe","layer":"power","name":"Avila","state":"TX","detail_file":"data/details/power-plants-21.json","plant_id":"65860","capacity_mw":160.0,"status_group":"Operating","energy_sources":"MWH","type":"Power plant","is_nuclear":false}},{"type":"Feature","geometry":{"type":"Point","coordinates":[-103.35,30.96]},"properties":{"key":"58710-b0c89c62","layer":"power","name":"Barilla Solar","state":"TX","detail_file":"data/details/power-plants-08.json","plant_id":"58710","capacity_mw":30.2,"status_group":"Operating","energy_sources":"SUN","type":"Power plant","is_nuclear":false}},{"type":"Feature","geometry":{"type":"Point","coordinates":[-101.582,31.727]},"properties":{"key":"59972-d2d2e8bb","layer":"power","name":"Bearkat","state":"TX","detail_file":"data/details/power-plants-46.json","plant_id":"59972","capacity_mw":196.7,"status_group":"Operating","energy_sources":"WND","type":"Power plant","is_nuclear":false}},{"type":"Feature","geometry":{"type":"Point","coordinates":[-101.85,30.982]},"properties":{"key":"68873-ada83679","layer":"power","name":"Big Sampson Wind","state":"TX","detail_file":"data/details/power-plants-36.json","plant_id":"68873","capacity_mw":265.0,"status_group":"Under construction","energy_sources":"WND","type":"Power plant","is_nuclear":false}},{"type":"Feature","geometry":{"type":"Point","coordinates":[-102.186,30.813]},"properties":{"key":"68768-423e7df7","layer":"power","name":"Blackwelder Ranch Wind","state":"TX","detail_file":"data/details/power-plants-36.json","plant_id":"68768","capacity_mw":110.4,"status_group":"Planned","energy_sources":"WND","type":"Power plant","is_nuclear":false}},{"type":"Feature","geometry":{"type":"Point","coordinates":[-101.364,30.234]},"properties":{"key":"67542-808ab1a6","layer":"power","name":"Blue Hills Wind Project","state":"TX","detail_file":"data/details/power-plants-01.json","plant_id":"67542","capacity_mw":276.0,"status_group":"Under construction","energy_sources":"WND","type":"Power plant","is_nuclear":false}},{"type":"Feature","geometry":{"type":"Point","coordinates":[-100.828,31.87]},"properties":{"key":"60789-7d2090df","layer":"power","name":"Bluebell Solar","state":"TX","detail_file":"data/details/power-plants-06.json","plant_id":"60789","capacity_mw":30.0,"status_group":"Operating","energy_sources":"SUN","type":"Power plant","is_nuclear":false}},{"type":"Feature","geometry":{"type":"Point","coordinates":[-100.825,31.888]},"properties":{"key":"63351-9554a2b9","layer":"power","name":"Bluebell Solar II","state":"TX","detail_file":"data/details/power-plants-47.json","plant_id":"63351","capacity_mw":115.0,"status_group":"Operating","energy_sources":"SUN","type":"Power plant","is_nuclear":false}},{"type":"Feature","geometry":{"type":"Point","coordinates":[-101.228,31.869]},"properties":{"key":"68459-21c70e2f","layer":"power","name":"Bob Creek Wind, LLC","state":"TX","detail_file":"data/details/power-plants-18.json","plant_id":"68459","capacity_mw":175.0,"status_group":"Planned","energy_sources":"WND","type":"Power plant","is_nuclear":false}},{"type":"Feature","geometry":{"type":"Point","coordinates":[-102.551,30.576]},"properties":{"key":"60044-9ba2d786","layer":"power","name":"Buckthorn Westex","state":"TX","detail_file":"data/details/power-plants-34.json","plant_id":"60044","capacity_mw":154.0,"status_group":"Operating","energy_sources":"SUN","type":"Power plant","is_nuclear":false}},{"type":"Feature","geometry":{"type":"Point","coordinates":[-103.487,31.506]},"properties":{"key":"69566-c56f7e8e","layer":"power","name":"CPV Basin Ranch Energy Center","state":"TX","detail_file":"data/details/power-plants-13.json","plant_id":"69566","capacity_mw":1445.0,"status_group":"Under construction","energy_sources":"NG","type":"Power plant","is_nuclear":false}},{"type":"Feature","geometry":{"type":"Point","coordinates":[-100.028,31.112]},"properties":{"key":"61001-a08156fe","layer":"power","name":"Cactus Flats Wind Energy Project","state":"TX","detail_file":"data/details/power-plants-51.json","plant_id":"61001","capacity_mw":148.4,"status_group":"Operating","energy_sources":"WND","type":"Power plant","is_nuclear":false}},{"type":"Feature","geometry":{"type":"Point","coordinates":[-100.198,29.27]},"properties":{"key":"67581-d6cd2ad0","layer":"power","name":"Cairos Solar and Storage","state":"TX","detail_file":"data/details/power-plants-42.json","plant_id":"67581","capacity_mw":230.6,"status_group":"Planned","energy_sources":"MWH; SUN","type":"Power plant","is_nuclear":false}},{"type":"Feature","geometry":{"type":"Point","coordinates":[-101.019,31.952]},"properties":{"key":"56763-f1870e52","layer":"power","name":"Capricorn Ridge Wind LLC","state":"TX","detail_file":"data/details/power-plants-32.json","plant_id":"56763","capacity_mw":662.5,"status_group":"Operating","energy_sources":"WND","type":"Power plant","is_nuclear":false}},{"type":"Feature","geometry":{"type":"Point","coordinates":[-102.272,31.255]},"properties":{"key":"60123-c6c8a76c","layer":"power","name":"Castle Gap Solar Hybrid","state":"TX","detail_file":"data/details/power-plants-13.json","plant_id":"60123","capacity_mw":189.9,"status_group":"Operating","energy_sources":"MWH; SUN","type":"Power plant","is_nuclear":false}},{"type":"Feature","geometry":{"type":"Point","coordinates":[-103.451,31.515]},"properties":{"key":"69267-178dcbe0","layer":"power","name":"Cedarvale Gas","state":"TX","detail_file":"data/details/power-plants-34.json","plant_id":"69267","capacity_mw":10.0,"status_group":"Operating","energy_sources":"NG","type":"Power plant","is_nuclear":false}},{"type":"Feature","geometry":{"type":"Point","coordinates":[-103.452,31.514]},"properties":{"key":"65810-75c83600","layer":"power","name":"Cedarville (TX)","state":"TX","detail_file":"data/details/power-plants-59.json","plant_id":"65810","capacity_mw":9.9,"status_group":"Operating","energy_sources":"MWH","type":"Power plant","is_nuclear":false}},{"type":"Feature","geometry":{"type":"Point","coordinates":[-101.738,31.872]},"properties":{"key":"67917-d3103e9b","layer":"power","name":"Champaign BESS, LLC","state":"TX","detail_file":"data/details/power-plants-51.json","plant_id":"67917","capacity_mw":202.7,"status_group":"Planned","energy_sources":"MWH","type":"Power plant","is_nuclear":false}},{"type":"Feature","geometry":{"type":"Point","coordinates":[-100.764,31.862]},"properties":{"key":"68668-77283532","layer":"power","name":"Coke BESS","state":"TX","detail_file":"data/details/power-plants-55.json","plant_id":"68668","capacity_mw":220.0,"status_group":"Planned","energy_sources":"MWH","type":"Power plant","is_nuclear":false}},{"type":"Feature","geometry":{"type":"Point","coordinates":[-100.255,31.214]},"properties":{"key":"65793-73aee5da","layer":"power","name":"Concho Valley Solar, LLC","state":"TX","detail_file":"data/details/power-plants-16.json","plant_id":"65793","capacity_mw":172.8,"status_group":"Operating","energy_sources":"SUN","type":"Power plant","is_nuclear":false}},{"type":"Feature","geometry":{"type":"Point","coordinates":[-103.494,31.401]},"properties":{"key":"69422-ece56248","layer":"power","name":"County Road BESS","state":"TX","detail_file":"data/details/power-plants-61.json","plant_id":"69422","capacity_mw":9.9,"status_group":"Under construction","energy_sources":"MWH","type":"Power plant","is_nuclear":false}},{"type":"Feature","geometry":{"type":"Point","coordinates":[-103.113,31.275]},"properties":{"key":"69268-97d74771","layer":"power","name":"Coyanosa Gas","state":"TX","detail_file":"data/details/power-plants-21.json","plant_id":"69268","capacity_mw":10.0,"status_group":"Under construction","energy_sources":"NG","type":"Power plant","is_nuclear":false}},{"type":"Feature","geometry":{"type":"Point","coordinates":[-103.63,31.395]},"properties":{"key":"65811-e3d40b14","layer":"power","name":"Coyote Springs (TX)","state":"TX","detail_file":"data/details/power-plants-43.json","plant_id":"65811","capacity_mw":9.9,"status_group":"Operating","energy_sources":"MWH","type":"Power plant","is_nuclear":false}},{"type":"Feature","geometry":{"type":"Point","coordinates":[-103.63,31.395]},"properties":{"key":"65811-b728d5f6","layer":"power","name":"Coyote Springs (TX)","state":"TX","detail_file":"data/details/power-plants-24.json","plant_id":"65811","capacity_mw":9.9,"status_group":"Under construction","energy_sources":"DFO","type":"Power plant","is_nuclear":false}},{"type":"Feature","geometry":{"type":"Point","coordinates":[-102.312,31.254]},"properties":{"key":"63519-f7408795","layer":"power","name":"Crane Solar Project","state":"TX","detail_file":"data/details/power-plants-03.json","plant_id":"63519","capacity_mw":150.0,"status_group":"Operating","energy_sources":"SUN","type":"Power plant","is_nuclear":false}},{"type":"Feature","geometry":{"type":"Point","coordinates":[-102.317,31.192]},"properties":{"key":"66009-3c20832e","layer":"power","name":"Crossett Power Management LLC","state":"TX","detail_file":"data/details/power-plants-39.json","plant_id":"66009","capacity_mw":203.0,"status_group":"Operating","energy_sources":"MWH","type":"Power plant","is_nuclear":false}},{"type":"Feature","geometry":{"type":"Point","coordinates":[-102.087,30.918]},"properties":{"key":"55992-fb984efc","layer":"power","name":"Desert Sky","state":"TX","detail_file":"data/details/power-plants-60.json","plant_id":"55992","capacity_mw":167.7,"status_group":"Operating","energy_sources":"WND","type":"Power plant","is_nuclear":false}},{"type":"Feature","geometry":{"type":"Point","coordinates":[-100.21,29.282]},"properties":{"key":"66421-05255567","layer":"power","name":"Despain Solar","state":"TX","detail_file":"data/details/power-plants-18.json","plant_id":"66421","capacity_mw":236.2,"status_group":"Under construction","energy_sources":"SUN","type":"Power plant","is_nuclear":false}},{"type":"Feature","geometry":{"type":"Point","coordinates":[-102.85,30.919]},"properties":{"key":"69407-bc46cc3e","layer":"power","name":"Dogfish BESS","state":"TX","detail_file":"data/details/power-plants-09.json","plant_id":"69407","capacity_mw":75.0,"status_group":"Operating","energy_sources":"MWH","type":"Power plant","is_nuclear":false}},{"type":"Feature","geometry":{"type":"Point","coordinates":[-100.552,28.83]},"properties":{"key":"3437-a74297c7","layer":"power","name":"Eagle Pass","state":"TX","detail_file":"data/details/power-plants-20.json","plant_id":"3437","capacity_mw":9.6,"status_group":"Operating","energy_sources":"WAT","type":"Power plant","is_nuclear":false}},{"type":"Feature","geometry":{"type":"Point","coordinates":[-102.282,31.001]},"properties":{"key":"60436-31fce229","layer":"power","name":"East Pecos Solar","state":"TX","detail_file":"data/details/power-plants-20.json","plant_id":"60436","capacity_mw":118.5,"status_group":"Operating","energy_sources":"SUN","type":"Power plant","is_nuclear":false}},{"type":"Feature","geometry":{"type":"Point","coordinates":[-103.499,31.428]},"properties":{"key":"69322-91262202","layer":"power","name":"Elm Street BESS","state":"TX","detail_file":"data/details/power-plants-56.json","plant_id":"69322","capacity_mw":9.9,"status_group":"Under construction","energy_sources":"MWH","type":"Power plant","is_nuclear":false}},{"type":"Feature","geometry":{"type":"Point","coordinates":[-102.36,31.093]},"properties":{"key":"63233-01930643","layer":"power","name":"Emerald Grove","state":"TX","detail_file":"data/details/power-plants-01.json","plant_id":"63233","capacity_mw":108.0,"status_group":"Operating","energy_sources":"SUN","type":"Power plant","is_nuclear":false}},{"type":"Feature","geometry":{"type":"Point","coordinates":[-101.141,29.746]},"properties":{"key":"68334-4a6b5011","layer":"power","name":"Evans Creek Energy Storage Project","state":"TX","detail_file":"data/details/power-plants-00.json","plant_id":"68334","capacity_mw":103.0,"status_group":"Under construction","energy_sources":"MWH","type":"Power plant","is_nuclear":false}},{"type":"Feature","geometry":{"type":"Point","coordinates":[-103.795,31.262]},"properties":{"key":"65813-0de3a01c","layer":"power","name":"Faulkner","state":"TX","detail_file":"data/details/power-plants-62.json","plant_id":"65813","capacity_mw":9.9,"status_group":"Operating","energy_sources":"MWH","type":"Power plant","is_nuclear":false}},{"type":"Feature","geometry":{"type":"Point","coordinates":[-103.362,31.197]},"properties":{"key":"64915-71cfb126","layer":"power","name":"Flower Valley I","state":"TX","detail_file":"data/details/power-plants-06.json","plant_id":"64915","capacity_mw":9.9,"status_group":"Operating","energy_sources":"MWH","type":"Power plant","is_nuclear":false}},{"type":"Feature","geometry":{"type":"Point","coordinates":[-103.362,31.197]},"properties":{"key":"66007-60ec9ae0","layer":"power","name":"Flower Valley II","state":"TX","detail_file":"data/details/power-plants-55.json","plant_id":"66007","capacity_mw":101.0,"status_group":"Operating","energy_sources":"MWH","type":"Power plant","is_nuclear":false}},{"type":"Feature","geometry":{"type":"Point","coordinates":[-100.403,28.7]},"properties":{"key":"67752-7c834949","layer":"power","name":"Fort Duncan BESS","state":"TX","detail_file":"data/details/power-plants-42.json","plant_id":"67752","capacity_mw":102.6,"status_group":"Operating","energy_sources":"MWH","type":"Power plant","is_nuclear":false}},{"type":"Feature","geometry":{"type":"Point","coordinates":[-102.883,30.891]},"properties":{"key":"69455-24f7ae0f","layer":"power","name":"Fort Stockton Clean Energy Center (BESS)","state":"TX","detail_file":"data/details/power-plants-32.json","plant_id":"69455","capacity_mw":10.1,"status_group":"Operating","energy_sources":"MWH","type":"Power plant","is_nuclear":false}},{"type":"Feature","geometry":{"type":"Point","coordinates":[-102.162,31.928]},"properties":{"key":"69628-7666ad9a","layer":"power","name":"GBG SOLAR","state":"TX","detail_file":"data/details/power-plants-48.json","plant_id":"69628","capacity_mw":22.2,"status_group":"Under construction","energy_sources":"SUN","type":"Power plant","is_nuclear":false}},{"type":"Feature","geometry":{"type":"Point","coordinates":[-101.469,31.867]},"properties":{"key":"66791-e22094f2","layer":"power","name":"Garden City East BESS","state":"TX","detail_file":"data/details/power-plants-28.json","plant_id":"66791","capacity_mw":9.9,"status_group":"Operating","energy_sources":"MWH","type":"Power plant","is_nuclear":false}},{"type":"Feature","geometry":{"type":"Point","coordinates":[-101.78,30.664]},"properties":{"key":"68428-756b3325","layer":"power","name":"Gatsby Energy Storage Project","state":"TX","detail_file":"data/details/power-plants-04.json","plant_id":"68428","capacity_mw":103.4,"status_group":"Under construction","energy_sources":"MWH","type":"Power plant","is_nuclear":false}},{"type":"Feature","geometry":{"type":"Point","coordinates":[-100.791,31.952]},"properties":{"key":"56754-291532c3","layer":"power","name":"Goat Wind LP","state":"TX","detail_file":"data/details/power-plants-49.json","plant_id":"56754","capacity_mw":149.6,"status_group":"Operating","energy_sources":"WND","type":"Power plant","is_nuclear":false}},{"type":"Feature","geometry":{"type":"Point","coordinates":[-102.635,31.975]},"properties":{"key":"65542-a8ae3b50","layer":"power","name":"Goldsmith","state":"TX","detail_file":"data/details/power-plants-51.json","plant_id":"65542","capacity_mw":9.0,"status_group":"Operating","energy_sources":"DFO","type":"Power plant","is_nuclear":false}},{"type":"Feature","geometry":{"type":"Point","coordinates":[-103.024,31.037]},"properties":{"key":"65814-a8a34354","layer":"power","name":"Gomez","state":"TX","detail_file":"data/details/power-plants-40.json","plant_id":"65814","capacity_mw":9.9,"status_group":"Operating","energy_sources":"MWH","type":"Power plant","is_nuclear":false}},{"type":"Feature","geometry":{"type":"Point","coordinates":[-102.606,31.104]},"properties":{"key":"67006-6d452905","layer":"power","name":"Greasewood II LLC","state":"TX","detail_file":"data/details/power-plants-61.json","plant_id":"67006","capacity_mw":306.0,"status_group":"Operating","energy_sources":"SUN","type":"Power plant","is_nuclear":false}},{"type":"Feature","geometry":{"type":"Point","coordinates":[-102.488,31.031]},"properties":{"key":"62804-6c3921f3","layer":"power","name":"Greasewood Solar","state":"TX","detail_file":"data/details/power-plants-34.json","plant_id":"62804","capacity_mw":255.0,"status_group":"Operating","energy_sources":"SUN","type":"Power plant","is_nuclear":false}},{"type":"Feature","geometry":{"type":"Point","coordinates":[-102.186,30.813]},"properties":{"key":"68767-7973014f","layer":"power","name":"Greenalia Solar Power Blackwelder Ranch","state":"TX","detail_file":"data/details/power-plants-11.json","plant_id":"68767","capacity_mw":199.7,"status_group":"Planned","energy_sources":"SUN","type":"Power plant","is_nuclear":false}},{"type":"Feature","geometry":{"type":"Point","coordinates":[-100.849,29.376]},"properties":{"key":"66782-19bfda94","layer":"power","name":"Hamilton BESS","state":"TX","detail_file":"data/details/power-plants-46.json","plant_id":"66782","capacity_mw":9.9,"status_group":"Operating","energy_sources":"MWH","type":"Power plant","is_nuclear":false}},{"type":"Feature","geometry":{"type":"Point","coordinates":[-102.855,30.916]},"properties":{"key":"68580-fc88438e","layer":"power","name":"Headcamp BESS","state":"TX","detail_file":"data/details/power-plants-63.json","plant_id":"68580","capacity_mw":150.0,"status_group":"Under construction","energy_sources":"MWH","type":"Power plant","is_nuclear":false}},{"type":"Feature","geometry":{"type":"Point","coordinates":[-101.881,31.172]},"properties":{"key":"62562-4c5b4bfc","layer":"power","name":"High Lonesome Wind Power, LLC Hybrid","state":"TX","detail_file":"data/details/power-plants-63.json","plant_id":"62562","capacity_mw":562.8,"status_group":"Operating","energy_sources":"MWH; WND","type":"Power plant","is_nuclear":false}},{"type":"Feature","geometry":{"type":"Point","coordinates":[-103.451,30.496]},"properties":{"key":"66006-605dc9e5","layer":"power","name":"House Mountain","state":"TX","detail_file":"data/details/power-plants-63.json","plant_id":"66006","capacity_mw":73.2,"status_group":"Operating","energy_sources":"MWH","type":"Power plant","is_nuclear":false}},{"type":"Feature","geometry":{"type":"Point","coordinates":[-102.29,30.993]},"properties":{"key":"65490-fd183dd2","layer":"power","name":"Hydra","state":"TX","detail_file":"data/details/power-plants-21.json","plant_id":"65490","capacity_mw":200.0,"status_group":"Operating","energy_sources":"MWH","type":"Power plant","is_nuclear":false}},{"type":"Feature","geometry":{"type":"Point","coordinates":[-102.598,31.716]},"properties":{"key":"66790-9b0da508","layer":"power","name":"Judkins BESS","state":"TX","detail_file":"data/details/power-plants-61.json","plant_id":"66790","capacity_mw":9.9,"status_group":"Operating","energy_sources":"MWH","type":"Power plant","is_nuclear":false}},{"type":"Feature","geometry":{"type":"Point","coordinates":[-102.123,31.236]},"properties":{"key":"69755-f77506e2","layer":"power","name":"King Mountain Solar","state":"TX","detail_file":"data/details/power-plants-07.json","plant_id":"69755","capacity_mw":175.0,"status_group":"Under construction","energy_sources":"SUN","type":"Power plant","is_nuclear":false}},{"type":"Feature","geometry":{"type":"Point","coordinates":[-102.242,31.209]},"properties":{"key":"55581-72f4734c","layer":"power","name":"King Mountain Wind Ranch 1","state":"TX","detail_file":"data/details/power-plants-04.json","plant_id":"55581","capacity_mw":278.0,"status_group":"Operating","energy_sources":"WND","type":"Power plant","is_nuclear":false}},{"type":"Feature","geometry":{"type":"Point","coordinates":[-101.299,31.73]},"properties":{"key":"65162-16e6a61e","layer":"power","name":"Lacy Creek Wind Energy Center","state":"TX","detail_file":"data/details/power-plants-00.json","plant_id":"65162","capacity_mw":301.3,"status_group":"Operating","energy_sources":"WND","type":"Power plant","is_nuclear":false}},{"type":"Feature","geometry":{"type":"Point","coordinates":[-100.679,31.085]},"properties":{"key":"57153-a317dcb6","layer":"power","name":"Langford Wind Power","state":"TX","detail_file":"data/details/power-plants-04.json","plant_id":"57153","capacity_mw":150.0,"status_group":"Operating","energy_sources":"WND","type":"Power plant","is_nuclear":false}},{"type":"Feature","geometry":{"type":"Point","coordinates":[-100.623,31.049]},"properties":{"key":"61782-d72b8c8f","layer":"power","name":"Live Oak Wind Project","state":"TX","detail_file":"data/details/power-plants-43.json","plant_id":"61782","capacity_mw":199.5,"status_group":"Operating","energy_sources":"WND","type":"Power plant","is_nuclear":false}},{"type":"Feature","geometry":{"type":"Point","coordinates":[-103.25,31.595]},"properties":{"key":"65831-984b0646","layer":"power","name":"Lonestar","state":"TX","detail_file":"data/details/power-plants-48.json","plant_id":"65831","capacity_mw":9.9,"status_group":"Operating","energy_sources":"MWH","type":"Power plant","is_nuclear":false}},{"type":"Feature","geometry":{"type":"Point","coordinates":[-103.653,31.04]},"properties":{"key":"69350-04ec9316","layer":"power","name":"Matta Power Station","state":"TX","detail_file":"data/details/power-plants-53.json","plant_id":"69350","capacity_mw":10.0,"status_group":"Operating","energy_sources":"MWH","type":"Power plant","is_nuclear":false}},{"type":"Feature","geometry":{"type":"Point","coordinates":[-101.675,31.754]},"properties":{"key":"63342-7e76bb50","layer":"power","name":"McCrae Wind Energy II","state":"TX","detail_file":"data/details/power-plants-16.json","plant_id":"63342","capacity_mw":162.1,"status_group":"Under construction","energy_sources":"WND","type":"Power plant","is_nuclear":false}},{"type":"Feature","geometry":{"type":"Point","coordinates":[-102.316,31.194]},"properties":{"key":"68581-ee3a603c","layer":"power","name":"Mendoza Trail BESS","state":"TX","detail_file":"data/details/power-plants-62.json","plant_id":"68581","capacity_mw":200.0,"status_group":"Under construction","energy_sources":"MWH","type":"Power plant","is_nuclear":false}},{"type":"Feature","geometry":{"type":"Point","coordinates":[-102.224,30.996]},"properties":{"key":"61368-bc14a3e8","layer":"power","name":"Midway Solar - TX","state":"TX","detail_file":"data/details/power-plants-35.json","plant_id":"61368","capacity_mw":182.0,"status_group":"Operating","energy_sources":"SUN","type":"Power plant","is_nuclear":false}},{"type":"Feature","geometry":{"type":"Point","coordinates":[-102.431,31.922]},"properties":{"key":"65544-8997fbae","layer":"power","name":"N. Mary Francis","state":"TX","detail_file":"data/details/power-plants-62.json","plant_id":"65544","capacity_mw":9.0,"status_group":"Operating","energy_sources":"DFO","type":"Power plant","is_nuclear":false}},{"type":"Feature","geometry":{"type":"Point","coordinates":[-102.201,30.931]},"properties":{"key":"55747-402e4763","layer":"power","name":"NWP Indian Mesa Wind Farm","state":"TX","detail_file":"data/details/power-plants-21.json","plant_id":"55747","capacity_mw":82.5,"status_group":"Operating","energy_sources":"WND","type":"Power plant","is_nuclear":false}},{"type":"Feature","geometry":{"type":"Point","coordinates":[-102.726,31.84]},"properties":{"key":"69576-049c1696","layer":"power","name":"Non-PLD US-El Paso - BSSAT004","state":"TX","detail_file":"data/details/power-plants-55.json","plant_id":"69576","capacity_mw":9.9,"status_group":"Operating","energy_sources":"MWH","type":"Power plant","is_nuclear":false}},{"type":"Feature","geometry":{"type":"Point","coordinates":[-103.509,31.422]},"properties":{"key":"69458-c9e56add","layer":"power","name":"North Pecos Clean Energy Center (BESS)","state":"TX","detail_file":"data/details/power-plants-04.json","plant_id":"69458","capacity_mw":10.1,"status_group":"Operating","energy_sources":"MWH","type":"Power plant","is_nuclear":false}},{"type":"Feature","geometry":{"type":"Point","coordinates":[-100.114,31.535]},"properties":{"key":"61967-d4f918e6","layer":"power","name":"Norton Solar Farm","state":"TX","detail_file":"data/details/power-plants-38.json","plant_id":"61967","capacity_mw":125.0,"status_group":"Operating","energy_sources":"SUN","type":"Power plant","is_nuclear":false}},{"type":"Feature","geometry":{"type":"Point","coordinates":[-102.828,31.995]},"properties":{"key":"56961-6f957b48","layer":"power","name":"Notrees Windpower Hybrid","state":"TX","detail_file":"data/details/power-plants-42.json","plant_id":"56961","capacity_mw":188.5,"status_group":"Operating","energy_sources":"MWH; WND","type":"Power plant","is_nuclear":false}},{"type":"Feature","geometry":{"type":"Point","coordinates":[-100.39,29.33]},"properties":{"key":"58717-3ec8a5fe","layer":"power","name":"OCI Alamo 4, LLC","state":"TX","detail_file":"data/details/power-plants-61.json","plant_id":"58717","capacity_mw":39.6,"status_group":"Operating","energy_sources":"SUN","type":"Power plant","is_nuclear":false}},{"type":"Feature","geometry":{"type":"Point","coordinates":[-102.701,31.703]},"properties":{"key":"62933-c7463e0f","layer":"power","name":"Oberon IA","state":"TX","detail_file":"data/details/power-plants-02.json","plant_id":"62933","capacity_mw":150.0,"status_group":"Operating","energy_sources":"SUN","type":"Power plant","is_nuclear":false}},{"type":"Feature","geometry":{"type":"Point","coordinates":[-102.697,31.692]},"properties":{"key":"62932-56d13688","layer":"power","name":"Oberon IB","state":"TX","detail_file":"data/details/power-plants-33.json","plant_id":"62932","capacity_mw":30.0,"status_group":"Operating","energy_sources":"SUN","type":"Power plant","is_nuclear":false}},{"type":"Feature","geometry":{"type":"Point","coordinates":[-102.68,31.001]},"properties":{"key":"65590-e61348eb","layer":"power","name":"Octans","state":"TX","detail_file":"data/details/power-plants-49.json","plant_id":"65590","capacity_mw":125.0,"status_group":"Under construction","energy_sources":"MWH","type":"Power plant","is_nuclear":false}},{"type":"Feature","geometry":{"type":"Point","coordinates":[-102.398,31.871]},"properties":{"key":"64294-8c52cb0d","layer":"power","name":"Odessa","state":"TX","detail_file":"data/details/power-plants-46.json","plant_id":"64294","capacity_mw":9.9,"status_group":"Operating","energy_sources":"MWH","type":"Power plant","is_nuclear":false}},{"type":"Feature","geometry":{"type":"Point","coordinates":[-102.326,31.84]},"properties":{"key":"55215-a22b56af","layer":"power","name":"Odessa-Ector Power Plant","state":"TX","detail_file":"data/details/power-plants-54.json","plant_id":"55215","capacity_mw":1152.8,"status_group":"Operating","energy_sources":"NG","type":"Power plant","is_nuclear":false}},{"type":"Feature","geometry":{"type":"Point","coordinates":[-101.298,31.936]},"properties":{"key":"56921-fed5cec0","layer":"power","name":"Panther Creek Wind Farm II","state":"TX","detail_file":"data/details/power-plants-54.json","plant_id":"56921","capacity_mw":115.5,"status_group":"Operating","energy_sources":"WND","type":"Power plant","is_nuclear":false}},{"type":"Feature","geometry":{"type":"Point","coordinates":[-101.117,31.992]},"properties":{"key":"56979-ecd18c17","layer":"power","name":"Panther Creek Wind Farm Three","state":"TX","detail_file":"data/details/power-plants-56.json","plant_id":"56979","capacity_mw":215.5,"status_group":"Operating","energy_sources":"WND","type":"Power plant","is_nuclear":false}},{"type":"Feature","geometry":{"type":"Point","coordinates":[-102.423,30.885]},"properties":{"key":"65492-b2b59edf","layer":"power","name":"Pavo","state":"TX","detail_file":"data/details/power-plants-38.json","plant_id":"65492","capacity_mw":175.0,"status_group":"Operating","energy_sources":"MWH","type":"Power plant","is_nuclear":false}},{"type":"Feature","geometry":{"type":"Point","coordinates":[-102.268,30.988]},"properties":{"key":"60682-ba2405e9","layer":"power","name":"Pearl Solar","state":"TX","detail_file":"data/details/power-plants-19.json","plant_id":"60682","capacity_mw":50.0,"status_group":"Operating","energy_sources":"SUN","type":"Power plant","is_nuclear":false}},{"type":"Feature","geometry":{"type":"Point","coordinates":[-102.963,31.584]},"properties":{"key":"3494-793012e3","layer":"power","name":"Permian Basin","state":"TX","detail_file":"data/details/power-plants-43.json","plant_id":"3494","capacity_mw":447.0,"status_group":"Operating","energy_sources":"NG","type":"Power plant","is_nuclear":false}},{"type":"Feature","geometry":{"type":"Point","coordinates":[-102.868,31.843]},"properties":{"key":"61906-f70e69a0","layer":"power","name":"Phoebe Solar","state":"TX","detail_file":"data/details/power-plants-58.json","plant_id":"61906","capacity_mw":250.0,"status_group":"Operating","energy_sources":"SUN","type":"Power plant","is_nuclear":false}},{"type":"Feature","geometry":{"type":"Point","coordinates":[-100.212,31.195]},"properties":{"key":"68766-67a5deca","layer":"power","name":"Pioneer Field Wind Power","state":"TX","detail_file":"data/details/power-plants-29.json","plant_id":"68766","capacity_mw":136.2,"status_group":"Planned","energy_sources":"WND","type":"Power plant","is_nuclear":false}},{"type":"Feature","geometry":{"type":"Point","coordinates":[-101.904,31.798]},"properties":{"key":"66531-7727aa5d","layer":"power","name":"Pioneer Hutt Wind Energy","state":"TX","detail_file":"data/details/power-plants-18.json","plant_id":"66531","capacity_mw":140.0,"status_group":"Operating","energy_sources":"WND","type":"Power plant","is_nuclear":false}},{"type":"Feature","geometry":{"type":"Point","coordinates":[-100.464,28.679]},"properties":{"key":"64318-fcb6a6fe","layer":"power","name":"Pueblo BA","state":"TX","detail_file":"data/details/power-plants-17.json","plant_id":"64318","capacity_mw":19.8,"status_group":"Operating","energy_sources":"MWH","type":"Power plant","is_nuclear":false}},{"type":"Feature","geometry":{"type":"Point","coordinates":[-103.096,31.453]},"properties":{"key":"69269-1998c25d","layer":"power","name":"Pyote Gas","state":"TX","detail_file":"data/details/power-plants-23.json","plant_id":"69269","capacity_mw":10.0,"status_group":"Under construction","energy_sources":"NG","type":"Power plant","is_nuclear":false}},{"type":"Feature","geometry":{"type":"Point","coordinates":[-102.315,31.841]},"properties":{"key":"56349-1a1e55b0","layer":"power","name":"Quail Run Energy Center","state":"TX","detail_file":"data/details/power-plants-12.json","plant_id":"56349","capacity_mw":550.4,"status_group":"Operating","energy_sources":"NG","type":"Power plant","is_nuclear":false}},{"type":"Feature","geometry":{"type":"Point","coordinates":[-102.258,30.977]},"properties":{"key":"61346-3760aa95","layer":"power","name":"RE Maplewood","state":"TX","detail_file":"data/details/power-plants-10.json","plant_id":"61346","capacity_mw":250.0,"status_group":"Operating","energy_sources":"SUN","type":"Power plant","is_nuclear":false}},{"type":"Feature","geometry":{"type":"Point","coordinates":[-103.307,30.96]},"properties":{"key":"59994-588dd40e","layer":"power","name":"RE Roserock","state":"TX","detail_file":"data/details/power-plants-39.json","plant_id":"59994","capacity_mw":160.0,"status_group":"Operating","energy_sources":"SUN","type":"Power plant","is_nuclear":false}},{"type":"Feature","geometry":{"type":"Point","coordinates":[-100.6,31.517]},"properties":{"key":"62141-713d3b2d","layer":"power","name":"Rambler","state":"TX","detail_file":"data/details/power-plants-60.json","plant_id":"62141","capacity_mw":200.0,"status_group":"Operating","energy_sources":"SUN","type":"Power plant","is_nuclear":false}},{"type":"Feature","geometry":{"type":"Point","coordinates":[-101.453,30.595]},"properties":{"key":"62259-c4108fd8","layer":"power","name":"Ranchero Wind Farm LLC","state":"TX","detail_file":"data/details/power-plants-32.json","plant_id":"62259","capacity_mw":300.0,"status_group":"Operating","energy_sources":"WND","type":"Power plant","is_nuclear":false}},{"type":"Feature","geometry":{"type":"Point","coordinates":[-103.227,31.569]},"properties":{"key":"65833-753a5687","layer":"power","name":"Rattlesnake (TX)","state":"TX","detail_file":"data/details/power-plants-63.json","plant_id":"65833","capacity_mw":9.9,"status_group":"Operating","energy_sources":"MWH","type":"Power plant","is_nuclear":false}},{"type":"Feature","geometry":{"type":"Point","coordinates":[-101.493,31.743]},"properties":{"key":"59943-c0212a76","layer":"power","name":"Rattlesnake Den","state":"TX","detail_file":"data/details/power-plants-35.json","plant_id":"59943","capacity_mw":207.2,"status_group":"Operating","energy_sources":"WND","type":"Power plant","is_nuclear":false}},{"type":"Feature","geometry":{"type":"Point","coordinates":[-100.475,28.731]},"properties":{"key":"69332-62a15eaa","layer":"power","name":"Regis Escondido","state":"TX","detail_file":"data/details/power-plants-04.json","plant_id":"69332","capacity_mw":9.9,"status_group":"Under construction","energy_sources":"MWH","type":"Power plant","is_nuclear":false}},{"type":"Feature","geometry":{"type":"Point","coordinates":[-102.308,31.233]},"properties":{"key":"66170-7d2392b1","layer":"power","name":"Revolution","state":"TX","detail_file":"data/details/power-plants-21.json","plant_id":"66170","capacity_mw":150.0,"status_group":"Operating","energy_sources":"MWH","type":"Power plant","is_nuclear":false}},{"type":"Feature","geometry":{"type":"Point","coordinates":[-102.192,31.219]},"properties":{"key":"62561-8d01ae24","layer":"power","name":"Roadrunner, LLC Hybrid","state":"TX","detail_file":"data/details/power-plants-12.json","plant_id":"62561","capacity_mw":463.3,"status_group":"Operating","energy_sources":"MWH; SUN","type":"Power plant","is_nuclear":false}},{"type":"Feature","geometry":{"type":"Point","coordinates":[-102.52,31.723]},"properties":{"key":"68592-9de6f0a6","layer":"power","name":"Rockhound A","state":"TX","detail_file":"data/details/power-plants-62.json","plant_id":"68592","capacity_mw":245.0,"status_group":"Under construction","energy_sources":"SUN","type":"Power plant","is_nuclear":false}},{"type":"Feature","geometry":{"type":"Point","coordinates":[-102.52,31.723]},"properties":{"key":"68593-a38c1fdb","layer":"power","name":"Rockhound C","state":"TX","detail_file":"data/details/power-plants-55.json","plant_id":"68593","capacity_mw":61.0,"status_group":"Under construction","energy_sources":"SUN","type":"Power plant","is_nuclear":false}},{"type":"Feature","geometry":{"type":"Point","coordinates":[-102.518,31.686]},"properties":{"key":"68594-985b5ed9","layer":"power","name":"Rockhound D","state":"TX","detail_file":"data/details/power-plants-52.json","plant_id":"68594","capacity_mw":28.0,"status_group":"Under construction","energy_sources":"SUN","type":"Power plant","is_nuclear":false}},{"type":"Feature","geometry":{"type":"Point","coordinates":[-100.794,29.728]},"properties":{"key":"60217-6ae6ae1d","layer":"power","name":"Rocksprings","state":"TX","detail_file":"data/details/power-plants-07.json","plant_id":"60217","capacity_mw":149.3,"status_group":"Operating","energy_sources":"WND","type":"Power plant","is_nuclear":false}},{"type":"Feature","geometry":{"type":"Point","coordinates":[-103.33,31.36]},"properties":{"key":"67175-80d7f5f0","layer":"power","name":"Rodeo Ranch Energy Storage","state":"TX","detail_file":"data/details/power-plants-35.json","plant_id":"67175","capacity_mw":300.0,"status_group":"Operating","energy_sources":"MWH","type":"Power plant","is_nuclear":false}},{"type":"Feature","geometry":{"type":"Point","coordinates":[-101.46,31.183]},"properties":{"key":"67495-a2a6f8b9","layer":"power","name":"Russek","state":"TX","detail_file":"data/details/power-plants-32.json","plant_id":"67495","capacity_mw":9.9,"status_group":"Operating","energy_sources":"MWH","type":"Power plant","is_nuclear":false}},{"type":"Feature","geometry":{"type":"Point","coordinates":[-103.498,31.333]},"properties":{"key":"65834-51e0f4e3","layer":"power","name":"Saddleback","state":"TX","detail_file":"data/details/power-plants-15.json","plant_id":"65834","capacity_mw":9.9,"status_group":"Operating","energy_sources":"MWH","type":"Power plant","is_nuclear":false}},{"type":"Feature","geometry":{"type":"Point","coordinates":[-103.498,31.333]},"properties":{"key":"65834-595236a3","layer":"power","name":"Saddleback","state":"TX","detail_file":"data/details/power-plants-19.json","plant_id":"65834","capacity_mw":9.9,"status_group":"Under construction","energy_sources":"DFO","type":"Power plant","is_nuclear":false}},{"type":"Feature","geometry":{"type":"Point","coordinates":[-101.303,31.991]},"properties":{"key":"56479-f727750a","layer":"power","name":"Sand Bluff Wind Farm","state":"TX","detail_file":"data/details/power-plants-57.json","plant_id":"56479","capacity_mw":89.5,"status_group":"Operating","energy_sources":"WND","type":"Power plant","is_nuclear":false}},{"type":"Feature","geometry":{"type":"Point","coordinates":[-103.618,31.509]},"properties":{"key":"67496-3e7dce00","layer":"power","name":"Sandlake","state":"TX","detail_file":"data/details/power-plants-04.json","plant_id":"67496","capacity_mw":9.9,"status_group":"Operating","energy_sources":"MWH","type":"Power plant","is_nuclear":false}},{"type":"Feature","geometry":{"type":"Point","coordinates":[-101.111,31.208]},"properties":{"key":"62038-53f817d5","layer":"power","name":"Santa Rita East","state":"TX","detail_file":"data/details/power-plants-62.json","plant_id":"62038","capacity_mw":302.4,"status_group":"Operating","energy_sources":"WND","type":"Power plant","is_nuclear":false}},{"type":"Feature","geometry":{"type":"Point","coordinates":[-101.319,31.181]},"properties":{"key":"60987-67bcf6ba","layer":"power","name":"Santa Rita Wind Energy","state":"TX","detail_file":"data/details/power-plants-45.json","plant_id":"60987","capacity_mw":300.0,"status_group":"Operating","energy_sources":"WND","type":"Power plant","is_nuclear":false}},{"type":"Feature","geometry":{"type":"Point","coordinates":[-103.057,30.993]},"properties":{"key":"70047-50aa5451","layer":"power","name":"Selenite Springs Solar","state":"TX","detail_file":"data/details/power-plants-37.json","plant_id":"70047","capacity_mw":250.0,"status_group":"Under construction","energy_sources":"SUN","type":"Power plant","is_nuclear":false}},{"type":"Feature","geometry":{"type":"Point","coordinates":[-100.549,28.838]},"properties":{"key":"67556-1c462fe3","layer":"power","name":"Serrano BESS","state":"TX","detail_file":"data/details/power-plants-07.json","plant_id":"67556","capacity_mw":185.6,"status_group":"Planned","energy_sources":"MWH","type":"Power plant","is_nuclear":false}},{"type":"Feature","geometry":{"type":"Point","coordinates":[-101.607,30.936]},"properties":{"key":"66540-ab6dd36e","layer":"power","name":"Shamrock Wind","state":"TX","detail_file":"data/details/power-plants-46.json","plant_id":"66540","capacity_mw":323.9,"status_group":"Operating","energy_sources":"MWH; WND","type":"Power plant","is_nuclear":false}},{"type":"Feature","geometry":{"type":"Point","coordinates":[-102.506,30.773]},"properties":{"key":"57415-94b2e369","layer":"power","name":"Sherbino II","state":"TX","detail_file":"data/details/power-plants-04.json","plant_id":"57415","capacity_mw":132.0,"status_group":"Operating","energy_sources":"WND","type":"Power plant","is_nuclear":false}},{"type":"Feature","geometry":{"type":"Point","coordinates":[-103.475,30.455]},"properties":{"key":"60989-5ba8ff47","layer":"power","name":"SolaireHolman Solar Project","state":"TX","detail_file":"data/details/power-plants-49.json","plant_id":"60989","capacity_mw":50.0,"status_group":"Operating","energy_sources":"SUN","type":"Power plant","is_nuclear":false}},{"type":"Feature","geometry":{"type":"Point","coordinates":[-102.953,30.924]},"properties":{"key":"68423-cb362b9c","layer":"power","name":"St Gall Energy Storage II","state":"TX","detail_file":"data/details/power-plants-48.json","plant_id":"68423","capacity_mw":100.0,"status_group":"Operating","energy_sources":"MWH","type":"Power plant","is_nuclear":false}},{"type":"Feature","geometry":{"type":"Point","coordinates":[-102.954,30.924]},"properties":{"key":"66336-3370516e","layer":"power","name":"St. Gall Energy Storage I","state":"TX","detail_file":"data/details/power-plants-36.json","plant_id":"66336","capacity_mw":102.6,"status_group":"Operating","energy_sources":"MWH","type":"Power plant","is_nuclear":false}},{"type":"Feature","geometry":{"type":"Point","coordinates":[-103.085,31.458]},"properties":{"key":"69271-9ee81266","layer":"power","name":"Staghorn Gas","state":"TX","detail_file":"data/details/power-plants-40.json","plant_id":"69271","capacity_mw":9.9,"status_group":"Under construction","energy_sources":"NG","type":"Power plant","is_nuclear":false}},{"type":"Feature","geometry":{"type":"Point","coordinates":[-102.696,31.769]},"properties":{"key":"68537-d07eb761","layer":"power","name":"Swift Air Solar I","state":"TX","detail_file":"data/details/power-plants-40.json","plant_id":"68537","capacity_mw":145.0,"status_group":"Operating","energy_sources":"SUN","type":"Power plant","is_nuclear":false}},{"type":"Feature","geometry":{"type":"Point","coordinates":[-102.52,31.723]},"properties":{"key":"68587-ce964573","layer":"power","name":"Swift Air Solar II","state":"TX","detail_file":"data/details/power-plants-14.json","plant_id":"68587","capacity_mw":100.0,"status_group":"Operating","energy_sources":"SUN","type":"Power plant","is_nuclear":false}},{"type":"Feature","geometry":{"type":"Point","coordinates":[-102.52,31.723]},"properties":{"key":"68588-0a2095ff","layer":"power","name":"Swift Air Solar III","state":"TX","detail_file":"data/details/power-plants-08.json","plant_id":"68588","capacity_mw":100.0,"status_group":"Operating","energy_sources":"SUN","type":"Power plant","is_nuclear":false}},{"type":"Feature","geometry":{"type":"Point","coordinates":[-103.096,31.451]},"properties":{"key":"64916-88fdd9f0","layer":"power","name":"Swoose I","state":"TX","detail_file":"data/details/power-plants-30.json","plant_id":"64916","capacity_mw":9.9,"status_group":"Operating","energy_sources":"MWH","type":"Power plant","is_nuclear":false}},{"type":"Feature","geometry":{"type":"Point","coordinates":[-103.362,31.451]},"properties":{"key":"66008-86e5f45d","layer":"power","name":"Swoose II","state":"TX","detail_file":"data/details/power-plants-33.json","plant_id":"66008","capacity_mw":101.0,"status_group":"Operating","energy_sources":"MWH","type":"Power plant","is_nuclear":false}},{"type":"Feature","geometry":{"type":"Point","coordinates":[-103.361,31.198]},"properties":{"key":"64423-3fa21237","layer":"power","name":"TX7 Flat Top","state":"TX","detail_file":"data/details/power-plants-03.json","plant_id":"64423","capacity_mw":9.9,"status_group":"Operating","energy_sources":"MWH","type":"Power plant","is_nuclear":false}},{"type":"Feature","geometry":{"type":"Point","coordinates":[-103.337,31.357]},"properties":{"key":"64424-d9d272fc","layer":"power","name":"TX8 Worsham","state":"TX","detail_file":"data/details/power-plants-48.json","plant_id":"64424","capacity_mw":9.9,"status_group":"Operating","energy_sources":"MWH","type":"Power plant","is_nuclear":false}},{"type":"Feature","geometry":{"type":"Point","coordinates":[-103.126,31.165]},"properties":{"key":"62483-78103af0","layer":"power","name":"Taygete Energy Project LLC","state":"TX","detail_file":"data/details/power-plants-41.json","plant_id":"62483","capacity_mw":255.0,"status_group":"Operating","energy_sources":"SUN","type":"Power plant","is_nuclear":false}},{"type":"Feature","geometry":{"type":"Point","coordinates":[-103.128,31.186]},"properties":{"key":"64075-7735a445","layer":"power","name":"Taygete II Energy Project","state":"TX","detail_file":"data/details/power-plants-00.json","plant_id":"64075","capacity_mw":203.8,"status_group":"Operating","energy_sources":"SUN","type":"Power plant","is_nuclear":false}},{"type":"Feature","geometry":{"type":"Point","coordinates":[-100.277,31.726]},"properties":{"key":"69605-6009f059","layer":"power","name":"Tennyson Solar","state":"TX","detail_file":"data/details/power-plants-42.json","plant_id":"69605","capacity_mw":150.0,"status_group":"Under construction","energy_sources":"SUN","type":"Power plant","is_nuclear":false}},{"type":"Feature","geometry":{"type":"Point","coordinates":[-100.873,29.349]},"properties":{"key":"68748-0d09783a","layer":"power","name":"Tierra Seca","state":"TX","detail_file":"data/details/power-plants-14.json","plant_id":"68748","capacity_mw":100.0,"status_group":"Operating","energy_sources":"MWH","type":"Power plant","is_nuclear":false}},{"type":"Feature","geometry":{"type":"Point","coordinates":[-103.665,31.114]},"properties":{"key":"65836-818e7333","layer":"power","name":"Toyah Power Station","state":"TX","detail_file":"data/details/power-plants-32.json","plant_id":"65836","capacity_mw":10.4,"status_group":"Operating","energy_sources":"MWH","type":"Power plant","is_nuclear":false}},{"type":"Feature","geometry":{"type":"Point","coordinates":[-103.068,30.76]},"properties":{"key":"64917-48ca3b54","layer":"power","name":"Triple Butte I","state":"TX","detail_file":"data/details/power-plants-48.json","plant_id":"64917","capacity_mw":7.5,"status_group":"Operating","energy_sources":"MWH","type":"Power plant","is_nuclear":false}},{"type":"Feature","geometry":{"type":"Point","coordinates":[-102.322,31.239]},"properties":{"key":"64811-21e40054","layer":"power","name":"Upton County BESS","state":"TX","detail_file":"data/details/power-plants-47.json","plant_id":"64811","capacity_mw":24.8,"status_group":"Operating","energy_sources":"MWH","type":"Power plant","is_nuclear":false}},{"type":"Feature","geometry":{"type":"Point","coordinates":[-102.29,31.242]},"properties":{"key":"60581-228908be","layer":"power","name":"Upton County Solar","state":"TX","detail_file":"data/details/power-plants-14.json","plant_id":"60581","capacity_mw":150.0,"status_group":"Operating","energy_sources":"SUN","type":"Power plant","is_nuclear":false}},{"type":"Feature","geometry":{"type":"Point","coordinates":[-102.958,31.584]},"properties":{"key":"69689-6ef79a14","layer":"power","name":"Vast Sands Power","state":"TX","detail_file":"data/details/power-plants-44.json","plant_id":"69689","capacity_mw":880.0,"status_group":"Under construction","energy_sources":"NG","type":"Power plant","is_nuclear":false}},{"type":"Feature","geometry":{"type":"Point","coordinates":[-100.901,29.396]},"properties":{"key":"64775-698d98fd","layer":"power","name":"WAL447","state":"TX","detail_file":"data/details/power-plants-30.json","plant_id":"64775","capacity_mw":1.2,"status_group":"Operating","energy_sources":"NG","type":"Power plant","is_nuclear":false}},{"type":"Feature","geometry":{"type":"Point","coordinates":[-100.483,28.702]},"properties":{"key":"64778-397f3f6e","layer":"power","name":"WAL461","state":"TX","detail_file":"data/details/power-plants-11.json","plant_id":"64778","capacity_mw":1.2,"status_group":"Operating","energy_sources":"NG","type":"Power plant","is_nuclear":false}},{"type":"Feature","geometry":{"type":"Point","coordinates":[-102.332,31.896]},"properties":{"key":"64796-0db25b97","layer":"power","name":"WAL537","state":"TX","detail_file":"data/details/power-plants-13.json","plant_id":"64796","capacity_mw":1.2,"status_group":"Operating","energy_sources":"NG","type":"Power plant","is_nuclear":false}},{"type":"Feature","geometry":{"type":"Point","coordinates":[-102.907,30.896]},"properties":{"key":"64808-ab0923c8","layer":"power","name":"WAL897","state":"TX","detail_file":"data/details/power-plants-43.json","plant_id":"64808","capacity_mw":1.3,"status_group":"Operating","energy_sources":"NG","type":"Power plant","is_nuclear":false}},{"type":"Feature","geometry":{"type":"Point","coordinates":[-100.813,31.611]},"properties":{"key":"62846-54c4f58e","layer":"power","name":"Water Valley Wind Energy","state":"TX","detail_file":"data/details/power-plants-42.json","plant_id":"62846","capacity_mw":180.0,"status_group":"Planned","energy_sources":"WND","type":"Power plant","is_nuclear":false}},{"type":"Feature","geometry":{"type":"Point","coordinates":[-103.729,31.431]},"properties":{"key":"62415-58c9db2b","layer":"power","name":"West of the Pecos Solar","state":"TX","detail_file":"data/details/power-plants-34.json","plant_id":"62415","capacity_mw":100.0,"status_group":"Operating","energy_sources":"SUN","type":"Power plant","is_nuclear":false}},{"type":"Feature","geometry":{"type":"Point","coordinates":[-102.446,31.836]},"properties":{"key":"65581-20c16992","layer":"power","name":"Westover","state":"TX","detail_file":"data/details/power-plants-60.json","plant_id":"65581","capacity_mw":9.0,"status_group":"Operating","energy_sources":"DFO","type":"Power plant","is_nuclear":false}},{"type":"Feature","geometry":{"type":"Point","coordinates":[-102.444,31.836]},"properties":{"key":"69415-7f287d13","layer":"power","name":"Westover BESS","state":"TX","detail_file":"data/details/power-plants-31.json","plant_id":"69415","capacity_mw":10.0,"status_group":"Operating","energy_sources":"MWH","type":"Power plant","is_nuclear":false}},{"type":"Feature","geometry":{"type":"Point","coordinates":[-101.263,30.91]},"properties":{"key":"64710-2d16b0d3","layer":"power","name":"White Mesa Wind","state":"TX","detail_file":"data/details/power-plants-10.json","plant_id":"64710","capacity_mw":500.6,"status_group":"Operating","energy_sources":"WND","type":"Power plant","is_nuclear":false}},{"type":"Feature","geometry":{"type":"Point","coordinates":[-102.414,30.951]},"properties":{"key":"55796-e5e51c79","layer":"power","name":"Woodward Mountain I","state":"TX","detail_file":"data/details/power-plants-24.json","plant_id":"55796","capacity_mw":82.0,"status_group":"Operating","energy_sources":"WND","type":"Power plant","is_nuclear":false}},{"type":"Feature","geometry":{"type":"Point","coordinates":[-102.414,30.951]},"properties":{"key":"55795-b8b4c9b0","layer":"power","name":"Woodward Mountain II","state":"TX","detail_file":"data/details/power-plants-22.json","plant_id":"55795","capacity_mw":78.0,"status_group":"Operating","energy_sources":"WND","type":"Power plant","is_nuclear":false}},{"type":"Feature","geometry":{"type":"Point","coordinates":[-100.562,29.351]},"properties":{"key":"66137-df03b3db","layer":"power","name":"Zier Solar","state":"TX","detail_file":"data/details/power-plants-49.json","plant_id":"66137","capacity_mw":200.4,"status_group":"Operating","energy_sources":"MWH; SUN","type":"Power plant","is_nuclear":false}}]}