{"type":"FeatureCollection","features":[{"type":"Feature","geometry":{"type":"Point","coordinates":[-150.94,59.779]},"properties":{"key":"7367-ac245ad6","layer":"power","name":"Bradley Lake","state":"AK","detail_file":"data/details/power-plants-43.json","plant_id":"7367","capacity_mw":126.0,"status_group":"Operating","energy_sources":"WAT","type":"Power plant","is_nuclear":false}},{"type":"Feature","geometry":{"type":"Point","coordinates":[-151.713,59.44]},"properties":{"key":"6283-d2b8f506","layer":"power","name":"Seldovia","state":"AK","detail_file":"data/details/power-plants-47.json","plant_id":"6283","capacity_mw":2.0,"status_group":"Operating","energy_sources":"DFO","type":"Power plant","is_nuclear":false}}]}