{"type":"FeatureCollection","features":[{"type":"Feature","geometry":{"type":"Point","coordinates":[-122.144,48.156]},"properties":{"key":"67669-936fea81","layer":"power","name":"Arlington Battery Energy Storage System","state":"WA","detail_file":"data/details/power-plants-04.json","plant_id":"67669","capacity_mw":25.0,"status_group":"Under construction","energy_sources":"MWH","type":"Power plant","is_nuclear":false}},{"type":"Feature","geometry":{"type":"Point","coordinates":[-122.15,48.156]},"properties":{"key":"64446-8e7e100d","layer":"power","name":"Arlington Microgrid","state":"WA","detail_file":"data/details/power-plants-16.json","plant_id":"64446","capacity_mw":1.5,"status_group":"Operating","energy_sources":"MWH; SUN","type":"Power plant","is_nuclear":false}},{"type":"Feature","geometry":{"type":"Point","coordinates":[-121.6,48.27]},"properties":{"key":"57969-dc046402","layer":"power","name":"Darrington","state":"WA","detail_file":"data/details/power-plants-05.json","plant_id":"57969","capacity_mw":4.5,"status_group":"Operating","energy_sources":"WDS","type":"Power plant","is_nuclear":false}},{"type":"Feature","geometry":{"type":"Point","coordinates":[-121.132,48.714]},"properties":{"key":"6432-369ad69d","layer":"power","name":"Diablo","state":"WA","detail_file":"data/details/power-plants-52.json","plant_id":"6432","capacity_mw":182.4,"status_group":"Operating","energy_sources":"WAT","type":"Power plant","is_nuclear":false}},{"type":"Feature","geometry":{"type":"Point","coordinates":[-122.486,48.746]},"properties":{"key":"7870-cb575940","layer":"power","name":"Encogen","state":"WA","detail_file":"data/details/power-plants-60.json","plant_id":"7870","capacity_mw":176.4,"status_group":"Operating","energy_sources":"NG","type":"Power plant","is_nuclear":false}},{"type":"Feature","geometry":{"type":"Point","coordinates":[-122.685,48.829]},"properties":{"key":"54537-4615d5ae","layer":"power","name":"Ferndale Generating Station","state":"WA","detail_file":"data/details/power-plants-24.json","plant_id":"54537","capacity_mw":285.5,"status_group":"Operating","energy_sources":"NG","type":"Power plant","is_nuclear":false}},{"type":"Feature","geometry":{"type":"Point","coordinates":[-122.436,48.456]},"properties":{"key":"607-25d21c17","layer":"power","name":"Fredonia (WA)","state":"WA","detail_file":"data/details/power-plants-03.json","plant_id":"607","capacity_mw":376.0,"status_group":"Operating","energy_sources":"NG","type":"Power plant","is_nuclear":false}},{"type":"Feature","geometry":{"type":"Point","coordinates":[-121.946,48.888]},"properties":{"key":"60444-d48575dd","layer":"power","name":"Glacier Battery Storage","state":"WA","detail_file":"data/details/power-plants-50.json","plant_id":"60444","capacity_mw":2.0,"status_group":"Operating","energy_sources":"MWH","type":"Power plant","is_nuclear":false}},{"type":"Feature","geometry":{"type":"Point","coordinates":[-121.209,48.698]},"properties":{"key":"6431-b2cc719d","layer":"power","name":"Gorge","state":"WA","detail_file":"data/details/power-plants-13.json","plant_id":"6431","capacity_mw":207.3,"status_group":"Operating","energy_sources":"WAT","type":"Power plant","is_nuclear":false}},{"type":"Feature","geometry":{"type":"Point","coordinates":[-122.56,48.471]},"properties":{"key":"54268-2545601e","layer":"power","name":"HF Sinclair Puget Sound Refining","state":"WA","detail_file":"data/details/power-plants-00.json","plant_id":"54268","capacity_mw":139.8,"status_group":"Operating","energy_sources":"NG","type":"Power plant","is_nuclear":false}},{"type":"Feature","geometry":{"type":"Point","coordinates":[-121.723,48.68]},"properties":{"key":"54267-bfc74e3e","layer":"power","name":"Koma Kulshan","state":"WA","detail_file":"data/details/power-plants-29.json","plant_id":"54267","capacity_mw":12.0,"status_group":"Operating","energy_sources":"WAT","type":"Power plant","is_nuclear":false}},{"type":"Feature","geometry":{"type":"Point","coordinates":[-121.741,48.548]},"properties":{"key":"3855-1f535094","layer":"power","name":"Lower Baker","state":"WA","detail_file":"data/details/power-plants-37.json","plant_id":"3855","capacity_mw":103.9,"status_group":"Operating","energy_sources":"WAT","type":"Power plant","is_nuclear":false}},{"type":"Feature","geometry":{"type":"Point","coordinates":[-123.466,48.135]},"properties":{"key":"58352-1de844b5","layer":"power","name":"McKinley Paper Co. - Washington Mill","state":"WA","detail_file":"data/details/power-plants-10.json","plant_id":"58352","capacity_mw":12.6,"status_group":"Operating","energy_sources":"WDS","type":"Power plant","is_nuclear":false}},{"type":"Feature","geometry":{"type":"Point","coordinates":[-121.241,48.676]},"properties":{"key":"9842-6cb44ed6","layer":"power","name":"Newhalem","state":"WA","detail_file":"data/details/power-plants-20.json","plant_id":"9842","capacity_mw":2.3,"status_group":"Operating","energy_sources":"WAT","type":"Power plant","is_nuclear":false}},{"type":"Feature","geometry":{"type":"Point","coordinates":[-121.814,48.908]},"properties":{"key":"58696-8de9c63c","layer":"power","name":"Nooksack Hydro","state":"WA","detail_file":"data/details/power-plants-49.json","plant_id":"58696","capacity_mw":1.5,"status_group":"Operating","energy_sources":"WAT","type":"Power plant","is_nuclear":false}},{"type":"Feature","geometry":{"type":"Point","coordinates":[-122.796,48.093]},"properties":{"key":"50544-0bb9e21b","layer":"power","name":"Port Townsend Paper","state":"WA","detail_file":"data/details/power-plants-39.json","plant_id":"50544","capacity_mw":7.5,"status_group":"Operating","energy_sources":"BLQ","type":"Power plant","is_nuclear":false}},{"type":"Feature","geometry":{"type":"Point","coordinates":[-121.068,48.733]},"properties":{"key":"6202-c1db6dac","layer":"power","name":"Ross","state":"WA","detail_file":"data/details/power-plants-30.json","plant_id":"6202","capacity_mw":450.0,"status_group":"Operating","energy_sources":"WAT","type":"Power plant","is_nuclear":false}},{"type":"Feature","geometry":{"type":"Point","coordinates":[-122.433,48.448]},"properties":{"key":"56406-0ebb4481","layer":"power","name":"Sierra Pacific Burlington Facility","state":"WA","detail_file":"data/details/power-plants-53.json","plant_id":"56406","capacity_mw":28.0,"status_group":"Operating","energy_sources":"WDS","type":"Power plant","is_nuclear":false}},{"type":"Feature","geometry":{"type":"Point","coordinates":[-122.273,48.99]},"properties":{"key":"54476-e5c09945","layer":"power","name":"Sumas Power Plant","state":"WA","detail_file":"data/details/power-plants-15.json","plant_id":"54476","capacity_mw":125.5,"status_group":"Operating","energy_sources":"NG","type":"Power plant","is_nuclear":false}},{"type":"Feature","geometry":{"type":"Point","coordinates":[-121.691,48.649]},"properties":{"key":"3861-0cde6b23","layer":"power","name":"Upper Baker","state":"WA","detail_file":"data/details/power-plants-24.json","plant_id":"3861","capacity_mw":104.8,"status_group":"Operating","energy_sources":"WAT","type":"Power plant","is_nuclear":false}},{"type":"Feature","geometry":{"type":"Point","coordinates":[-122.752,48.886]},"properties":{"key":"6120-93883fa3","layer":"power","name":"Whitehorn","state":"WA","detail_file":"data/details/power-plants-55.json","plant_id":"6120","capacity_mw":169.2,"status_group":"Operating","energy_sources":"NG","type":"Power plant","is_nuclear":false}}]}