{"type":"FeatureCollection","features":[{"type":"Feature","geometry":{"type":"Point","coordinates":[-75.535,35.267]},"properties":{"key":"2783-5b7fd0e6","layer":"power","name":"Buxton","state":"NC","detail_file":"data/details/power-plants-28.json","plant_id":"2783","capacity_mw":15.0,"status_group":"Operating","energy_sources":"DFO","type":"Power plant","is_nuclear":false}},{"type":"Feature","geometry":{"type":"Point","coordinates":[-75.98,35.109]},"properties":{"key":"6377-7da3b579","layer":"power","name":"Ocracoke Hybrid","state":"NC","detail_file":"data/details/power-plants-18.json","plant_id":"6377","capacity_mw":4.0,"status_group":"Operating","energy_sources":"DFO; MWH","type":"Power plant","is_nuclear":false}}]}