{"type":"FeatureCollection","features":[{"type":"Feature","geometry":{"type":"Point","coordinates":[-161.911,59.747]},"properties":{"key":"57057-778df497","layer":"power","name":"Quinhagak","state":"AK","detail_file":"data/details/power-plants-60.json","plant_id":"57057","capacity_mw":1.3,"status_group":"Operating","energy_sources":"DFO","type":"Power plant","is_nuclear":false}},{"type":"Feature","geometry":{"type":"Point","coordinates":[-160.38,59.06]},"properties":{"key":"6348-a64b02ea","layer":"power","name":"Togiak","state":"AK","detail_file":"data/details/power-plants-61.json","plant_id":"6348","capacity_mw":2.8,"status_group":"Operating","energy_sources":"DFO","type":"Power plant","is_nuclear":false}}]}