{"type":"FeatureCollection","features":[{"type":"Feature","geometry":{"type":"Point","coordinates":[-103.1,48.5]},"properties":{"key":"63258-d6611892","layer":"power","name":"Aurora Wind Project","state":"ND","detail_file":"data/details/power-plants-39.json","plant_id":"63258","capacity_mw":298.8,"status_group":"Operating","energy_sources":"WND","type":"Power plant","is_nuclear":false}},{"type":"Feature","geometry":{"type":"Point","coordinates":[-103.313,48.328]},"properties":{"key":"69071-d5fcac92","layer":"power","name":"Bison Generation Station","state":"ND","detail_file":"data/details/power-plants-46.json","plant_id":"69071","capacity_mw":1518.0,"status_group":"Under construction","energy_sources":"NG","type":"Power plant","is_nuclear":false}},{"type":"Feature","geometry":{"type":"Point","coordinates":[-102.638,48.754]},"properties":{"key":"61100-030a0e68","layer":"power","name":"Burke Wind, LLC","state":"ND","detail_file":"data/details/power-plants-31.json","plant_id":"61100","capacity_mw":199.4,"status_group":"Operating","energy_sources":"WND","type":"Power plant","is_nuclear":false}},{"type":"Feature","geometry":{"type":"Point","coordinates":[-102.933,48.533]},"properties":{"key":"59684-8531b2dd","layer":"power","name":"Lindahl Wind Project, LLC","state":"ND","detail_file":"data/details/power-plants-38.json","plant_id":"59684","capacity_mw":150.0,"status_group":"Operating","energy_sources":"WND","type":"Power plant","is_nuclear":false}},{"type":"Feature","geometry":{"type":"Point","coordinates":[-101.281,48.021]},"properties":{"key":"55995-1218f0f8","layer":"power","name":"Minot Wind Project","state":"ND","detail_file":"data/details/power-plants-51.json","plant_id":"55995","capacity_mw":4.5,"status_group":"Operating","energy_sources":"WND","type":"Power plant","is_nuclear":false}},{"type":"Feature","geometry":{"type":"Point","coordinates":[-102.768,48.77]},"properties":{"key":"69809-962f1fd6","layer":"power","name":"Northern Divide Energy Storage","state":"ND","detail_file":"data/details/power-plants-14.json","plant_id":"69809","capacity_mw":100.0,"status_group":"Under construction","energy_sources":"MWH","type":"Power plant","is_nuclear":false}},{"type":"Feature","geometry":{"type":"Point","coordinates":[-103.953,48.233]},"properties":{"key":"57881-0d89f940","layer":"power","name":"Pioneer Generation Station","state":"ND","detail_file":"data/details/power-plants-01.json","plant_id":"57881","capacity_mw":897.3,"status_group":"Operating","energy_sources":"NG","type":"Power plant","is_nuclear":false}},{"type":"Feature","geometry":{"type":"Point","coordinates":[-100.921,48.084]},"properties":{"key":"56670-198ff282","layer":"power","name":"Velva Windfarm LLC","state":"ND","detail_file":"data/details/power-plants-06.json","plant_id":"56670","capacity_mw":11.9,"status_group":"Operating","energy_sources":"WND","type":"Power plant","is_nuclear":false}}]}