{"type":"FeatureCollection","features":[{"type":"Feature","geometry":{"type":"Point","coordinates":[-86.78,33.583]},"properties":{"key":"56076-582d34b6","layer":"power","name":"ABC Coke","state":"AL","detail_file":"data/details/power-plants-32.json","plant_id":"56076","capacity_mw":3.8,"status_group":"Operating","energy_sources":"OG","type":"Power plant","is_nuclear":false}},{"type":"Feature","geometry":{"type":"Point","coordinates":[-86.282,33.166]},"properties":{"key":"56018-2151c165","layer":"power","name":"AMEA Peaking","state":"AL","detail_file":"data/details/power-plants-10.json","plant_id":"56018","capacity_mw":98.6,"status_group":"Operating","energy_sources":"NG","type":"Power plant","is_nuclear":false}},{"type":"Feature","geometry":{"type":"Point","coordinates":[-85.969,33.627]},"properties":{"key":"60680-901fcc7f","layer":"power","name":"ANAD Solar Array","state":"AL","detail_file":"data/details/power-plants-31.json","plant_id":"60680","capacity_mw":7.4,"status_group":"Operating","energy_sources":"SUN","type":"Power plant","is_nuclear":false}},{"type":"Feature","geometry":{"type":"Point","coordinates":[-87.223,32.316]},"properties":{"key":"68057-416c9255","layer":"power","name":"Alabama Creek Solar","state":"AL","detail_file":"data/details/power-plants-23.json","plant_id":"68057","capacity_mw":80.0,"status_group":"Under construction","energy_sources":"SUN","type":"Power plant","is_nuclear":false}},{"type":"Feature","geometry":{"type":"Point","coordinates":[-86.224,34.363]},"properties":{"key":"7924-0de6e2b8","layer":"power","name":"Albertville","state":"AL","detail_file":"data/details/power-plants-17.json","plant_id":"7924","capacity_mw":4.0,"status_group":"Operating","energy_sources":"DFO","type":"Power plant","is_nuclear":false}},{"type":"Feature","geometry":{"type":"Point","coordinates":[-87.357,33.459]},"properties":{"key":"2-af071c6f","layer":"power","name":"Bankhead Dam","state":"AL","detail_file":"data/details/power-plants-56.json","plant_id":"2","capacity_mw":53.9,"status_group":"Operating","energy_sources":"WAT","type":"Power plant","is_nuclear":false}},{"type":"Feature","geometry":{"type":"Point","coordinates":[-85.091,32.663]},"properties":{"key":"702-44c6abf6","layer":"power","name":"Bartletts Ferry","state":"AL","detail_file":"data/details/power-plants-19.json","plant_id":"702","capacity_mw":173.0,"status_group":"Operating","energy_sources":"WAT","type":"Power plant","is_nuclear":false}},{"type":"Feature","geometry":{"type":"Point","coordinates":[-85.928,34.709]},"properties":{"key":"6150-36c96e2e","layer":"power","name":"Bellefonte","state":"AL","detail_file":"data/details/power-plants-29.json","plant_id":"6150","capacity_mw":14.0,"status_group":"Operating","energy_sources":"DFO","type":"Power plant","is_nuclear":false}},{"type":"Feature","geometry":{"type":"Point","coordinates":[-86.327,32.197]},"properties":{"key":"63765-d5df0c9d","layer":"power","name":"Black Bear Solar 1","state":"AL","detail_file":"data/details/power-plants-23.json","plant_id":"63765","capacity_mw":100.0,"status_group":"Operating","energy_sources":"SUN","type":"Power plant","is_nuclear":false}},{"type":"Feature","geometry":{"type":"Point","coordinates":[-87.119,34.704]},"properties":{"key":"46-0b830336","layer":"power","name":"Browns Ferry","state":"AL","detail_file":"data/details/power-plants-37.json","plant_id":"46","capacity_mw":3854.0,"status_group":"Operating","energy_sources":"NUC","type":"Nuclear power plant","is_nuclear":true}},{"type":"Feature","geometry":{"type":"Point","coordinates":[-85.973,33.588]},"properties":{"key":"55409-acff2dd5","layer":"power","name":"Calhoun Energy Center","state":"AL","detail_file":"data/details/power-plants-48.json","plant_id":"55409","capacity_mw":748.0,"status_group":"Operating","energy_sources":"NG","type":"Power plant","is_nuclear":false}},{"type":"Feature","geometry":{"type":"Point","coordinates":[-86.74,32.65]},"properties":{"key":"55440-6000c455","layer":"power","name":"Central Alabama Generating Station","state":"AL","detail_file":"data/details/power-plants-45.json","plant_id":"55440","capacity_mw":927.1,"status_group":"Operating","energy_sources":"NG","type":"Power plant","is_nuclear":false}},{"type":"Feature","geometry":{"type":"Point","coordinates":[-87.849,34.744]},"properties":{"key":"47-5e48d929","layer":"power","name":"Colbert","state":"AL","detail_file":"data/details/power-plants-19.json","plant_id":"47","capacity_mw":1169.6,"status_group":"Operating","energy_sources":"NG","type":"Power plant","is_nuclear":false}},{"type":"Feature","geometry":{"type":"Point","coordinates":[-86.868,34.95]},"properties":{"key":"61924-d8ef44d2","layer":"power","name":"Cumblerland Land Holdings, LLC","state":"AL","detail_file":"data/details/power-plants-06.json","plant_id":"61924","capacity_mw":14.7,"status_group":"Operating","energy_sources":"SUN","type":"Power plant","is_nuclear":false}},{"type":"Feature","geometry":{"type":"Point","coordinates":[-87.021,34.629]},"properties":{"key":"55292-2fe56605","layer":"power","name":"Decatur Energy Center","state":"AL","detail_file":"data/details/power-plants-31.json","plant_id":"55292","capacity_mw":902.4,"status_group":"Operating","energy_sources":"NG","type":"Power plant","is_nuclear":false}},{"type":"Feature","geometry":{"type":"Point","coordinates":[-87.101,34.624]},"properties":{"key":"58061-df1fbb47","layer":"power","name":"Decatur-Morgan Co LFG Recovery Project","state":"AL","detail_file":"data/details/power-plants-51.json","plant_id":"58061","capacity_mw":1.6,"status_group":"Operating","energy_sources":"LFG","type":"Power plant","is_nuclear":false}},{"type":"Feature","geometry":{"type":"Point","coordinates":[-86.085,33.537]},"properties":{"key":"68332-5905bf4e","layer":"power","name":"Dega Solar and Storage","state":"AL","detail_file":"data/details/power-plants-07.json","plant_id":"68332","capacity_mw":400.0,"status_group":"Under construction","energy_sources":"MWH; SUN","type":"Power plant","is_nuclear":false}},{"type":"Feature","geometry":{"type":"Point","coordinates":[-86.574,32.381]},"properties":{"key":"7897-0ea80883","layer":"power","name":"E B Harris Electric Generating Plant","state":"AL","detail_file":"data/details/power-plants-52.json","plant_id":"7897","capacity_mw":1304.0,"status_group":"Operating","energy_sources":"NG","type":"Power plant","is_nuclear":false}},{"type":"Feature","geometry":{"type":"Point","coordinates":[-86.458,33.244]},"properties":{"key":"26-351a52bd","layer":"power","name":"E C Gaston","state":"AL","detail_file":"data/details/power-plants-10.json","plant_id":"26","capacity_mw":2034.0,"status_group":"Operating","energy_sources":"BIT; DFO; NG","type":"Power plant","is_nuclear":false}},{"type":"Feature","geometry":{"type":"Point","coordinates":[-84.99,32.304]},"properties":{"key":"59862-e6b11f0d","layer":"power","name":"Fort Benning Solar Facility","state":"AL","detail_file":"data/details/power-plants-21.json","plant_id":"59862","capacity_mw":30.0,"status_group":"Operating","energy_sources":"SUN","type":"Power plant","is_nuclear":false}},{"type":"Feature","geometry":{"type":"Point","coordinates":[-86.525,32.31]},"properties":{"key":"7698-2092b1bd","layer":"power","name":"General Electric Plastic","state":"AL","detail_file":"data/details/power-plants-05.json","plant_id":"7698","capacity_mw":97.0,"status_group":"Operating","energy_sources":"NG","type":"Power plant","is_nuclear":false}},{"type":"Feature","geometry":{"type":"Point","coordinates":[-85.079,32.61]},"properties":{"key":"707-60978450","layer":"power","name":"Goat Rock","state":"AL","detail_file":"data/details/power-plants-52.json","plant_id":"707","capacity_mw":38.6,"status_group":"Operating","energy_sources":"WAT","type":"Power plant","is_nuclear":false}},{"type":"Feature","geometry":{"type":"Point","coordinates":[-87.781,32.602]},"properties":{"key":"10-568d2e84","layer":"power","name":"Greene County","state":"AL","detail_file":"data/details/power-plants-51.json","plant_id":"10","capacity_mw":1288.4,"status_group":"Operating","energy_sources":"NG","type":"Power plant","is_nuclear":false}},{"type":"Feature","geometry":{"type":"Point","coordinates":[-86.394,34.421]},"properties":{"key":"48-2e8765ab","layer":"power","name":"Guntersville","state":"AL","detail_file":"data/details/power-plants-00.json","plant_id":"48","capacity_mw":115.2,"status_group":"Operating","energy_sources":"WAT","type":"Power plant","is_nuclear":false}},{"type":"Feature","geometry":{"type":"Point","coordinates":[-85.097,32.608]},"properties":{"key":"7710-d4fd5c00","layer":"power","name":"H Allen Franklin Combined Cycle","state":"AL","detail_file":"data/details/power-plants-37.json","plant_id":"7710","capacity_mw":1995.7,"status_group":"Operating","energy_sources":"NG","type":"Power plant","is_nuclear":false}},{"type":"Feature","geometry":{"type":"Point","coordinates":[-86.052,33.785]},"properties":{"key":"11-3d47126d","layer":"power","name":"H Neely Henry Dam","state":"AL","detail_file":"data/details/power-plants-31.json","plant_id":"11","capacity_mw":72.9,"status_group":"Operating","energy_sources":"WAT","type":"Power plant","is_nuclear":false}},{"type":"Feature","geometry":{"type":"Point","coordinates":[-85.616,33.258]},"properties":{"key":"6188-a354b865","layer":"power","name":"Harris Dam","state":"AL","detail_file":"data/details/power-plants-05.json","plant_id":"6188","capacity_mw":135.0,"status_group":"Operating","energy_sources":"WAT","type":"Power plant","is_nuclear":false}},{"type":"Feature","geometry":{"type":"Point","coordinates":[-85.903,33.001]},"properties":{"key":"55411-a891af98","layer":"power","name":"Hillabee Energy Center","state":"AL","detail_file":"data/details/power-plants-57.json","plant_id":"55411","capacity_mw":822.8,"status_group":"Operating","energy_sources":"NG","type":"Power plant","is_nuclear":false}},{"type":"Feature","geometry":{"type":"Point","coordinates":[-87.233,34.67]},"properties":{"key":"66852-756cf53a","layer":"power","name":"Hillsboro Solar 3","state":"AL","detail_file":"data/details/power-plants-40.json","plant_id":"66852","capacity_mw":200.0,"status_group":"Under construction","energy_sources":"SUN","type":"Power plant","is_nuclear":false}},{"type":"Feature","geometry":{"type":"Point","coordinates":[-87.45,33.255]},"properties":{"key":"12-76826a4d","layer":"power","name":"Holt Dam","state":"AL","detail_file":"data/details/power-plants-01.json","plant_id":"12","capacity_mw":46.9,"status_group":"Operating","energy_sources":"WAT","type":"Power plant","is_nuclear":false}},{"type":"Feature","geometry":{"type":"Point","coordinates":[-86.472,32.419]},"properties":{"key":"52140-941a3a19","layer":"power","name":"International Paper Prattville Mill","state":"AL","detail_file":"data/details/power-plants-36.json","plant_id":"52140","capacity_mw":89.8,"status_group":"Operating","energy_sources":"BLQ","type":"Power plant","is_nuclear":false}},{"type":"Feature","geometry":{"type":"Point","coordinates":[-86.871,32.426]},"properties":{"key":"54096-03d06fd9","layer":"power","name":"International Paper Riverdale Mill","state":"AL","detail_file":"data/details/power-plants-23.json","plant_id":"54096","capacity_mw":104.2,"status_group":"Operating","energy_sources":"BLQ; NG","type":"Power plant","is_nuclear":false}},{"type":"Feature","geometry":{"type":"Point","coordinates":[-87.06,33.632]},"properties":{"key":"6002-c9506787","layer":"power","name":"James H Miller Jr","state":"AL","detail_file":"data/details/power-plants-63.json","plant_id":"6002","capacity_mw":2822.0,"status_group":"Operating","energy_sources":"SUB","type":"Power plant","is_nuclear":false}},{"type":"Feature","geometry":{"type":"Point","coordinates":[-86.784,32.324]},"properties":{"key":"6131-c3535d9b","layer":"power","name":"Jones Bluff","state":"AL","detail_file":"data/details/power-plants-16.json","plant_id":"6131","capacity_mw":82.0,"status_group":"Operating","energy_sources":"WAT","type":"Power plant","is_nuclear":false}},{"type":"Feature","geometry":{"type":"Point","coordinates":[-86.255,32.619]},"properties":{"key":"13-795b9ab6","layer":"power","name":"Jordan Dam","state":"AL","detail_file":"data/details/power-plants-37.json","plant_id":"13","capacity_mw":100.0,"status_group":"Operating","energy_sources":"WAT","type":"Power plant","is_nuclear":false}},{"type":"Feature","geometry":{"type":"Point","coordinates":[-85.388,32.876]},"properties":{"key":"60583-59487179","layer":"power","name":"LaFayette Solar Farm","state":"AL","detail_file":"data/details/power-plants-38.json","plant_id":"60583","capacity_mw":79.2,"status_group":"Operating","energy_sources":"SUN","type":"Power plant","is_nuclear":false}},{"type":"Feature","geometry":{"type":"Point","coordinates":[-87.251,34.639]},"properties":{"key":"67233-2517b6da","layer":"power","name":"Lawrence County Solar","state":"AL","detail_file":"data/details/power-plants-43.json","plant_id":"67233","capacity_mw":193.0,"status_group":"Planned","energy_sources":"SUN","type":"Power plant","is_nuclear":false}},{"type":"Feature","geometry":{"type":"Point","coordinates":[-86.519,32.963]},"properties":{"key":"15-a9eff38d","layer":"power","name":"Lay Dam","state":"AL","detail_file":"data/details/power-plants-01.json","plant_id":"15","capacity_mw":177.0,"status_group":"Operating","energy_sources":"WAT","type":"Power plant","is_nuclear":false}},{"type":"Feature","geometry":{"type":"Point","coordinates":[-87.108,33.941]},"properties":{"key":"18-af82d9bc","layer":"power","name":"Lewis Smith Dam","state":"AL","detail_file":"data/details/power-plants-34.json","plant_id":"18","capacity_mw":181.0,"status_group":"Operating","energy_sources":"WAT","type":"Power plant","is_nuclear":false}},{"type":"Feature","geometry":{"type":"Point","coordinates":[-86.338,33.426]},"properties":{"key":"14-e5f0b8d6","layer":"power","name":"Logan Martin Dam","state":"AL","detail_file":"data/details/power-plants-12.json","plant_id":"14","capacity_mw":128.1,"status_group":"Operating","energy_sources":"WAT","type":"Power plant","is_nuclear":false}},{"type":"Feature","geometry":{"type":"Point","coordinates":[-85.911,32.68]},"properties":{"key":"16-a3ab88a7","layer":"power","name":"Martin Dam","state":"AL","detail_file":"data/details/power-plants-54.json","plant_id":"16","capacity_mw":210.6,"status_group":"Operating","energy_sources":"WAT","type":"Power plant","is_nuclear":false}},{"type":"Feature","geometry":{"type":"Point","coordinates":[-85.027,32.176]},"properties":{"key":"54802-5d77d37a","layer":"power","name":"Mead Coated Board","state":"AL","detail_file":"data/details/power-plants-44.json","plant_id":"54802","capacity_mw":120.5,"status_group":"Operating","energy_sources":"BLQ; NG","type":"Power plant","is_nuclear":false}},{"type":"Feature","geometry":{"type":"Point","coordinates":[-87.4,32.101]},"properties":{"key":"38-8663db51","layer":"power","name":"Millers Ferry","state":"AL","detail_file":"data/details/power-plants-54.json","plant_id":"38","capacity_mw":101.1,"status_group":"Operating","energy_sources":"WAT","type":"Power plant","is_nuclear":false}},{"type":"Feature","geometry":{"type":"Point","coordinates":[-86.445,32.806]},"properties":{"key":"17-fc8dcd1f","layer":"power","name":"Mitchell Dam","state":"AL","detail_file":"data/details/power-plants-14.json","plant_id":"17","capacity_mw":170.0,"status_group":"Operating","energy_sources":"WAT","type":"Power plant","is_nuclear":false}},{"type":"Feature","geometry":{"type":"Point","coordinates":[-87.064,34.64]},"properties":{"key":"55293-af6b9e21","layer":"power","name":"Morgan Energy Center","state":"AL","detail_file":"data/details/power-plants-25.json","plant_id":"55293","capacity_mw":900.0,"status_group":"Operating","energy_sources":"NG","type":"Power plant","is_nuclear":false}},{"type":"Feature","geometry":{"type":"Point","coordinates":[-87.905,34.77]},"properties":{"key":"62462-64ec14bd","layer":"power","name":"Muscle Shoals","state":"AL","detail_file":"data/details/power-plants-59.json","plant_id":"62462","capacity_mw":227.0,"status_group":"Operating","energy_sources":"SUN","type":"Power plant","is_nuclear":false}},{"type":"Feature","geometry":{"type":"Point","coordinates":[-86.411,32.318]},"properties":{"key":"68001-65cc3944","layer":"power","name":"Old Hayneville Solar, LLC","state":"AL","detail_file":"data/details/power-plants-25.json","plant_id":"68001","capacity_mw":80.0,"status_group":"Under construction","energy_sources":"SUN","type":"Power plant","is_nuclear":false}},{"type":"Feature","geometry":{"type":"Point","coordinates":[-86.612,34.611]},"properties":{"key":"61901-20c14aa6","layer":"power","name":"Redstone Arsenal Hybrid","state":"AL","detail_file":"data/details/power-plants-47.json","plant_id":"61901","capacity_mw":11.0,"status_group":"Operating","energy_sources":"MWH; SUN","type":"Power plant","is_nuclear":false}},{"type":"Feature","geometry":{"type":"Point","coordinates":[-87.842,34.832]},"properties":{"key":"60058-97166c26","layer":"power","name":"River Bend Solar, LLC (AL)","state":"AL","detail_file":"data/details/power-plants-62.json","plant_id":"60058","capacity_mw":75.0,"status_group":"Operating","energy_sources":"SUN","type":"Power plant","is_nuclear":false}},{"type":"Feature","geometry":{"type":"Point","coordinates":[-87.706,34.276]},"properties":{"key":"68243-bd77431b","layer":"power","name":"SR Bear Creek","state":"AL","detail_file":"data/details/power-plants-50.json","plant_id":"68243","capacity_mw":4.5,"status_group":"Under construction","energy_sources":"SUN","type":"Power plant","is_nuclear":false}},{"type":"Feature","geometry":{"type":"Point","coordinates":[-86.319,32.255]},"properties":{"key":"68104-06515495","layer":"power","name":"SR Hope Hull","state":"AL","detail_file":"data/details/power-plants-58.json","plant_id":"68104","capacity_mw":80.0,"status_group":"Under construction","energy_sources":"SUN","type":"Power plant","is_nuclear":false}},{"type":"Feature","geometry":{"type":"Point","coordinates":[-87.362,32.419]},"properties":{"key":"68560-dc8ac4ad","layer":"power","name":"SR Marion Junction","state":"AL","detail_file":"data/details/power-plants-48.json","plant_id":"68560","capacity_mw":15.0,"status_group":"Under construction","energy_sources":"SUN","type":"Power plant","is_nuclear":false}},{"type":"Feature","geometry":{"type":"Point","coordinates":[-87.818,33.695]},"properties":{"key":"68566-55a4b707","layer":"power","name":"SR Sipsey","state":"AL","detail_file":"data/details/power-plants-40.json","plant_id":"68566","capacity_mw":10.0,"status_group":"Under construction","energy_sources":"SUN","type":"Power plant","is_nuclear":false}},{"type":"Feature","geometry":{"type":"Point","coordinates":[-85.866,34.344]},"properties":{"key":"59710-17e3d3c0","layer":"power","name":"Sand Valley Power Station","state":"AL","detail_file":"data/details/power-plants-13.json","plant_id":"59710","capacity_mw":4.8,"status_group":"Operating","energy_sources":"LFG","type":"Power plant","is_nuclear":false}},{"type":"Feature","geometry":{"type":"Point","coordinates":[-87.664,34.675]},"properties":{"key":"66858-f45a6e60","layer":"power","name":"Spring Valley Solar 2","state":"AL","detail_file":"data/details/power-plants-32.json","plant_id":"66858","capacity_mw":200.0,"status_group":"Under construction","energy_sources":"SUN","type":"Power plant","is_nuclear":false}},{"type":"Feature","geometry":{"type":"Point","coordinates":[-86.63,34.83]},"properties":{"key":"67488-6ec2d835","layer":"power","name":"TAI Huntsville Solar Hybrid","state":"AL","detail_file":"data/details/power-plants-16.json","plant_id":"67488","capacity_mw":32.4,"status_group":"Operating","energy_sources":"SUN","type":"Power plant","is_nuclear":false}},{"type":"Feature","geometry":{"type":"Point","coordinates":[-86.739,32.651]},"properties":{"key":"55271-730b3227","layer":"power","name":"Tenaska Lindsay Hill Generating Station","state":"AL","detail_file":"data/details/power-plants-35.json","plant_id":"55271","capacity_mw":939.4,"status_group":"Operating","energy_sources":"NG","type":"Power plant","is_nuclear":false}},{"type":"Feature","geometry":{"type":"Point","coordinates":[-85.888,32.535]},"properties":{"key":"19-6178e44d","layer":"power","name":"Thurlow Dam","state":"AL","detail_file":"data/details/power-plants-29.json","plant_id":"19","capacity_mw":91.0,"status_group":"Operating","energy_sources":"WAT","type":"Power plant","is_nuclear":false}},{"type":"Feature","geometry":{"type":"Point","coordinates":[-86.357,33.328]},"properties":{"key":"54216-bfa570a5","layer":"power","name":"U S Alliance Coosa Pines","state":"AL","detail_file":"data/details/power-plants-06.json","plant_id":"54216","capacity_mw":25.9,"status_group":"Operating","energy_sources":"BLQ","type":"Power plant","is_nuclear":false}},{"type":"Feature","geometry":{"type":"Point","coordinates":[-86.283,32.584]},"properties":{"key":"4-ebeb8b9e","layer":"power","name":"Walter Bouldin Dam","state":"AL","detail_file":"data/details/power-plants-18.json","plant_id":"4","capacity_mw":225.0,"status_group":"Operating","energy_sources":"WAT","type":"Power plant","is_nuclear":false}},{"type":"Feature","geometry":{"type":"Point","coordinates":[-85.039,32.541]},"properties":{"key":"55138-66fc524e","layer":"power","name":"Walton Discover Power Facility","state":"AL","detail_file":"data/details/power-plants-49.json","plant_id":"55138","capacity_mw":103.0,"status_group":"Operating","energy_sources":"NG","type":"Power plant","is_nuclear":false}},{"type":"Feature","geometry":{"type":"Point","coordinates":[-85.754,34.172]},"properties":{"key":"20-b19a0d83","layer":"power","name":"Weiss Dam","state":"AL","detail_file":"data/details/power-plants-14.json","plant_id":"20","capacity_mw":87.6,"status_group":"Operating","energy_sources":"WAT","type":"Power plant","is_nuclear":false}},{"type":"Feature","geometry":{"type":"Point","coordinates":[-87.976,32.454]},"properties":{"key":"54763-24dcc4d7","layer":"power","name":"WestRock Demopolis Mill","state":"AL","detail_file":"data/details/power-plants-11.json","plant_id":"54763","capacity_mw":47.4,"status_group":"Operating","energy_sources":"BLQ","type":"Power plant","is_nuclear":false}},{"type":"Feature","geometry":{"type":"Point","coordinates":[-87.382,34.807]},"properties":{"key":"49-86f334bb","layer":"power","name":"Wheeler Dam","state":"AL","detail_file":"data/details/power-plants-21.json","plant_id":"49","capacity_mw":404.0,"status_group":"Operating","energy_sources":"WAT","type":"Power plant","is_nuclear":false}},{"type":"Feature","geometry":{"type":"Point","coordinates":[-87.625,34.798]},"properties":{"key":"6440-8895615d","layer":"power","name":"Wilson Dam","state":"AL","detail_file":"data/details/power-plants-46.json","plant_id":"6440","capacity_mw":666.7,"status_group":"Operating","energy_sources":"WAT","type":"Power plant","is_nuclear":false}},{"type":"Feature","geometry":{"type":"Point","coordinates":[-85.89,32.574]},"properties":{"key":"21-56c16749","layer":"power","name":"Yates Dam","state":"AL","detail_file":"data/details/power-plants-27.json","plant_id":"21","capacity_mw":50.5,"status_group":"Operating","energy_sources":"WAT","type":"Power plant","is_nuclear":false}},{"type":"Feature","geometry":{"type":"Point","coordinates":[-84.387,33.758]},"properties":{"key":"54818-4b83579d","layer":"power","name":"191 Peachtree Tower","state":"GA","detail_file":"data/details/power-plants-22.json","plant_id":"54818","capacity_mw":2.4,"status_group":"Operating","energy_sources":"DFO","type":"Power plant","is_nuclear":false}},{"type":"Feature","geometry":{"type":"Point","coordinates":[-84.728,34.164]},"properties":{"key":"760-66a17028","layer":"power","name":"Allatoona","state":"GA","detail_file":"data/details/power-plants-29.json","plant_id":"760","capacity_mw":86.6,"status_group":"Operating","energy_sources":"WAT","type":"Power plant","is_nuclear":false}},{"type":"Feature","geometry":{"type":"Point","coordinates":[-84.719,34.087]},"properties":{"key":"69688-3de9a900","layer":"power","name":"Allatoona Substation #10","state":"GA","detail_file":"data/details/power-plants-37.json","plant_id":"69688","capacity_mw":10.0,"status_group":"Under construction","energy_sources":"MWH","type":"Power plant","is_nuclear":false}},{"type":"Feature","geometry":{"type":"Point","coordinates":[-84.401,33.755]},"properties":{"key":"62393-0ec5d9a9","layer":"power","name":"Atlanta Falcons Solar","state":"GA","detail_file":"data/details/power-plants-33.json","plant_id":"62393","capacity_mw":1.0,"status_group":"Operating","energy_sources":"SUN","type":"Power plant","is_nuclear":false}},{"type":"Feature","geometry":{"type":"Point","coordinates":[-84.389,33.761]},"properties":{"key":"54877-de2810d3","layer":"power","name":"Atlanta Gift Mart LP","state":"GA","detail_file":"data/details/power-plants-29.json","plant_id":"54877","capacity_mw":1.2,"status_group":"Operating","energy_sources":"DFO","type":"Power plant","is_nuclear":false}},{"type":"Feature","geometry":{"type":"Point","coordinates":[-84.386,33.771]},"properties":{"key":"55152-d9bfb602","layer":"power","name":"Bank of America Plaza","state":"GA","detail_file":"data/details/power-plants-21.json","plant_id":"55152","capacity_mw":3.0,"status_group":"Operating","energy_sources":"DFO","type":"Power plant","is_nuclear":false}},{"type":"Feature","geometry":{"type":"Point","coordinates":[-84.831,34.257]},"properties":{"key":"66980-c108dd71","layer":"power","name":"Bartow Davidson","state":"GA","detail_file":"data/details/power-plants-00.json","plant_id":"66980","capacity_mw":2.6,"status_group":"Operating","energy_sources":"SUN","type":"Power plant","is_nuclear":false}},{"type":"Feature","geometry":{"type":"Point","coordinates":[-84.282,34.884]},"properties":{"key":"757-1e898474","layer":"power","name":"Blue Ridge","state":"GA","detail_file":"data/details/power-plants-09.json","plant_id":"757","capacity_mw":23.5,"status_group":"Operating","energy_sources":"WAT","type":"Power plant","is_nuclear":false}},{"type":"Feature","geometry":{"type":"Point","coordinates":[-84.922,34.126]},"properties":{"key":"703-0d936cc5","layer":"power","name":"Bowen","state":"GA","detail_file":"data/details/power-plants-54.json","plant_id":"703","capacity_mw":3498.6,"status_group":"Operating","energy_sources":"BIT","type":"Power plant","is_nuclear":false}},{"type":"Feature","geometry":{"type":"Point","coordinates":[-84.203,32.056]},"properties":{"key":"65729-b40317c2","layer":"power","name":"Brady Solar LLC","state":"GA","detail_file":"data/details/power-plants-28.json","plant_id":"65729","capacity_mw":1.8,"status_group":"Operating","energy_sources":"SUN","type":"Power plant","is_nuclear":false}},{"type":"Feature","geometry":{"type":"Point","coordinates":[-84.077,34.162]},"properties":{"key":"759-b4a0e7b2","layer":"power","name":"Buford","state":"GA","detail_file":"data/details/power-plants-62.json","plant_id":"759","capacity_mw":131.2,"status_group":"Operating","energy_sources":"WAT","type":"Power plant","is_nuclear":false}},{"type":"Feature","geometry":{"type":"Point","coordinates":[-84.317,32.576]},"properties":{"key":"59891-85c0c8a4","layer":"power","name":"Butler Solar Farm 20","state":"GA","detail_file":"data/details/power-plants-60.json","plant_id":"59891","capacity_mw":22.0,"status_group":"Operating","energy_sources":"SUN","type":"Power plant","is_nuclear":false}},{"type":"Feature","geometry":{"type":"Point","coordinates":[-84.276,32.562]},"properties":{"key":"59896-5abb6658","layer":"power","name":"Butler Solar Project 103","state":"GA","detail_file":"data/details/power-plants-14.json","plant_id":"59896","capacity_mw":104.0,"status_group":"Operating","energy_sources":"SUN","type":"Power plant","is_nuclear":false}},{"type":"Feature","geometry":{"type":"Point","coordinates":[-84.069,32.198]},"properties":{"key":"67021-421fc5fc","layer":"power","name":"CPV Stagecoach Solar","state":"GA","detail_file":"data/details/power-plants-17.json","plant_id":"67021","capacity_mw":80.0,"status_group":"Operating","energy_sources":"SUN","type":"Power plant","is_nuclear":false}},{"type":"Feature","geometry":{"type":"Point","coordinates":[-84.544,32.965]},"properties":{"key":"58893-bec6bd15","layer":"power","name":"Camp Solar Plant","state":"GA","detail_file":"data/details/power-plants-06.json","plant_id":"58893","capacity_mw":2.4,"status_group":"Operating","energy_sources":"SUN","type":"Power plant","is_nuclear":false}},{"type":"Feature","geometry":{"type":"Point","coordinates":[-84.673,34.612]},"properties":{"key":"6130-0ba9d273","layer":"power","name":"Carters","state":"GA","detail_file":"data/details/power-plants-39.json","plant_id":"6130","capacity_mw":500.0,"status_group":"Operating","energy_sources":"WAT","type":"Power plant","is_nuclear":false}},{"type":"Feature","geometry":{"type":"Point","coordinates":[-85.039,33.407]},"properties":{"key":"7917-628199f7","layer":"power","name":"Chattahoochee Energy Facility","state":"GA","detail_file":"data/details/power-plants-59.json","plant_id":"7917","capacity_mw":539.7,"status_group":"Operating","energy_sources":"NG","type":"Power plant","is_nuclear":false}},{"type":"Feature","geometry":{"type":"Point","coordinates":[-85.45,34.498]},"properties":{"key":"68627-73baa758","layer":"power","name":"Chattooga Gore","state":"GA","detail_file":"data/details/power-plants-48.json","plant_id":"68627","capacity_mw":2.4,"status_group":"Operating","energy_sources":"SUN","type":"Power plant","is_nuclear":false}},{"type":"Feature","geometry":{"type":"Point","coordinates":[-84.932,34.718]},"properties":{"key":"59556-be4a2cf4","layer":"power","name":"Dalton 2","state":"GA","detail_file":"data/details/power-plants-20.json","plant_id":"59556","capacity_mw":6.5,"status_group":"Operating","energy_sources":"SUN","type":"Power plant","is_nuclear":false}},{"type":"Feature","geometry":{"type":"Point","coordinates":[-84.306,32.911]},"properties":{"key":"55267-f94ee936","layer":"power","name":"Edward L. Addison Generating Plant","state":"GA","detail_file":"data/details/power-plants-25.json","plant_id":"55267","capacity_mw":701.2,"status_group":"Operating","energy_sources":"NG","type":"Power plant","is_nuclear":false}},{"type":"Feature","geometry":{"type":"Point","coordinates":[-84.283,33.792]},"properties":{"key":"54830-302094e0","layer":"power","name":"Emory Decatur Hospital","state":"GA","detail_file":"data/details/power-plants-07.json","plant_id":"54830","capacity_mw":3.9,"status_group":"Operating","energy_sources":"DFO","type":"Power plant","is_nuclear":false}},{"type":"Feature","geometry":{"type":"Point","coordinates":[-84.149,33.704]},"properties":{"key":"56231-5c389388","layer":"power","name":"Emory Hillandale Hospital","state":"GA","detail_file":"data/details/power-plants-52.json","plant_id":"56231","capacity_mw":1.6,"status_group":"Operating","energy_sources":"DFO","type":"Power plant","is_nuclear":false}},{"type":"Feature","geometry":{"type":"Point","coordinates":[-84.067,32.254]},"properties":{"key":"50465-e5a9d70b","layer":"power","name":"Flint River Operations","state":"GA","detail_file":"data/details/power-plants-06.json","plant_id":"50465","capacity_mw":77.0,"status_group":"Operating","energy_sources":"BLQ; WDS","type":"Power plant","is_nuclear":false}},{"type":"Feature","geometry":{"type":"Point","coordinates":[-84.148,32.182]},"properties":{"key":"62887-8a55f424","layer":"power","name":"Freeman Avenue","state":"GA","detail_file":"data/details/power-plants-60.json","plant_id":"62887","capacity_mw":1.4,"status_group":"Operating","energy_sources":"SUN","type":"Power plant","is_nuclear":false}},{"type":"Feature","geometry":{"type":"Point","coordinates":[-84.122,33.244]},"properties":{"key":"61386-470e4354","layer":"power","name":"Georgia LFG Pine Ridge Plant","state":"GA","detail_file":"data/details/power-plants-35.json","plant_id":"61386","capacity_mw":6.6,"status_group":"Operating","energy_sources":"LFG","type":"Power plant","is_nuclear":false}},{"type":"Feature","geometry":{"type":"Point","coordinates":[-84.033,34.127]},"properties":{"key":"61387-e2ca519c","layer":"power","name":"Georgia LFG Richland Creek Plant","state":"GA","detail_file":"data/details/power-plants-27.json","plant_id":"61387","capacity_mw":11.2,"status_group":"Operating","energy_sources":"LFG","type":"Power plant","is_nuclear":false}},{"type":"Feature","geometry":{"type":"Point","coordinates":[-84.387,33.758]},"properties":{"key":"54906-99cdad51","layer":"power","name":"Georgia Pacific Center","state":"GA","detail_file":"data/details/power-plants-27.json","plant_id":"54906","capacity_mw":1.4,"status_group":"Operating","energy_sources":"DFO","type":"Power plant","is_nuclear":false}},{"type":"Feature","geometry":{"type":"Point","coordinates":[-84.705,34.44]},"properties":{"key":"68626-81b761d0","layer":"power","name":"Gordon Pine Hall","state":"GA","detail_file":"data/details/power-plants-11.json","plant_id":"68626","capacity_mw":2.4,"status_group":"Operating","energy_sources":"SUN","type":"Power plant","is_nuclear":false}},{"type":"Feature","geometry":{"type":"Point","coordinates":[-84.706,34.442]},"properties":{"key":"68618-30bcf630","layer":"power","name":"Gordon Thompson","state":"GA","detail_file":"data/details/power-plants-33.json","plant_id":"68618","capacity_mw":3.0,"status_group":"Operating","energy_sources":"SUN","type":"Power plant","is_nuclear":false}},{"type":"Feature","geometry":{"type":"Point","coordinates":[-84.714,33.046]},"properties":{"key":"60512-77342043","layer":"power","name":"Greenville","state":"GA","detail_file":"data/details/power-plants-39.json","plant_id":"60512","capacity_mw":1.0,"status_group":"Operating","energy_sources":"SUN","type":"Power plant","is_nuclear":false}},{"type":"Feature","geometry":{"type":"Point","coordinates":[-85.346,34.253]},"properties":{"key":"708-47c81cc0","layer":"power","name":"Hammond","state":"GA","detail_file":"data/details/power-plants-54.json","plant_id":"708","capacity_mw":57.5,"status_group":"Under construction","energy_sources":"MWH","type":"Power plant","is_nuclear":false}},{"type":"Feature","geometry":{"type":"Point","coordinates":[-84.697,32.798]},"properties":{"key":"64585-1dbca6d1","layer":"power","name":"Harris Shiloh","state":"GA","detail_file":"data/details/power-plants-33.json","plant_id":"64585","capacity_mw":2.1,"status_group":"Operating","energy_sources":"SUN","type":"Power plant","is_nuclear":false}},{"type":"Feature","geometry":{"type":"Point","coordinates":[-84.991,33.358]},"properties":{"key":"55141-ce9ba02a","layer":"power","name":"Hawk Road Facility","state":"GA","detail_file":"data/details/power-plants-60.json","plant_id":"55141","capacity_mw":495.0,"status_group":"Operating","energy_sources":"NG","type":"Power plant","is_nuclear":false}},{"type":"Feature","geometry":{"type":"Point","coordinates":[-84.268,34.086]},"properties":{"key":"54457-3f63c911","layer":"power","name":"Hewlett Packard Enterprise","state":"GA","detail_file":"data/details/power-plants-26.json","plant_id":"54457","capacity_mw":5.0,"status_group":"Operating","energy_sources":"DFO","type":"Power plant","is_nuclear":false}},{"type":"Feature","geometry":{"type":"Point","coordinates":[-84.336,33.665]},"properties":{"key":"59459-10a3feb2","layer":"power","name":"Hickory Ridge Landfill Solar Project","state":"GA","detail_file":"data/details/power-plants-43.json","plant_id":"59459","capacity_mw":0.6,"status_group":"Operating","energy_sources":"SUN","type":"Power plant","is_nuclear":false}},{"type":"Feature","geometry":{"type":"Point","coordinates":[-84.389,33.753]},"properties":{"key":"54290-4741f833","layer":"power","name":"Inforum","state":"GA","detail_file":"data/details/power-plants-19.json","plant_id":"54290","capacity_mw":1.3,"status_group":"Operating","energy_sources":"DFO","type":"Power plant","is_nuclear":false}},{"type":"Feature","geometry":{"type":"Point","coordinates":[-85.328,34.253]},"properties":{"key":"10426-8fddb372","layer":"power","name":"Inland Paperboard Packaging Rome","state":"GA","detail_file":"data/details/power-plants-07.json","plant_id":"10426","capacity_mw":70.4,"status_group":"Operating","energy_sources":"BLQ","type":"Power plant","is_nuclear":false}},{"type":"Feature","geometry":{"type":"Point","coordinates":[-84.476,33.824]},"properties":{"key":"710-69b5114a","layer":"power","name":"Jack McDonough","state":"GA","detail_file":"data/details/power-plants-39.json","plant_id":"710","capacity_mw":2848.4,"status_group":"Operating","energy_sources":"DFO; NG","type":"Power plant","is_nuclear":false}},{"type":"Feature","geometry":{"type":"Point","coordinates":[-85.034,33.0]},"properties":{"key":"62960-6d41fbd4","layer":"power","name":"Kimberly-Clark Solar","state":"GA","detail_file":"data/details/power-plants-14.json","plant_id":"62960","capacity_mw":2.3,"status_group":"Operating","energy_sources":"SUN","type":"Power plant","is_nuclear":false}},{"type":"Feature","geometry":{"type":"Point","coordinates":[-84.268,33.783]},"properties":{"key":"58064-d312c505","layer":"power","name":"Laredo Bus Facility Solar Canopies","state":"GA","detail_file":"data/details/power-plants-54.json","plant_id":"58064","capacity_mw":1.0,"status_group":"Operating","energy_sources":"SUN","type":"Power plant","is_nuclear":false}},{"type":"Feature","geometry":{"type":"Point","coordinates":[-84.394,33.655]},"properties":{"key":"58484-716b5657","layer":"power","name":"MAS ASB Cogen Plant","state":"GA","detail_file":"data/details/power-plants-50.json","plant_id":"58484","capacity_mw":6.6,"status_group":"Operating","energy_sources":"NG","type":"Power plant","is_nuclear":false}},{"type":"Feature","geometry":{"type":"Point","coordinates":[-84.329,34.325]},"properties":{"key":"68512-c416555e","layer":"power","name":"McGrau Ford Battery Storage Facility","state":"GA","detail_file":"data/details/power-plants-12.json","plant_id":"68512","capacity_mw":530.0,"status_group":"Under construction","energy_sources":"MWH","type":"Power plant","is_nuclear":false}},{"type":"Feature","geometry":{"type":"Point","coordinates":[-84.644,32.877]},"properties":{"key":"64280-667b79df","layer":"power","name":"Meriwether Jackson","state":"GA","detail_file":"data/details/power-plants-26.json","plant_id":"64280","capacity_mw":3.0,"status_group":"Operating","energy_sources":"SUN","type":"Power plant","is_nuclear":false}},{"type":"Feature","geometry":{"type":"Point","coordinates":[-84.384,33.968]},"properties":{"key":"717-ca245ff3","layer":"power","name":"Morgan Falls","state":"GA","detail_file":"data/details/power-plants-22.json","plant_id":"717","capacity_mw":16.8,"status_group":"Operating","energy_sources":"WAT","type":"Power plant","is_nuclear":false}},{"type":"Feature","geometry":{"type":"Point","coordinates":[-84.66,32.804]},"properties":{"key":"65018-1dfef02a","layer":"power","name":"Mossy Branch Battery Facility","state":"GA","detail_file":"data/details/power-plants-52.json","plant_id":"65018","capacity_mw":65.0,"status_group":"Operating","energy_sources":"MWH","type":"Power plant","is_nuclear":false}},{"type":"Feature","geometry":{"type":"Point","coordinates":[-84.813,34.77]},"properties":{"key":"64281-d34980e7","layer":"power","name":"Murray Treadwell Farms","state":"GA","detail_file":"data/details/power-plants-39.json","plant_id":"64281","capacity_mw":3.0,"status_group":"Operating","energy_sources":"SUN","type":"Power plant","is_nuclear":false}},{"type":"Feature","geometry":{"type":"Point","coordinates":[-84.861,32.494]},"properties":{"key":"62881-0efbaed0","layer":"power","name":"Muscogee Public Works","state":"GA","detail_file":"data/details/power-plants-20.json","plant_id":"62881","capacity_mw":1.5,"status_group":"Operating","energy_sources":"SUN","type":"Power plant","is_nuclear":false}},{"type":"Feature","geometry":{"type":"Point","coordinates":[-84.996,32.499]},"properties":{"key":"719-914ded80","layer":"power","name":"North Highlands","state":"GA","detail_file":"data/details/power-plants-24.json","plant_id":"719","capacity_mw":29.6,"status_group":"Operating","energy_sources":"WAT","type":"Power plant","is_nuclear":false}},{"type":"Feature","geometry":{"type":"Point","coordinates":[-84.088,34.959]},"properties":{"key":"758-17f87f57","layer":"power","name":"Nottely","state":"GA","detail_file":"data/details/power-plants-40.json","plant_id":"758","capacity_mw":15.9,"status_group":"Operating","energy_sources":"WAT","type":"Power plant","is_nuclear":false}},{"type":"Feature","geometry":{"type":"Point","coordinates":[-85.0,32.516]},"properties":{"key":"720-99662ff6","layer":"power","name":"Oliver Dam","state":"GA","detail_file":"data/details/power-plants-61.json","plant_id":"720","capacity_mw":60.0,"status_group":"Operating","energy_sources":"WAT","type":"Power plant","is_nuclear":false}},{"type":"Feature","geometry":{"type":"Point","coordinates":[-84.257,32.573]},"properties":{"key":"59894-2345f623","layer":"power","name":"Pawpaw Solar Plant","state":"GA","detail_file":"data/details/power-plants-21.json","plant_id":"59894","capacity_mw":30.5,"status_group":"Operating","energy_sources":"SUN","type":"Power plant","is_nuclear":false}},{"type":"Feature","geometry":{"type":"Point","coordinates":[-84.126,33.045]},"properties":{"key":"57909-8584310b","layer":"power","name":"Piedmont Green Power","state":"GA","detail_file":"data/details/power-plants-27.json","plant_id":"57909","capacity_mw":60.0,"status_group":"Operating","energy_sources":"WDS","type":"Power plant","is_nuclear":false}},{"type":"Feature","geometry":{"type":"Point","coordinates":[-85.281,34.02]},"properties":{"key":"64586-54c8bbda","layer":"power","name":"Polk Cedartown","state":"GA","detail_file":"data/details/power-plants-04.json","plant_id":"64586","capacity_mw":2.2,"status_group":"Operating","energy_sources":"SUN","type":"Power plant","is_nuclear":false}},{"type":"Feature","geometry":{"type":"Point","coordinates":[-85.211,34.047]},"properties":{"key":"68619-6259aca0","layer":"power","name":"Polk Cedartown 2","state":"GA","detail_file":"data/details/power-plants-39.json","plant_id":"68619","capacity_mw":2.4,"status_group":"Operating","energy_sources":"SUN","type":"Power plant","is_nuclear":false}},{"type":"Feature","geometry":{"type":"Point","coordinates":[-85.214,34.042]},"properties":{"key":"65994-52a9f729","layer":"power","name":"Polk County GA S1, LLC","state":"GA","detail_file":"data/details/power-plants-50.json","plant_id":"65994","capacity_mw":3.0,"status_group":"Operating","energy_sources":"SUN","type":"Power plant","is_nuclear":false}},{"type":"Feature","geometry":{"type":"Point","coordinates":[-84.664,32.089]},"properties":{"key":"60513-efd35415","layer":"power","name":"Richland (GA)","state":"GA","detail_file":"data/details/power-plants-26.json","plant_id":"60513","capacity_mw":1.0,"status_group":"Operating","energy_sources":"SUN","type":"Power plant","is_nuclear":false}},{"type":"Feature","geometry":{"type":"Point","coordinates":[-84.46,33.877]},"properties":{"key":"54816-370b84b4","layer":"power","name":"Riverwood 100 Building","state":"GA","detail_file":"data/details/power-plants-55.json","plant_id":"54816","capacity_mw":1.1,"status_group":"Operating","energy_sources":"DFO","type":"Power plant","is_nuclear":false}},{"type":"Feature","geometry":{"type":"Point","coordinates":[-85.022,34.015]},"properties":{"key":"65730-473bd570","layer":"power","name":"Rockmart","state":"GA","detail_file":"data/details/power-plants-35.json","plant_id":"65730","capacity_mw":2.6,"status_group":"Operating","energy_sources":"SUN","type":"Power plant","is_nuclear":false}},{"type":"Feature","geometry":{"type":"Point","coordinates":[-85.304,34.356]},"properties":{"key":"6189-5e68224c","layer":"power","name":"Rocky Mountain Hydroelectric Plant","state":"GA","detail_file":"data/details/power-plants-51.json","plant_id":"6189","capacity_mw":847.8,"status_group":"Operating","energy_sources":"WAT","type":"Power plant","is_nuclear":false}},{"type":"Feature","geometry":{"type":"Point","coordinates":[-84.733,32.025]},"properties":{"key":"64191-4f97a987","layer":"power","name":"SR Lumpkin","state":"GA","detail_file":"data/details/power-plants-19.json","plant_id":"64191","capacity_mw":100.0,"status_group":"Operating","energy_sources":"SUN","type":"Power plant","is_nuclear":false}},{"type":"Feature","geometry":{"type":"Point","coordinates":[-85.277,33.949]},"properties":{"key":"7813-c25c4a62","layer":"power","name":"Sewell Creek Energy","state":"GA","detail_file":"data/details/power-plants-50.json","plant_id":"7813","capacity_mw":570.0,"status_group":"Operating","energy_sources":"NG","type":"Power plant","is_nuclear":false}},{"type":"Feature","geometry":{"type":"Point","coordinates":[-84.393,33.811]},"properties":{"key":"54813-6de142bc","layer":"power","name":"Shepherd Center","state":"GA","detail_file":"data/details/power-plants-13.json","plant_id":"54813","capacity_mw":6.0,"status_group":"Operating","energy_sources":"DFO","type":"Power plant","is_nuclear":false}},{"type":"Feature","geometry":{"type":"Point","coordinates":[-84.556,33.979]},"properties":{"key":"63535-eb0780bd","layer":"power","name":"Solar BESS Hybrid","state":"GA","detail_file":"data/details/power-plants-17.json","plant_id":"63535","capacity_mw":3.5,"status_group":"Operating","energy_sources":"MWH; NG; SUN","type":"Power plant","is_nuclear":false}},{"type":"Feature","geometry":{"type":"Point","coordinates":[-84.556,33.979]},"properties":{"key":"63535-e311e0c1","layer":"power","name":"Solar BESS Hybrid","state":"GA","detail_file":"data/details/power-plants-27.json","plant_id":"63535","capacity_mw":6.0,"status_group":"Under construction","energy_sources":"NG","type":"Power plant","is_nuclear":false}},{"type":"Feature","geometry":{"type":"Point","coordinates":[-84.245,34.086]},"properties":{"key":"55274-e05d8520","layer":"power","name":"State Farm Support Center East","state":"GA","detail_file":"data/details/power-plants-17.json","plant_id":"55274","capacity_mw":10.8,"status_group":"Operating","energy_sources":"DFO","type":"Power plant","is_nuclear":false}},{"type":"Feature","geometry":{"type":"Point","coordinates":[-84.387,33.763]},"properties":{"key":"54845-2b56e580","layer":"power","name":"Sun Trust Plaza","state":"GA","detail_file":"data/details/power-plants-35.json","plant_id":"54845","capacity_mw":2.4,"status_group":"Operating","energy_sources":"DFO","type":"Power plant","is_nuclear":false}},{"type":"Feature","geometry":{"type":"Point","coordinates":[-84.692,32.589]},"properties":{"key":"7916-c467698f","layer":"power","name":"Talbot County Energy","state":"GA","detail_file":"data/details/power-plants-47.json","plant_id":"7916","capacity_mw":726.0,"status_group":"Operating","energy_sources":"NG","type":"Power plant","is_nuclear":false}},{"type":"Feature","geometry":{"type":"Point","coordinates":[-84.692,32.589]},"properties":{"key":"7916-adcada92","layer":"power","name":"Talbot County Energy","state":"GA","detail_file":"data/details/power-plants-63.json","plant_id":"7916","capacity_mw":262.0,"status_group":"Planned","energy_sources":"NG","type":"Power plant","is_nuclear":false}},{"type":"Feature","geometry":{"type":"Point","coordinates":[-84.387,32.452]},"properties":{"key":"56870-eee41ba3","layer":"power","name":"Taylor","state":"GA","detail_file":"data/details/power-plants-00.json","plant_id":"56870","capacity_mw":8.0,"status_group":"Operating","energy_sources":"LFG","type":"Power plant","is_nuclear":false}},{"type":"Feature","geometry":{"type":"Point","coordinates":[-84.297,32.583]},"properties":{"key":"59897-e727dff9","layer":"power","name":"Taylor County Solar","state":"GA","detail_file":"data/details/power-plants-25.json","plant_id":"59897","capacity_mw":148.0,"status_group":"Operating","energy_sources":"SUN","type":"Power plant","is_nuclear":false}},{"type":"Feature","geometry":{"type":"Point","coordinates":[-84.39,33.776]},"properties":{"key":"63775-e774a135","layer":"power","name":"Tech Square Microgrid","state":"GA","detail_file":"data/details/power-plants-51.json","plant_id":"63775","capacity_mw":1.4,"status_group":"Operating","energy_sources":"DFO; MWH; NG","type":"Power plant","is_nuclear":false}},{"type":"Feature","geometry":{"type":"Point","coordinates":[-85.0,33.352]},"properties":{"key":"55061-de53db24","layer":"power","name":"Tenaska Georgia Generation Facility","state":"GA","detail_file":"data/details/power-plants-35.json","plant_id":"55061","capacity_mw":1099.2,"status_group":"Operating","energy_sources":"NG","type":"Power plant","is_nuclear":false}},{"type":"Feature","geometry":{"type":"Point","coordinates":[-84.918,34.709]},"properties":{"key":"55382-1b8baa09","layer":"power","name":"Thomas A Smith Energy Facility","state":"GA","detail_file":"data/details/power-plants-52.json","plant_id":"55382","capacity_mw":1192.0,"status_group":"Operating","energy_sources":"NG","type":"Power plant","is_nuclear":false}},{"type":"Feature","geometry":{"type":"Point","coordinates":[-84.849,32.896]},"properties":{"key":"62885-c3eeb351","layer":"power","name":"Troup RC50","state":"GA","detail_file":"data/details/power-plants-63.json","plant_id":"62885","capacity_mw":2.3,"status_group":"Operating","energy_sources":"SUN","type":"Power plant","is_nuclear":false}},{"type":"Feature","geometry":{"type":"Point","coordinates":[-84.896,32.899]},"properties":{"key":"64284-c58f0422","layer":"power","name":"Troup RC50 II","state":"GA","detail_file":"data/details/power-plants-51.json","plant_id":"64284","capacity_mw":1.5,"status_group":"Operating","energy_sources":"SUN","type":"Power plant","is_nuclear":false}},{"type":"Feature","geometry":{"type":"Point","coordinates":[-84.679,33.699]},"properties":{"key":"66205-bfc45f08","layer":"power","name":"Turnipseed Solar, LLC","state":"GA","detail_file":"data/details/power-plants-25.json","plant_id":"66205","capacity_mw":3.0,"status_group":"Operating","energy_sources":"SUN","type":"Power plant","is_nuclear":false}},{"type":"Feature","geometry":{"type":"Point","coordinates":[-84.28,32.93]},"properties":{"key":"66353-d3557727","layer":"power","name":"Upson County GA S1 LLC","state":"GA","detail_file":"data/details/power-plants-04.json","plant_id":"66353","capacity_mw":3.0,"status_group":"Operating","energy_sources":"SUN","type":"Power plant","is_nuclear":false}},{"type":"Feature","geometry":{"type":"Point","coordinates":[-84.343,32.921]},"properties":{"key":"58485-ded7f6a7","layer":"power","name":"Upson Rocky Creek Solar Plant","state":"GA","detail_file":"data/details/power-plants-02.json","plant_id":"58485","capacity_mw":0.8,"status_group":"Operating","energy_sources":"SUN","type":"Power plant","is_nuclear":false}},{"type":"Feature","geometry":{"type":"Point","coordinates":[-85.037,33.406]},"properties":{"key":"55965-b76b6050","layer":"power","name":"Wansley Combined Cycle","state":"GA","detail_file":"data/details/power-plants-31.json","plant_id":"55965","capacity_mw":1239.0,"status_group":"Operating","energy_sources":"NG","type":"Power plant","is_nuclear":false}},{"type":"Feature","geometry":{"type":"Point","coordinates":[-85.04,33.408]},"properties":{"key":"7946-db86278e","layer":"power","name":"Wansley Unit 9","state":"GA","detail_file":"data/details/power-plants-04.json","plant_id":"7946","capacity_mw":594.1,"status_group":"Operating","energy_sources":"NG","type":"Power plant","is_nuclear":false}},{"type":"Feature","geometry":{"type":"Point","coordinates":[-85.189,32.919]},"properties":{"key":"6133-c16dfbc3","layer":"power","name":"West Point (GA)","state":"GA","detail_file":"data/details/power-plants-47.json","plant_id":"6133","capacity_mw":73.3,"status_group":"Operating","energy_sources":"WAT","type":"Power plant","is_nuclear":false}},{"type":"Feature","geometry":{"type":"Point","coordinates":[-84.257,32.506]},"properties":{"key":"60064-60716581","layer":"power","name":"White Pine Solar, LLC","state":"GA","detail_file":"data/details/power-plants-08.json","plant_id":"60064","capacity_mw":101.2,"status_group":"Operating","energy_sources":"SUN","type":"Power plant","is_nuclear":false}},{"type":"Feature","geometry":{"type":"Point","coordinates":[-84.945,34.953]},"properties":{"key":"68610-1b06d31d","layer":"power","name":"Whitfield Cooper","state":"GA","detail_file":"data/details/power-plants-19.json","plant_id":"68610","capacity_mw":1.1,"status_group":"Operating","energy_sources":"SUN","type":"Power plant","is_nuclear":false}},{"type":"Feature","geometry":{"type":"Point","coordinates":[-84.899,33.462]},"properties":{"key":"728-2543dfc2","layer":"power","name":"Yates","state":"GA","detail_file":"data/details/power-plants-18.json","plant_id":"728","capacity_mw":807.4,"status_group":"Operating","energy_sources":"NG","type":"Power plant","is_nuclear":false}},{"type":"Feature","geometry":{"type":"Point","coordinates":[-84.899,33.462]},"properties":{"key":"728-81b1b8ce","layer":"power","name":"Yates","state":"GA","detail_file":"data/details/power-plants-45.json","plant_id":"728","capacity_mw":1448.4,"status_group":"Under construction","energy_sources":"NG","type":"Power plant","is_nuclear":false}},{"type":"Feature","geometry":{"type":"Point","coordinates":[-84.166,34.99]},"properties":{"key":"57687-523611f9","layer":"power","name":"CS Murphy Point, LLC","state":"NC","detail_file":"data/details/power-plants-30.json","plant_id":"57687","capacity_mw":0.9,"status_group":"Operating","energy_sources":"SUN","type":"Power plant","is_nuclear":false}},{"type":"Feature","geometry":{"type":"Point","coordinates":[-84.178,35.151]},"properties":{"key":"2780-bee66f03","layer":"power","name":"Hiwassee Dam","state":"NC","detail_file":"data/details/power-plants-56.json","plant_id":"2780","capacity_mw":165.6,"status_group":"Operating","energy_sources":"WAT","type":"Power plant","is_nuclear":false}},{"type":"Feature","geometry":{"type":"Point","coordinates":[-84.016,35.02]},"properties":{"key":"57461-071008a6","layer":"power","name":"Martins Creek Solar NC, LLC","state":"NC","detail_file":"data/details/power-plants-09.json","plant_id":"57461","capacity_mw":0.9,"status_group":"Operating","energy_sources":"SUN","type":"Power plant","is_nuclear":false}},{"type":"Feature","geometry":{"type":"Point","coordinates":[-84.157,34.999]},"properties":{"key":"57677-f88f326e","layer":"power","name":"Murphy Farm Power, LLC","state":"NC","detail_file":"data/details/power-plants-63.json","plant_id":"57677","capacity_mw":0.9,"status_group":"Operating","energy_sources":"SUN","type":"Power plant","is_nuclear":false}},{"type":"Feature","geometry":{"type":"Point","coordinates":[-84.296,35.168]},"properties":{"key":"3394-80a34c9c","layer":"power","name":"Apalachia","state":"TN","detail_file":"data/details/power-plants-24.json","plant_id":"3394","capacity_mw":93.6,"status_group":"Operating","energy_sources":"WAT","type":"Power plant","is_nuclear":false}},{"type":"Feature","geometry":{"type":"Point","coordinates":[-85.209,35.025]},"properties":{"key":"58515-ec18f312","layer":"power","name":"Chattanooga Metropolitan Airport Solar","state":"TN","detail_file":"data/details/power-plants-37.json","plant_id":"58515","capacity_mw":2.5,"status_group":"Operating","energy_sources":"SUN","type":"Power plant","is_nuclear":false}},{"type":"Feature","geometry":{"type":"Point","coordinates":[-85.229,35.102]},"properties":{"key":"3398-048946f9","layer":"power","name":"Chickamauga","state":"TN","detail_file":"data/details/power-plants-15.json","plant_id":"3398","capacity_mw":159.6,"status_group":"Operating","energy_sources":"WAT","type":"Power plant","is_nuclear":false}},{"type":"Feature","geometry":{"type":"Point","coordinates":[-84.05,35.545]},"properties":{"key":"54901-cc209545","layer":"power","name":"Chilhowee","state":"TN","detail_file":"data/details/power-plants-53.json","plant_id":"54901","capacity_mw":49.8,"status_group":"Operating","energy_sources":"WAT","type":"Power plant","is_nuclear":false}},{"type":"Feature","geometry":{"type":"Point","coordinates":[-84.643,35.482]},"properties":{"key":"69536-bd67e002","layer":"power","name":"DMAT Denso - SEAT Solar Holdings, LLC","state":"TN","detail_file":"data/details/power-plants-08.json","plant_id":"69536","capacity_mw":5.3,"status_group":"Operating","energy_sources":"SUN","type":"Power plant","is_nuclear":false}},{"type":"Feature","geometry":{"type":"Point","coordinates":[-86.34,35.06]},"properties":{"key":"63719-c43ce6a9","layer":"power","name":"Elora Solar","state":"TN","detail_file":"data/details/power-plants-32.json","plant_id":"63719","capacity_mw":150.0,"status_group":"Operating","energy_sources":"SUN","type":"Power plant","is_nuclear":false}},{"type":"Feature","geometry":{"type":"Point","coordinates":[-84.243,35.792]},"properties":{"key":"3402-4dbbee11","layer":"power","name":"Fort Loudoun","state":"TN","detail_file":"data/details/power-plants-52.json","plant_id":"3402","capacity_mw":153.3,"status_group":"Operating","energy_sources":"WAT","type":"Power plant","is_nuclear":false}},{"type":"Feature","geometry":{"type":"Point","coordinates":[-85.634,35.807]},"properties":{"key":"3404-7ec863f0","layer":"power","name":"Great Falls (TN)","state":"TN","detail_file":"data/details/power-plants-46.json","plant_id":"3404","capacity_mw":33.7,"status_group":"Operating","energy_sources":"WAT","type":"Power plant","is_nuclear":false}},{"type":"Feature","geometry":{"type":"Point","coordinates":[-84.39,35.92]},"properties":{"key":"kairos-hermes-2-oak-ridge-tn-64590a39","layer":"power","name":"Kairos Power Hermes 2","state":"TN","detail_file":"data/details/power-plants-39.json","plant_id":"kairos-hermes-2-oak-ridge-tn","capacity_mw":50.0,"status_group":"Under construction","energy_sources":"nuclear_smr","type":"Nuclear power plant","is_nuclear":true}},{"type":"Feature","geometry":{"type":"Point","coordinates":[-84.519,35.899]},"properties":{"key":"3407-7ba23e76","layer":"power","name":"Kingston","state":"TN","detail_file":"data/details/power-plants-53.json","plant_id":"3407","capacity_mw":1700.0,"status_group":"Operating","energy_sources":"SUB","type":"Power plant","is_nuclear":false}},{"type":"Feature","geometry":{"type":"Point","coordinates":[-84.519,35.899]},"properties":{"key":"3407-10cd9460","layer":"power","name":"Kingston","state":"TN","detail_file":"data/details/power-plants-62.json","plant_id":"3407","capacity_mw":1830.6,"status_group":"Planned","energy_sources":"NG","type":"Power plant","is_nuclear":false}},{"type":"Feature","geometry":{"type":"Point","coordinates":[-86.365,35.851]},"properties":{"key":"58179-79cdea64","layer":"power","name":"MTSU Power Co-Gen Plant","state":"TN","detail_file":"data/details/power-plants-34.json","plant_id":"58179","capacity_mw":5.0,"status_group":"Operating","energy_sources":"NG","type":"Power plant","is_nuclear":false}},{"type":"Feature","geometry":{"type":"Point","coordinates":[-85.744,35.705]},"properties":{"key":"55928-2d19dfd0","layer":"power","name":"McMinnville","state":"TN","detail_file":"data/details/power-plants-27.json","plant_id":"55928","capacity_mw":24.0,"status_group":"Operating","energy_sources":"DFO; OBL","type":"Power plant","is_nuclear":false}},{"type":"Feature","geometry":{"type":"Point","coordinates":[-84.3,35.885]},"properties":{"key":"3408-b76d77c3","layer":"power","name":"Melton Hill","state":"TN","detail_file":"data/details/power-plants-34.json","plant_id":"3408","capacity_mw":72.0,"status_group":"Operating","energy_sources":"WAT","type":"Power plant","is_nuclear":false}},{"type":"Feature","geometry":{"type":"Point","coordinates":[-85.622,35.002]},"properties":{"key":"3409-f0b03cc4","layer":"power","name":"Nickajack","state":"TN","detail_file":"data/details/power-plants-29.json","plant_id":"3409","capacity_mw":103.9,"status_group":"Operating","energy_sources":"WAT","type":"Power plant","is_nuclear":false}},{"type":"Feature","geometry":{"type":"Point","coordinates":[-84.648,35.095]},"properties":{"key":"3412-72b24080","layer":"power","name":"Ocoee 1","state":"TN","detail_file":"data/details/power-plants-10.json","plant_id":"3412","capacity_mw":19.0,"status_group":"Operating","energy_sources":"WAT","type":"Power plant","is_nuclear":false}},{"type":"Feature","geometry":{"type":"Point","coordinates":[-84.491,35.082]},"properties":{"key":"3413-4a432d8e","layer":"power","name":"Ocoee 2","state":"TN","detail_file":"data/details/power-plants-63.json","plant_id":"3413","capacity_mw":23.0,"status_group":"Operating","energy_sources":"WAT","type":"Power plant","is_nuclear":false}},{"type":"Feature","geometry":{"type":"Point","coordinates":[-84.483,35.075]},"properties":{"key":"3414-b25e2c7a","layer":"power","name":"Ocoee 3","state":"TN","detail_file":"data/details/power-plants-45.json","plant_id":"3414","capacity_mw":28.8,"status_group":"Operating","energy_sources":"WAT","type":"Power plant","is_nuclear":false}},{"type":"Feature","geometry":{"type":"Point","coordinates":[-84.319,35.735]},"properties":{"key":"63632-62724435","layer":"power","name":"Primient Loudon Plant","state":"TN","detail_file":"data/details/power-plants-57.json","plant_id":"63632","capacity_mw":61.4,"status_group":"Operating","energy_sources":"NG","type":"Power plant","is_nuclear":false}},{"type":"Feature","geometry":{"type":"Point","coordinates":[-85.388,35.056]},"properties":{"key":"6151-29cc5c93","layer":"power","name":"Raccoon Mountain","state":"TN","detail_file":"data/details/power-plants-38.json","plant_id":"6151","capacity_mw":1713.6,"status_group":"Operating","energy_sources":"WAT","type":"Power plant","is_nuclear":false}},{"type":"Feature","geometry":{"type":"Point","coordinates":[-86.46,35.57]},"properties":{"key":"65630-0f5b84a3","layer":"power","name":"SR Bell Buckle","state":"TN","detail_file":"data/details/power-plants-35.json","plant_id":"65630","capacity_mw":35.0,"status_group":"Operating","energy_sources":"SUN","type":"Power plant","is_nuclear":false}},{"type":"Feature","geometry":{"type":"Point","coordinates":[-84.003,35.76]},"properties":{"key":"67124-49c56197","layer":"power","name":"SR Blount, LLC","state":"TN","detail_file":"data/details/power-plants-07.json","plant_id":"67124","capacity_mw":1.5,"status_group":"Operating","energy_sources":"SUN","type":"Power plant","is_nuclear":false}},{"type":"Feature","geometry":{"type":"Point","coordinates":[-86.366,35.7]},"properties":{"key":"67125-346e4dea","layer":"power","name":"SR Christiana, LLC","state":"TN","detail_file":"data/details/power-plants-14.json","plant_id":"67125","capacity_mw":3.3,"status_group":"Operating","energy_sources":"SUN","type":"Power plant","is_nuclear":false}},{"type":"Feature","geometry":{"type":"Point","coordinates":[-87.279,35.928]},"properties":{"key":"68103-dfb525a3","layer":"power","name":"SR Hickman","state":"TN","detail_file":"data/details/power-plants-21.json","plant_id":"68103","capacity_mw":5.5,"status_group":"Operating","energy_sources":"SUN","type":"Power plant","is_nuclear":false}},{"type":"Feature","geometry":{"type":"Point","coordinates":[-85.384,35.39]},"properties":{"key":"67158-bff433cb","layer":"power","name":"SR Marion, LLC","state":"TN","detail_file":"data/details/power-plants-32.json","plant_id":"67158","capacity_mw":1.3,"status_group":"Operating","energy_sources":"SUN","type":"Power plant","is_nuclear":false}},{"type":"Feature","geometry":{"type":"Point","coordinates":[-84.02,35.688]},"properties":{"key":"68109-e7a5c489","layer":"power","name":"SR Maryville","state":"TN","detail_file":"data/details/power-plants-24.json","plant_id":"68109","capacity_mw":1.3,"status_group":"Operating","energy_sources":"SUN","type":"Power plant","is_nuclear":false}},{"type":"Feature","geometry":{"type":"Point","coordinates":[-85.328,35.413]},"properties":{"key":"68254-2efb5a5b","layer":"power","name":"SR Sequatchie","state":"TN","detail_file":"data/details/power-plants-55.json","plant_id":"68254","capacity_mw":8.0,"status_group":"Under construction","energy_sources":"SUN","type":"Power plant","is_nuclear":false}},{"type":"Feature","geometry":{"type":"Point","coordinates":[-86.275,35.36]},"properties":{"key":"68568-3c2cbfbf","layer":"power","name":"SR Tullahoma","state":"TN","detail_file":"data/details/power-plants-32.json","plant_id":"68568","capacity_mw":200.0,"status_group":"Under construction","energy_sources":"SUN","type":"Power plant","is_nuclear":false}},{"type":"Feature","geometry":{"type":"Point","coordinates":[-85.092,35.227]},"properties":{"key":"6152-463cf095","layer":"power","name":"Sequoyah","state":"TN","detail_file":"data/details/power-plants-00.json","plant_id":"6152","capacity_mw":2441.0,"status_group":"Operating","energy_sources":"NUC","type":"Nuclear power plant","is_nuclear":true}},{"type":"Feature","geometry":{"type":"Point","coordinates":[-86.278,35.197]},"properties":{"key":"3417-e13ec4f1","layer":"power","name":"Tims Ford","state":"TN","detail_file":"data/details/power-plants-31.json","plant_id":"3417","capacity_mw":45.7,"status_group":"Operating","energy_sources":"WAT","type":"Power plant","is_nuclear":false}},{"type":"Feature","geometry":{"type":"Point","coordinates":[-85.127,35.097]},"properties":{"key":"58401-0b06e7f1","layer":"power","name":"Volkswagen Solar System","state":"TN","detail_file":"data/details/power-plants-20.json","plant_id":"58401","capacity_mw":7.6,"status_group":"Operating","energy_sources":"SUN","type":"Power plant","is_nuclear":false}},{"type":"Feature","geometry":{"type":"Point","coordinates":[-84.275,35.615]},"properties":{"key":"64255-e13ee018","layer":"power","name":"Vonore Battery Energy Storage System","state":"TN","detail_file":"data/details/power-plants-40.json","plant_id":"64255","capacity_mw":20.0,"status_group":"Under construction","energy_sources":"MWH","type":"Power plant","is_nuclear":false}},{"type":"Feature","geometry":{"type":"Point","coordinates":[-84.786,35.62]},"properties":{"key":"3420-d70bf954","layer":"power","name":"Watts Bar Hydro","state":"TN","detail_file":"data/details/power-plants-19.json","plant_id":"3420","capacity_mw":174.6,"status_group":"Operating","energy_sources":"WAT","type":"Power plant","is_nuclear":false}},{"type":"Feature","geometry":{"type":"Point","coordinates":[-84.79,35.602]},"properties":{"key":"7722-d44cadd7","layer":"power","name":"Watts Bar Nuclear Plant","state":"TN","detail_file":"data/details/power-plants-00.json","plant_id":"7722","capacity_mw":2539.8,"status_group":"Operating","energy_sources":"NUC","type":"Nuclear power plant","is_nuclear":true}}]}