{"type":"FeatureCollection","features":[{"type":"Feature","geometry":{"type":"Point","coordinates":[-155.471,20.094]},"properties":{"key":"55369-49507872","layer":"power","name":"Hamakua Energy Plant","state":"HI","detail_file":"data/details/power-plants-11.json","plant_id":"55369","capacity_mw":66.0,"status_group":"Operating","energy_sources":"WO","type":"Power plant","is_nuclear":false}},{"type":"Feature","geometry":{"type":"Point","coordinates":[-155.471,20.094]},"properties":{"key":"55369-26e5adc1","layer":"power","name":"Hamakua Energy Plant","state":"HI","detail_file":"data/details/power-plants-48.json","plant_id":"55369","capacity_mw":7.5,"status_group":"Planned","energy_sources":"MWH","type":"Power plant","is_nuclear":false}},{"type":"Feature","geometry":{"type":"Point","coordinates":[-155.996,20.766]},"properties":{"key":"56055-543da753","layer":"power","name":"Hana Substation","state":"HI","detail_file":"data/details/power-plants-35.json","plant_id":"56055","capacity_mw":2.0,"status_group":"Operating","energy_sources":"DFO","type":"Power plant","is_nuclear":false}},{"type":"Feature","geometry":{"type":"Point","coordinates":[-155.85,20.257]},"properties":{"key":"56447-a8577351","layer":"power","name":"Hawi Wind Farm","state":"HI","detail_file":"data/details/power-plants-15.json","plant_id":"56447","capacity_mw":10.6,"status_group":"Operating","energy_sources":"WND","type":"Power plant","is_nuclear":false}},{"type":"Feature","geometry":{"type":"Point","coordinates":[-155.696,20.025]},"properties":{"key":"768-8c40848e","layer":"power","name":"Waimea","state":"HI","detail_file":"data/details/power-plants-27.json","plant_id":"768","capacity_mw":7.5,"status_group":"Operating","energy_sources":"DFO","type":"Power plant","is_nuclear":false}}]}