{"type":"FeatureCollection","features":[{"type":"Feature","geometry":{"type":"Point","coordinates":[-161.788,60.79]},"properties":{"key":"6566-38f671a6","layer":"power","name":"Bethel","state":"AK","detail_file":"data/details/power-plants-54.json","plant_id":"6566","capacity_mw":13.7,"status_group":"Operating","energy_sources":"DFO","type":"Power plant","is_nuclear":false}},{"type":"Feature","geometry":{"type":"Point","coordinates":[-162.52,60.873]},"properties":{"key":"57066-7cce6d9c","layer":"power","name":"Kasigluk","state":"AK","detail_file":"data/details/power-plants-56.json","plant_id":"57066","capacity_mw":2.0,"status_group":"Operating","energy_sources":"DFO","type":"Power plant","is_nuclear":false}},{"type":"Feature","geometry":{"type":"Point","coordinates":[-163.553,63.032]},"properties":{"key":"57064-6be119bc","layer":"power","name":"Kotlik","state":"AK","detail_file":"data/details/power-plants-25.json","plant_id":"57064","capacity_mw":1.4,"status_group":"Operating","energy_sources":"DFO","type":"Power plant","is_nuclear":false}},{"type":"Feature","geometry":{"type":"Point","coordinates":[-162.085,61.878]},"properties":{"key":"60244-bdd2288b","layer":"power","name":"Marshall","state":"AK","detail_file":"data/details/power-plants-16.json","plant_id":"60244","capacity_mw":1.1,"status_group":"Operating","energy_sources":"DFO","type":"Power plant","is_nuclear":false}},{"type":"Feature","geometry":{"type":"Point","coordinates":[-163.729,62.086]},"properties":{"key":"6329-bd079367","layer":"power","name":"Mountain Village","state":"AK","detail_file":"data/details/power-plants-57.json","plant_id":"6329","capacity_mw":0.7,"status_group":"Operating","energy_sources":"DFO","type":"Power plant","is_nuclear":false}},{"type":"Feature","geometry":{"type":"Point","coordinates":[-162.46,60.896]},"properties":{"key":"6333-ce38a628","layer":"power","name":"Nunapitchuk","state":"AK","detail_file":"data/details/power-plants-07.json","plant_id":"6333","capacity_mw":0.5,"status_group":"Operating","energy_sources":"DFO","type":"Power plant","is_nuclear":false}},{"type":"Feature","geometry":{"type":"Point","coordinates":[-162.881,61.936]},"properties":{"key":"57058-c75a4197","layer":"power","name":"Pilot Station","state":"AK","detail_file":"data/details/power-plants-19.json","plant_id":"57058","capacity_mw":1.3,"status_group":"Operating","energy_sources":"DFO","type":"Power plant","is_nuclear":false}},{"type":"Feature","geometry":{"type":"Point","coordinates":[-163.173,62.052]},"properties":{"key":"6338-4eed1230","layer":"power","name":"St Marys IC","state":"AK","detail_file":"data/details/power-plants-52.json","plant_id":"6338","capacity_mw":4.6,"status_group":"Operating","energy_sources":"DFO","type":"Power plant","is_nuclear":false}},{"type":"Feature","geometry":{"type":"Point","coordinates":[-162.038,63.477]},"properties":{"key":"57061-cf10ea91","layer":"power","name":"St. Michael","state":"AK","detail_file":"data/details/power-plants-51.json","plant_id":"57061","capacity_mw":0.7,"status_group":"Operating","energy_sources":"DFO","type":"Power plant","is_nuclear":false}},{"type":"Feature","geometry":{"type":"Point","coordinates":[-162.286,63.521]},"properties":{"key":"57055-e9124913","layer":"power","name":"Stebbins","state":"AK","detail_file":"data/details/power-plants-13.json","plant_id":"57055","capacity_mw":2.0,"status_group":"Operating","energy_sources":"DFO","type":"Power plant","is_nuclear":false}},{"type":"Feature","geometry":{"type":"Point","coordinates":[-160.79,63.877]},"properties":{"key":"6299-124b8592","layer":"power","name":"Unalakleet","state":"AK","detail_file":"data/details/power-plants-20.json","plant_id":"6299","capacity_mw":2.0,"status_group":"Operating","energy_sources":"DFO","type":"Power plant","is_nuclear":false}},{"type":"Feature","geometry":{"type":"Point","coordinates":[-160.348,61.527]},"properties":{"key":"57054-402fb236","layer":"power","name":"Upper Kalskag","state":"AK","detail_file":"data/details/power-plants-03.json","plant_id":"57054","capacity_mw":1.1,"status_group":"Operating","energy_sources":"DFO","type":"Power plant","is_nuclear":false}}]}