{"type":"FeatureCollection","features":[{"type":"Feature","geometry":{"type":"Point","coordinates":[-99.507,38.425]},"properties":{"key":"58666-b57476d2","layer":"power","name":"Alexander Wind Farm LLC","state":"KS","detail_file":"data/details/power-plants-39.json","plant_id":"58666","capacity_mw":50.7,"status_group":"Operating","energy_sources":"WND","type":"Power plant","is_nuclear":false}},{"type":"Feature","geometry":{"type":"Point","coordinates":[-96.151,38.551]},"properties":{"key":"66587-3f6367ce","layer":"power","name":"Americus","state":"KS","detail_file":"data/details/power-plants-48.json","plant_id":"66587","capacity_mw":1.0,"status_group":"Operating","energy_sources":"SUN","type":"Power plant","is_nuclear":false}},{"type":"Feature","geometry":{"type":"Point","coordinates":[-98.031,37.152]},"properties":{"key":"1258-37aabe04","layer":"power","name":"Anthony","state":"KS","detail_file":"data/details/power-plants-46.json","plant_id":"1258","capacity_mw":11.1,"status_group":"Operating","energy_sources":"NG","type":"Power plant","is_nuclear":false}},{"type":"Feature","geometry":{"type":"Point","coordinates":[-99.763,37.194]},"properties":{"key":"1259-072ac93d","layer":"power","name":"Ashland","state":"KS","detail_file":"data/details/power-plants-28.json","plant_id":"1259","capacity_mw":5.6,"status_group":"Operating","energy_sources":"DFO; NG","type":"Power plant","is_nuclear":false}},{"type":"Feature","geometry":{"type":"Point","coordinates":[-96.972,37.678]},"properties":{"key":"1261-9f0c9260","layer":"power","name":"Augusta Electric Plant No 1","state":"KS","detail_file":"data/details/power-plants-09.json","plant_id":"1261","capacity_mw":11.5,"status_group":"Operating","energy_sources":"DFO; NG","type":"Power plant","is_nuclear":false}},{"type":"Feature","geometry":{"type":"Point","coordinates":[-96.965,37.686]},"properties":{"key":"6791-b7436405","layer":"power","name":"Augusta Electric Plant No 2","state":"KS","detail_file":"data/details/power-plants-08.json","plant_id":"6791","capacity_mw":20.7,"status_group":"Operating","energy_sources":"NG","type":"Power plant","is_nuclear":false}},{"type":"Feature","geometry":{"type":"Point","coordinates":[-98.783,37.675]},"properties":{"key":"68689-de34517d","layer":"power","name":"BP-Kanza","state":"KS","detail_file":"data/details/power-plants-60.json","plant_id":"68689","capacity_mw":1.0,"status_group":"Operating","energy_sources":"SUN","type":"Power plant","is_nuclear":false}},{"type":"Feature","geometry":{"type":"Point","coordinates":[-97.632,39.833]},"properties":{"key":"1263-606ba492","layer":"power","name":"Belleville","state":"KS","detail_file":"data/details/power-plants-37.json","plant_id":"1263","capacity_mw":9.4,"status_group":"Operating","energy_sources":"DFO; NG","type":"Power plant","is_nuclear":false}},{"type":"Feature","geometry":{"type":"Point","coordinates":[-97.632,39.833]},"properties":{"key":"1263-b5bf4cb1","layer":"power","name":"Belleville","state":"KS","detail_file":"data/details/power-plants-31.json","plant_id":"1263","capacity_mw":6.0,"status_group":"Under construction","energy_sources":"DFO","type":"Power plant","is_nuclear":false}},{"type":"Feature","geometry":{"type":"Point","coordinates":[-98.112,39.458]},"properties":{"key":"1264-25c01397","layer":"power","name":"Beloit","state":"KS","detail_file":"data/details/power-plants-50.json","plant_id":"1264","capacity_mw":19.3,"status_group":"Operating","energy_sources":"NG","type":"Power plant","is_nuclear":false}},{"type":"Feature","geometry":{"type":"Point","coordinates":[-98.105,39.45]},"properties":{"key":"65391-d5459e3a","layer":"power","name":"Beloit Solar LLC","state":"KS","detail_file":"data/details/power-plants-10.json","plant_id":"65391","capacity_mw":2.0,"status_group":"Operating","energy_sources":"SUN","type":"Power plant","is_nuclear":false}},{"type":"Feature","geometry":{"type":"Point","coordinates":[-99.925,37.486]},"properties":{"key":"59888-190e539e","layer":"power","name":"Bloom Wind","state":"KS","detail_file":"data/details/power-plants-04.json","plant_id":"59888","capacity_mw":178.2,"status_group":"Operating","energy_sources":"WND","type":"Power plant","is_nuclear":false}},{"type":"Feature","geometry":{"type":"Point","coordinates":[-99.986,37.694]},"properties":{"key":"68517-40d8ccfe","layer":"power","name":"Boot Hill Solar","state":"KS","detail_file":"data/details/power-plants-25.json","plant_id":"68517","capacity_mw":150.0,"status_group":"Operating","energy_sources":"SUN","type":"Power plant","is_nuclear":false}},{"type":"Feature","geometry":{"type":"Point","coordinates":[-99.414,39.004]},"properties":{"key":"58767-c0561cb3","layer":"power","name":"Buckeye Wind Energy Center","state":"KS","detail_file":"data/details/power-plants-30.json","plant_id":"58767","capacity_mw":200.5,"status_group":"Operating","energy_sources":"WND","type":"Power plant","is_nuclear":false}},{"type":"Feature","geometry":{"type":"Point","coordinates":[-99.364,37.281]},"properties":{"key":"68692-bcb54c8f","layer":"power","name":"CMS-Coldwater","state":"KS","detail_file":"data/details/power-plants-41.json","plant_id":"68692","capacity_mw":2.0,"status_group":"Operating","energy_sources":"SUN","type":"Power plant","is_nuclear":false}},{"type":"Feature","geometry":{"type":"Point","coordinates":[-96.42,37.46]},"properties":{"key":"57858-efd4eb02","layer":"power","name":"Caney River Wind Project","state":"KS","detail_file":"data/details/power-plants-27.json","plant_id":"57858","capacity_mw":200.0,"status_group":"Operating","energy_sources":"WND","type":"Power plant","is_nuclear":false}},{"type":"Feature","geometry":{"type":"Point","coordinates":[-96.213,37.12]},"properties":{"key":"68690-b0314647","layer":"power","name":"Caney Valley","state":"KS","detail_file":"data/details/power-plants-36.json","plant_id":"68690","capacity_mw":1.0,"status_group":"Operating","energy_sources":"SUN","type":"Power plant","is_nuclear":false}},{"type":"Feature","geometry":{"type":"Point","coordinates":[-99.729,38.698]},"properties":{"key":"60069-a63a9dbc","layer":"power","name":"Cedar Bluff Wind, LLC","state":"KS","detail_file":"data/details/power-plants-26.json","plant_id":"60069","capacity_mw":212.8,"status_group":"Operating","energy_sources":"WND","type":"Power plant","is_nuclear":false}},{"type":"Feature","geometry":{"type":"Point","coordinates":[-97.717,37.624]},"properties":{"key":"66591-122ad445","layer":"power","name":"Cheney Solar","state":"KS","detail_file":"data/details/power-plants-06.json","plant_id":"66591","capacity_mw":1.0,"status_group":"Operating","energy_sources":"SUN","type":"Power plant","is_nuclear":false}},{"type":"Feature","geometry":{"type":"Point","coordinates":[-99.994,37.371]},"properties":{"key":"64074-1e1342ef","layer":"power","name":"Cimarron Bend III","state":"KS","detail_file":"data/details/power-plants-44.json","plant_id":"64074","capacity_mw":198.8,"status_group":"Operating","energy_sources":"WND","type":"Power plant","is_nuclear":false}},{"type":"Feature","geometry":{"type":"Point","coordinates":[-99.991,37.355]},"properties":{"key":"60687-0d88284a","layer":"power","name":"Cimarron Bend Wind Project I, LLC","state":"KS","detail_file":"data/details/power-plants-28.json","plant_id":"60687","capacity_mw":200.0,"status_group":"Operating","energy_sources":"WND","type":"Power plant","is_nuclear":false}},{"type":"Feature","geometry":{"type":"Point","coordinates":[-99.991,37.355]},"properties":{"key":"60688-1390dce4","layer":"power","name":"Cimarron Bend Wind Project II, LLC","state":"KS","detail_file":"data/details/power-plants-00.json","plant_id":"60688","capacity_mw":200.0,"status_group":"Operating","energy_sources":"WND","type":"Power plant","is_nuclear":false}},{"type":"Feature","geometry":{"type":"Point","coordinates":[-98.721,37.711]},"properties":{"key":"62931-d587c943","layer":"power","name":"City of Pratt Solar","state":"KS","detail_file":"data/details/power-plants-29.json","plant_id":"62931","capacity_mw":6.0,"status_group":"Operating","energy_sources":"SUN","type":"Power plant","is_nuclear":false}},{"type":"Feature","geometry":{"type":"Point","coordinates":[-97.127,39.374]},"properties":{"key":"1270-5ab56f33","layer":"power","name":"Clay Center","state":"KS","detail_file":"data/details/power-plants-06.json","plant_id":"1270","capacity_mw":29.9,"status_group":"Operating","energy_sources":"DFO; NG","type":"Power plant","is_nuclear":false}},{"type":"Feature","geometry":{"type":"Point","coordinates":[-97.278,39.612]},"properties":{"key":"8037-2307abd4","layer":"power","name":"Clifton","state":"KS","detail_file":"data/details/power-plants-48.json","plant_id":"8037","capacity_mw":87.5,"status_group":"Operating","energy_sources":"DFO; NG","type":"Power plant","is_nuclear":false}},{"type":"Feature","geometry":{"type":"Point","coordinates":[-97.664,39.438]},"properties":{"key":"56784-6f569669","layer":"power","name":"Cloud County Wind Farm","state":"KS","detail_file":"data/details/power-plants-42.json","plant_id":"56784","capacity_mw":201.0,"status_group":"Operating","energy_sources":"WND","type":"Power plant","is_nuclear":false}},{"type":"Feature","geometry":{"type":"Point","coordinates":[-96.815,39.086]},"properties":{"key":"65804-e300c424","layer":"power","name":"Corvias - Fort Riley II","state":"KS","detail_file":"data/details/power-plants-02.json","plant_id":"65804","capacity_mw":1.3,"status_group":"Operating","energy_sources":"SUN","type":"Power plant","is_nuclear":false}},{"type":"Feature","geometry":{"type":"Point","coordinates":[-96.861,37.985]},"properties":{"key":"66609-01789e8f","layer":"power","name":"DeGraff Butler Electric","state":"KS","detail_file":"data/details/power-plants-28.json","plant_id":"66609","capacity_mw":1.0,"status_group":"Operating","energy_sources":"SUN","type":"Power plant","is_nuclear":false}},{"type":"Feature","geometry":{"type":"Point","coordinates":[-97.193,38.551]},"properties":{"key":"61789-a96e0095","layer":"power","name":"Diamond Vista Wind Project, LLC","state":"KS","detail_file":"data/details/power-plants-34.json","plant_id":"61789","capacity_mw":299.3,"status_group":"Operating","energy_sources":"WND","type":"Power plant","is_nuclear":false}},{"type":"Feature","geometry":{"type":"Point","coordinates":[-96.963,37.237]},"properties":{"key":"7013-13b75f3c","layer":"power","name":"East 12th Street","state":"KS","detail_file":"data/details/power-plants-14.json","plant_id":"7013","capacity_mw":28.1,"status_group":"Operating","energy_sources":"DFO; NG","type":"Power plant","is_nuclear":false}},{"type":"Feature","geometry":{"type":"Point","coordinates":[-96.877,37.793]},"properties":{"key":"58075-7916715e","layer":"power","name":"El Dorado Refinery","state":"KS","detail_file":"data/details/power-plants-28.json","plant_id":"58075","capacity_mw":38.9,"status_group":"Operating","energy_sources":"NG","type":"Power plant","is_nuclear":false}},{"type":"Feature","geometry":{"type":"Point","coordinates":[-96.55,37.58]},"properties":{"key":"56303-0a2c2285","layer":"power","name":"Elk River Wind","state":"KS","detail_file":"data/details/power-plants-38.json","plant_id":"56303","capacity_mw":150.0,"status_group":"Operating","energy_sources":"WND","type":"Power plant","is_nuclear":false}},{"type":"Feature","geometry":{"type":"Point","coordinates":[-98.583,38.355]},"properties":{"key":"1274-8e42a9b0","layer":"power","name":"Ellinwood","state":"KS","detail_file":"data/details/power-plants-41.json","plant_id":"1274","capacity_mw":8.5,"status_group":"Operating","energy_sources":"DFO; NG","type":"Power plant","is_nuclear":false}},{"type":"Feature","geometry":{"type":"Point","coordinates":[-96.065,38.446]},"properties":{"key":"56502-923e6c15","layer":"power","name":"Emporia Energy Center","state":"KS","detail_file":"data/details/power-plants-45.json","plant_id":"56502","capacity_mw":730.2,"status_group":"Operating","energy_sources":"NG","type":"Power plant","is_nuclear":false}},{"type":"Feature","geometry":{"type":"Point","coordinates":[-98.261,37.367]},"properties":{"key":"57787-8620fd67","layer":"power","name":"Flat Ridge 2 Wind Energy LLC","state":"KS","detail_file":"data/details/power-plants-61.json","plant_id":"57787","capacity_mw":470.4,"status_group":"Operating","energy_sources":"WND","type":"Power plant","is_nuclear":false}},{"type":"Feature","geometry":{"type":"Point","coordinates":[-98.4,37.447]},"properties":{"key":"64407-0c33b0d6","layer":"power","name":"Flat Ridge 3","state":"KS","detail_file":"data/details/power-plants-01.json","plant_id":"64407","capacity_mw":128.0,"status_group":"Operating","energy_sources":"WND","type":"Power plant","is_nuclear":false}},{"type":"Feature","geometry":{"type":"Point","coordinates":[-98.013,37.341]},"properties":{"key":"68222-912f388c","layer":"power","name":"Flat Ridge 4","state":"KS","detail_file":"data/details/power-plants-17.json","plant_id":"68222","capacity_mw":134.0,"status_group":"Operating","energy_sources":"WND","type":"Power plant","is_nuclear":false}},{"type":"Feature","geometry":{"type":"Point","coordinates":[-98.046,37.203]},"properties":{"key":"68590-2a6b2ade","layer":"power","name":"Flat Ridge 5","state":"KS","detail_file":"data/details/power-plants-09.json","plant_id":"68590","capacity_mw":153.0,"status_group":"Operating","energy_sources":"WND","type":"Power plant","is_nuclear":false}},{"type":"Feature","geometry":{"type":"Point","coordinates":[-98.458,37.376]},"properties":{"key":"56879-82192363","layer":"power","name":"Flat Ridge Wind Energy LLC","state":"KS","detail_file":"data/details/power-plants-01.json","plant_id":"56879","capacity_mw":44.0,"status_group":"Operating","energy_sources":"WND","type":"Power plant","is_nuclear":false}},{"type":"Feature","geometry":{"type":"Point","coordinates":[-98.46,37.369]},"properties":{"key":"56819-7561ee64","layer":"power","name":"Flat Ridge Wind Farm","state":"KS","detail_file":"data/details/power-plants-28.json","plant_id":"56819","capacity_mw":50.0,"status_group":"Operating","energy_sources":"WND","type":"Power plant","is_nuclear":false}},{"type":"Feature","geometry":{"type":"Point","coordinates":[-99.95,37.733]},"properties":{"key":"1233-211f419f","layer":"power","name":"Fort Dodge","state":"KS","detail_file":"data/details/power-plants-04.json","plant_id":"1233","capacity_mw":149.0,"status_group":"Operating","energy_sources":"NG","type":"Power plant","is_nuclear":false}},{"type":"Feature","geometry":{"type":"Point","coordinates":[-99.405,38.874]},"properties":{"key":"61540-6e3a180e","layer":"power","name":"Fort Hays State University Wind Farm","state":"KS","detail_file":"data/details/power-plants-42.json","plant_id":"61540","capacity_mw":4.0,"status_group":"Operating","energy_sources":"WND","type":"Power plant","is_nuclear":false}},{"type":"Feature","geometry":{"type":"Point","coordinates":[-99.362,38.93]},"properties":{"key":"56497-15d2a179","layer":"power","name":"Goodman Energy Center","state":"KS","detail_file":"data/details/power-plants-48.json","plant_id":"56497","capacity_mw":103.5,"status_group":"Operating","energy_sources":"NG","type":"Power plant","is_nuclear":false}},{"type":"Feature","geometry":{"type":"Point","coordinates":[-97.522,37.79]},"properties":{"key":"1240-24c72236","layer":"power","name":"Gordon Evans Energy Center","state":"KS","detail_file":"data/details/power-plants-09.json","plant_id":"1240","capacity_mw":378.0,"status_group":"Operating","energy_sources":"DFO; NG","type":"Power plant","is_nuclear":false}},{"type":"Feature","geometry":{"type":"Point","coordinates":[-98.869,38.41]},"properties":{"key":"1235-45df3ec1","layer":"power","name":"Great Bend - Sunflower","state":"KS","detail_file":"data/details/power-plants-03.json","plant_id":"1235","capacity_mw":81.6,"status_group":"Operating","energy_sources":"NG","type":"Power plant","is_nuclear":false}},{"type":"Feature","geometry":{"type":"Point","coordinates":[-99.344,37.55]},"properties":{"key":"57118-670a8272","layer":"power","name":"Greensburg","state":"KS","detail_file":"data/details/power-plants-33.json","plant_id":"57118","capacity_mw":12.5,"status_group":"Operating","energy_sources":"WND","type":"Power plant","is_nuclear":false}},{"type":"Feature","geometry":{"type":"Point","coordinates":[-99.321,37.577]},"properties":{"key":"68694-b9d163d4","layer":"power","name":"Greensburg Solar","state":"KS","detail_file":"data/details/power-plants-25.json","plant_id":"68694","capacity_mw":1.0,"status_group":"Operating","energy_sources":"SUN","type":"Power plant","is_nuclear":false}},{"type":"Feature","geometry":{"type":"Point","coordinates":[-97.209,38.043]},"properties":{"key":"68695-4270309d","layer":"power","name":"Harvey County","state":"KS","detail_file":"data/details/power-plants-49.json","plant_id":"68695","capacity_mw":1.0,"status_group":"Operating","energy_sources":"SUN","type":"Power plant","is_nuclear":false}},{"type":"Feature","geometry":{"type":"Point","coordinates":[-96.949,38.666]},"properties":{"key":"1283-df3f172a","layer":"power","name":"Herington","state":"KS","detail_file":"data/details/power-plants-58.json","plant_id":"1283","capacity_mw":1.6,"status_group":"Operating","energy_sources":"DFO","type":"Power plant","is_nuclear":false}},{"type":"Feature","geometry":{"type":"Point","coordinates":[-97.431,39.816]},"properties":{"key":"66156-58adaaea","layer":"power","name":"High Banks Wind","state":"KS","detail_file":"data/details/power-plants-60.json","plant_id":"66156","capacity_mw":643.4,"status_group":"Operating","energy_sources":"WND","type":"Power plant","is_nuclear":false}},{"type":"Feature","geometry":{"type":"Point","coordinates":[-99.842,39.358]},"properties":{"key":"1285-882e842c","layer":"power","name":"Hill City","state":"KS","detail_file":"data/details/power-plants-41.json","plant_id":"1285","capacity_mw":6.9,"status_group":"Operating","energy_sources":"DFO","type":"Power plant","is_nuclear":false}},{"type":"Feature","geometry":{"type":"Point","coordinates":[-98.775,38.513]},"properties":{"key":"1286-711d277b","layer":"power","name":"Hoisington","state":"KS","detail_file":"data/details/power-plants-06.json","plant_id":"1286","capacity_mw":10.9,"status_group":"Operating","energy_sources":"DFO; NG","type":"Power plant","is_nuclear":false}},{"type":"Feature","geometry":{"type":"Point","coordinates":[-98.326,38.051]},"properties":{"key":"68696-27f35889","layer":"power","name":"Huntsville-Ark Valley, KS","state":"KS","detail_file":"data/details/power-plants-27.json","plant_id":"68696","capacity_mw":1.0,"status_group":"Operating","energy_sources":"SUN","type":"Power plant","is_nuclear":false}},{"type":"Feature","geometry":{"type":"Point","coordinates":[-97.875,38.091]},"properties":{"key":"1248-052a2ab4","layer":"power","name":"Hutchinson Energy Center","state":"KS","detail_file":"data/details/power-plants-24.json","plant_id":"1248","capacity_mw":345.3,"status_group":"Operating","energy_sources":"DFO; NG","type":"Power plant","is_nuclear":false}},{"type":"Feature","geometry":{"type":"Point","coordinates":[-96.425,39.699]},"properties":{"key":"64138-2b609136","layer":"power","name":"Irish Creek Wind","state":"KS","detail_file":"data/details/power-plants-01.json","plant_id":"64138","capacity_mw":300.6,"status_group":"Operating","energy_sources":"WND","type":"Power plant","is_nuclear":false}},{"type":"Feature","geometry":{"type":"Point","coordinates":[-99.981,37.649]},"properties":{"key":"64003-9a9c9bc1","layer":"power","name":"Iron Star Wind Project","state":"KS","detail_file":"data/details/power-plants-56.json","plant_id":"64003","capacity_mw":297.6,"status_group":"Operating","energy_sources":"WND","type":"Power plant","is_nuclear":false}},{"type":"Feature","geometry":{"type":"Point","coordinates":[-99.775,37.818]},"properties":{"key":"57639-e9a1a0a5","layer":"power","name":"Ironwood Wind","state":"KS","detail_file":"data/details/power-plants-16.json","plant_id":"57639","capacity_mw":167.9,"status_group":"Operating","energy_sources":"WND","type":"Power plant","is_nuclear":false}},{"type":"Feature","geometry":{"type":"Point","coordinates":[-96.117,39.286]},"properties":{"key":"6068-8ae369b9","layer":"power","name":"Jeffrey Energy Center","state":"KS","detail_file":"data/details/power-plants-16.json","plant_id":"6068","capacity_mw":2160.0,"status_group":"Operating","energy_sources":"SUB","type":"Power plant","is_nuclear":false}},{"type":"Feature","geometry":{"type":"Point","coordinates":[-99.894,38.08]},"properties":{"key":"1292-686c2a94","layer":"power","name":"Jetmore","state":"KS","detail_file":"data/details/power-plants-30.json","plant_id":"1292","capacity_mw":2.5,"status_group":"Operating","energy_sources":"DFO","type":"Power plant","is_nuclear":false}},{"type":"Feature","geometry":{"type":"Point","coordinates":[-98.192,38.286]},"properties":{"key":"65512-fa289149","layer":"power","name":"Kansas Ethanol, LLC","state":"KS","detail_file":"data/details/power-plants-05.json","plant_id":"65512","capacity_mw":13.5,"status_group":"Operating","energy_sources":"NG","type":"Power plant","is_nuclear":false}},{"type":"Feature","geometry":{"type":"Point","coordinates":[-98.07,37.383]},"properties":{"key":"1296-f43f9d9a","layer":"power","name":"Kingman Municipal Power and Light Plant","state":"KS","detail_file":"data/details/power-plants-00.json","plant_id":"1296","capacity_mw":19.1,"status_group":"Operating","energy_sources":"NG","type":"Power plant","is_nuclear":false}},{"type":"Feature","geometry":{"type":"Point","coordinates":[-98.579,37.587]},"properties":{"key":"60639-1dde186e","layer":"power","name":"Kingman Wind","state":"KS","detail_file":"data/details/power-plants-04.json","plant_id":"60639","capacity_mw":214.8,"status_group":"Operating","energy_sources":"WND","type":"Power plant","is_nuclear":false}},{"type":"Feature","geometry":{"type":"Point","coordinates":[-99.308,38.532]},"properties":{"key":"1297-085f2428","layer":"power","name":"La Crosse","state":"KS","detail_file":"data/details/power-plants-32.json","plant_id":"1297","capacity_mw":7.5,"status_group":"Operating","energy_sources":"DFO","type":"Power plant","is_nuclear":false}},{"type":"Feature","geometry":{"type":"Point","coordinates":[-99.1,38.176]},"properties":{"key":"1299-1d0aad2f","layer":"power","name":"Larned","state":"KS","detail_file":"data/details/power-plants-36.json","plant_id":"1299","capacity_mw":16.4,"status_group":"Operating","energy_sources":"DFO","type":"Power plant","is_nuclear":false}},{"type":"Feature","geometry":{"type":"Point","coordinates":[-98.153,39.037]},"properties":{"key":"1300-1cd1065a","layer":"power","name":"Lincoln","state":"KS","detail_file":"data/details/power-plants-13.json","plant_id":"1300","capacity_mw":8.8,"status_group":"Operating","energy_sources":"DFO","type":"Power plant","is_nuclear":false}},{"type":"Feature","geometry":{"type":"Point","coordinates":[-97.725,38.566]},"properties":{"key":"68697-a66e583b","layer":"power","name":"Lindsborg","state":"KS","detail_file":"data/details/power-plants-10.json","plant_id":"68697","capacity_mw":1.0,"status_group":"Operating","energy_sources":"SUN","type":"Power plant","is_nuclear":false}},{"type":"Feature","geometry":{"type":"Point","coordinates":[-97.508,37.765]},"properties":{"key":"68698-e2370564","layer":"power","name":"Maize","state":"KS","detail_file":"data/details/power-plants-00.json","plant_id":"68698","capacity_mw":1.0,"status_group":"Operating","energy_sources":"SUN","type":"Power plant","is_nuclear":false}},{"type":"Feature","geometry":{"type":"Point","coordinates":[-96.361,39.701]},"properties":{"key":"59084-4256c107","layer":"power","name":"Marshall Wind Farm","state":"KS","detail_file":"data/details/power-plants-53.json","plant_id":"59084","capacity_mw":73.8,"status_group":"Operating","energy_sources":"WND","type":"Power plant","is_nuclear":false}},{"type":"Feature","geometry":{"type":"Point","coordinates":[-97.922,38.006]},"properties":{"key":"68295-a97fec7a","layer":"power","name":"McNew Generating Station","state":"KS","detail_file":"data/details/power-plants-26.json","plant_id":"68295","capacity_mw":765.0,"status_group":"Under construction","energy_sources":"NG","type":"Power plant","is_nuclear":false}},{"type":"Feature","geometry":{"type":"Point","coordinates":[-97.683,38.363]},"properties":{"key":"1305-5f39e3aa","layer":"power","name":"McPherson 2","state":"KS","detail_file":"data/details/power-plants-06.json","plant_id":"1305","capacity_mw":214.8,"status_group":"Operating","energy_sources":"DFO; NG","type":"Power plant","is_nuclear":false}},{"type":"Feature","geometry":{"type":"Point","coordinates":[-97.611,38.389]},"properties":{"key":"7515-b3a5118b","layer":"power","name":"McPherson 3","state":"KS","detail_file":"data/details/power-plants-28.json","plant_id":"7515","capacity_mw":115.6,"status_group":"Operating","energy_sources":"NG","type":"Power plant","is_nuclear":false}},{"type":"Feature","geometry":{"type":"Point","coordinates":[-97.709,39.119]},"properties":{"key":"1307-b41f1994","layer":"power","name":"Minneapolis City of","state":"KS","detail_file":"data/details/power-plants-06.json","plant_id":"1307","capacity_mw":9.1,"status_group":"Operating","energy_sources":"DFO; NG","type":"Power plant","is_nuclear":false}},{"type":"Feature","geometry":{"type":"Point","coordinates":[-97.222,37.491]},"properties":{"key":"7976-e64e7abf","layer":"power","name":"Mulvane 2","state":"KS","detail_file":"data/details/power-plants-32.json","plant_id":"7976","capacity_mw":9.2,"status_group":"Operating","energy_sources":"DFO","type":"Power plant","is_nuclear":false}},{"type":"Feature","geometry":{"type":"Point","coordinates":[-96.871,39.039]},"properties":{"key":"68700-a3d10ac1","layer":"power","name":"Munson-DS&O","state":"KS","detail_file":"data/details/power-plants-34.json","plant_id":"68700","capacity_mw":1.0,"status_group":"Operating","energy_sources":"SUN","type":"Power plant","is_nuclear":false}},{"type":"Feature","geometry":{"type":"Point","coordinates":[-98.593,37.629]},"properties":{"key":"69879-53232b25","layer":"power","name":"Ninnescah Flats Solar","state":"KS","detail_file":"data/details/power-plants-24.json","plant_id":"69879","capacity_mw":201.6,"status_group":"Planned","energy_sources":"SUN","type":"Power plant","is_nuclear":false}},{"type":"Feature","geometry":{"type":"Point","coordinates":[-98.579,37.587]},"properties":{"key":"60620-dac60463","layer":"power","name":"Ninnescah Wind Energy, LLC","state":"KS","detail_file":"data/details/power-plants-53.json","plant_id":"60620","capacity_mw":208.3,"status_group":"Operating","energy_sources":"WND","type":"Power plant","is_nuclear":false}},{"type":"Feature","geometry":{"type":"Point","coordinates":[-98.69,39.442]},"properties":{"key":"1315-49f364ef","layer":"power","name":"Osborne","state":"KS","detail_file":"data/details/power-plants-52.json","plant_id":"1315","capacity_mw":7.1,"status_group":"Operating","energy_sources":"DFO; NG","type":"Power plant","is_nuclear":false}},{"type":"Feature","geometry":{"type":"Point","coordinates":[-97.164,37.276]},"properties":{"key":"7432-962028c4","layer":"power","name":"Oxford (KS)","state":"KS","detail_file":"data/details/power-plants-28.json","plant_id":"7432","capacity_mw":5.1,"status_group":"Operating","energy_sources":"DFO","type":"Power plant","is_nuclear":false}},{"type":"Feature","geometry":{"type":"Point","coordinates":[-98.5,37.266]},"properties":{"key":"68498-b41bb802","layer":"power","name":"Pixley Solar Energy","state":"KS","detail_file":"data/details/power-plants-05.json","plant_id":"68498","capacity_mw":189.0,"status_group":"Operating","energy_sources":"SUN","type":"Power plant","is_nuclear":false}},{"type":"Feature","geometry":{"type":"Point","coordinates":[-97.556,39.377]},"properties":{"key":"65948-7b48ea31","layer":"power","name":"Plum Nellie Wind Farm LLC","state":"KS","detail_file":"data/details/power-plants-01.json","plant_id":"65948","capacity_mw":201.6,"status_group":"Planned","energy_sources":"WND","type":"Power plant","is_nuclear":false}},{"type":"Feature","geometry":{"type":"Point","coordinates":[-98.299,38.842]},"properties":{"key":"57678-d7a612e8","layer":"power","name":"Post Rock Wind Power Project, LLC","state":"KS","detail_file":"data/details/power-plants-56.json","plant_id":"57678","capacity_mw":201.0,"status_group":"Operating","energy_sources":"WND","type":"Power plant","is_nuclear":false}},{"type":"Feature","geometry":{"type":"Point","coordinates":[-99.306,39.761]},"properties":{"key":"58183-8fcad420","layer":"power","name":"Prairie Horizon Agri Energy","state":"KS","detail_file":"data/details/power-plants-16.json","plant_id":"58183","capacity_mw":1.7,"status_group":"Operating","energy_sources":"NG","type":"Power plant","is_nuclear":false}},{"type":"Feature","geometry":{"type":"Point","coordinates":[-97.075,37.752]},"properties":{"key":"61798-0d26942d","layer":"power","name":"Prairie Sky Solar Farm","state":"KS","detail_file":"data/details/power-plants-28.json","plant_id":"61798","capacity_mw":1.0,"status_group":"Operating","energy_sources":"SUN","type":"Power plant","is_nuclear":false}},{"type":"Feature","geometry":{"type":"Point","coordinates":[-98.743,37.636]},"properties":{"key":"1317-6faa1227","layer":"power","name":"Pratt","state":"KS","detail_file":"data/details/power-plants-51.json","plant_id":"1317","capacity_mw":15.5,"status_group":"Operating","energy_sources":"DFO; NG","type":"Power plant","is_nuclear":false}},{"type":"Feature","geometry":{"type":"Point","coordinates":[-98.745,37.636]},"properties":{"key":"7447-94516801","layer":"power","name":"Pratt 2","state":"KS","detail_file":"data/details/power-plants-50.json","plant_id":"7447","capacity_mw":16.0,"status_group":"Operating","energy_sources":"NG","type":"Power plant","is_nuclear":false}},{"type":"Feature","geometry":{"type":"Point","coordinates":[-98.8,37.55]},"properties":{"key":"61957-757cb72c","layer":"power","name":"Pratt Wind, LLC","state":"KS","detail_file":"data/details/power-plants-02.json","plant_id":"61957","capacity_mw":243.5,"status_group":"Operating","energy_sources":"WND","type":"Power plant","is_nuclear":false}},{"type":"Feature","geometry":{"type":"Point","coordinates":[-96.291,39.197]},"properties":{"key":"69783-6f7fe741","layer":"power","name":"Public Works Generation","state":"KS","detail_file":"data/details/power-plants-55.json","plant_id":"69783","capacity_mw":3.0,"status_group":"Under construction","energy_sources":"DFO","type":"Power plant","is_nuclear":false}},{"type":"Feature","geometry":{"type":"Point","coordinates":[-96.799,39.086]},"properties":{"key":"69038-512555e8","layer":"power","name":"Riley III - Site 12 Community Solar","state":"KS","detail_file":"data/details/power-plants-01.json","plant_id":"69038","capacity_mw":1.0,"status_group":"Operating","energy_sources":"SUN","type":"Power plant","is_nuclear":false}},{"type":"Feature","geometry":{"type":"Point","coordinates":[-96.823,39.083]},"properties":{"key":"69037-4b3f59af","layer":"power","name":"Riley III - Site 6 Community Solar","state":"KS","detail_file":"data/details/power-plants-41.json","plant_id":"69037","capacity_mw":2.1,"status_group":"Operating","energy_sources":"SUN","type":"Power plant","is_nuclear":false}},{"type":"Feature","geometry":{"type":"Point","coordinates":[-98.794,38.894]},"properties":{"key":"67320-a19281be","layer":"power","name":"Russell","state":"KS","detail_file":"data/details/power-plants-24.json","plant_id":"67320","capacity_mw":20.4,"status_group":"Operating","energy_sources":"SUN","type":"Power plant","is_nuclear":false}},{"type":"Feature","geometry":{"type":"Point","coordinates":[-98.857,38.893]},"properties":{"key":"1319-9b223953","layer":"power","name":"Russell Downtown","state":"KS","detail_file":"data/details/power-plants-63.json","plant_id":"1319","capacity_mw":15.7,"status_group":"Operating","energy_sources":"DFO; NG","type":"Power plant","is_nuclear":false}},{"type":"Feature","geometry":{"type":"Point","coordinates":[-98.839,38.9]},"properties":{"key":"7930-0517aaf1","layer":"power","name":"Russell Energy Center","state":"KS","detail_file":"data/details/power-plants-19.json","plant_id":"7930","capacity_mw":15.0,"status_group":"Operating","energy_sources":"NG","type":"Power plant","is_nuclear":false}},{"type":"Feature","geometry":{"type":"Point","coordinates":[-99.446,37.519]},"properties":{"key":"58018-d864afd3","layer":"power","name":"Shooting Star","state":"KS","detail_file":"data/details/power-plants-13.json","plant_id":"58018","capacity_mw":104.0,"status_group":"Operating","energy_sources":"WND","type":"Power plant","is_nuclear":false}},{"type":"Feature","geometry":{"type":"Point","coordinates":[-97.238,37.115]},"properties":{"key":"59837-ce71b3a1","layer":"power","name":"Slate Creek Wind Project LLC","state":"KS","detail_file":"data/details/power-plants-61.json","plant_id":"59837","capacity_mw":150.0,"status_group":"Operating","energy_sources":"WND","type":"Power plant","is_nuclear":false}},{"type":"Feature","geometry":{"type":"Point","coordinates":[-98.16,38.88]},"properties":{"key":"56488-83534e8c","layer":"power","name":"Smoky Hills Wind Project Phase I","state":"KS","detail_file":"data/details/power-plants-25.json","plant_id":"56488","capacity_mw":100.8,"status_group":"Operating","energy_sources":"WND","type":"Power plant","is_nuclear":false}},{"type":"Feature","geometry":{"type":"Point","coordinates":[-98.169,38.893]},"properties":{"key":"56985-a274a9d3","layer":"power","name":"Smoky Hills Wind Project Phase II","state":"KS","detail_file":"data/details/power-plants-25.json","plant_id":"56985","capacity_mw":148.5,"status_group":"Operating","energy_sources":"WND","type":"Power plant","is_nuclear":false}},{"type":"Feature","geometry":{"type":"Point","coordinates":[-96.029,39.657]},"properties":{"key":"64309-a0ac730e","layer":"power","name":"Soldier Creek Wind","state":"KS","detail_file":"data/details/power-plants-48.json","plant_id":"64309","capacity_mw":300.0,"status_group":"Operating","energy_sources":"WND","type":"Power plant","is_nuclear":false}},{"type":"Feature","geometry":{"type":"Point","coordinates":[-97.372,38.85]},"properties":{"key":"68716-6747f251","layer":"power","name":"Solomon-DS&O","state":"KS","detail_file":"data/details/power-plants-40.json","plant_id":"68716","capacity_mw":1.0,"status_group":"Operating","energy_sources":"SUN","type":"Power plant","is_nuclear":false}},{"type":"Feature","geometry":{"type":"Point","coordinates":[-99.753,37.864]},"properties":{"key":"56351-57c9de5a","layer":"power","name":"Spearville","state":"KS","detail_file":"data/details/power-plants-34.json","plant_id":"56351","capacity_mw":148.5,"status_group":"Operating","energy_sources":"WND","type":"Power plant","is_nuclear":false}},{"type":"Feature","geometry":{"type":"Point","coordinates":[-99.838,37.851]},"properties":{"key":"57975-fd4366c9","layer":"power","name":"Spearville 3 LLC","state":"KS","detail_file":"data/details/power-plants-12.json","plant_id":"57975","capacity_mw":108.0,"status_group":"Operating","energy_sources":"WND","type":"Power plant","is_nuclear":false}},{"type":"Feature","geometry":{"type":"Point","coordinates":[-98.76,37.995]},"properties":{"key":"1322-d513310e","layer":"power","name":"St John","state":"KS","detail_file":"data/details/power-plants-39.json","plant_id":"1322","capacity_mw":6.8,"status_group":"Operating","energy_sources":"DFO","type":"Power plant","is_nuclear":false}},{"type":"Feature","geometry":{"type":"Point","coordinates":[-96.455,39.233]},"properties":{"key":"68720-2d0f4b75","layer":"power","name":"St. George","state":"KS","detail_file":"data/details/power-plants-52.json","plant_id":"68720","capacity_mw":1.0,"status_group":"Operating","energy_sources":"SUN","type":"Power plant","is_nuclear":false}},{"type":"Feature","geometry":{"type":"Point","coordinates":[-98.599,37.956]},"properties":{"key":"1325-01d7e7bf","layer":"power","name":"Stafford","state":"KS","detail_file":"data/details/power-plants-04.json","plant_id":"1325","capacity_mw":4.9,"status_group":"Operating","energy_sources":"DFO","type":"Power plant","is_nuclear":false}},{"type":"Feature","geometry":{"type":"Point","coordinates":[-98.207,38.214]},"properties":{"key":"1326-6450d29b","layer":"power","name":"Sterling","state":"KS","detail_file":"data/details/power-plants-24.json","plant_id":"1326","capacity_mw":10.3,"status_group":"Operating","energy_sources":"NG","type":"Power plant","is_nuclear":false}},{"type":"Feature","geometry":{"type":"Point","coordinates":[-99.278,39.436]},"properties":{"key":"1327-80b4110e","layer":"power","name":"Stockton","state":"KS","detail_file":"data/details/power-plants-13.json","plant_id":"1327","capacity_mw":8.6,"status_group":"Operating","energy_sources":"DFO; NG","type":"Power plant","is_nuclear":false}},{"type":"Feature","geometry":{"type":"Point","coordinates":[-97.047,38.232]},"properties":{"key":"65738-43c1d209","layer":"power","name":"Sunflower Energy Center, LLC","state":"KS","detail_file":"data/details/power-plants-06.json","plant_id":"65738","capacity_mw":200.6,"status_group":"Operating","energy_sources":"WND","type":"Power plant","is_nuclear":false}},{"type":"Feature","geometry":{"type":"Point","coordinates":[-96.254,38.469]},"properties":{"key":"63575-d9920bcc","layer":"power","name":"Thunderbird Generator (Tbird)","state":"KS","detail_file":"data/details/power-plants-47.json","plant_id":"63575","capacity_mw":1.0,"status_group":"Operating","energy_sources":"DFO","type":"Power plant","is_nuclear":false}},{"type":"Feature","geometry":{"type":"Point","coordinates":[-97.67,37.331]},"properties":{"key":"68294-f5979085","layer":"power","name":"Viola Generating Station","state":"KS","detail_file":"data/details/power-plants-23.json","plant_id":"68294","capacity_mw":765.0,"status_group":"Under construction","energy_sources":"NG","type":"Power plant","is_nuclear":false}},{"type":"Feature","geometry":{"type":"Point","coordinates":[-97.215,37.284]},"properties":{"key":"67722-1baf52e8","layer":"power","name":"WPWP","state":"KS","detail_file":"data/details/power-plants-41.json","plant_id":"67722","capacity_mw":307.2,"status_group":"Operating","energy_sources":"WND","type":"Power plant","is_nuclear":false}},{"type":"Feature","geometry":{"type":"Point","coordinates":[-96.309,39.199]},"properties":{"key":"1328-ac23dd1c","layer":"power","name":"Wamego","state":"KS","detail_file":"data/details/power-plants-25.json","plant_id":"1328","capacity_mw":15.2,"status_group":"Operating","energy_sources":"NG","type":"Power plant","is_nuclear":false}},{"type":"Feature","geometry":{"type":"Point","coordinates":[-96.309,39.199]},"properties":{"key":"1328-b100a4af","layer":"power","name":"Wamego","state":"KS","detail_file":"data/details/power-plants-28.json","plant_id":"1328","capacity_mw":9.0,"status_group":"Under construction","energy_sources":"DFO","type":"Power plant","is_nuclear":false}},{"type":"Feature","geometry":{"type":"Point","coordinates":[-96.98,39.731]},"properties":{"key":"1329-587dc6ff","layer":"power","name":"Washington","state":"KS","detail_file":"data/details/power-plants-57.json","plant_id":"1329","capacity_mw":11.4,"status_group":"Operating","energy_sources":"DFO; NG","type":"Power plant","is_nuclear":false}},{"type":"Feature","geometry":{"type":"Point","coordinates":[-96.99,37.228]},"properties":{"key":"56022-069f2eee","layer":"power","name":"Waste Water Plant Generator","state":"KS","detail_file":"data/details/power-plants-58.json","plant_id":"56022","capacity_mw":1.6,"status_group":"Operating","energy_sources":"DFO","type":"Power plant","is_nuclear":false}},{"type":"Feature","geometry":{"type":"Point","coordinates":[-97.406,37.261]},"properties":{"key":"1330-b028433c","layer":"power","name":"Wellington 1","state":"KS","detail_file":"data/details/power-plants-30.json","plant_id":"1330","capacity_mw":24.0,"status_group":"Operating","energy_sources":"DFO; NG","type":"Power plant","is_nuclear":false}},{"type":"Feature","geometry":{"type":"Point","coordinates":[-97.35,37.268]},"properties":{"key":"7339-40dc7eda","layer":"power","name":"Wellington 2","state":"KS","detail_file":"data/details/power-plants-50.json","plant_id":"7339","capacity_mw":20.0,"status_group":"Operating","energy_sources":"NG","type":"Power plant","is_nuclear":false}},{"type":"Feature","geometry":{"type":"Point","coordinates":[-97.011,37.235]},"properties":{"key":"1332-638992bb","layer":"power","name":"West 14th Street","state":"KS","detail_file":"data/details/power-plants-21.json","plant_id":"1332","capacity_mw":11.0,"status_group":"Operating","energy_sources":"NG","type":"Power plant","is_nuclear":false}},{"type":"Feature","geometry":{"type":"Point","coordinates":[-97.975,38.019]},"properties":{"key":"60956-3e690809","layer":"power","name":"Westar Cities Solar","state":"KS","detail_file":"data/details/power-plants-59.json","plant_id":"60956","capacity_mw":1.0,"status_group":"Operating","energy_sources":"SUN","type":"Power plant","is_nuclear":false}},{"type":"Feature","geometry":{"type":"Point","coordinates":[-99.68,37.855]},"properties":{"key":"60689-6da39afb","layer":"power","name":"Western Plains Wind Farm","state":"KS","detail_file":"data/details/power-plants-01.json","plant_id":"60689","capacity_mw":280.6,"status_group":"Operating","energy_sources":"WND","type":"Power plant","is_nuclear":false}},{"type":"Feature","geometry":{"type":"Point","coordinates":[-97.922,38.006]},"properties":{"key":"68296-d49c3578","layer":"power","name":"Mullin Creek #1 Generating Station","state":"MO","detail_file":"data/details/power-plants-63.json","plant_id":"68296","capacity_mw":489.7,"status_group":"Under construction","energy_sources":"NG","type":"Power plant","is_nuclear":false}},{"type":"Feature","geometry":{"type":"Point","coordinates":[-99.739,36.487]},"properties":{"key":"65511-0bbc1b6c","layer":"power","name":"25 Mile Creek","state":"OK","detail_file":"data/details/power-plants-44.json","plant_id":"65511","capacity_mw":250.0,"status_group":"Operating","energy_sources":"WND","type":"Power plant","is_nuclear":false}},{"type":"Feature","geometry":{"type":"Point","coordinates":[-97.567,36.301]},"properties":{"key":"61926-6c3ecfd2","layer":"power","name":"Armadillo Flats Wind Project, LLC","state":"OK","detail_file":"data/details/power-plants-53.json","plant_id":"61926","capacity_mw":247.3,"status_group":"Operating","energy_sources":"WND","type":"Power plant","is_nuclear":false}},{"type":"Feature","geometry":{"type":"Point","coordinates":[-99.358,36.547]},"properties":{"key":"62871-27e08a80","layer":"power","name":"Boiling Springs Wind Farm","state":"OK","detail_file":"data/details/power-plants-60.json","plant_id":"62871","capacity_mw":148.4,"status_group":"Operating","energy_sources":"WND","type":"Power plant","is_nuclear":false}},{"type":"Feature","geometry":{"type":"Point","coordinates":[-97.695,36.447]},"properties":{"key":"68576-db854a6f","layer":"power","name":"Breckinridge Energy Storage","state":"OK","detail_file":"data/details/power-plants-02.json","plant_id":"68576","capacity_mw":65.0,"status_group":"Operating","energy_sources":"MWH","type":"Power plant","is_nuclear":false}},{"type":"Feature","geometry":{"type":"Point","coordinates":[-97.686,36.477]},"properties":{"key":"58994-24b70887","layer":"power","name":"Breckinridge Wind Project LLC","state":"OK","detail_file":"data/details/power-plants-26.json","plant_id":"58994","capacity_mw":98.8,"status_group":"Operating","energy_sources":"WND","type":"Power plant","is_nuclear":false}},{"type":"Feature","geometry":{"type":"Point","coordinates":[-99.635,36.777]},"properties":{"key":"56946-d597829f","layer":"power","name":"Buffalo Bear LLC","state":"OK","detail_file":"data/details/power-plants-42.json","plant_id":"56946","capacity_mw":18.9,"status_group":"Operating","energy_sources":"WND","type":"Power plant","is_nuclear":false}},{"type":"Feature","geometry":{"type":"Point","coordinates":[-99.602,36.638]},"properties":{"key":"56380-fb96f273","layer":"power","name":"Centennial Wind Farm","state":"OK","detail_file":"data/details/power-plants-34.json","plant_id":"56380","capacity_mw":120.0,"status_group":"Operating","energy_sources":"WND","type":"Power plant","is_nuclear":false}},{"type":"Feature","geometry":{"type":"Point","coordinates":[-97.125,36.814]},"properties":{"key":"58325-d1efc5fb","layer":"power","name":"Charles D. Lamb Energy Center","state":"OK","detail_file":"data/details/power-plants-44.json","plant_id":"58325","capacity_mw":122.0,"status_group":"Operating","energy_sources":"NG","type":"Power plant","is_nuclear":false}},{"type":"Feature","geometry":{"type":"Point","coordinates":[-97.674,36.575]},"properties":{"key":"58041-a7309e3c","layer":"power","name":"Chisholm View Wind Project","state":"OK","detail_file":"data/details/power-plants-50.json","plant_id":"58041","capacity_mw":300.0,"status_group":"Operating","energy_sources":"WND","type":"Power plant","is_nuclear":false}},{"type":"Feature","geometry":{"type":"Point","coordinates":[-97.586,36.318]},"properties":{"key":"61759-efbad272","layer":"power","name":"Covington Solar Farm","state":"OK","detail_file":"data/details/power-plants-59.json","plant_id":"61759","capacity_mw":10.0,"status_group":"Operating","energy_sources":"SUN","type":"Power plant","is_nuclear":false}},{"type":"Feature","geometry":{"type":"Point","coordinates":[-98.722,36.035]},"properties":{"key":"57332-c1b0607c","layer":"power","name":"Crossroads Wind Farm","state":"OK","detail_file":"data/details/power-plants-22.json","plant_id":"57332","capacity_mw":227.5,"status_group":"Operating","energy_sources":"WND","type":"Power plant","is_nuclear":false}},{"type":"Feature","geometry":{"type":"Point","coordinates":[-97.181,36.839]},"properties":{"key":"60218-6d875f04","layer":"power","name":"Frontier Windpower","state":"OK","detail_file":"data/details/power-plants-02.json","plant_id":"60218","capacity_mw":200.0,"status_group":"Operating","energy_sources":"WND","type":"Power plant","is_nuclear":false}},{"type":"Feature","geometry":{"type":"Point","coordinates":[-97.03,36.825]},"properties":{"key":"62837-9c10170c","layer":"power","name":"Frontier Windpower II","state":"OK","detail_file":"data/details/power-plants-42.json","plant_id":"62837","capacity_mw":351.8,"status_group":"Operating","energy_sources":"WND","type":"Power plant","is_nuclear":false}},{"type":"Feature","geometry":{"type":"Point","coordinates":[-97.705,36.971]},"properties":{"key":"60545-b35d4f12","layer":"power","name":"Grant Plains Wind, LLC","state":"OK","detail_file":"data/details/power-plants-38.json","plant_id":"60545","capacity_mw":147.2,"status_group":"Operating","energy_sources":"WND","type":"Power plant","is_nuclear":false}},{"type":"Feature","geometry":{"type":"Point","coordinates":[-97.696,36.927]},"properties":{"key":"60013-f7422137","layer":"power","name":"Grant Wind, LLC","state":"OK","detail_file":"data/details/power-plants-60.json","plant_id":"60013","capacity_mw":151.8,"status_group":"Operating","energy_sources":"WND","type":"Power plant","is_nuclear":false}},{"type":"Feature","geometry":{"type":"Point","coordinates":[-99.596,36.167]},"properties":{"key":"60574-dcb7fa05","layer":"power","name":"Great Western Wind Energy, LLC","state":"OK","detail_file":"data/details/power-plants-34.json","plant_id":"60574","capacity_mw":225.0,"status_group":"Operating","energy_sources":"WND","type":"Power plant","is_nuclear":false}},{"type":"Feature","geometry":{"type":"Point","coordinates":[-96.928,36.699]},"properties":{"key":"7545-18d3118e","layer":"power","name":"Kaw Hydro","state":"OK","detail_file":"data/details/power-plants-62.json","plant_id":"7545","capacity_mw":37.0,"status_group":"Operating","energy_sources":"WAT","type":"Power plant","is_nuclear":false}},{"type":"Feature","geometry":{"type":"Point","coordinates":[-97.134,36.984]},"properties":{"key":"59460-3576ba0e","layer":"power","name":"Kay Wind, LLC","state":"OK","detail_file":"data/details/power-plants-15.json","plant_id":"59460","capacity_mw":299.0,"status_group":"Operating","energy_sources":"WND","type":"Power plant","is_nuclear":false}},{"type":"Feature","geometry":{"type":"Point","coordinates":[-99.491,36.276]},"properties":{"key":"57358-6d7ee0b2","layer":"power","name":"Keenan II Renewable Energy Co LLC","state":"OK","detail_file":"data/details/power-plants-15.json","plant_id":"57358","capacity_mw":151.8,"status_group":"Operating","energy_sources":"WND","type":"Power plant","is_nuclear":false}},{"type":"Feature","geometry":{"type":"Point","coordinates":[-96.252,36.151]},"properties":{"key":"2984-147d79d2","layer":"power","name":"Keystone Dam","state":"OK","detail_file":"data/details/power-plants-19.json","plant_id":"2984","capacity_mw":70.0,"status_group":"Operating","energy_sources":"WAT","type":"Power plant","is_nuclear":false}},{"type":"Feature","geometry":{"type":"Point","coordinates":[-97.477,36.4]},"properties":{"key":"63104-289110f7","layer":"power","name":"King Plains Wind Project","state":"OK","detail_file":"data/details/power-plants-19.json","plant_id":"63104","capacity_mw":248.2,"status_group":"Operating","energy_sources":"WND","type":"Power plant","is_nuclear":false}},{"type":"Feature","geometry":{"type":"Point","coordinates":[-99.891,36.711]},"properties":{"key":"56348-796dfe93","layer":"power","name":"Laverne Diesel Generating Plant","state":"OK","detail_file":"data/details/power-plants-28.json","plant_id":"56348","capacity_mw":4.0,"status_group":"Operating","energy_sources":"DFO","type":"Power plant","is_nuclear":false}},{"type":"Feature","geometry":{"type":"Point","coordinates":[-98.165,36.294]},"properties":{"key":"63494-da17fea8","layer":"power","name":"Maverick Wind Project, LLC","state":"OK","detail_file":"data/details/power-plants-48.json","plant_id":"63494","capacity_mw":288.0,"status_group":"Operating","energy_sources":"WND","type":"Power plant","is_nuclear":false}},{"type":"Feature","geometry":{"type":"Point","coordinates":[-99.225,36.437]},"properties":{"key":"3008-12f8c64e","layer":"power","name":"Mooreland","state":"OK","detail_file":"data/details/power-plants-43.json","plant_id":"3008","capacity_mw":305.0,"status_group":"Operating","energy_sources":"NG","type":"Power plant","is_nuclear":false}},{"type":"Feature","geometry":{"type":"Point","coordinates":[-97.418,36.847]},"properties":{"key":"58209-234b4f83","layer":"power","name":"NextEra-Blackwell Wind, LLC","state":"OK","detail_file":"data/details/power-plants-32.json","plant_id":"58209","capacity_mw":59.8,"status_group":"Operating","energy_sources":"WND","type":"Power plant","is_nuclear":false}},{"type":"Feature","geometry":{"type":"Point","coordinates":[-99.48,36.334]},"properties":{"key":"57286-d71bdd93","layer":"power","name":"OU Spirit Wind Farm","state":"OK","detail_file":"data/details/power-plants-23.json","plant_id":"57286","capacity_mw":101.2,"status_group":"Operating","energy_sources":"WND","type":"Power plant","is_nuclear":false}},{"type":"Feature","geometry":{"type":"Point","coordinates":[-99.34,36.604]},"properties":{"key":"56094-16469a98","layer":"power","name":"Oklahoma Wind Energy Center","state":"OK","detail_file":"data/details/power-plants-15.json","plant_id":"56094","capacity_mw":102.0,"status_group":"Operating","energy_sources":"WND","type":"Power plant","is_nuclear":false}},{"type":"Feature","geometry":{"type":"Point","coordinates":[-96.7,36.707]},"properties":{"key":"58683-ddbc618f","layer":"power","name":"Osage Wind, LLC","state":"OK","detail_file":"data/details/power-plants-03.json","plant_id":"58683","capacity_mw":150.4,"status_group":"Operating","energy_sources":"WND","type":"Power plant","is_nuclear":false}},{"type":"Feature","geometry":{"type":"Point","coordinates":[-96.347,36.669]},"properties":{"key":"2995-62fcfe04","layer":"power","name":"Pawhuska","state":"OK","detail_file":"data/details/power-plants-14.json","plant_id":"2995","capacity_mw":9.0,"status_group":"Operating","energy_sources":"DFO","type":"Power plant","is_nuclear":false}},{"type":"Feature","geometry":{"type":"Point","coordinates":[-99.349,36.174]},"properties":{"key":"61876-6690b238","layer":"power","name":"Persimmon Creek Wind Farm 1, LLC","state":"OK","detail_file":"data/details/power-plants-52.json","plant_id":"61876","capacity_mw":198.6,"status_group":"Operating","energy_sources":"WND","type":"Power plant","is_nuclear":false}},{"type":"Feature","geometry":{"type":"Point","coordinates":[-97.086,36.72]},"properties":{"key":"7546-8581ae85","layer":"power","name":"Ponca City","state":"OK","detail_file":"data/details/power-plants-61.json","plant_id":"7546","capacity_mw":134.3,"status_group":"Operating","energy_sources":"NG","type":"Power plant","is_nuclear":false}},{"type":"Feature","geometry":{"type":"Point","coordinates":[-97.784,36.051]},"properties":{"key":"61270-7b21cc4d","layer":"power","name":"Red Dirt Wind Project","state":"OK","detail_file":"data/details/power-plants-03.json","plant_id":"61270","capacity_mw":299.3,"status_group":"Operating","energy_sources":"WND","type":"Power plant","is_nuclear":false}},{"type":"Feature","geometry":{"type":"Point","coordinates":[-96.018,36.132]},"properties":{"key":"50660-38e79576","layer":"power","name":"Reworld Tulsa","state":"OK","detail_file":"data/details/power-plants-33.json","plant_id":"50660","capacity_mw":16.8,"status_group":"Operating","energy_sources":"MSW","type":"Power plant","is_nuclear":false}},{"type":"Feature","geometry":{"type":"Point","coordinates":[-97.427,36.927]},"properties":{"key":"61261-ae484294","layer":"power","name":"Rock Falls Wind Farm LLC","state":"OK","detail_file":"data/details/power-plants-12.json","plant_id":"61261","capacity_mw":154.5,"status_group":"Operating","energy_sources":"WND","type":"Power plant","is_nuclear":false}},{"type":"Feature","geometry":{"type":"Point","coordinates":[-98.992,36.123]},"properties":{"key":"59311-90fca25a","layer":"power","name":"Seiling Wind I","state":"OK","detail_file":"data/details/power-plants-10.json","plant_id":"59311","capacity_mw":199.0,"status_group":"Operating","energy_sources":"WND","type":"Power plant","is_nuclear":false}},{"type":"Feature","geometry":{"type":"Point","coordinates":[-98.992,36.123]},"properties":{"key":"59312-88e1f244","layer":"power","name":"Seiling Wind II","state":"OK","detail_file":"data/details/power-plants-13.json","plant_id":"59312","capacity_mw":98.6,"status_group":"Operating","energy_sources":"WND","type":"Power plant","is_nuclear":false}},{"type":"Feature","geometry":{"type":"Point","coordinates":[-98.034,36.521]},"properties":{"key":"62494-fff29475","layer":"power","name":"Skeleton Creek Energy Center Hybrid","state":"OK","detail_file":"data/details/power-plants-57.json","plant_id":"62494","capacity_mw":752.0,"status_group":"Operating","energy_sources":"MWH; SUN; WND","type":"Power plant","is_nuclear":false}},{"type":"Feature","geometry":{"type":"Point","coordinates":[-99.501,36.64]},"properties":{"key":"56621-521f5d21","layer":"power","name":"Sleeping Bear LLC","state":"OK","detail_file":"data/details/power-plants-41.json","plant_id":"56621","capacity_mw":94.5,"status_group":"Operating","energy_sources":"WND","type":"Power plant","is_nuclear":false}},{"type":"Feature","geometry":{"type":"Point","coordinates":[-97.053,36.453]},"properties":{"key":"6095-1fbedf36","layer":"power","name":"Sooner","state":"OK","detail_file":"data/details/power-plants-44.json","plant_id":"6095","capacity_mw":1138.0,"status_group":"Operating","energy_sources":"SUB","type":"Power plant","is_nuclear":false}},{"type":"Feature","geometry":{"type":"Point","coordinates":[-97.037,36.162]},"properties":{"key":"59647-8a1154a4","layer":"power","name":"Stillwater Energy Center","state":"OK","detail_file":"data/details/power-plants-13.json","plant_id":"59647","capacity_mw":56.4,"status_group":"Operating","energy_sources":"NG","type":"Power plant","is_nuclear":false}},{"type":"Feature","geometry":{"type":"Point","coordinates":[-98.749,36.56]},"properties":{"key":"63489-abefb146","layer":"power","name":"Sundance Wind Project, LLC","state":"OK","detail_file":"data/details/power-plants-58.json","plant_id":"63489","capacity_mw":199.0,"status_group":"Operating","energy_sources":"WND","type":"Power plant","is_nuclear":false}},{"type":"Feature","geometry":{"type":"Point","coordinates":[-97.145,36.522]},"properties":{"key":"61269-3cc405fc","layer":"power","name":"Thunder Ranch Wind Project","state":"OK","detail_file":"data/details/power-plants-37.json","plant_id":"61269","capacity_mw":297.8,"status_group":"Operating","energy_sources":"WND","type":"Power plant","is_nuclear":false}},{"type":"Feature","geometry":{"type":"Point","coordinates":[-96.187,36.162]},"properties":{"key":"57828-49d8fb77","layer":"power","name":"Tulsa LFG LLC","state":"OK","detail_file":"data/details/power-plants-52.json","plant_id":"57828","capacity_mw":3.2,"status_group":"Operating","energy_sources":"LFG","type":"Power plant","is_nuclear":false}},{"type":"Feature","geometry":{"type":"Point","coordinates":[-97.575,36.153]},"properties":{"key":"69224-e62020af","layer":"power","name":"Wagon Wheel Wind","state":"OK","detail_file":"data/details/power-plants-05.json","plant_id":"69224","capacity_mw":598.4,"status_group":"Operating","energy_sources":"WND","type":"Power plant","is_nuclear":false}},{"type":"Feature","geometry":{"type":"Point","coordinates":[-98.766,36.651]},"properties":{"key":"59782-f65c39c3","layer":"power","name":"Waynoka Gas Processing Plant","state":"OK","detail_file":"data/details/power-plants-35.json","plant_id":"59782","capacity_mw":3.9,"status_group":"Operating","energy_sources":"NG","type":"Power plant","is_nuclear":false}},{"type":"Feature","geometry":{"type":"Point","coordinates":[-97.101,36.245]},"properties":{"key":"67960-8f515cdd","layer":"power","name":"Willow Creek Wind (OK)","state":"OK","detail_file":"data/details/power-plants-43.json","plant_id":"67960","capacity_mw":220.0,"status_group":"Operating","energy_sources":"WND","type":"Power plant","is_nuclear":false}},{"type":"Feature","geometry":{"type":"Point","coordinates":[-99.3,36.573]},"properties":{"key":"68577-208147c1","layer":"power","name":"Woodward Energy Storage","state":"OK","detail_file":"data/details/power-plants-38.json","plant_id":"68577","capacity_mw":40.0,"status_group":"Operating","energy_sources":"MWH","type":"Power plant","is_nuclear":false}}]}