{"type":"FeatureCollection","features":[{"type":"Feature","geometry":{"type":"Point","coordinates":[-157.857,67.088]},"properties":{"key":"60243-8491273b","layer":"power","name":"Ambler","state":"AK","detail_file":"data/details/power-plants-34.json","plant_id":"60243","capacity_mw":1.1,"status_group":"Operating","energy_sources":"DFO","type":"Power plant","is_nuclear":false}},{"type":"Feature","geometry":{"type":"Point","coordinates":[-156.874,64.744]},"properties":{"key":"7437-81e886bb","layer":"power","name":"Galena Electric Utility","state":"AK","detail_file":"data/details/power-plants-06.json","plant_id":"7437","capacity_mw":2.6,"status_group":"Operating","energy_sources":"DFO","type":"Power plant","is_nuclear":false}},{"type":"Feature","geometry":{"type":"Point","coordinates":[-157.14,66.888]},"properties":{"key":"57063-aeb504d7","layer":"power","name":"Shungnak","state":"AK","detail_file":"data/details/power-plants-57.json","plant_id":"57063","capacity_mw":1.2,"status_group":"Operating","energy_sources":"DFO","type":"Power plant","is_nuclear":false}}]}