{"type":"FeatureCollection","features":[{"type":"Feature","geometry":{"type":"Point","coordinates":[-111.484,36.937]},"properties":{"key":"153-27b08e5f","layer":"power","name":"Glen Canyon Dam","state":"AZ","detail_file":"data/details/power-plants-54.json","plant_id":"153","capacity_mw":1312.0,"status_group":"Operating","energy_sources":"WAT","type":"Power plant","is_nuclear":false}},{"type":"Feature","geometry":{"type":"Point","coordinates":[-110.264,36.772]},"properties":{"key":"61268-e073ebd6","layer":"power","name":"Kayenta Solar Project","state":"AZ","detail_file":"data/details/power-plants-57.json","plant_id":"61268","capacity_mw":55.3,"status_group":"Operating","energy_sources":"SUN","type":"Power plant","is_nuclear":false}},{"type":"Feature","geometry":{"type":"Point","coordinates":[-111.28,36.7]},"properties":{"key":"64208-f0e08d93","layer":"power","name":"Red Antelope Solar & Energy Storage Farm","state":"AZ","detail_file":"data/details/power-plants-09.json","plant_id":"64208","capacity_mw":700.0,"status_group":"Planned","energy_sources":"MWH; SUN","type":"Power plant","is_nuclear":false}},{"type":"Feature","geometry":{"type":"Point","coordinates":[-108.463,39.924]},"properties":{"key":"61886-813e6828","layer":"power","name":"Bar D","state":"CO","detail_file":"data/details/power-plants-13.json","plant_id":"61886","capacity_mw":4.0,"status_group":"Operating","energy_sources":"SUN","type":"Power plant","is_nuclear":false}},{"type":"Feature","geometry":{"type":"Point","coordinates":[-108.724,37.431]},"properties":{"key":"64857-ae53c686","layer":"power","name":"Canyonland Solar","state":"CO","detail_file":"data/details/power-plants-07.json","plant_id":"64857","capacity_mw":140.0,"status_group":"Planned","energy_sources":"SUN","type":"Power plant","is_nuclear":false}},{"type":"Feature","geometry":{"type":"Point","coordinates":[-108.525,37.362]},"properties":{"key":"66095-461d6cf7","layer":"power","name":"Cortez Solar 1, LLC","state":"CO","detail_file":"data/details/power-plants-38.json","plant_id":"66095","capacity_mw":2.2,"status_group":"Operating","energy_sources":"SUN","type":"Power plant","is_nuclear":false}},{"type":"Feature","geometry":{"type":"Point","coordinates":[-108.615,37.378]},"properties":{"key":"66169-5cf0b407","layer":"power","name":"Cortez Solar 2, LLC","state":"CO","detail_file":"data/details/power-plants-45.json","plant_id":"66169","capacity_mw":5.0,"status_group":"Operating","energy_sources":"SUN","type":"Power plant","is_nuclear":false}},{"type":"Feature","geometry":{"type":"Point","coordinates":[-108.579,37.304]},"properties":{"key":"66141-bb59eb4c","layer":"power","name":"Cortez Solar 3, LLC","state":"CO","detail_file":"data/details/power-plants-35.json","plant_id":"66141","capacity_mw":2.0,"status_group":"Operating","energy_sources":"SUN","type":"Power plant","is_nuclear":false}},{"type":"Feature","geometry":{"type":"Point","coordinates":[-108.755,37.705]},"properties":{"key":"64858-ab3a7709","layer":"power","name":"Dolores Canyon Solar","state":"CO","detail_file":"data/details/power-plants-05.json","plant_id":"64858","capacity_mw":110.0,"status_group":"Operating","energy_sources":"SUN","type":"Power plant","is_nuclear":false}},{"type":"Feature","geometry":{"type":"Point","coordinates":[-108.735,39.136]},"properties":{"key":"471-0e9ddfd9","layer":"power","name":"Fruita","state":"CO","detail_file":"data/details/power-plants-15.json","plant_id":"471","capacity_mw":26.6,"status_group":"Operating","energy_sources":"NG","type":"Power plant","is_nuclear":false}},{"type":"Feature","geometry":{"type":"Point","coordinates":[-108.782,39.199]},"properties":{"key":"68343-528eff3e","layer":"power","name":"Grand Valley Solar Generation and BESS","state":"CO","detail_file":"data/details/power-plants-21.json","plant_id":"68343","capacity_mw":200.0,"status_group":"Under construction","energy_sources":"MWH; SUN","type":"Power plant","is_nuclear":false}},{"type":"Feature","geometry":{"type":"Point","coordinates":[-108.073,39.396]},"properties":{"key":"67323-8d527142","layer":"power","name":"High Mesa CO","state":"CO","detail_file":"data/details/power-plants-31.json","plant_id":"67323","capacity_mw":22.4,"status_group":"Operating","energy_sources":"MWH; SUN","type":"Power plant","is_nuclear":false}},{"type":"Feature","geometry":{"type":"Point","coordinates":[-108.044,39.194]},"properties":{"key":"520-361e906b","layer":"power","name":"Lower Molina","state":"CO","detail_file":"data/details/power-plants-11.json","plant_id":"520","capacity_mw":5.6,"status_group":"Operating","energy_sources":"WAT","type":"Power plant","is_nuclear":false}},{"type":"Feature","geometry":{"type":"Point","coordinates":[-108.574,37.575]},"properties":{"key":"7372-4805dc85","layer":"power","name":"McPhee","state":"CO","detail_file":"data/details/power-plants-41.json","plant_id":"7372","capacity_mw":1.2,"status_group":"Operating","energy_sources":"WAT","type":"Power plant","is_nuclear":false}},{"type":"Feature","geometry":{"type":"Point","coordinates":[-108.644,39.109]},"properties":{"key":"62719-f10c1fdd","layer":"power","name":"Mesa CSG 1 Murdock","state":"CO","detail_file":"data/details/power-plants-54.json","plant_id":"62719","capacity_mw":1.5,"status_group":"Operating","energy_sources":"SUN","type":"Power plant","is_nuclear":false}},{"type":"Feature","geometry":{"type":"Point","coordinates":[-108.42,39.045]},"properties":{"key":"62718-6929de16","layer":"power","name":"Mesa CSG 2 Massicotte","state":"CO","detail_file":"data/details/power-plants-25.json","plant_id":"62718","capacity_mw":1.5,"status_group":"Operating","energy_sources":"SUN","type":"Power plant","is_nuclear":false}},{"type":"Feature","geometry":{"type":"Point","coordinates":[-108.509,39.067]},"properties":{"key":"59199-c08570d4","layer":"power","name":"Mesa PV1","state":"CO","detail_file":"data/details/power-plants-16.json","plant_id":"59199","capacity_mw":1.6,"status_group":"Operating","energy_sources":"SUN","type":"Power plant","is_nuclear":false}},{"type":"Feature","geometry":{"type":"Point","coordinates":[-108.32,39.145]},"properties":{"key":"62244-6eaccad1","layer":"power","name":"Oak Leaf Solar XXXI LLC (CSG)","state":"CO","detail_file":"data/details/power-plants-40.json","plant_id":"62244","capacity_mw":1.5,"status_group":"Operating","energy_sources":"SUN","type":"Power plant","is_nuclear":false}},{"type":"Feature","geometry":{"type":"Point","coordinates":[-108.091,39.415]},"properties":{"key":"64654-764c2423","layer":"power","name":"Pivot Solar 3 LLC (CSG)","state":"CO","detail_file":"data/details/power-plants-40.json","plant_id":"64654","capacity_mw":2.0,"status_group":"Operating","energy_sources":"SUN","type":"Power plant","is_nuclear":false}},{"type":"Feature","geometry":{"type":"Point","coordinates":[-108.452,39.052]},"properties":{"key":"70206-a35c3dd5","layer":"power","name":"Pivot Solar 57 LLC","state":"CO","detail_file":"data/details/power-plants-15.json","plant_id":"70206","capacity_mw":2.0,"status_group":"Under construction","energy_sources":"SUN","type":"Power plant","is_nuclear":false}},{"type":"Feature","geometry":{"type":"Point","coordinates":[-108.593,39.067]},"properties":{"key":"50267-49011399","layer":"power","name":"Redlands Water & Power","state":"CO","detail_file":"data/details/power-plants-51.json","plant_id":"50267","capacity_mw":1.4,"status_group":"Operating","energy_sources":"WAT","type":"Power plant","is_nuclear":false}},{"type":"Feature","geometry":{"type":"Point","coordinates":[-108.786,38.273]},"properties":{"key":"58547-c4cc57f0","layer":"power","name":"SMPA Solar 1 Community Solar","state":"CO","detail_file":"data/details/power-plants-09.json","plant_id":"58547","capacity_mw":1.0,"status_group":"Operating","energy_sources":"SUN","type":"Power plant","is_nuclear":false}},{"type":"Feature","geometry":{"type":"Point","coordinates":[-108.002,38.492]},"properties":{"key":"61189-a5151294","layer":"power","name":"Shavano Falls Hydro","state":"CO","detail_file":"data/details/power-plants-23.json","plant_id":"61189","capacity_mw":2.8,"status_group":"Operating","energy_sources":"WAT","type":"Power plant","is_nuclear":false}},{"type":"Feature","geometry":{"type":"Point","coordinates":[-108.575,37.43]},"properties":{"key":"7373-77beb63c","layer":"power","name":"Towaoc","state":"CO","detail_file":"data/details/power-plants-36.json","plant_id":"7373","capacity_mw":11.4,"status_group":"Operating","energy_sources":"WAT","type":"Power plant","is_nuclear":false}},{"type":"Feature","geometry":{"type":"Point","coordinates":[-108.423,39.092]},"properties":{"key":"66432-e101a4fa","layer":"power","name":"USS Fruita Solar LLC CSG","state":"CO","detail_file":"data/details/power-plants-30.json","plant_id":"66432","capacity_mw":2.0,"status_group":"Operating","energy_sources":"SUN","type":"Power plant","is_nuclear":false}},{"type":"Feature","geometry":{"type":"Point","coordinates":[-108.005,39.144]},"properties":{"key":"521-479a3d97","layer":"power","name":"Upper Molina","state":"CO","detail_file":"data/details/power-plants-12.json","plant_id":"521","capacity_mw":9.9,"status_group":"Operating","energy_sources":"WAT","type":"Power plant","is_nuclear":false}},{"type":"Feature","geometry":{"type":"Point","coordinates":[-108.346,39.102]},"properties":{"key":"68234-07cd80bf","layer":"power","name":"Vinelands Power Plant","state":"CO","detail_file":"data/details/power-plants-48.json","plant_id":"68234","capacity_mw":4.5,"status_group":"Operating","energy_sources":"WAT","type":"Power plant","is_nuclear":false}},{"type":"Feature","geometry":{"type":"Point","coordinates":[-108.1,39.482]},"properties":{"key":"69287-aca3de58","layer":"power","name":"Wheeler Gulch Solar, LLC","state":"CO","detail_file":"data/details/power-plants-27.json","plant_id":"69287","capacity_mw":9.9,"status_group":"Operating","energy_sources":"SUN","type":"Power plant","is_nuclear":false}},{"type":"Feature","geometry":{"type":"Point","coordinates":[-108.215,36.717]},"properties":{"key":"55977-52187b69","layer":"power","name":"Bluffview","state":"NM","detail_file":"data/details/power-plants-01.json","plant_id":"55977","capacity_mw":85.8,"status_group":"Operating","energy_sources":"NG","type":"Power plant","is_nuclear":false}},{"type":"Feature","geometry":{"type":"Point","coordinates":[-108.481,36.69]},"properties":{"key":"2442-a5bf4336","layer":"power","name":"Four Corners","state":"NM","detail_file":"data/details/power-plants-05.json","plant_id":"2442","capacity_mw":1636.2,"status_group":"Operating","energy_sources":"BIT","type":"Power plant","is_nuclear":false}},{"type":"Feature","geometry":{"type":"Point","coordinates":[-108.277,36.868]},"properties":{"key":"69966-7ecb0db2","layer":"power","name":"Four Mile Mesa Solar, LLC","state":"NM","detail_file":"data/details/power-plants-27.json","plant_id":"69966","capacity_mw":200.0,"status_group":"Under construction","energy_sources":"MWH; SUN","type":"Power plant","is_nuclear":false}},{"type":"Feature","geometry":{"type":"Point","coordinates":[-108.277,36.868]},"properties":{"key":"69967-4bb84005","layer":"power","name":"Foxtail Flats Solar, LLC","state":"NM","detail_file":"data/details/power-plants-48.json","plant_id":"69967","capacity_mw":250.0,"status_group":"Under construction","energy_sources":"MWH; SUN","type":"Power plant","is_nuclear":false}},{"type":"Feature","geometry":{"type":"Point","coordinates":[-108.45,36.683]},"properties":{"key":"66478-fb68cb0b","layer":"power","name":"NTEC Gas Plant","state":"NM","detail_file":"data/details/power-plants-28.json","plant_id":"66478","capacity_mw":1089.0,"status_group":"Under construction","energy_sources":"NG","type":"Power plant","is_nuclear":false}},{"type":"Feature","geometry":{"type":"Point","coordinates":[-108.375,36.777]},"properties":{"key":"64216-1080029d","layer":"power","name":"Rockmont Solar and Storage Project","state":"NM","detail_file":"data/details/power-plants-29.json","plant_id":"64216","capacity_mw":130.0,"status_group":"Under construction","energy_sources":"MWH; SUN","type":"Power plant","is_nuclear":false}},{"type":"Feature","geometry":{"type":"Point","coordinates":[-108.351,36.843]},"properties":{"key":"66574-77927d5f","layer":"power","name":"San Juan Solar I","state":"NM","detail_file":"data/details/power-plants-47.json","plant_id":"66574","capacity_mw":300.0,"status_group":"Operating","energy_sources":"MWH; SUN","type":"Power plant","is_nuclear":false}},{"type":"Feature","geometry":{"type":"Point","coordinates":[-111.438,37.986]},"properties":{"key":"3699-2f723067","layer":"power","name":"Boulder","state":"UT","detail_file":"data/details/power-plants-60.json","plant_id":"3699","capacity_mw":4.2,"status_group":"Operating","energy_sources":"WAT","type":"Power plant","is_nuclear":false}},{"type":"Feature","geometry":{"type":"Point","coordinates":[-110.991,39.334]},"properties":{"key":"64740-4ef090b4","layer":"power","name":"Castle Solar, LLC","state":"UT","detail_file":"data/details/power-plants-54.json","plant_id":"64740","capacity_mw":40.0,"status_group":"Operating","energy_sources":"SUN","type":"Power plant","is_nuclear":false}},{"type":"Feature","geometry":{"type":"Point","coordinates":[-111.888,39.841]},"properties":{"key":"63061-b5b9f96c","layer":"power","name":"Clover Creek Solar Community Solar","state":"UT","detail_file":"data/details/power-plants-22.json","plant_id":"63061","capacity_mw":80.0,"status_group":"Operating","energy_sources":"SUN","type":"Power plant","is_nuclear":false}},{"type":"Feature","geometry":{"type":"Point","coordinates":[-111.894,39.821]},"properties":{"key":"56102-4d5a5316","layer":"power","name":"Currant Creek","state":"UT","detail_file":"data/details/power-plants-31.json","plant_id":"56102","capacity_mw":566.9,"status_group":"Operating","energy_sources":"NG","type":"Power plant","is_nuclear":false}},{"type":"Feature","geometry":{"type":"Point","coordinates":[-111.725,37.092]},"properties":{"key":"66484-c3495ba3","layer":"power","name":"Glen Canyon Solar A, LLC","state":"UT","detail_file":"data/details/power-plants-31.json","plant_id":"66484","capacity_mw":95.0,"status_group":"Under construction","energy_sources":"SUN","type":"Power plant","is_nuclear":false}},{"type":"Feature","geometry":{"type":"Point","coordinates":[-110.712,39.548]},"properties":{"key":"64186-513b2f65","layer":"power","name":"Graphite Solar I","state":"UT","detail_file":"data/details/power-plants-50.json","plant_id":"64186","capacity_mw":80.0,"status_group":"Operating","energy_sources":"SUN","type":"Power plant","is_nuclear":false}},{"type":"Feature","geometry":{"type":"Point","coordinates":[-111.117,38.999]},"properties":{"key":"67501-84e98dea","layer":"power","name":"Green River Energy Center - Hybrid","state":"UT","detail_file":"data/details/power-plants-25.json","plant_id":"67501","capacity_mw":800.0,"status_group":"Operating","energy_sources":"MWH; SUN","type":"Power plant","is_nuclear":false}},{"type":"Feature","geometry":{"type":"Point","coordinates":[-111.801,39.167]},"properties":{"key":"65618-3eb227fa","layer":"power","name":"Gunnison Solar","state":"UT","detail_file":"data/details/power-plants-48.json","plant_id":"65618","capacity_mw":1.5,"status_group":"Operating","energy_sources":"SUN","type":"Power plant","is_nuclear":false}},{"type":"Feature","geometry":{"type":"Point","coordinates":[-110.977,39.182]},"properties":{"key":"67511-4bcd1aaf","layer":"power","name":"Hornshadow Solar II, LLC","state":"UT","detail_file":"data/details/power-plants-18.json","plant_id":"67511","capacity_mw":200.0,"status_group":"Operating","energy_sources":"SUN","type":"Power plant","is_nuclear":false}},{"type":"Feature","geometry":{"type":"Point","coordinates":[-110.977,39.182]},"properties":{"key":"67497-5452e370","layer":"power","name":"Hornshadow Solar, LLC","state":"UT","detail_file":"data/details/power-plants-52.json","plant_id":"67497","capacity_mw":100.0,"status_group":"Operating","energy_sources":"SUN","type":"Power plant","is_nuclear":false}},{"type":"Feature","geometry":{"type":"Point","coordinates":[-111.029,39.175]},"properties":{"key":"6165-840c9316","layer":"power","name":"Hunter","state":"UT","detail_file":"data/details/power-plants-01.json","plant_id":"6165","capacity_mw":1472.2,"status_group":"Operating","energy_sources":"BIT","type":"Power plant","is_nuclear":false}},{"type":"Feature","geometry":{"type":"Point","coordinates":[-111.051,39.142]},"properties":{"key":"62656-5256a833","layer":"power","name":"Hunter Solar LLC (UT)","state":"UT","detail_file":"data/details/power-plants-41.json","plant_id":"62656","capacity_mw":100.0,"status_group":"Operating","energy_sources":"SUN","type":"Power plant","is_nuclear":false}},{"type":"Feature","geometry":{"type":"Point","coordinates":[-111.078,39.379]},"properties":{"key":"8069-f9d7051f","layer":"power","name":"Huntington","state":"UT","detail_file":"data/details/power-plants-28.json","plant_id":"8069","capacity_mw":1015.5,"status_group":"Operating","energy_sources":"BIT","type":"Power plant","is_nuclear":false}},{"type":"Feature","geometry":{"type":"Point","coordinates":[-111.334,39.206]},"properties":{"key":"925-3033af51","layer":"power","name":"Hydro Plant No 3","state":"UT","detail_file":"data/details/power-plants-49.json","plant_id":"925","capacity_mw":2.8,"status_group":"Operating","energy_sources":"WAT","type":"Power plant","is_nuclear":false}},{"type":"Feature","geometry":{"type":"Point","coordinates":[-109.368,37.887]},"properties":{"key":"59965-0122883e","layer":"power","name":"Latigo Wind Park","state":"UT","detail_file":"data/details/power-plants-41.json","plant_id":"59965","capacity_mw":62.1,"status_group":"Operating","energy_sources":"WND","type":"Power plant","is_nuclear":false}},{"type":"Feature","geometry":{"type":"Point","coordinates":[-111.621,39.256]},"properties":{"key":"1020-132d815e","layer":"power","name":"Manti Lower","state":"UT","detail_file":"data/details/power-plants-22.json","plant_id":"1020","capacity_mw":1.2,"status_group":"Operating","energy_sources":"WAT","type":"Power plant","is_nuclear":false}},{"type":"Feature","geometry":{"type":"Point","coordinates":[-111.621,39.256]},"properties":{"key":"3676-43a1bd4e","layer":"power","name":"Manti Upper","state":"UT","detail_file":"data/details/power-plants-53.json","plant_id":"3676","capacity_mw":1.0,"status_group":"Operating","energy_sources":"WAT","type":"Power plant","is_nuclear":false}},{"type":"Feature","geometry":{"type":"Point","coordinates":[-109.412,37.121]},"properties":{"key":"66404-ee6c93bd","layer":"power","name":"Red Mesa Solar Project","state":"UT","detail_file":"data/details/power-plants-55.json","plant_id":"66404","capacity_mw":72.0,"status_group":"Operating","energy_sources":"SUN","type":"Power plant","is_nuclear":false}},{"type":"Feature","geometry":{"type":"Point","coordinates":[-110.392,39.547]},"properties":{"key":"50951-c6fb38f3","layer":"power","name":"Sunnyside Cogen Associates","state":"UT","detail_file":"data/details/power-plants-45.json","plant_id":"50951","capacity_mw":58.1,"status_group":"Operating","energy_sources":"WC","type":"Power plant","is_nuclear":false}},{"type":"Feature","geometry":{"type":"Point","coordinates":[-111.419,39.544]},"properties":{"key":"7015-b803cc21","layer":"power","name":"Unit 4","state":"UT","detail_file":"data/details/power-plants-02.json","plant_id":"7015","capacity_mw":1.3,"status_group":"Operating","energy_sources":"WAT","type":"Power plant","is_nuclear":false}}]}