{"type":"FeatureCollection","features":[{"type":"Feature","geometry":{"type":"Point","coordinates":[-151.036,61.186]},"properties":{"key":"96-8e51d26f","layer":"power","name":"Beluga","state":"AK","detail_file":"data/details/power-plants-51.json","plant_id":"96","capacity_mw":312.4,"status_group":"Operating","energy_sources":"NG","type":"Power plant","is_nuclear":false}},{"type":"Feature","geometry":{"type":"Point","coordinates":[-151.387,60.694]},"properties":{"key":"6292-b2dd2ba0","layer":"power","name":"Bernice Lake","state":"AK","detail_file":"data/details/power-plants-61.json","plant_id":"6292","capacity_mw":76.7,"status_group":"Operating","energy_sources":"NG","type":"Power plant","is_nuclear":false}},{"type":"Feature","geometry":{"type":"Point","coordinates":[-149.666,60.392]},"properties":{"key":"6291-73154c6a","layer":"power","name":"Cooper Lake","state":"AK","detail_file":"data/details/power-plants-15.json","plant_id":"6291","capacity_mw":19.4,"status_group":"Operating","energy_sources":"WAT","type":"Power plant","is_nuclear":false}},{"type":"Feature","geometry":{"type":"Point","coordinates":[-149.351,61.458]},"properties":{"key":"58989-b31e3e2a","layer":"power","name":"Eklutna Generation Station","state":"AK","detail_file":"data/details/power-plants-46.json","plant_id":"58989","capacity_mw":171.0,"status_group":"Operating","energy_sources":"NG","type":"Power plant","is_nuclear":false}},{"type":"Feature","geometry":{"type":"Point","coordinates":[-149.15,61.475]},"properties":{"key":"77-7b7a62fd","layer":"power","name":"Eklutna Hydro Project","state":"AK","detail_file":"data/details/power-plants-04.json","plant_id":"77","capacity_mw":44.4,"status_group":"Operating","energy_sources":"WAT","type":"Power plant","is_nuclear":false}},{"type":"Feature","geometry":{"type":"Point","coordinates":[-150.244,61.13]},"properties":{"key":"58425-1380b8bc","layer":"power","name":"Fire Island Wind","state":"AK","detail_file":"data/details/power-plants-34.json","plant_id":"58425","capacity_mw":18.0,"status_group":"Operating","energy_sources":"WND","type":"Power plant","is_nuclear":false}},{"type":"Feature","geometry":{"type":"Point","coordinates":[-149.717,61.23]},"properties":{"key":"6559-9754321d","layer":"power","name":"George M Sullivan Generation Plant 2","state":"AK","detail_file":"data/details/power-plants-43.json","plant_id":"6559","capacity_mw":346.9,"status_group":"Operating","energy_sources":"NG","type":"Power plant","is_nuclear":false}},{"type":"Feature","geometry":{"type":"Point","coordinates":[-149.866,61.222]},"properties":{"key":"75-34c07a9b","layer":"power","name":"Hank Nikkels Plant 1","state":"AK","detail_file":"data/details/power-plants-06.json","plant_id":"75","capacity_mw":77.9,"status_group":"Operating","energy_sources":"DFO; NG","type":"Power plant","is_nuclear":false}},{"type":"Feature","geometry":{"type":"Point","coordinates":[-148.95,63.854]},"properties":{"key":"6288-4137ca2b","layer":"power","name":"Healy","state":"AK","detail_file":"data/details/power-plants-37.json","plant_id":"6288","capacity_mw":92.8,"status_group":"Operating","energy_sources":"DFO; LIG","type":"Power plant","is_nuclear":false}},{"type":"Feature","geometry":{"type":"Point","coordinates":[-149.79,61.59]},"properties":{"key":"66887-9d8ad690","layer":"power","name":"Houston Solar","state":"AK","detail_file":"data/details/power-plants-12.json","plant_id":"66887","capacity_mw":6.0,"status_group":"Operating","energy_sources":"SUN","type":"Power plant","is_nuclear":false}},{"type":"Feature","geometry":{"type":"Point","coordinates":[-149.913,61.17]},"properties":{"key":"68611-903c105d","layer":"power","name":"International Battery Substation (IBSS)","state":"AK","detail_file":"data/details/power-plants-17.json","plant_id":"68611","capacity_mw":40.0,"status_group":"Operating","energy_sources":"MWH","type":"Power plant","is_nuclear":false}},{"type":"Feature","geometry":{"type":"Point","coordinates":[-149.61,61.286]},"properties":{"key":"58380-316f33bd","layer":"power","name":"JBER Landfill Gas Power Plant","state":"AK","detail_file":"data/details/power-plants-20.json","plant_id":"58380","capacity_mw":11.5,"status_group":"Operating","energy_sources":"LFG","type":"Power plant","is_nuclear":false}},{"type":"Feature","geometry":{"type":"Point","coordinates":[-151.378,60.677]},"properties":{"key":"55966-cd0044cb","layer":"power","name":"Nikiski Combined Cycle","state":"AK","detail_file":"data/details/power-plants-08.json","plant_id":"55966","capacity_mw":80.8,"status_group":"Operating","energy_sources":"NG","type":"Power plant","is_nuclear":false}},{"type":"Feature","geometry":{"type":"Point","coordinates":[-151.378,60.673]},"properties":{"key":"54452-94b9d2a4","layer":"power","name":"Nutrien Kenai Nitrogen Operations","state":"AK","detail_file":"data/details/power-plants-63.json","plant_id":"54452","capacity_mw":12.5,"status_group":"Operating","energy_sources":"NG","type":"Power plant","is_nuclear":false}},{"type":"Feature","geometry":{"type":"Point","coordinates":[-149.435,60.131]},"properties":{"key":"92-3a513c57","layer":"power","name":"Seward (AK)","state":"AK","detail_file":"data/details/power-plants-57.json","plant_id":"92","capacity_mw":15.6,"status_group":"Operating","energy_sources":"DFO","type":"Power plant","is_nuclear":false}},{"type":"Feature","geometry":{"type":"Point","coordinates":[-150.997,60.499]},"properties":{"key":"57206-e97e3f06","layer":"power","name":"Soldotna","state":"AK","detail_file":"data/details/power-plants-10.json","plant_id":"57206","capacity_mw":96.5,"status_group":"Operating","energy_sources":"MWH; NG","type":"Power plant","is_nuclear":false}},{"type":"Feature","geometry":{"type":"Point","coordinates":[-149.905,61.167]},"properties":{"key":"57036-f342816d","layer":"power","name":"Southcentral Power Project","state":"AK","detail_file":"data/details/power-plants-35.json","plant_id":"57036","capacity_mw":203.9,"status_group":"Operating","energy_sources":"NG","type":"Power plant","is_nuclear":false}},{"type":"Feature","geometry":{"type":"Point","coordinates":[-151.381,60.677]},"properties":{"key":"52184-627da7c6","layer":"power","name":"Tesoro Kenai Cogeneration Plant","state":"AK","detail_file":"data/details/power-plants-61.json","plant_id":"52184","capacity_mw":8.6,"status_group":"Operating","energy_sources":"NG","type":"Power plant","is_nuclear":false}}]}