{"type":"FeatureCollection","features":[{"type":"Feature","geometry":{"type":"Point","coordinates":[-84.825,45.064]},"properties":{"key":"59926-c8398523","layer":"power","name":"Alpine Power Plant","state":"MI","detail_file":"data/details/power-plants-10.json","plant_id":"59926","capacity_mw":453.8,"status_group":"Operating","energy_sources":"NG","type":"Power plant","is_nuclear":false}},{"type":"Feature","geometry":{"type":"Point","coordinates":[-84.395,45.552]},"properties":{"key":"69632-a3971c64","layer":"power","name":"Alverno Hydro Plant","state":"MI","detail_file":"data/details/power-plants-07.json","plant_id":"69632","capacity_mw":1.0,"status_group":"Operating","energy_sources":"WAT","type":"Power plant","is_nuclear":false}},{"type":"Feature","geometry":{"type":"Point","coordinates":[-85.524,45.729]},"properties":{"key":"7831-511b8a7d","layer":"power","name":"Beaver Island","state":"MI","detail_file":"data/details/power-plants-16.json","plant_id":"7831","capacity_mw":3.3,"status_group":"Operating","energy_sources":"DFO","type":"Power plant","is_nuclear":false}},{"type":"Feature","geometry":{"type":"Point","coordinates":[-87.956,45.796]},"properties":{"key":"50251-4ff88704","layer":"power","name":"Billerud Quinnesec Mill","state":"MI","detail_file":"data/details/power-plants-02.json","plant_id":"50251","capacity_mw":56.0,"status_group":"Operating","energy_sources":"BLQ; WDS","type":"Power plant","is_nuclear":false}},{"type":"Feature","geometry":{"type":"Point","coordinates":[-85.94,44.259]},"properties":{"key":"1698-6c1542f6","layer":"power","name":"C W Tippy","state":"MI","detail_file":"data/details/power-plants-62.json","plant_id":"1698","capacity_mw":20.1,"status_group":"Operating","energy_sources":"WAT","type":"Power plant","is_nuclear":false}},{"type":"Feature","geometry":{"type":"Point","coordinates":[-85.435,44.262]},"properties":{"key":"54415-e4bc527e","layer":"power","name":"Cadillac Renewable Energy","state":"MI","detail_file":"data/details/power-plants-18.json","plant_id":"54415","capacity_mw":44.0,"status_group":"Operating","energy_sources":"WDS","type":"Power plant","is_nuclear":false}},{"type":"Feature","geometry":{"type":"Point","coordinates":[-87.513,46.316]},"properties":{"key":"7118-f5f996a5","layer":"power","name":"Cataract (MI)","state":"MI","detail_file":"data/details/power-plants-45.json","plant_id":"7118","capacity_mw":2.0,"status_group":"Operating","energy_sources":"WAT","type":"Power plant","is_nuclear":false}},{"type":"Feature","geometry":{"type":"Point","coordinates":[-87.801,45.514]},"properties":{"key":"1776-89ec6a1d","layer":"power","name":"Chalk Hill","state":"MI","detail_file":"data/details/power-plants-59.json","plant_id":"1776","capacity_mw":7.8,"status_group":"Operating","energy_sources":"WAT","type":"Power plant","is_nuclear":false}},{"type":"Feature","geometry":{"type":"Point","coordinates":[-84.481,45.638]},"properties":{"key":"50461-d2220787","layer":"power","name":"Cheboygan","state":"MI","detail_file":"data/details/power-plants-04.json","plant_id":"50461","capacity_mw":1.5,"status_group":"Operating","energy_sources":"WAT","type":"Power plant","is_nuclear":false}},{"type":"Feature","geometry":{"type":"Point","coordinates":[-84.417,46.374]},"properties":{"key":"1868-70b270f1","layer":"power","name":"Dafter","state":"MI","detail_file":"data/details/power-plants-58.json","plant_id":"1868","capacity_mw":11.0,"status_group":"Operating","energy_sources":"DFO","type":"Power plant","is_nuclear":false}},{"type":"Feature","geometry":{"type":"Point","coordinates":[-84.332,46.497]},"properties":{"key":"1751-dbb0cba2","layer":"power","name":"Edison Sault","state":"MI","detail_file":"data/details/power-plants-42.json","plant_id":"1751","capacity_mw":41.8,"status_group":"Operating","energy_sources":"WAT","type":"Power plant","is_nuclear":false}},{"type":"Feature","geometry":{"type":"Point","coordinates":[-87.089,45.804]},"properties":{"key":"10208-998600b3","layer":"power","name":"Escanaba Mill","state":"MI","detail_file":"data/details/power-plants-03.json","plant_id":"10208","capacity_mw":122.4,"status_group":"Operating","energy_sources":"BLQ","type":"Power plant","is_nuclear":false}},{"type":"Feature","geometry":{"type":"Point","coordinates":[-87.511,46.513]},"properties":{"key":"61392-bbaa1c55","layer":"power","name":"F.D. Kuester Generating Station","state":"MI","detail_file":"data/details/power-plants-44.json","plant_id":"61392","capacity_mw":131.6,"status_group":"Operating","energy_sources":"NG","type":"Power plant","is_nuclear":false}},{"type":"Feature","geometry":{"type":"Point","coordinates":[-86.646,45.684]},"properties":{"key":"62815-a493dee1","layer":"power","name":"Fairbanks Wind Park","state":"MI","detail_file":"data/details/power-plants-55.json","plant_id":"62815","capacity_mw":72.8,"status_group":"Operating","energy_sources":"WND","type":"Power plant","is_nuclear":false}},{"type":"Feature","geometry":{"type":"Point","coordinates":[-86.535,45.796]},"properties":{"key":"65497-11318c2e","layer":"power","name":"Garden 1 Solar Park","state":"MI","detail_file":"data/details/power-plants-40.json","plant_id":"65497","capacity_mw":0.9,"status_group":"Operating","energy_sources":"SUN","type":"Power plant","is_nuclear":false}},{"type":"Feature","geometry":{"type":"Point","coordinates":[-86.534,45.798]},"properties":{"key":"65498-9cd30483","layer":"power","name":"Garden 2 Solar Park","state":"MI","detail_file":"data/details/power-plants-00.json","plant_id":"65498","capacity_mw":1.4,"status_group":"Operating","energy_sources":"SUN","type":"Power plant","is_nuclear":false}},{"type":"Feature","geometry":{"type":"Point","coordinates":[-84.722,45.005]},"properties":{"key":"7932-94c7daab","layer":"power","name":"Gaylord - Wolverine","state":"MI","detail_file":"data/details/power-plants-22.json","plant_id":"7932","capacity_mw":70.2,"status_group":"Operating","energy_sources":"NG","type":"Power plant","is_nuclear":false}},{"type":"Feature","geometry":{"type":"Point","coordinates":[-87.004,45.847]},"properties":{"key":"7119-5a156895","layer":"power","name":"Gladstone","state":"MI","detail_file":"data/details/power-plants-21.json","plant_id":"7119","capacity_mw":22.6,"status_group":"Operating","energy_sources":"DFO","type":"Power plant","is_nuclear":false}},{"type":"Feature","geometry":{"type":"Point","coordinates":[-87.649,45.355]},"properties":{"key":"1787-e32514ab","layer":"power","name":"Grand Rapids","state":"MI","detail_file":"data/details/power-plants-08.json","plant_id":"1787","capacity_mw":7.5,"status_group":"Operating","energy_sources":"WAT","type":"Power plant","is_nuclear":false}},{"type":"Feature","geometry":{"type":"Point","coordinates":[-84.691,44.605]},"properties":{"key":"10822-3a00acec","layer":"power","name":"Grayling Generating Station","state":"MI","detail_file":"data/details/power-plants-51.json","plant_id":"10822","capacity_mw":38.6,"status_group":"Operating","energy_sources":"WDS","type":"Power plant","is_nuclear":false}},{"type":"Feature","geometry":{"type":"Point","coordinates":[-85.692,44.777]},"properties":{"key":"63019-26ad4dd4","layer":"power","name":"Green Lake Solar","state":"MI","detail_file":"data/details/power-plants-02.json","plant_id":"63019","capacity_mw":1.0,"status_group":"Operating","energy_sources":"SUN","type":"Power plant","is_nuclear":false}},{"type":"Feature","geometry":{"type":"Point","coordinates":[-86.534,45.796]},"properties":{"key":"58103-58c80ffb","layer":"power","name":"Heritage Garden Wind Farm I LLC","state":"MI","detail_file":"data/details/power-plants-07.json","plant_id":"58103","capacity_mw":28.0,"status_group":"Operating","energy_sources":"WND","type":"Power plant","is_nuclear":false}},{"type":"Feature","geometry":{"type":"Point","coordinates":[-85.82,44.363]},"properties":{"key":"1708-4e2c682e","layer":"power","name":"Hodenpyl","state":"MI","detail_file":"data/details/power-plants-37.json","plant_id":"1708","capacity_mw":17.0,"status_group":"Operating","energy_sources":"WAT","type":"Power plant","is_nuclear":false}},{"type":"Feature","geometry":{"type":"Point","coordinates":[-87.569,46.563]},"properties":{"key":"7115-bb17c581","layer":"power","name":"Hoist","state":"MI","detail_file":"data/details/power-plants-57.json","plant_id":"7115","capacity_mw":3.4,"status_group":"Operating","energy_sources":"WAT","type":"Power plant","is_nuclear":false}},{"type":"Feature","geometry":{"type":"Point","coordinates":[-87.41,46.572]},"properties":{"key":"1842-94966d71","layer":"power","name":"James R Smith","state":"MI","detail_file":"data/details/power-plants-42.json","plant_id":"1842","capacity_mw":3.2,"status_group":"Operating","energy_sources":"WAT","type":"Power plant","is_nuclear":false}},{"type":"Feature","geometry":{"type":"Point","coordinates":[-85.202,44.689]},"properties":{"key":"7984-18690dc7","layer":"power","name":"Kalkaska CT #1","state":"MI","detail_file":"data/details/power-plants-50.json","plant_id":"7984","capacity_mw":60.5,"status_group":"Operating","energy_sources":"NG","type":"Power plant","is_nuclear":false}},{"type":"Feature","geometry":{"type":"Point","coordinates":[-84.333,45.392]},"properties":{"key":"1871-2d603d69","layer":"power","name":"Kleber","state":"MI","detail_file":"data/details/power-plants-21.json","plant_id":"1871","capacity_mw":1.8,"status_group":"Operating","energy_sources":"WAT","type":"Power plant","is_nuclear":false}},{"type":"Feature","geometry":{"type":"Point","coordinates":[-85.214,44.29]},"properties":{"key":"67200-d3cd9c6d","layer":"power","name":"Lake City","state":"MI","detail_file":"data/details/power-plants-13.json","plant_id":"67200","capacity_mw":2.0,"status_group":"Operating","energy_sources":"SUN","type":"Power plant","is_nuclear":false}},{"type":"Feature","geometry":{"type":"Point","coordinates":[-84.171,44.636]},"properties":{"key":"67101-50c53bbf","layer":"power","name":"Lightfoot Solar, LLC","state":"MI","detail_file":"data/details/power-plants-47.json","plant_id":"67101","capacity_mw":10.0,"status_group":"Operating","energy_sources":"SUN","type":"Power plant","is_nuclear":false}},{"type":"Feature","geometry":{"type":"Point","coordinates":[-84.731,45.03]},"properties":{"key":"55102-30505584","layer":"power","name":"Livingston Generating Station","state":"MI","detail_file":"data/details/power-plants-14.json","plant_id":"55102","capacity_mw":170.1,"status_group":"Operating","energy_sources":"NG","type":"Power plant","is_nuclear":false}},{"type":"Feature","geometry":{"type":"Point","coordinates":[-85.701,44.777]},"properties":{"key":"63660-3cc688d4","layer":"power","name":"M72 West Solar","state":"MI","detail_file":"data/details/power-plants-01.json","plant_id":"63660","capacity_mw":1.8,"status_group":"Operating","energy_sources":"SUN","type":"Power plant","is_nuclear":false}},{"type":"Feature","geometry":{"type":"Point","coordinates":[-86.256,45.955]},"properties":{"key":"1750-663ab3f8","layer":"power","name":"Manistique","state":"MI","detail_file":"data/details/power-plants-49.json","plant_id":"1750","capacity_mw":4.8,"status_group":"Operating","energy_sources":"DFO","type":"Power plant","is_nuclear":false}},{"type":"Feature","geometry":{"type":"Point","coordinates":[-87.437,46.566]},"properties":{"key":"60559-9bd8fc9a","layer":"power","name":"Marquette Energy Center","state":"MI","detail_file":"data/details/power-plants-34.json","plant_id":"60559","capacity_mw":51.3,"status_group":"Operating","energy_sources":"NG","type":"Power plant","is_nuclear":false}},{"type":"Feature","geometry":{"type":"Point","coordinates":[-87.476,46.572]},"properties":{"key":"7116-cfae6a2e","layer":"power","name":"McClure Dam","state":"MI","detail_file":"data/details/power-plants-59.json","plant_id":"7116","capacity_mw":8.0,"status_group":"Operating","energy_sources":"WAT","type":"Power plant","is_nuclear":false}},{"type":"Feature","geometry":{"type":"Point","coordinates":[-87.638,45.107]},"properties":{"key":"50409-68a8bd19","layer":"power","name":"Menominee Mill Marinette","state":"MI","detail_file":"data/details/power-plants-47.json","plant_id":"50409","capacity_mw":1.8,"status_group":"Operating","energy_sources":"WAT","type":"Power plant","is_nuclear":false}},{"type":"Feature","geometry":{"type":"Point","coordinates":[-84.132,44.661]},"properties":{"key":"1714-8b7091d8","layer":"power","name":"Mio","state":"MI","detail_file":"data/details/power-plants-02.json","plant_id":"1714","capacity_mw":5.0,"status_group":"Operating","energy_sources":"WAT","type":"Power plant","is_nuclear":false}},{"type":"Feature","geometry":{"type":"Point","coordinates":[-85.208,44.273]},"properties":{"key":"67199-3ec4bd3d","layer":"power","name":"Morey Road","state":"MI","detail_file":"data/details/power-plants-20.json","plant_id":"67199","capacity_mw":2.0,"status_group":"Operating","energy_sources":"SUN","type":"Power plant","is_nuclear":false}},{"type":"Feature","geometry":{"type":"Point","coordinates":[-85.221,44.204]},"properties":{"key":"50770-ea04758a","layer":"power","name":"National Energy of McBain","state":"MI","detail_file":"data/details/power-plants-14.json","plant_id":"50770","capacity_mw":20.0,"status_group":"Operating","energy_sources":"WDS","type":"Power plant","is_nuclear":false}},{"type":"Feature","geometry":{"type":"Point","coordinates":[-86.644,46.409]},"properties":{"key":"54867-ee2cf2b7","layer":"power","name":"Neenah Paper Munising Mill","state":"MI","detail_file":"data/details/power-plants-31.json","plant_id":"54867","capacity_mw":6.2,"status_group":"Operating","energy_sources":"BIT","type":"Power plant","is_nuclear":false}},{"type":"Feature","geometry":{"type":"Point","coordinates":[-87.863,45.741]},"properties":{"key":"1848-6155d69e","layer":"power","name":"Norway (MI)","state":"MI","detail_file":"data/details/power-plants-05.json","plant_id":"1848","capacity_mw":6.3,"status_group":"Operating","energy_sources":"WAT","type":"Power plant","is_nuclear":false}},{"type":"Feature","geometry":{"type":"Point","coordinates":[-86.287,44.213]},"properties":{"key":"58066-30f6716f","layer":"power","name":"PCA, Filer City Mill","state":"MI","detail_file":"data/details/power-plants-29.json","plant_id":"58066","capacity_mw":19.5,"status_group":"Operating","energy_sources":"NG","type":"Power plant","is_nuclear":false}},{"type":"Feature","geometry":{"type":"Point","coordinates":[-84.345,46.189]},"properties":{"key":"64251-927db8e9","layer":"power","name":"Pickford Solar","state":"MI","detail_file":"data/details/power-plants-15.json","plant_id":"64251","capacity_mw":6.9,"status_group":"Operating","energy_sources":"SUN","type":"Power plant","is_nuclear":false}},{"type":"Feature","geometry":{"type":"Point","coordinates":[-87.404,46.576]},"properties":{"key":"1840-5ddf28cd","layer":"power","name":"Plant Four","state":"MI","detail_file":"data/details/power-plants-19.json","plant_id":"1840","capacity_mw":24.0,"status_group":"Operating","energy_sources":"DFO","type":"Power plant","is_nuclear":false}},{"type":"Feature","geometry":{"type":"Point","coordinates":[-87.226,45.997]},"properties":{"key":"69476-9131e8ae","layer":"power","name":"Renegade Solar Energy LLC","state":"MI","detail_file":"data/details/power-plants-46.json","plant_id":"69476","capacity_mw":100.0,"status_group":"Operating","energy_sources":"SUN","type":"Power plant","is_nuclear":false}},{"type":"Feature","geometry":{"type":"Point","coordinates":[-84.349,46.506]},"properties":{"key":"1865-a5c13cc5","layer":"power","name":"Saint Marys Falls","state":"MI","detail_file":"data/details/power-plants-31.json","plant_id":"1865","capacity_mw":23.7,"status_group":"Operating","energy_sources":"WAT","type":"Power plant","is_nuclear":false}},{"type":"Feature","geometry":{"type":"Point","coordinates":[-85.298,44.19]},"properties":{"key":"57131-eeff7d6a","layer":"power","name":"Stoney Corners Wind Farm","state":"MI","detail_file":"data/details/power-plants-30.json","plant_id":"57131","capacity_mw":60.0,"status_group":"Operating","energy_sources":"WND","type":"Power plant","is_nuclear":false}},{"type":"Feature","geometry":{"type":"Point","coordinates":[-87.466,46.455]},"properties":{"key":"69577-a69a03df","layer":"power","name":"Superior Solar Project, LLC","state":"MI","detail_file":"data/details/power-plants-32.json","plant_id":"69577","capacity_mw":150.0,"status_group":"Planned","energy_sources":"SUN","type":"Power plant","is_nuclear":false}},{"type":"Feature","geometry":{"type":"Point","coordinates":[-85.692,44.777]},"properties":{"key":"63020-7286bcd1","layer":"power","name":"TCLP Solar Phase 1","state":"MI","detail_file":"data/details/power-plants-18.json","plant_id":"63020","capacity_mw":1.0,"status_group":"Operating","energy_sources":"SUN","type":"Power plant","is_nuclear":false}},{"type":"Feature","geometry":{"type":"Point","coordinates":[-86.289,44.217]},"properties":{"key":"50835-fa9a0f4d","layer":"power","name":"TES Filer City Station","state":"MI","detail_file":"data/details/power-plants-53.json","plant_id":"50835","capacity_mw":70.0,"status_group":"Operating","energy_sources":"BIT","type":"Power plant","is_nuclear":false}},{"type":"Feature","geometry":{"type":"Point","coordinates":[-84.295,45.363]},"properties":{"key":"1873-e4efaf72","layer":"power","name":"Tower","state":"MI","detail_file":"data/details/power-plants-06.json","plant_id":"1873","capacity_mw":21.3,"status_group":"Operating","energy_sources":"DFO","type":"Power plant","is_nuclear":false}},{"type":"Feature","geometry":{"type":"Point","coordinates":[-87.802,45.482]},"properties":{"key":"1786-52c2cd51","layer":"power","name":"White Rapids","state":"MI","detail_file":"data/details/power-plants-30.json","plant_id":"1786","capacity_mw":8.0,"status_group":"Operating","energy_sources":"WAT","type":"Power plant","is_nuclear":false}},{"type":"Feature","geometry":{"type":"Point","coordinates":[-85.212,44.274]},"properties":{"key":"64463-6698c2f9","layer":"power","name":"Workman Road Solar Farm, LLC","state":"MI","detail_file":"data/details/power-plants-43.json","plant_id":"64463","capacity_mw":2.0,"status_group":"Operating","energy_sources":"SUN","type":"Power plant","is_nuclear":false}},{"type":"Feature","geometry":{"type":"Point","coordinates":[-87.726,44.085]},"properties":{"key":"7795-1a66a214","layer":"power","name":"Custer Energy Center","state":"WI","detail_file":"data/details/power-plants-08.json","plant_id":"7795","capacity_mw":24.5,"status_group":"Operating","energy_sources":"NG","type":"Power plant","is_nuclear":false}},{"type":"Feature","geometry":{"type":"Point","coordinates":[-87.806,44.54]},"properties":{"key":"59810-14b3e6b6","layer":"power","name":"Dairyland WTE Plant","state":"WI","detail_file":"data/details/power-plants-52.json","plant_id":"59810","capacity_mw":1.4,"status_group":"Operating","energy_sources":"OBG","type":"Power plant","is_nuclear":false}},{"type":"Feature","geometry":{"type":"Point","coordinates":[-87.989,45.774]},"properties":{"key":"57190-1e18e045","layer":"power","name":"Little Quinnesec Falls Hydro Project","state":"WI","detail_file":"data/details/power-plants-29.json","plant_id":"57190","capacity_mw":9.0,"status_group":"Operating","energy_sources":"WAT","type":"Power plant","is_nuclear":false}},{"type":"Feature","geometry":{"type":"Point","coordinates":[-87.656,44.082]},"properties":{"key":"4125-4c5de41b","layer":"power","name":"Manitowoc","state":"WI","detail_file":"data/details/power-plants-39.json","plant_id":"4125","capacity_mw":117.4,"status_group":"Operating","energy_sources":"PC; WDS","type":"Power plant","is_nuclear":false}},{"type":"Feature","geometry":{"type":"Point","coordinates":[-87.651,45.106]},"properties":{"key":"50408-9c87f1f5","layer":"power","name":"Park Mill","state":"WI","detail_file":"data/details/power-plants-13.json","plant_id":"50408","capacity_mw":2.1,"status_group":"Operating","energy_sources":"WAT","type":"Power plant","is_nuclear":false}},{"type":"Feature","geometry":{"type":"Point","coordinates":[-87.537,44.281]},"properties":{"key":"4046-cdd42c37","layer":"power","name":"Point Beach Nuclear Plant","state":"WI","detail_file":"data/details/power-plants-00.json","plant_id":"4046","capacity_mw":1311.0,"status_group":"Operating","energy_sources":"DFO; NUC","type":"Nuclear power plant","is_nuclear":true}},{"type":"Feature","geometry":{"type":"Point","coordinates":[-87.555,44.283]},"properties":{"key":"64431-2306f70f","layer":"power","name":"Point Beach Solar","state":"WI","detail_file":"data/details/power-plants-62.json","plant_id":"64431","capacity_mw":100.0,"status_group":"Operating","energy_sources":"SUN","type":"Power plant","is_nuclear":false}},{"type":"Feature","geometry":{"type":"Point","coordinates":[-87.759,45.114]},"properties":{"key":"4071-563ac51d","layer":"power","name":"Potato Rapids","state":"WI","detail_file":"data/details/power-plants-06.json","plant_id":"4071","capacity_mw":1.3,"status_group":"Operating","energy_sources":"WAT","type":"Power plant","is_nuclear":false}},{"type":"Feature","geometry":{"type":"Point","coordinates":[-87.829,44.175]},"properties":{"key":"55925-e86a0e7d","layer":"power","name":"Ridgeview","state":"WI","detail_file":"data/details/power-plants-28.json","plant_id":"55925","capacity_mw":4.8,"status_group":"Operating","energy_sources":"LFG","type":"Power plant","is_nuclear":false}},{"type":"Feature","geometry":{"type":"Point","coordinates":[-87.928,44.348]},"properties":{"key":"57553-9f701858","layer":"power","name":"Shirley Wind","state":"WI","detail_file":"data/details/power-plants-05.json","plant_id":"57553","capacity_mw":20.0,"status_group":"Operating","energy_sources":"WND","type":"Power plant","is_nuclear":false}},{"type":"Feature","geometry":{"type":"Point","coordinates":[-87.545,44.25]},"properties":{"key":"63105-1bab4086","layer":"power","name":"Two Creeks Solar","state":"WI","detail_file":"data/details/power-plants-30.json","plant_id":"63105","capacity_mw":150.0,"status_group":"Operating","energy_sources":"SUN","type":"Power plant","is_nuclear":false}},{"type":"Feature","geometry":{"type":"Point","coordinates":[-86.931,45.371]},"properties":{"key":"4148-be4bcd77","layer":"power","name":"Washington Island","state":"WI","detail_file":"data/details/power-plants-55.json","plant_id":"4148","capacity_mw":5.0,"status_group":"Operating","energy_sources":"DFO","type":"Power plant","is_nuclear":false}},{"type":"Feature","geometry":{"type":"Point","coordinates":[-87.688,45.087]},"properties":{"key":"4076-7689e19f","layer":"power","name":"West Marinette","state":"WI","detail_file":"data/details/power-plants-62.json","plant_id":"4076","capacity_mw":187.1,"status_group":"Operating","energy_sources":"NG","type":"Power plant","is_nuclear":false}},{"type":"Feature","geometry":{"type":"Point","coordinates":[-87.689,45.087]},"properties":{"key":"7799-62da6b3f","layer":"power","name":"West Marinette 34","state":"WI","detail_file":"data/details/power-plants-19.json","plant_id":"7799","capacity_mw":83.0,"status_group":"Operating","energy_sources":"NG","type":"Power plant","is_nuclear":false}},{"type":"Feature","geometry":{"type":"Point","coordinates":[-87.633,44.669]},"properties":{"key":"7886-daffcc0a","layer":"power","name":"Wind Turbine","state":"WI","detail_file":"data/details/power-plants-33.json","plant_id":"7886","capacity_mw":11.0,"status_group":"Operating","energy_sources":"WND","type":"Power plant","is_nuclear":false}}]}