{"type":"FeatureCollection","features":[{"type":"Feature","geometry":{"type":"Point","coordinates":[-72.001,44.325]},"properties":{"key":"2349-9a97472e","layer":"power","name":"Comerford","state":"NH","detail_file":"data/details/power-plants-36.json","plant_id":"2349","capacity_mw":167.8,"status_group":"Operating","energy_sources":"WAT","type":"Power plant","is_nuclear":false}},{"type":"Feature","geometry":{"type":"Point","coordinates":[-72.058,44.208]},"properties":{"key":"10526-019d9639","layer":"power","name":"Dodge Falls Associates","state":"NH","detail_file":"data/details/power-plants-49.json","plant_id":"10526","capacity_mw":5.0,"status_group":"Operating","energy_sources":"WAT","type":"Power plant","is_nuclear":false}},{"type":"Feature","geometry":{"type":"Point","coordinates":[-74.148,44.918]},"properties":{"key":"68389-4dcd55a0","layer":"power","name":"AES Glengarry Farms Solar CSG","state":"NY","detail_file":"data/details/power-plants-40.json","plant_id":"68389","capacity_mw":5.0,"status_group":"Under construction","energy_sources":"SUN","type":"Power plant","is_nuclear":false}},{"type":"Feature","geometry":{"type":"Point","coordinates":[-75.245,44.492]},"properties":{"key":"65156-0653480f","layer":"power","name":"ASA DeKalb NY Solar I LLC","state":"NY","detail_file":"data/details/power-plants-60.json","plant_id":"65156","capacity_mw":5.0,"status_group":"Operating","energy_sources":"SUN","type":"Power plant","is_nuclear":false}},{"type":"Feature","geometry":{"type":"Point","coordinates":[-75.244,44.488]},"properties":{"key":"65155-b592f158","layer":"power","name":"ASA DeKalb NY Solar II LLC","state":"NY","detail_file":"data/details/power-plants-42.json","plant_id":"65155","capacity_mw":3.0,"status_group":"Operating","energy_sources":"SUN","type":"Power plant","is_nuclear":false}},{"type":"Feature","geometry":{"type":"Point","coordinates":[-75.379,44.424]},"properties":{"key":"65067-7fa0e47b","layer":"power","name":"ASA DeKalb NY Solar III LLC","state":"NY","detail_file":"data/details/power-plants-63.json","plant_id":"65067","capacity_mw":3.3,"status_group":"Operating","energy_sources":"SUN","type":"Power plant","is_nuclear":false}},{"type":"Feature","geometry":{"type":"Point","coordinates":[-75.443,44.391]},"properties":{"key":"65157-9d9a06eb","layer":"power","name":"ASA Gouverneur NY Solar I LLC","state":"NY","detail_file":"data/details/power-plants-39.json","plant_id":"65157","capacity_mw":1.5,"status_group":"Operating","energy_sources":"SUN","type":"Power plant","is_nuclear":false}},{"type":"Feature","geometry":{"type":"Point","coordinates":[-75.427,44.36]},"properties":{"key":"65158-b4f78a94","layer":"power","name":"ASA Gouverneur NY Solar II LLC","state":"NY","detail_file":"data/details/power-plants-62.json","plant_id":"65158","capacity_mw":4.0,"status_group":"Operating","energy_sources":"SUN","type":"Power plant","is_nuclear":false}},{"type":"Feature","geometry":{"type":"Point","coordinates":[-75.16,44.757]},"properties":{"key":"67632-020a0b2e","layer":"power","name":"Acer","state":"NY","detail_file":"data/details/power-plants-42.json","plant_id":"67632","capacity_mw":4.3,"status_group":"Operating","energy_sources":"SUN","type":"Power plant","is_nuclear":false}},{"type":"Feature","geometry":{"type":"Point","coordinates":[-73.842,44.894]},"properties":{"key":"63772-de21421f","layer":"power","name":"Adirondack Solar","state":"NY","detail_file":"data/details/power-plants-09.json","plant_id":"63772","capacity_mw":1.1,"status_group":"Operating","energy_sources":"SUN","type":"Power plant","is_nuclear":false}},{"type":"Feature","geometry":{"type":"Point","coordinates":[-73.465,44.519]},"properties":{"key":"54391-dff65a60","layer":"power","name":"Alice Falls Hydro Project","state":"NY","detail_file":"data/details/power-plants-37.json","plant_id":"54391","capacity_mw":2.1,"status_group":"Operating","energy_sources":"WAT","type":"Power plant","is_nuclear":false}},{"type":"Feature","geometry":{"type":"Point","coordinates":[-74.86,44.66]},"properties":{"key":"2540-13900e11","layer":"power","name":"Allens Falls","state":"NY","detail_file":"data/details/power-plants-62.json","plant_id":"2540","capacity_mw":4.0,"status_group":"Operating","energy_sources":"WAT","type":"Power plant","is_nuclear":false}},{"type":"Feature","geometry":{"type":"Point","coordinates":[-73.651,44.822]},"properties":{"key":"56901-ace69fac","layer":"power","name":"Altona","state":"NY","detail_file":"data/details/power-plants-02.json","plant_id":"56901","capacity_mw":97.5,"status_group":"Operating","energy_sources":"WND","type":"Power plant","is_nuclear":false}},{"type":"Feature","geometry":{"type":"Point","coordinates":[-75.813,44.0]},"properties":{"key":"2546-47be953b","layer":"power","name":"Black River","state":"NY","detail_file":"data/details/power-plants-58.json","plant_id":"2546","capacity_mw":6.0,"status_group":"Operating","energy_sources":"WAT","type":"Power plant","is_nuclear":false}},{"type":"Feature","geometry":{"type":"Point","coordinates":[-74.753,44.506]},"properties":{"key":"2547-5161aaac","layer":"power","name":"Blake","state":"NY","detail_file":"data/details/power-plants-37.json","plant_id":"2547","capacity_mw":15.0,"status_group":"Operating","energy_sources":"WAT","type":"Power plant","is_nuclear":false}},{"type":"Feature","geometry":{"type":"Point","coordinates":[-73.672,44.934]},"properties":{"key":"62530-1443fec3","layer":"power","name":"Boas Rd #1 Community Solar Farm","state":"NY","detail_file":"data/details/power-plants-41.json","plant_id":"62530","capacity_mw":2.0,"status_group":"Operating","energy_sources":"SUN","type":"Power plant","is_nuclear":false}},{"type":"Feature","geometry":{"type":"Point","coordinates":[-73.671,44.933]},"properties":{"key":"62531-28af6a1d","layer":"power","name":"Boas Rd #2 Community Solar Farm","state":"NY","detail_file":"data/details/power-plants-54.json","plant_id":"62531","capacity_mw":2.0,"status_group":"Operating","energy_sources":"SUN","type":"Power plant","is_nuclear":false}},{"type":"Feature","geometry":{"type":"Point","coordinates":[-73.669,44.934]},"properties":{"key":"62532-96ad614d","layer":"power","name":"Boas Rd #3 Community Solar Farm","state":"NY","detail_file":"data/details/power-plants-27.json","plant_id":"62532","capacity_mw":2.0,"status_group":"Operating","energy_sources":"SUN","type":"Power plant","is_nuclear":false}},{"type":"Feature","geometry":{"type":"Point","coordinates":[-73.667,44.929]},"properties":{"key":"62533-f05bd2ab","layer":"power","name":"Boas Rd #4 Community Solar Farm","state":"NY","detail_file":"data/details/power-plants-25.json","plant_id":"62533","capacity_mw":2.0,"status_group":"Operating","energy_sources":"SUN","type":"Power plant","is_nuclear":false}},{"type":"Feature","geometry":{"type":"Point","coordinates":[-74.13,44.932]},"properties":{"key":"68473-3bf87911","layer":"power","name":"Brookside Solar","state":"NY","detail_file":"data/details/power-plants-32.json","plant_id":"68473","capacity_mw":100.0,"status_group":"Under construction","energy_sources":"SUN","type":"Power plant","is_nuclear":false}},{"type":"Feature","geometry":{"type":"Point","coordinates":[-75.059,44.211]},"properties":{"key":"2548-2772c9ac","layer":"power","name":"Browns Falls","state":"NY","detail_file":"data/details/power-plants-56.json","plant_id":"2548","capacity_mw":16.0,"status_group":"Operating","energy_sources":"WAT","type":"Power plant","is_nuclear":false}},{"type":"Feature","geometry":{"type":"Point","coordinates":[-75.445,44.621]},"properties":{"key":"68631-cfe89608","layer":"power","name":"CES Heuvelton","state":"NY","detail_file":"data/details/power-plants-07.json","plant_id":"68631","capacity_mw":5.0,"status_group":"Operating","energy_sources":"SUN","type":"Power plant","is_nuclear":false}},{"type":"Feature","geometry":{"type":"Point","coordinates":[-75.3,44.7]},"properties":{"key":"61719-07356dac","layer":"power","name":"CJ Solar I, LLC","state":"NY","detail_file":"data/details/power-plants-23.json","plant_id":"61719","capacity_mw":2.0,"status_group":"Operating","energy_sources":"SUN","type":"Power plant","is_nuclear":false}},{"type":"Feature","geometry":{"type":"Point","coordinates":[-75.3,44.7]},"properties":{"key":"61720-206a1c8a","layer":"power","name":"COU Solar I, LLC","state":"NY","detail_file":"data/details/power-plants-20.json","plant_id":"61720","capacity_mw":1.5,"status_group":"Operating","energy_sources":"SUN","type":"Power plant","is_nuclear":false}},{"type":"Feature","geometry":{"type":"Point","coordinates":[-73.622,44.695]},"properties":{"key":"2522-951a6f2d","layer":"power","name":"Cadyville","state":"NY","detail_file":"data/details/power-plants-38.json","plant_id":"2522","capacity_mw":5.5,"status_group":"Operating","energy_sources":"WAT","type":"Power plant","is_nuclear":false}},{"type":"Feature","geometry":{"type":"Point","coordinates":[-73.541,44.712]},"properties":{"key":"68858-b2cf2d15","layer":"power","name":"Cavern","state":"NY","detail_file":"data/details/power-plants-05.json","plant_id":"68858","capacity_mw":2.0,"status_group":"Planned","energy_sources":"SUN","type":"Power plant","is_nuclear":false}},{"type":"Feature","geometry":{"type":"Point","coordinates":[-74.217,44.753]},"properties":{"key":"2550-a6cbe85f","layer":"power","name":"Chasm","state":"NY","detail_file":"data/details/power-plants-43.json","plant_id":"2550","capacity_mw":3.0,"status_group":"Operating","energy_sources":"WAT","type":"Power plant","is_nuclear":false}},{"type":"Feature","geometry":{"type":"Point","coordinates":[-74.112,44.932]},"properties":{"key":"50315-5a8ef315","layer":"power","name":"Chasm Hydro Partnership","state":"NY","detail_file":"data/details/power-plants-12.json","plant_id":"50315","capacity_mw":1.6,"status_group":"Operating","energy_sources":"WAT","type":"Power plant","is_nuclear":false}},{"type":"Feature","geometry":{"type":"Point","coordinates":[-74.03,44.892]},"properties":{"key":"56904-bdb6e4c4","layer":"power","name":"Chateaugay","state":"NY","detail_file":"data/details/power-plants-27.json","plant_id":"56904","capacity_mw":106.5,"status_group":"Operating","energy_sources":"WND","type":"Power plant","is_nuclear":false}},{"type":"Feature","geometry":{"type":"Point","coordinates":[-74.086,44.91]},"properties":{"key":"50093-1fa9545e","layer":"power","name":"Chateaugay High Falls Hydro","state":"NY","detail_file":"data/details/power-plants-31.json","plant_id":"50093","capacity_mw":1.7,"status_group":"Operating","energy_sources":"WAT","type":"Power plant","is_nuclear":false}},{"type":"Feature","geometry":{"type":"Point","coordinates":[-74.949,44.672]},"properties":{"key":"59623-e91fc7fa","layer":"power","name":"Clarkson Solar","state":"NY","detail_file":"data/details/power-plants-10.json","plant_id":"59623","capacity_mw":2.0,"status_group":"Operating","energy_sources":"SUN","type":"Power plant","is_nuclear":false}},{"type":"Feature","geometry":{"type":"Point","coordinates":[-74.006,44.891]},"properties":{"key":"56618-2101607c","layer":"power","name":"Clinton","state":"NY","detail_file":"data/details/power-plants-20.json","plant_id":"56618","capacity_mw":100.5,"status_group":"Operating","energy_sources":"WND","type":"Power plant","is_nuclear":false}},{"type":"Feature","geometry":{"type":"Point","coordinates":[-73.594,44.692]},"properties":{"key":"56986-7b80cd47","layer":"power","name":"Clinton LFGTE Facility","state":"NY","detail_file":"data/details/power-plants-39.json","plant_id":"56986","capacity_mw":6.4,"status_group":"Operating","energy_sources":"LFG","type":"Power plant","is_nuclear":false}},{"type":"Feature","geometry":{"type":"Point","coordinates":[-74.958,44.584]},"properties":{"key":"2551-73e3584d","layer":"power","name":"Colton","state":"NY","detail_file":"data/details/power-plants-54.json","plant_id":"2551","capacity_mw":30.0,"status_group":"Operating","energy_sources":"WAT","type":"Power plant","is_nuclear":false}},{"type":"Feature","geometry":{"type":"Point","coordinates":[-73.677,44.935]},"properties":{"key":"62507-29c51674","layer":"power","name":"County Route 11 Community Solar Farm","state":"NY","detail_file":"data/details/power-plants-02.json","plant_id":"62507","capacity_mw":4.1,"status_group":"Operating","energy_sources":"SUN","type":"Power plant","is_nuclear":false}},{"type":"Feature","geometry":{"type":"Point","coordinates":[-73.672,44.94]},"properties":{"key":"67631-5413275a","layer":"power","name":"County Route 11B","state":"NY","detail_file":"data/details/power-plants-18.json","plant_id":"67631","capacity_mw":4.9,"status_group":"Operating","energy_sources":"SUN","type":"Power plant","is_nuclear":false}},{"type":"Feature","geometry":{"type":"Point","coordinates":[-75.681,44.038]},"properties":{"key":"2552-0f06606a","layer":"power","name":"Deferiet","state":"NY","detail_file":"data/details/power-plants-29.json","plant_id":"2552","capacity_mw":12.0,"status_group":"Operating","energy_sources":"WAT","type":"Power plant","is_nuclear":false}},{"type":"Feature","geometry":{"type":"Point","coordinates":[-75.322,44.152]},"properties":{"key":"10237-1a995090","layer":"power","name":"Diana Hydroelectric","state":"NY","detail_file":"data/details/power-plants-20.json","plant_id":"10237","capacity_mw":1.8,"status_group":"Operating","energy_sources":"WAT","type":"Power plant","is_nuclear":false}},{"type":"Feature","geometry":{"type":"Point","coordinates":[-75.503,44.336]},"properties":{"key":"54878-d3ba0de4","layer":"power","name":"Dunn Paper","state":"NY","detail_file":"data/details/power-plants-42.json","plant_id":"54878","capacity_mw":1.0,"status_group":"Operating","energy_sources":"WAT","type":"Power plant","is_nuclear":false}},{"type":"Feature","geometry":{"type":"Point","coordinates":[-74.986,44.799]},"properties":{"key":"2561-e2fcd0dd","layer":"power","name":"East Norfolk","state":"NY","detail_file":"data/details/power-plants-32.json","plant_id":"2561","capacity_mw":4.0,"status_group":"Operating","energy_sources":"WAT","type":"Power plant","is_nuclear":false}},{"type":"Feature","geometry":{"type":"Point","coordinates":[-75.491,44.638]},"properties":{"key":"2556-60747d4c","layer":"power","name":"Eel Weir","state":"NY","detail_file":"data/details/power-plants-11.json","plant_id":"2556","capacity_mw":2.5,"status_group":"Operating","energy_sources":"WAT","type":"Power plant","is_nuclear":false}},{"type":"Feature","geometry":{"type":"Point","coordinates":[-74.006,44.891]},"properties":{"key":"56619-a65e47ff","layer":"power","name":"Ellenburg","state":"NY","detail_file":"data/details/power-plants-17.json","plant_id":"56619","capacity_mw":81.0,"status_group":"Operating","energy_sources":"WND","type":"Power plant","is_nuclear":false}},{"type":"Feature","geometry":{"type":"Point","coordinates":[-74.849,44.527]},"properties":{"key":"2562-0743ec74","layer":"power","name":"Five Falls","state":"NY","detail_file":"data/details/power-plants-44.json","plant_id":"2562","capacity_mw":24.0,"status_group":"Operating","energy_sources":"WAT","type":"Power plant","is_nuclear":false}},{"type":"Feature","geometry":{"type":"Point","coordinates":[-75.074,44.222]},"properties":{"key":"2563-02c4bed8","layer":"power","name":"Flat Rock","state":"NY","detail_file":"data/details/power-plants-52.json","plant_id":"2563","capacity_mw":5.0,"status_group":"Operating","energy_sources":"WAT","type":"Power plant","is_nuclear":false}},{"type":"Feature","geometry":{"type":"Point","coordinates":[-73.972,44.437]},"properties":{"key":"2564-e8dc86cd","layer":"power","name":"Franklin (NY)","state":"NY","detail_file":"data/details/power-plants-14.json","plant_id":"2564","capacity_mw":2.0,"status_group":"Operating","energy_sources":"WAT","type":"Power plant","is_nuclear":false}},{"type":"Feature","geometry":{"type":"Point","coordinates":[-74.307,44.868]},"properties":{"key":"62784-e1301e27","layer":"power","name":"Franklin Solar Site","state":"NY","detail_file":"data/details/power-plants-38.json","plant_id":"62784","capacity_mw":1.6,"status_group":"Operating","energy_sources":"SUN","type":"Power plant","is_nuclear":false}},{"type":"Feature","geometry":{"type":"Point","coordinates":[-75.486,44.345]},"properties":{"key":"67471-b041574c","layer":"power","name":"GSPP 126 Little Bow Rd N, LLC","state":"NY","detail_file":"data/details/power-plants-03.json","plant_id":"67471","capacity_mw":4.8,"status_group":"Operating","energy_sources":"SUN","type":"Power plant","is_nuclear":false}},{"type":"Feature","geometry":{"type":"Point","coordinates":[-75.486,44.345]},"properties":{"key":"67472-6e5551c0","layer":"power","name":"GSPP 126 Little Bow Rd S, LLC","state":"NY","detail_file":"data/details/power-plants-48.json","plant_id":"67472","capacity_mw":5.0,"status_group":"Operating","energy_sources":"SUN","type":"Power plant","is_nuclear":false}},{"type":"Feature","geometry":{"type":"Point","coordinates":[-74.649,44.735]},"properties":{"key":"68636-f93e1af3","layer":"power","name":"GSPP 409 Ferris Road","state":"NY","detail_file":"data/details/power-plants-54.json","plant_id":"68636","capacity_mw":5.0,"status_group":"Operating","energy_sources":"SUN","type":"Power plant","is_nuclear":false}},{"type":"Feature","geometry":{"type":"Point","coordinates":[-74.651,44.755]},"properties":{"key":"68637-06c6965e","layer":"power","name":"GSPP 641 Ferris Road East","state":"NY","detail_file":"data/details/power-plants-15.json","plant_id":"68637","capacity_mw":4.0,"status_group":"Operating","energy_sources":"SUN","type":"Power plant","is_nuclear":false}},{"type":"Feature","geometry":{"type":"Point","coordinates":[-74.657,44.752]},"properties":{"key":"68638-51a9a724","layer":"power","name":"GSPP 641 Ferris Road West","state":"NY","detail_file":"data/details/power-plants-19.json","plant_id":"68638","capacity_mw":2.5,"status_group":"Operating","energy_sources":"SUN","type":"Power plant","is_nuclear":false}},{"type":"Feature","geometry":{"type":"Point","coordinates":[-75.961,44.001]},"properties":{"key":"50512-aedbf2d6","layer":"power","name":"Glen Park Hydroelectric Project","state":"NY","detail_file":"data/details/power-plants-34.json","plant_id":"50512","capacity_mw":32.6,"status_group":"Operating","energy_sources":"WAT","type":"Power plant","is_nuclear":false}},{"type":"Feature","geometry":{"type":"Point","coordinates":[-75.203,44.623]},"properties":{"key":"67638-d0abfad3","layer":"power","name":"Grass River","state":"NY","detail_file":"data/details/power-plants-33.json","plant_id":"67638","capacity_mw":4.1,"status_group":"Operating","energy_sources":"SUN","type":"Power plant","is_nuclear":false}},{"type":"Feature","geometry":{"type":"Point","coordinates":[-75.445,44.312]},"properties":{"key":"10544-1bd17ffb","layer":"power","name":"Hailesboro 4 Plant","state":"NY","detail_file":"data/details/power-plants-09.json","plant_id":"10544","capacity_mw":1.4,"status_group":"Operating","energy_sources":"WAT","type":"Power plant","is_nuclear":false}},{"type":"Feature","geometry":{"type":"Point","coordinates":[-75.366,44.297]},"properties":{"key":"10116-15f5641a","layer":"power","name":"Hampshire Paper","state":"NY","detail_file":"data/details/power-plants-63.json","plant_id":"10116","capacity_mw":3.4,"status_group":"Operating","energy_sources":"WAT","type":"Power plant","is_nuclear":false}},{"type":"Feature","geometry":{"type":"Point","coordinates":[-74.973,44.619]},"properties":{"key":"2571-e80623fe","layer":"power","name":"Hannawa","state":"NY","detail_file":"data/details/power-plants-27.json","plant_id":"2571","capacity_mw":7.2,"status_group":"Operating","energy_sources":"WAT","type":"Power plant","is_nuclear":false}},{"type":"Feature","geometry":{"type":"Point","coordinates":[-75.651,44.022]},"properties":{"key":"2572-fe6e29af","layer":"power","name":"Herrings","state":"NY","detail_file":"data/details/power-plants-30.json","plant_id":"2572","capacity_mw":5.4,"status_group":"Operating","energy_sources":"WAT","type":"Power plant","is_nuclear":false}},{"type":"Feature","geometry":{"type":"Point","coordinates":[-75.404,44.617]},"properties":{"key":"2573-24fccaae","layer":"power","name":"Heuvelton","state":"NY","detail_file":"data/details/power-plants-10.json","plant_id":"2573","capacity_mw":1.0,"status_group":"Operating","energy_sources":"WAT","type":"Power plant","is_nuclear":false}},{"type":"Feature","geometry":{"type":"Point","coordinates":[-75.008,44.705]},"properties":{"key":"50268-a2e2d207","layer":"power","name":"Hewittville Hydroelectric","state":"NY","detail_file":"data/details/power-plants-36.json","plant_id":"50268","capacity_mw":3.0,"status_group":"Operating","energy_sources":"WAT","type":"Power plant","is_nuclear":false}},{"type":"Feature","geometry":{"type":"Point","coordinates":[-73.749,44.639]},"properties":{"key":"2530-a8ef4c26","layer":"power","name":"High Falls - Saranac NY","state":"NY","detail_file":"data/details/power-plants-42.json","plant_id":"2530","capacity_mw":15.0,"status_group":"Operating","energy_sources":"WAT","type":"Power plant","is_nuclear":false}},{"type":"Feature","geometry":{"type":"Point","coordinates":[-74.933,44.531]},"properties":{"key":"2576-44c0145a","layer":"power","name":"Higley","state":"NY","detail_file":"data/details/power-plants-05.json","plant_id":"2576","capacity_mw":6.0,"status_group":"Operating","energy_sources":"WAT","type":"Power plant","is_nuclear":false}},{"type":"Feature","geometry":{"type":"Point","coordinates":[-75.336,44.296]},"properties":{"key":"10124-3ee6f6ed","layer":"power","name":"Hollow Dam Power Partnership","state":"NY","detail_file":"data/details/power-plants-26.json","plant_id":"10124","capacity_mw":1.0,"status_group":"Operating","energy_sources":"WAT","type":"Power plant","is_nuclear":false}},{"type":"Feature","geometry":{"type":"Point","coordinates":[-75.5,44.3]},"properties":{"key":"61717-76df4d01","layer":"power","name":"IRE Solar I, LLC","state":"NY","detail_file":"data/details/power-plants-20.json","plant_id":"61717","capacity_mw":1.0,"status_group":"Operating","energy_sources":"SUN","type":"Power plant","is_nuclear":false}},{"type":"Feature","geometry":{"type":"Point","coordinates":[-74.103,44.889]},"properties":{"key":"59629-e292cc4c","layer":"power","name":"Jericho Rise Wind Farm LLC","state":"NY","detail_file":"data/details/power-plants-07.json","plant_id":"59629","capacity_mw":77.7,"status_group":"Operating","energy_sources":"WND","type":"Power plant","is_nuclear":false}},{"type":"Feature","geometry":{"type":"Point","coordinates":[-75.797,44.012]},"properties":{"key":"2581-097af353","layer":"power","name":"Kamargo","state":"NY","detail_file":"data/details/power-plants-19.json","plant_id":"2581","capacity_mw":6.0,"status_group":"Operating","energy_sources":"WAT","type":"Power plant","is_nuclear":false}},{"type":"Feature","geometry":{"type":"Point","coordinates":[-73.597,44.705]},"properties":{"key":"2532-4722913f","layer":"power","name":"Kent Falls","state":"NY","detail_file":"data/details/power-plants-38.json","plant_id":"2532","capacity_mw":12.4,"status_group":"Operating","energy_sources":"WAT","type":"Power plant","is_nuclear":false}},{"type":"Feature","geometry":{"type":"Point","coordinates":[-73.507,44.669]},"properties":{"key":"10214-0f5a9ce0","layer":"power","name":"Lower Saranac Hydroelectric Facility","state":"NY","detail_file":"data/details/power-plants-00.json","plant_id":"10214","capacity_mw":6.7,"status_group":"Operating","energy_sources":"WAT","type":"Power plant","is_nuclear":false}},{"type":"Feature","geometry":{"type":"Point","coordinates":[-74.306,44.877]},"properties":{"key":"2583-c678dbb0","layer":"power","name":"Macomb","state":"NY","detail_file":"data/details/power-plants-24.json","plant_id":"2583","capacity_mw":1.0,"status_group":"Operating","energy_sources":"WAT","type":"Power plant","is_nuclear":false}},{"type":"Feature","geometry":{"type":"Point","coordinates":[-74.307,44.871]},"properties":{"key":"62785-9903295c","layer":"power","name":"Malone Solar Site","state":"NY","detail_file":"data/details/power-plants-39.json","plant_id":"62785","capacity_mw":1.1,"status_group":"Operating","energy_sources":"SUN","type":"Power plant","is_nuclear":false}},{"type":"Feature","geometry":{"type":"Point","coordinates":[-73.93,44.976]},"properties":{"key":"56857-38523e3e","layer":"power","name":"Marble River Wind Farm","state":"NY","detail_file":"data/details/power-plants-44.json","plant_id":"56857","capacity_mw":215.3,"status_group":"Operating","energy_sources":"WND","type":"Power plant","is_nuclear":false}},{"type":"Feature","geometry":{"type":"Point","coordinates":[-74.893,44.95]},"properties":{"key":"54592-da4b2d67","layer":"power","name":"Massena Energy Facility","state":"NY","detail_file":"data/details/power-plants-28.json","plant_id":"54592","capacity_mw":104.1,"status_group":"Operating","energy_sources":"DFO; NG","type":"Power plant","is_nuclear":false}},{"type":"Feature","geometry":{"type":"Point","coordinates":[-73.612,44.697]},"properties":{"key":"6486-c1c19a19","layer":"power","name":"Mill C","state":"NY","detail_file":"data/details/power-plants-11.json","plant_id":"6486","capacity_mw":6.0,"status_group":"Operating","energy_sources":"WAT","type":"Power plant","is_nuclear":false}},{"type":"Feature","geometry":{"type":"Point","coordinates":[-74.032,44.93]},"properties":{"key":"69379-b8b2ff0d","layer":"power","name":"NSF Chateaugay Site 1","state":"NY","detail_file":"data/details/power-plants-11.json","plant_id":"69379","capacity_mw":5.0,"status_group":"Operating","energy_sources":"SUN","type":"Power plant","is_nuclear":false}},{"type":"Feature","geometry":{"type":"Point","coordinates":[-74.05,44.95]},"properties":{"key":"69380-e6c1cfd8","layer":"power","name":"NSF Chateaugay Site 2","state":"NY","detail_file":"data/details/power-plants-29.json","plant_id":"69380","capacity_mw":4.4,"status_group":"Operating","energy_sources":"SUN","type":"Power plant","is_nuclear":false}},{"type":"Feature","geometry":{"type":"Point","coordinates":[-73.583,44.878]},"properties":{"key":"67599-96d9e7e7","layer":"power","name":"NY ALTONA MAYOTT - Environomics P1","state":"NY","detail_file":"data/details/power-plants-56.json","plant_id":"67599","capacity_mw":5.0,"status_group":"Operating","energy_sources":"SUN","type":"Power plant","is_nuclear":false}},{"type":"Feature","geometry":{"type":"Point","coordinates":[-73.583,44.878]},"properties":{"key":"67600-ec2c70ac","layer":"power","name":"NY ALTONA MAYOTT - Environomics P2","state":"NY","detail_file":"data/details/power-plants-32.json","plant_id":"67600","capacity_mw":5.0,"status_group":"Operating","energy_sources":"SUN","type":"Power plant","is_nuclear":false}},{"type":"Feature","geometry":{"type":"Point","coordinates":[-75.21,44.432]},"properties":{"key":"67031-df7af676","layer":"power","name":"NY Hermon 1040 County Rd 21","state":"NY","detail_file":"data/details/power-plants-44.json","plant_id":"67031","capacity_mw":2.2,"status_group":"Operating","energy_sources":"SUN","type":"Power plant","is_nuclear":false}},{"type":"Feature","geometry":{"type":"Point","coordinates":[-74.964,44.679]},"properties":{"key":"66529-54df9d41","layer":"power","name":"NY Lancaster Shisler Rd Site 2 Solar CSG","state":"NY","detail_file":"data/details/power-plants-44.json","plant_id":"66529","capacity_mw":5.2,"status_group":"Operating","energy_sources":"SUN","type":"Power plant","is_nuclear":false}},{"type":"Feature","geometry":{"type":"Point","coordinates":[-74.964,44.679]},"properties":{"key":"66530-44ea57cd","layer":"power","name":"NY Potsdam 28 Hamilton St. Solar","state":"NY","detail_file":"data/details/power-plants-53.json","plant_id":"66530","capacity_mw":4.4,"status_group":"Operating","energy_sources":"SUN","type":"Power plant","is_nuclear":false}},{"type":"Feature","geometry":{"type":"Point","coordinates":[-74.998,44.805]},"properties":{"key":"2590-96317a18","layer":"power","name":"Norfolk","state":"NY","detail_file":"data/details/power-plants-35.json","plant_id":"2590","capacity_mw":5.0,"status_group":"Operating","energy_sources":"WAT","type":"Power plant","is_nuclear":false}},{"type":"Feature","geometry":{"type":"Point","coordinates":[-75.162,44.618]},"properties":{"key":"67437-28fefc5b","layer":"power","name":"North Woods (CSG)","state":"NY","detail_file":"data/details/power-plants-17.json","plant_id":"67437","capacity_mw":5.0,"status_group":"Operating","energy_sources":"SUN","type":"Power plant","is_nuclear":false}},{"type":"Feature","geometry":{"type":"Point","coordinates":[-75.004,44.744]},"properties":{"key":"2591-c03c7939","layer":"power","name":"Norwood","state":"NY","detail_file":"data/details/power-plants-42.json","plant_id":"2591","capacity_mw":2.0,"status_group":"Operating","energy_sources":"WAT","type":"Power plant","is_nuclear":false}},{"type":"Feature","geometry":{"type":"Point","coordinates":[-75.991,44.263]},"properties":{"key":"65378-1a0d7dd0","layer":"power","name":"OYA Robinson Road","state":"NY","detail_file":"data/details/power-plants-59.json","plant_id":"65378","capacity_mw":5.0,"status_group":"Operating","energy_sources":"SUN","type":"Power plant","is_nuclear":false}},{"type":"Feature","geometry":{"type":"Point","coordinates":[-74.265,44.922]},"properties":{"key":"65379-9af17b66","layer":"power","name":"OYA State Route 122","state":"NY","detail_file":"data/details/power-plants-55.json","plant_id":"65379","capacity_mw":4.5,"status_group":"Operating","energy_sources":"SUN","type":"Power plant","is_nuclear":false}},{"type":"Feature","geometry":{"type":"Point","coordinates":[-75.922,44.017]},"properties":{"key":"65434-207562c5","layer":"power","name":"OYA Wayside Drive","state":"NY","detail_file":"data/details/power-plants-17.json","plant_id":"65434","capacity_mw":5.0,"status_group":"Operating","energy_sources":"SUN","type":"Power plant","is_nuclear":false}},{"type":"Feature","geometry":{"type":"Point","coordinates":[-75.487,44.704]},"properties":{"key":"52058-adc3101c","layer":"power","name":"Ogdensburg","state":"NY","detail_file":"data/details/power-plants-11.json","plant_id":"52058","capacity_mw":3.5,"status_group":"Operating","energy_sources":"WAT","type":"Power plant","is_nuclear":false}},{"type":"Feature","geometry":{"type":"Point","coordinates":[-75.442,44.726]},"properties":{"key":"10803-9459e7a3","layer":"power","name":"Ogdensburg Power","state":"NY","detail_file":"data/details/power-plants-23.json","plant_id":"10803","capacity_mw":26.9,"status_group":"Operating","energy_sources":"NG","type":"Power plant","is_nuclear":false}},{"type":"Feature","geometry":{"type":"Point","coordinates":[-75.199,44.27]},"properties":{"key":"58678-e6c856a1","layer":"power","name":"Oswegatchie","state":"NY","detail_file":"data/details/power-plants-04.json","plant_id":"58678","capacity_mw":1.8,"status_group":"Operating","energy_sources":"WAT","type":"Power plant","is_nuclear":false}},{"type":"Feature","geometry":{"type":"Point","coordinates":[-74.826,44.63]},"properties":{"key":"2597-12b9763e","layer":"power","name":"Parishville","state":"NY","detail_file":"data/details/power-plants-53.json","plant_id":"2597","capacity_mw":3.0,"status_group":"Operating","energy_sources":"WAT","type":"Power plant","is_nuclear":false}},{"type":"Feature","geometry":{"type":"Point","coordinates":[-75.709,44.159]},"properties":{"key":"10197-8414ec81","layer":"power","name":"Philadlephia","state":"NY","detail_file":"data/details/power-plants-62.json","plant_id":"10197","capacity_mw":3.6,"status_group":"Operating","energy_sources":"WAT","type":"Power plant","is_nuclear":false}},{"type":"Feature","geometry":{"type":"Point","coordinates":[-74.566,44.233]},"properties":{"key":"2598-b40dd1f2","layer":"power","name":"Piercefield","state":"NY","detail_file":"data/details/power-plants-49.json","plant_id":"2598","capacity_mw":2.7,"status_group":"Operating","energy_sources":"WAT","type":"Power plant","is_nuclear":false}},{"type":"Feature","geometry":{"type":"Point","coordinates":[-75.489,44.673]},"properties":{"key":"69018-173adb46","layer":"power","name":"Pivot Solar NY 10","state":"NY","detail_file":"data/details/power-plants-45.json","plant_id":"69018","capacity_mw":5.0,"status_group":"Operating","energy_sources":"SUN","type":"Power plant","is_nuclear":false}},{"type":"Feature","geometry":{"type":"Point","coordinates":[-75.188,44.522]},"properties":{"key":"10547-df8def92","layer":"power","name":"Pyrites Plant","state":"NY","detail_file":"data/details/power-plants-42.json","plant_id":"10547","capacity_mw":8.2,"status_group":"Operating","energy_sources":"WAT","type":"Power plant","is_nuclear":false}},{"type":"Feature","geometry":{"type":"Point","coordinates":[-73.462,44.524]},"properties":{"key":"6526-2df4f2d9","layer":"power","name":"Rainbow Falls Auscble","state":"NY","detail_file":"data/details/power-plants-45.json","plant_id":"6526","capacity_mw":2.6,"status_group":"Operating","energy_sources":"WAT","type":"Power plant","is_nuclear":false}},{"type":"Feature","geometry":{"type":"Point","coordinates":[-74.823,44.518]},"properties":{"key":"2600-19bc0fe3","layer":"power","name":"Rainbow Falls Hydro","state":"NY","detail_file":"data/details/power-plants-20.json","plant_id":"2600","capacity_mw":25.0,"status_group":"Operating","energy_sources":"WAT","type":"Power plant","is_nuclear":false}},{"type":"Feature","geometry":{"type":"Point","coordinates":[-74.98,44.835]},"properties":{"key":"2601-e924b1f0","layer":"power","name":"Raymondville","state":"NY","detail_file":"data/details/power-plants-63.json","plant_id":"2601","capacity_mw":2.0,"status_group":"Operating","energy_sources":"WAT","type":"Power plant","is_nuclear":false}},{"type":"Feature","geometry":{"type":"Point","coordinates":[-75.197,44.568]},"properties":{"key":"68264-c0445ea0","layer":"power","name":"Rich Road Solar Energy Center","state":"NY","detail_file":"data/details/power-plants-03.json","plant_id":"68264","capacity_mw":240.0,"status_group":"Under construction","energy_sources":"SUN","type":"Power plant","is_nuclear":false}},{"type":"Feature","geometry":{"type":"Point","coordinates":[-74.799,45.004]},"properties":{"key":"2694-30fa6546","layer":"power","name":"Robert Moses Power Dam","state":"NY","detail_file":"data/details/power-plants-15.json","plant_id":"2694","capacity_mw":912.0,"status_group":"Operating","energy_sources":"WAT","type":"Power plant","is_nuclear":false}},{"type":"Feature","geometry":{"type":"Point","coordinates":[-75.457,44.37]},"properties":{"key":"64964-b72c707b","layer":"power","name":"Rock Island Road Solar Community Solar","state":"NY","detail_file":"data/details/power-plants-29.json","plant_id":"64964","capacity_mw":3.5,"status_group":"Operating","energy_sources":"SUN","type":"Power plant","is_nuclear":false}},{"type":"Feature","geometry":{"type":"Point","coordinates":[-73.467,44.725]},"properties":{"key":"62524-e3e723b9","layer":"power","name":"Route 22 Community Solar Farm CSG","state":"NY","detail_file":"data/details/power-plants-60.json","plant_id":"62524","capacity_mw":3.7,"status_group":"Operating","energy_sources":"SUN","type":"Power plant","is_nuclear":false}},{"type":"Feature","geometry":{"type":"Point","coordinates":[-75.498,44.656]},"properties":{"key":"66361-e3d69a22","layer":"power","name":"Royal Solar Partners (CSG)","state":"NY","detail_file":"data/details/power-plants-03.json","plant_id":"66361","capacity_mw":5.0,"status_group":"Operating","energy_sources":"SUN","type":"Power plant","is_nuclear":false}},{"type":"Feature","geometry":{"type":"Point","coordinates":[-75.497,44.656]},"properties":{"key":"66360-c4c44edc","layer":"power","name":"Ruler Solar Partners (CSG)","state":"NY","detail_file":"data/details/power-plants-49.json","plant_id":"66360","capacity_mw":4.9,"status_group":"Operating","energy_sources":"SUN","type":"Power plant","is_nuclear":false}},{"type":"Feature","geometry":{"type":"Point","coordinates":[-73.456,44.713]},"properties":{"key":"54574-8a332665","layer":"power","name":"Saranac Facility","state":"NY","detail_file":"data/details/power-plants-05.json","plant_id":"54574","capacity_mw":285.6,"status_group":"Operating","energy_sources":"NG","type":"Power plant","is_nuclear":false}},{"type":"Feature","geometry":{"type":"Point","coordinates":[-75.159,44.606]},"properties":{"key":"67329-aa0df839","layer":"power","name":"Sheesley (CSG)","state":"NY","detail_file":"data/details/power-plants-48.json","plant_id":"67329","capacity_mw":4.4,"status_group":"Operating","energy_sources":"SUN","type":"Power plant","is_nuclear":false}},{"type":"Feature","geometry":{"type":"Point","coordinates":[-75.003,44.686]},"properties":{"key":"10220-6f1e02b8","layer":"power","name":"Sissonville Hydro","state":"NY","detail_file":"data/details/power-plants-22.json","plant_id":"10220","capacity_mw":3.0,"status_group":"Operating","energy_sources":"WAT","type":"Power plant","is_nuclear":false}},{"type":"Feature","geometry":{"type":"Point","coordinates":[-75.659,44.534]},"properties":{"key":"66256-84096b72","layer":"power","name":"Source Power Company - Aldrich","state":"NY","detail_file":"data/details/power-plants-01.json","plant_id":"66256","capacity_mw":5.0,"status_group":"Operating","energy_sources":"SUN","type":"Power plant","is_nuclear":false}},{"type":"Feature","geometry":{"type":"Point","coordinates":[-74.883,44.513]},"properties":{"key":"2611-444c7115","layer":"power","name":"South Colton","state":"NY","detail_file":"data/details/power-plants-28.json","plant_id":"2611","capacity_mw":21.0,"status_group":"Operating","energy_sources":"WAT","type":"Power plant","is_nuclear":false}},{"type":"Feature","geometry":{"type":"Point","coordinates":[-75.196,44.268]},"properties":{"key":"2604-0f72180d","layer":"power","name":"South Edwards","state":"NY","detail_file":"data/details/power-plants-37.json","plant_id":"2604","capacity_mw":4.0,"status_group":"Operating","energy_sources":"WAT","type":"Power plant","is_nuclear":false}},{"type":"Feature","geometry":{"type":"Point","coordinates":[-74.761,44.455]},"properties":{"key":"2613-87d2fb55","layer":"power","name":"Stark","state":"NY","detail_file":"data/details/power-plants-00.json","plant_id":"2613","capacity_mw":26.0,"status_group":"Operating","energy_sources":"WAT","type":"Power plant","is_nuclear":false}},{"type":"Feature","geometry":{"type":"Point","coordinates":[-74.976,44.642]},"properties":{"key":"2616-70c110aa","layer":"power","name":"Sugar Island","state":"NY","detail_file":"data/details/power-plants-38.json","plant_id":"2616","capacity_mw":4.0,"status_group":"Operating","energy_sources":"WAT","type":"Power plant","is_nuclear":false}},{"type":"Feature","geometry":{"type":"Point","coordinates":[-75.354,44.601]},"properties":{"key":"68401-05db70e9","layer":"power","name":"TJA-NY-1454 CR 15 Oswegatchie, LLC","state":"NY","detail_file":"data/details/power-plants-23.json","plant_id":"68401","capacity_mw":4.9,"status_group":"Operating","energy_sources":"SUN","type":"Power plant","is_nuclear":false}},{"type":"Feature","geometry":{"type":"Point","coordinates":[-75.132,44.602]},"properties":{"key":"68403-3ec57135","layer":"power","name":"TJA-NY-Canton Solar Farm LLC","state":"NY","detail_file":"data/details/power-plants-13.json","plant_id":"68403","capacity_mw":4.9,"status_group":"Operating","energy_sources":"SUN","type":"Power plant","is_nuclear":false}},{"type":"Feature","geometry":{"type":"Point","coordinates":[-75.308,44.308]},"properties":{"key":"7583-ab3573c2","layer":"power","name":"Talcville","state":"NY","detail_file":"data/details/power-plants-58.json","plant_id":"7583","capacity_mw":1.1,"status_group":"Operating","energy_sources":"WAT","type":"Power plant","is_nuclear":false}},{"type":"Feature","geometry":{"type":"Point","coordinates":[-75.795,44.217]},"properties":{"key":"10539-f2338cf1","layer":"power","name":"Theresa Plant","state":"NY","detail_file":"data/details/power-plants-38.json","plant_id":"10539","capacity_mw":1.3,"status_group":"Operating","energy_sources":"WAT","type":"Power plant","is_nuclear":false}},{"type":"Feature","geometry":{"type":"Point","coordinates":[-75.985,44.176]},"properties":{"key":"65051-37b5328f","layer":"power","name":"Tracy Solar Energy Center","state":"NY","detail_file":"data/details/power-plants-08.json","plant_id":"65051","capacity_mw":119.0,"status_group":"Under construction","energy_sources":"SUN","type":"Power plant","is_nuclear":false}},{"type":"Feature","geometry":{"type":"Point","coordinates":[-73.913,44.511]},"properties":{"key":"50176-0c22ead1","layer":"power","name":"Union Falls","state":"NY","detail_file":"data/details/power-plants-09.json","plant_id":"50176","capacity_mw":2.6,"status_group":"Operating","energy_sources":"WAT","type":"Power plant","is_nuclear":false}},{"type":"Feature","geometry":{"type":"Point","coordinates":[-74.997,44.715]},"properties":{"key":"50269-adf2f80a","layer":"power","name":"Unionville Hydro Project 2499 NY","state":"NY","detail_file":"data/details/power-plants-26.json","plant_id":"50269","capacity_mw":3.0,"status_group":"Operating","energy_sources":"WAT","type":"Power plant","is_nuclear":false}},{"type":"Feature","geometry":{"type":"Point","coordinates":[-74.991,44.214]},"properties":{"key":"58679-7ab0a6fa","layer":"power","name":"Upper Newton Falls","state":"NY","detail_file":"data/details/power-plants-33.json","plant_id":"58679","capacity_mw":1.5,"status_group":"Operating","energy_sources":"WAT","type":"Power plant","is_nuclear":false}},{"type":"Feature","geometry":{"type":"Point","coordinates":[-74.118,44.888]},"properties":{"key":"63238-7c16269e","layer":"power","name":"Willis Battery Storage","state":"NY","detail_file":"data/details/power-plants-47.json","plant_id":"63238","capacity_mw":20.0,"status_group":"Operating","energy_sources":"MWH","type":"Power plant","is_nuclear":false}},{"type":"Feature","geometry":{"type":"Point","coordinates":[-75.0,44.766]},"properties":{"key":"2624-6a6226cb","layer":"power","name":"Yaleville","state":"NY","detail_file":"data/details/power-plants-07.json","plant_id":"2624","capacity_mw":2.0,"status_group":"Operating","energy_sources":"WAT","type":"Power plant","is_nuclear":false}},{"type":"Feature","geometry":{"type":"Point","coordinates":[-73.153,44.478]},"properties":{"key":"60542-7c2a28e8","layer":"power","name":"158th Fighter Wing Solar Farm","state":"VT","detail_file":"data/details/power-plants-00.json","plant_id":"60542","capacity_mw":1.3,"status_group":"Operating","energy_sources":"SUN","type":"Power plant","is_nuclear":false}},{"type":"Feature","geometry":{"type":"Point","coordinates":[-72.184,44.725]},"properties":{"key":"59741-75101aaa","layer":"power","name":"Barton Solar Farm","state":"VT","detail_file":"data/details/power-plants-29.json","plant_id":"59741","capacity_mw":1.9,"status_group":"Operating","energy_sources":"SUN","type":"Power plant","is_nuclear":false}},{"type":"Feature","geometry":{"type":"Point","coordinates":[-73.176,44.053]},"properties":{"key":"6451-0363064d","layer":"power","name":"Beldens","state":"VT","detail_file":"data/details/power-plants-28.json","plant_id":"6451","capacity_mw":5.7,"status_group":"Operating","energy_sources":"WAT","type":"Power plant","is_nuclear":false}},{"type":"Feature","geometry":{"type":"Point","coordinates":[-72.603,44.251]},"properties":{"key":"3734-11541945","layer":"power","name":"Berlin 5","state":"VT","detail_file":"data/details/power-plants-60.json","plant_id":"3734","capacity_mw":41.8,"status_group":"Operating","energy_sources":"KER","type":"Power plant","is_nuclear":false}},{"type":"Feature","geometry":{"type":"Point","coordinates":[-72.37,44.523]},"properties":{"key":"64860-33fd2425","layer":"power","name":"Billings Road","state":"VT","detail_file":"data/details/power-plants-16.json","plant_id":"64860","capacity_mw":1.7,"status_group":"Operating","energy_sources":"SUN","type":"Power plant","is_nuclear":false}},{"type":"Feature","geometry":{"type":"Point","coordinates":[-72.817,44.359]},"properties":{"key":"7056-8e257248","layer":"power","name":"Bolton Falls","state":"VT","detail_file":"data/details/power-plants-10.json","plant_id":"7056","capacity_mw":8.8,"status_group":"Operating","energy_sources":"WAT","type":"Power plant","is_nuclear":false}},{"type":"Feature","geometry":{"type":"Point","coordinates":[-72.099,44.171]},"properties":{"key":"50539-06295886","layer":"power","name":"Boltonville Hydro Associates","state":"VT","detail_file":"data/details/power-plants-54.json","plant_id":"50539","capacity_mw":1.1,"status_group":"Operating","energy_sources":"WAT","type":"Power plant","is_nuclear":false}},{"type":"Feature","geometry":{"type":"Point","coordinates":[-73.224,44.481]},"properties":{"key":"3754-d4d30745","layer":"power","name":"Burlington GT","state":"VT","detail_file":"data/details/power-plants-36.json","plant_id":"3754","capacity_mw":25.5,"status_group":"Operating","energy_sources":"DFO","type":"Power plant","is_nuclear":false}},{"type":"Feature","geometry":{"type":"Point","coordinates":[-72.612,44.578]},"properties":{"key":"3765-0ef68dcd","layer":"power","name":"Cadys Falls","state":"VT","detail_file":"data/details/power-plants-26.json","plant_id":"3765","capacity_mw":1.6,"status_group":"Operating","energy_sources":"WAT","type":"Power plant","is_nuclear":false}},{"type":"Feature","geometry":{"type":"Point","coordinates":[-73.188,44.49]},"properties":{"key":"54355-5f4a4701","layer":"power","name":"Chace Mill Winooski One","state":"VT","detail_file":"data/details/power-plants-49.json","plant_id":"54355","capacity_mw":7.5,"status_group":"Operating","energy_sources":"WAT","type":"Power plant","is_nuclear":false}},{"type":"Feature","geometry":{"type":"Point","coordinates":[-73.198,44.322]},"properties":{"key":"59719-71a69240","layer":"power","name":"Charlotte Solar LLC VT","state":"VT","detail_file":"data/details/power-plants-30.json","plant_id":"59719","capacity_mw":2.0,"status_group":"Operating","energy_sources":"SUN","type":"Power plant","is_nuclear":false}},{"type":"Feature","geometry":{"type":"Point","coordinates":[-73.145,44.436]},"properties":{"key":"57481-783115e1","layer":"power","name":"Chittenden County Solar Partners","state":"VT","detail_file":"data/details/power-plants-07.json","plant_id":"57481","capacity_mw":2.2,"status_group":"Operating","energy_sources":"SUN","type":"Power plant","is_nuclear":false}},{"type":"Feature","geometry":{"type":"Point","coordinates":[-73.156,44.426]},"properties":{"key":"59477-dccaf17e","layer":"power","name":"Claire Solar Farm","state":"VT","detail_file":"data/details/power-plants-04.json","plant_id":"59477","capacity_mw":2.2,"status_group":"Operating","energy_sources":"SUN","type":"Power plant","is_nuclear":false}},{"type":"Feature","geometry":{"type":"Point","coordinates":[-73.12,44.636]},"properties":{"key":"3711-d91a6716","layer":"power","name":"Clark Falls","state":"VT","detail_file":"data/details/power-plants-07.json","plant_id":"3711","capacity_mw":3.0,"status_group":"Operating","energy_sources":"WAT","type":"Power plant","is_nuclear":false}},{"type":"Feature","geometry":{"type":"Point","coordinates":[-73.17,44.491]},"properties":{"key":"3735-1d998dae","layer":"power","name":"Colchester 16","state":"VT","detail_file":"data/details/power-plants-07.json","plant_id":"3735","capacity_mw":18.0,"status_group":"Operating","energy_sources":"DFO","type":"Power plant","is_nuclear":false}},{"type":"Feature","geometry":{"type":"Point","coordinates":[-72.221,44.909]},"properties":{"key":"62859-da0ebd16","layer":"power","name":"Coventry Clean Energy Corporation","state":"VT","detail_file":"data/details/power-plants-04.json","plant_id":"62859","capacity_mw":8.0,"status_group":"Operating","energy_sources":"LFG","type":"Power plant","is_nuclear":false}},{"type":"Feature","geometry":{"type":"Point","coordinates":[-72.22,44.91]},"properties":{"key":"60411-ed0a1b6d","layer":"power","name":"Coventry Photovoltaic, LLC","state":"VT","detail_file":"data/details/power-plants-14.json","plant_id":"60411","capacity_mw":2.2,"status_group":"Operating","energy_sources":"SUN","type":"Power plant","is_nuclear":false}},{"type":"Feature","geometry":{"type":"Point","coordinates":[-72.657,44.126]},"properties":{"key":"65135-ec4db255","layer":"power","name":"ER Bone Hill Solar, LLC","state":"VT","detail_file":"data/details/power-plants-04.json","plant_id":"65135","capacity_mw":1.2,"status_group":"Operating","energy_sources":"SUN","type":"Power plant","is_nuclear":false}},{"type":"Feature","geometry":{"type":"Point","coordinates":[-72.346,44.508]},"properties":{"key":"65166-5e7d6170","layer":"power","name":"ER Center Road Solar, LLC","state":"VT","detail_file":"data/details/power-plants-48.json","plant_id":"65166","capacity_mw":2.1,"status_group":"Operating","energy_sources":"SUN","type":"Power plant","is_nuclear":false}},{"type":"Feature","geometry":{"type":"Point","coordinates":[-72.612,44.546]},"properties":{"key":"64863-f870c708","layer":"power","name":"ER Salvage Yard","state":"VT","detail_file":"data/details/power-plants-52.json","plant_id":"64863","capacity_mw":2.1,"status_group":"Operating","energy_sources":"SUN","type":"Power plant","is_nuclear":false}},{"type":"Feature","geometry":{"type":"Point","coordinates":[-72.036,44.326]},"properties":{"key":"788-2cdbb042","layer":"power","name":"East Barnet","state":"VT","detail_file":"data/details/power-plants-29.json","plant_id":"788","capacity_mw":2.2,"status_group":"Operating","energy_sources":"WAT","type":"Power plant","is_nuclear":false}},{"type":"Feature","geometry":{"type":"Point","coordinates":[-73.116,44.482]},"properties":{"key":"3737-9d030cde","layer":"power","name":"Essex Junction 19","state":"VT","detail_file":"data/details/power-plants-39.json","plant_id":"3737","capacity_mw":16.0,"status_group":"Operating","energy_sources":"DFO; WAT","type":"Power plant","is_nuclear":false}},{"type":"Feature","geometry":{"type":"Point","coordinates":[-73.107,44.484]},"properties":{"key":"69602-e10e3a89","layer":"power","name":"Essex VT BESS 1","state":"VT","detail_file":"data/details/power-plants-05.json","plant_id":"69602","capacity_mw":16.0,"status_group":"Under construction","energy_sources":"MWH","type":"Power plant","is_nuclear":false}},{"type":"Feature","geometry":{"type":"Point","coordinates":[-72.996,44.653]},"properties":{"key":"3712-4a50f25e","layer":"power","name":"Fairfax Falls","state":"VT","detail_file":"data/details/power-plants-12.json","plant_id":"3712","capacity_mw":3.5,"status_group":"Operating","energy_sources":"WAT","type":"Power plant","is_nuclear":false}},{"type":"Feature","geometry":{"type":"Point","coordinates":[-73.195,44.086]},"properties":{"key":"60562-e18731ae","layer":"power","name":"GMP Solar - Panton Hybrid","state":"VT","detail_file":"data/details/power-plants-25.json","plant_id":"60562","capacity_mw":5.9,"status_group":"Operating","energy_sources":"MWH; SUN","type":"Power plant","is_nuclear":false}},{"type":"Feature","geometry":{"type":"Point","coordinates":[-73.008,44.427]},"properties":{"key":"60547-1c6ee037","layer":"power","name":"GMP Solar - Richmond","state":"VT","detail_file":"data/details/power-plants-56.json","plant_id":"60547","capacity_mw":1.9,"status_group":"Operating","energy_sources":"SUN","type":"Power plant","is_nuclear":false}},{"type":"Feature","geometry":{"type":"Point","coordinates":[-72.511,44.136]},"properties":{"key":"60877-98af486c","layer":"power","name":"GMP Solar - Williamstown","state":"VT","detail_file":"data/details/power-plants-25.json","plant_id":"60877","capacity_mw":5.0,"status_group":"Operating","energy_sources":"SUN","type":"Power plant","is_nuclear":false}},{"type":"Feature","geometry":{"type":"Point","coordinates":[-73.103,44.465]},"properties":{"key":"60875-67134e9c","layer":"power","name":"GMP Solar - Williston","state":"VT","detail_file":"data/details/power-plants-54.json","plant_id":"60875","capacity_mw":4.7,"status_group":"Operating","energy_sources":"SUN","type":"Power plant","is_nuclear":false}},{"type":"Feature","geometry":{"type":"Point","coordinates":[-73.023,44.286]},"properties":{"key":"62383-77675bbf","layer":"power","name":"GMP Solar/Storage-Essex Hybrid","state":"VT","detail_file":"data/details/power-plants-07.json","plant_id":"62383","capacity_mw":6.5,"status_group":"Operating","energy_sources":"MWH; SUN","type":"Power plant","is_nuclear":false}},{"type":"Feature","geometry":{"type":"Point","coordinates":[-73.144,44.133]},"properties":{"key":"62382-c6c2a99d","layer":"power","name":"GMP Solar/Storage-Ferrisburgh Hybrid","state":"VT","detail_file":"data/details/power-plants-61.json","plant_id":"62382","capacity_mw":7.0,"status_group":"Operating","energy_sources":"MWH; SUN","type":"Power plant","is_nuclear":false}},{"type":"Feature","geometry":{"type":"Point","coordinates":[-73.102,44.392]},"properties":{"key":"62381-9e993247","layer":"power","name":"GMP Solar/Storage-Milton Hybrid","state":"VT","detail_file":"data/details/power-plants-13.json","plant_id":"62381","capacity_mw":7.0,"status_group":"Operating","energy_sources":"MWH; SUN","type":"Power plant","is_nuclear":false}},{"type":"Feature","geometry":{"type":"Point","coordinates":[-73.125,44.698]},"properties":{"key":"66727-2774cf66","layer":"power","name":"Georgia Ballard BESS","state":"VT","detail_file":"data/details/power-plants-12.json","plant_id":"66727","capacity_mw":5.0,"status_group":"Operating","energy_sources":"MWH","type":"Power plant","is_nuclear":false}},{"type":"Feature","geometry":{"type":"Point","coordinates":[-73.07,44.662]},"properties":{"key":"58238-ffd30ee8","layer":"power","name":"Georgia Mountain Community Wind Farm","state":"VT","detail_file":"data/details/power-plants-15.json","plant_id":"58238","capacity_mw":10.0,"status_group":"Operating","energy_sources":"WND","type":"Power plant","is_nuclear":false}},{"type":"Feature","geometry":{"type":"Point","coordinates":[-73.169,44.49]},"properties":{"key":"6475-788bff66","layer":"power","name":"Gorge 18","state":"VT","detail_file":"data/details/power-plants-10.json","plant_id":"6475","capacity_mw":3.0,"status_group":"Operating","energy_sources":"WAT","type":"Power plant","is_nuclear":false}},{"type":"Feature","geometry":{"type":"Point","coordinates":[-73.051,44.934]},"properties":{"key":"6618-80aa38b5","layer":"power","name":"Highgate Falls","state":"VT","detail_file":"data/details/power-plants-15.json","plant_id":"6618","capacity_mw":11.6,"status_group":"Operating","energy_sources":"WAT","type":"Power plant","is_nuclear":false}},{"type":"Feature","geometry":{"type":"Point","coordinates":[-73.071,44.361]},"properties":{"key":"62907-d4b592a0","layer":"power","name":"Hinesburg","state":"VT","detail_file":"data/details/power-plants-18.json","plant_id":"62907","capacity_mw":1.9,"status_group":"Operating","energy_sources":"MWH","type":"Power plant","is_nuclear":false}},{"type":"Feature","geometry":{"type":"Point","coordinates":[-73.196,44.07]},"properties":{"key":"50713-c7af4bf3","layer":"power","name":"Huntington Falls","state":"VT","detail_file":"data/details/power-plants-53.json","plant_id":"50713","capacity_mw":5.7,"status_group":"Operating","energy_sources":"WAT","type":"Power plant","is_nuclear":false}},{"type":"Feature","geometry":{"type":"Point","coordinates":[-73.208,44.492]},"properties":{"key":"589-d0c8d290","layer":"power","name":"J C McNeil","state":"VT","detail_file":"data/details/power-plants-32.json","plant_id":"589","capacity_mw":59.5,"status_group":"Operating","energy_sources":"WDS","type":"Power plant","is_nuclear":false}},{"type":"Feature","geometry":{"type":"Point","coordinates":[-72.96,44.479]},"properties":{"key":"67830-b8b026de","layer":"power","name":"Jericho Gravel Solar Farm","state":"VT","detail_file":"data/details/power-plants-35.json","plant_id":"67830","capacity_mw":2.0,"status_group":"Operating","energy_sources":"SUN","type":"Power plant","is_nuclear":false}},{"type":"Feature","geometry":{"type":"Point","coordinates":[-72.977,44.448]},"properties":{"key":"67831-0f19041c","layer":"power","name":"Jericho Landfill Solar Farm","state":"VT","detail_file":"data/details/power-plants-59.json","plant_id":"67831","capacity_mw":2.0,"status_group":"Operating","energy_sources":"SUN","type":"Power plant","is_nuclear":false}},{"type":"Feature","geometry":{"type":"Point","coordinates":[-72.425,44.748]},"properties":{"key":"57979-27b9f93c","layer":"power","name":"Kingdom Community Wind","state":"VT","detail_file":"data/details/power-plants-05.json","plant_id":"57979","capacity_mw":65.0,"status_group":"Operating","energy_sources":"WND","type":"Power plant","is_nuclear":false}},{"type":"Feature","geometry":{"type":"Point","coordinates":[-72.625,44.517]},"properties":{"key":"64268-fd6d7954","layer":"power","name":"Lawrence Brook","state":"VT","detail_file":"data/details/power-plants-08.json","plant_id":"64268","capacity_mw":2.2,"status_group":"Operating","energy_sources":"SUN","type":"Power plant","is_nuclear":false}},{"type":"Feature","geometry":{"type":"Point","coordinates":[-73.247,44.369]},"properties":{"key":"60537-26eb8964","layer":"power","name":"Limerick Road Solar Farm","state":"VT","detail_file":"data/details/power-plants-07.json","plant_id":"60537","capacity_mw":2.2,"status_group":"Operating","energy_sources":"SUN","type":"Power plant","is_nuclear":false}},{"type":"Feature","geometry":{"type":"Point","coordinates":[-73.177,44.025]},"properties":{"key":"3716-057a2ab3","layer":"power","name":"Lower Middlebury","state":"VT","detail_file":"data/details/power-plants-39.json","plant_id":"3716","capacity_mw":2.4,"status_group":"Operating","energy_sources":"WAT","type":"Power plant","is_nuclear":false}},{"type":"Feature","geometry":{"type":"Point","coordinates":[-72.336,44.361]},"properties":{"key":"3739-f55a9507","layer":"power","name":"Marshfield 6","state":"VT","detail_file":"data/details/power-plants-39.json","plant_id":"3739","capacity_mw":5.0,"status_group":"Operating","energy_sources":"WAT","type":"Power plant","is_nuclear":false}},{"type":"Feature","geometry":{"type":"Point","coordinates":[-72.059,44.26]},"properties":{"key":"6483-df3f6183","layer":"power","name":"Mcindoes","state":"VT","detail_file":"data/details/power-plants-11.json","plant_id":"6483","capacity_mw":10.4,"status_group":"Operating","energy_sources":"WAT","type":"Power plant","is_nuclear":false}},{"type":"Feature","geometry":{"type":"Point","coordinates":[-73.177,44.008]},"properties":{"key":"57804-bd04d3b4","layer":"power","name":"Middlebury College","state":"VT","detail_file":"data/details/power-plants-06.json","plant_id":"57804","capacity_mw":1.4,"status_group":"Operating","energy_sources":"WDS","type":"Power plant","is_nuclear":false}},{"type":"Feature","geometry":{"type":"Point","coordinates":[-72.682,44.292]},"properties":{"key":"3740-694e0595","layer":"power","name":"Middlesex 2","state":"VT","detail_file":"data/details/power-plants-21.json","plant_id":"3740","capacity_mw":3.2,"status_group":"Operating","energy_sources":"WAT","type":"Power plant","is_nuclear":false}},{"type":"Feature","geometry":{"type":"Point","coordinates":[-73.113,44.641]},"properties":{"key":"3717-7784c70e","layer":"power","name":"Milton","state":"VT","detail_file":"data/details/power-plants-09.json","plant_id":"3717","capacity_mw":7.4,"status_group":"Operating","energy_sources":"WAT","type":"Power plant","is_nuclear":false}},{"type":"Feature","geometry":{"type":"Point","coordinates":[-72.602,44.562]},"properties":{"key":"3764-d52a24b4","layer":"power","name":"Morrisville","state":"VT","detail_file":"data/details/power-plants-29.json","plant_id":"3764","capacity_mw":1.8,"status_group":"Operating","energy_sources":"WAT","type":"Power plant","is_nuclear":false}},{"type":"Feature","geometry":{"type":"Point","coordinates":[-72.771,44.462]},"properties":{"key":"61125-3f154bef","layer":"power","name":"Nebraska Valley Solar Farm","state":"VT","detail_file":"data/details/power-plants-50.json","plant_id":"61125","capacity_mw":1.0,"status_group":"Operating","energy_sources":"SUN","type":"Power plant","is_nuclear":false}},{"type":"Feature","geometry":{"type":"Point","coordinates":[-72.18,44.938]},"properties":{"key":"3731-4c01c8d5","layer":"power","name":"Newport","state":"VT","detail_file":"data/details/power-plants-34.json","plant_id":"3731","capacity_mw":4.0,"status_group":"Operating","energy_sources":"WAT","type":"Power plant","is_nuclear":false}},{"type":"Feature","geometry":{"type":"Point","coordinates":[-73.227,44.085]},"properties":{"key":"61340-cb839a7e","layer":"power","name":"Next Generation Solar Farm","state":"VT","detail_file":"data/details/power-plants-05.json","plant_id":"61340","capacity_mw":2.2,"status_group":"Operating","energy_sources":"SUN","type":"Power plant","is_nuclear":false}},{"type":"Feature","geometry":{"type":"Point","coordinates":[-73.204,44.139]},"properties":{"key":"58935-3454fd40","layer":"power","name":"Open View Solar Farm","state":"VT","detail_file":"data/details/power-plants-22.json","plant_id":"58935","capacity_mw":2.0,"status_group":"Operating","energy_sources":"SUN","type":"Power plant","is_nuclear":false}},{"type":"Feature","geometry":{"type":"Point","coordinates":[-73.312,44.133]},"properties":{"key":"68213-344661be","layer":"power","name":"Panton","state":"VT","detail_file":"data/details/power-plants-26.json","plant_id":"68213","capacity_mw":50.0,"status_group":"Under construction","energy_sources":"SUN","type":"Power plant","is_nuclear":false}},{"type":"Feature","geometry":{"type":"Point","coordinates":[-73.162,44.638]},"properties":{"key":"3720-7252d37a","layer":"power","name":"Peterson","state":"VT","detail_file":"data/details/power-plants-18.json","plant_id":"3720","capacity_mw":6.3,"status_group":"Operating","energy_sources":"WAT","type":"Power plant","is_nuclear":false}},{"type":"Feature","geometry":{"type":"Point","coordinates":[-72.057,44.213]},"properties":{"key":"51026-745ca018","layer":"power","name":"Ryegate Associates, LLC","state":"VT","detail_file":"data/details/power-plants-51.json","plant_id":"51026","capacity_mw":21.5,"status_group":"Operating","energy_sources":"WDS","type":"Power plant","is_nuclear":false}},{"type":"Feature","geometry":{"type":"Point","coordinates":[-73.106,44.78]},"properties":{"key":"61928-2b4394cc","layer":"power","name":"Saint Albans Solar","state":"VT","detail_file":"data/details/power-plants-43.json","plant_id":"61928","capacity_mw":4.9,"status_group":"Operating","energy_sources":"SUN","type":"Power plant","is_nuclear":false}},{"type":"Feature","geometry":{"type":"Point","coordinates":[-72.101,44.676]},"properties":{"key":"57080-1ec9fa6f","layer":"power","name":"Sheffield Wind","state":"VT","detail_file":"data/details/power-plants-07.json","plant_id":"57080","capacity_mw":40.0,"status_group":"Operating","energy_sources":"WND","type":"Power plant","is_nuclear":false}},{"type":"Feature","geometry":{"type":"Point","coordinates":[-72.979,44.911]},"properties":{"key":"58824-5aa166ae","layer":"power","name":"Sheldon Solar","state":"VT","detail_file":"data/details/power-plants-26.json","plant_id":"58824","capacity_mw":2.3,"status_group":"Operating","energy_sources":"SUN","type":"Power plant","is_nuclear":false}},{"type":"Feature","geometry":{"type":"Point","coordinates":[-72.974,44.911]},"properties":{"key":"10494-2af05510","layer":"power","name":"Sheldon Springs Hydroelectric","state":"VT","detail_file":"data/details/power-plants-11.json","plant_id":"10494","capacity_mw":25.2,"status_group":"Operating","energy_sources":"WAT","type":"Power plant","is_nuclear":false}},{"type":"Feature","geometry":{"type":"Point","coordinates":[-73.089,44.788]},"properties":{"key":"59445-9f580142","layer":"power","name":"St. Albans SPEED Project","state":"VT","detail_file":"data/details/power-plants-60.json","plant_id":"59445","capacity_mw":2.0,"status_group":"Operating","energy_sources":"SUN","type":"Power plant","is_nuclear":false}},{"type":"Feature","geometry":{"type":"Point","coordinates":[-73.274,44.962]},"properties":{"key":"60860-980f6c0b","layer":"power","name":"VEC Alburgh Array","state":"VT","detail_file":"data/details/power-plants-21.json","plant_id":"60860","capacity_mw":1.0,"status_group":"Operating","energy_sources":"SUN","type":"Power plant","is_nuclear":false}},{"type":"Feature","geometry":{"type":"Point","coordinates":[-73.061,44.368]},"properties":{"key":"60954-733a27ef","layer":"power","name":"VEC Magee Hill Solar","state":"VT","detail_file":"data/details/power-plants-38.json","plant_id":"60954","capacity_mw":1.3,"status_group":"Operating","energy_sources":"SUN","type":"Power plant","is_nuclear":false}},{"type":"Feature","geometry":{"type":"Point","coordinates":[-73.1,44.917]},"properties":{"key":"63203-ff02dca3","layer":"power","name":"VPPSA Project 10","state":"VT","detail_file":"data/details/power-plants-06.json","plant_id":"63203","capacity_mw":47.2,"status_group":"Operating","energy_sources":"DFO","type":"Power plant","is_nuclear":false}},{"type":"Feature","geometry":{"type":"Point","coordinates":[-73.257,44.166]},"properties":{"key":"6519-96c6f13e","layer":"power","name":"Vergennes 9","state":"VT","detail_file":"data/details/power-plants-12.json","plant_id":"6519","capacity_mw":2.4,"status_group":"Operating","energy_sources":"WAT","type":"Power plant","is_nuclear":false}},{"type":"Feature","geometry":{"type":"Point","coordinates":[-72.531,44.625]},"properties":{"key":"678-2201eb49","layer":"power","name":"W K Sanders","state":"VT","detail_file":"data/details/power-plants-08.json","plant_id":"678","capacity_mw":1.8,"status_group":"Operating","energy_sources":"WAT","type":"Power plant","is_nuclear":false}},{"type":"Feature","geometry":{"type":"Point","coordinates":[-72.768,44.381]},"properties":{"key":"6520-34381e0e","layer":"power","name":"Waterbury 22","state":"VT","detail_file":"data/details/power-plants-37.json","plant_id":"6520","capacity_mw":5.5,"status_group":"Operating","energy_sources":"WAT","type":"Power plant","is_nuclear":false}},{"type":"Feature","geometry":{"type":"Point","coordinates":[-72.055,44.887]},"properties":{"key":"3753-dafd85aa","layer":"power","name":"West Charleston","state":"VT","detail_file":"data/details/power-plants-30.json","plant_id":"3753","capacity_mw":1.4,"status_group":"Operating","energy_sources":"WAT","type":"Power plant","is_nuclear":false}},{"type":"Feature","geometry":{"type":"Point","coordinates":[-72.188,44.406]},"properties":{"key":"3743-4e26ad3c","layer":"power","name":"West Danville 15","state":"VT","detail_file":"data/details/power-plants-17.json","plant_id":"3743","capacity_mw":1.0,"status_group":"Operating","energy_sources":"WAT","type":"Power plant","is_nuclear":false}},{"type":"Feature","geometry":{"type":"Point","coordinates":[-73.216,44.066]},"properties":{"key":"3728-92787d19","layer":"power","name":"Weybridge","state":"VT","detail_file":"data/details/power-plants-57.json","plant_id":"3728","capacity_mw":3.0,"status_group":"Operating","energy_sources":"WAT","type":"Power plant","is_nuclear":false}},{"type":"Feature","geometry":{"type":"Point","coordinates":[-73.137,44.486]},"properties":{"key":"59049-d342c044","layer":"power","name":"Whitcomb Solar Farm","state":"VT","detail_file":"data/details/power-plants-15.json","plant_id":"59049","capacity_mw":2.2,"status_group":"Operating","energy_sources":"SUN","type":"Power plant","is_nuclear":false}},{"type":"Feature","geometry":{"type":"Point","coordinates":[-72.606,44.113]},"properties":{"key":"58145-d81275f1","layer":"power","name":"Williamstown Solar","state":"VT","detail_file":"data/details/power-plants-15.json","plant_id":"58145","capacity_mw":2.0,"status_group":"Operating","energy_sources":"SUN","type":"Power plant","is_nuclear":false}},{"type":"Feature","geometry":{"type":"Point","coordinates":[-72.575,44.31]},"properties":{"key":"7051-3248fc6d","layer":"power","name":"Wrightsville Hydro Plant","state":"VT","detail_file":"data/details/power-plants-20.json","plant_id":"7051","capacity_mw":1.0,"status_group":"Operating","energy_sources":"WAT","type":"Power plant","is_nuclear":false}}]}