{"type":"FeatureCollection","features":[{"type":"Feature","geometry":{"type":"Point","coordinates":[-104.392,48.21]},"properties":{"key":"56606-15a19b5d","layer":"power","name":"Culbertson Generation Station","state":"MT","detail_file":"data/details/power-plants-56.json","plant_id":"56606","capacity_mw":108.2,"status_group":"Operating","energy_sources":"NG","type":"Power plant","is_nuclear":false}},{"type":"Feature","geometry":{"type":"Point","coordinates":[-106.412,48.012]},"properties":{"key":"6623-8d5229d2","layer":"power","name":"Fort Peck","state":"MT","detail_file":"data/details/power-plants-42.json","plant_id":"6623","capacity_mw":179.7,"status_group":"Operating","energy_sources":"WAT","type":"Power plant","is_nuclear":false}},{"type":"Feature","geometry":{"type":"Point","coordinates":[-104.397,48.214]},"properties":{"key":"56833-800a1ff6","layer":"power","name":"OREG 1 Inc","state":"MT","detail_file":"data/details/power-plants-00.json","plant_id":"56833","capacity_mw":30.0,"status_group":"Operating","energy_sources":"WH","type":"Power plant","is_nuclear":false}},{"type":"Feature","geometry":{"type":"Point","coordinates":[-104.397,48.214]},"properties":{"key":"56880-08277c5a","layer":"power","name":"OREG 2 Inc","state":"MT","detail_file":"data/details/power-plants-05.json","plant_id":"56880","capacity_mw":30.0,"status_group":"Operating","energy_sources":"WH","type":"Power plant","is_nuclear":false}}]}