{"type":"FeatureCollection","features":[{"type":"Feature","geometry":{"type":"Point","coordinates":[-156.779,71.292]},"properties":{"key":"7173-2b3e6084","layer":"power","name":"Barrow","state":"AK","detail_file":"data/details/power-plants-42.json","plant_id":"7173","capacity_mw":17.3,"status_group":"Operating","energy_sources":"NG","type":"Power plant","is_nuclear":false}},{"type":"Feature","geometry":{"type":"Point","coordinates":[-157.425,70.483]},"properties":{"key":"7482-64906f5b","layer":"power","name":"NSB Atqasuk Utility","state":"AK","detail_file":"data/details/power-plants-61.json","plant_id":"7482","capacity_mw":3.2,"status_group":"Operating","energy_sources":"DFO","type":"Power plant","is_nuclear":false}}]}