{"type":"FeatureCollection","features":[{"type":"Feature","geometry":{"type":"Point","coordinates":[-75.622,39.758]},"properties":{"key":"63700-df71d041","layer":"power","name":"AGT001 Centerville Fuel Cell","state":"DE","detail_file":"data/details/power-plants-25.json","plant_id":"63700","capacity_mw":1.3,"status_group":"Operating","energy_sources":"NG","type":"Power plant","is_nuclear":false}},{"type":"Feature","geometry":{"type":"Point","coordinates":[-75.723,39.034]},"properties":{"key":"56430-0fc6ce1a","layer":"power","name":"Ameresco Delaware Central","state":"DE","detail_file":"data/details/power-plants-52.json","plant_id":"56430","capacity_mw":5.0,"status_group":"Operating","energy_sources":"LFG","type":"Power plant","is_nuclear":false}},{"type":"Feature","geometry":{"type":"Point","coordinates":[-75.434,38.599]},"properties":{"key":"56429-4b993ebd","layer":"power","name":"Ameresco Delaware South","state":"DE","detail_file":"data/details/power-plants-39.json","plant_id":"56429","capacity_mw":5.0,"status_group":"Operating","energy_sources":"LFG","type":"Power plant","is_nuclear":false}},{"type":"Feature","geometry":{"type":"Point","coordinates":[-75.706,39.648]},"properties":{"key":"67572-44abf89a","layer":"power","name":"AstraZeneca Newark Solar","state":"DE","detail_file":"data/details/power-plants-14.json","plant_id":"67572","capacity_mw":3.2,"status_group":"Operating","energy_sources":"SUN","type":"Power plant","is_nuclear":false}},{"type":"Feature","geometry":{"type":"Point","coordinates":[-75.685,39.186]},"properties":{"key":"65791-8a1d96e4","layer":"power","name":"Blue Hen Solar","state":"DE","detail_file":"data/details/power-plants-41.json","plant_id":"65791","capacity_mw":1.5,"status_group":"Operating","energy_sources":"SUN","type":"Power plant","is_nuclear":false}},{"type":"Feature","geometry":{"type":"Point","coordinates":[-75.716,39.669]},"properties":{"key":"58110-2fb64775","layer":"power","name":"Brookside Newark","state":"DE","detail_file":"data/details/power-plants-47.json","plant_id":"58110","capacity_mw":2.6,"status_group":"Operating","energy_sources":"NG","type":"Power plant","is_nuclear":false}},{"type":"Feature","geometry":{"type":"Point","coordinates":[-75.401,38.664]},"properties":{"key":"58473-8506aabd","layer":"power","name":"Bruce A Henry Solar Farm","state":"DE","detail_file":"data/details/power-plants-57.json","plant_id":"58473","capacity_mw":4.0,"status_group":"Operating","energy_sources":"SUN","type":"Power plant","is_nuclear":false}},{"type":"Feature","geometry":{"type":"Point","coordinates":[-75.278,38.724]},"properties":{"key":"70056-443d5ca0","layer":"power","name":"CE DE - Harbeson","state":"DE","detail_file":"data/details/power-plants-55.json","plant_id":"70056","capacity_mw":4.0,"status_group":"Under construction","energy_sources":"SUN","type":"Power plant","is_nuclear":false}},{"type":"Feature","geometry":{"type":"Point","coordinates":[-75.565,39.373]},"properties":{"key":"64543-5f9fd0c7","layer":"power","name":"Cedar Creek Solar","state":"DE","detail_file":"data/details/power-plants-08.json","plant_id":"64543","capacity_mw":114.0,"status_group":"Under construction","energy_sources":"SUN","type":"Power plant","is_nuclear":false}},{"type":"Feature","geometry":{"type":"Point","coordinates":[-75.16,38.463]},"properties":{"key":"69832-ec0b06c6","layer":"power","name":"Chaberton Solar Biggins Creek LLC","state":"DE","detail_file":"data/details/power-plants-16.json","plant_id":"69832","capacity_mw":4.0,"status_group":"Under construction","energy_sources":"SUN","type":"Power plant","is_nuclear":false}},{"type":"Feature","geometry":{"type":"Point","coordinates":[-75.478,39.066]},"properties":{"key":"69051-a442a6a4","layer":"power","name":"Chaberton Solar Blackburn","state":"DE","detail_file":"data/details/power-plants-51.json","plant_id":"69051","capacity_mw":3.0,"status_group":"Operating","energy_sources":"SUN","type":"Power plant","is_nuclear":false}},{"type":"Feature","geometry":{"type":"Point","coordinates":[-75.18,38.471]},"properties":{"key":"69831-0ef137fc","layer":"power","name":"Chaberton Solar Blue Hen LLC","state":"DE","detail_file":"data/details/power-plants-14.json","plant_id":"69831","capacity_mw":4.0,"status_group":"Under construction","energy_sources":"SUN","type":"Power plant","is_nuclear":false}},{"type":"Feature","geometry":{"type":"Point","coordinates":[-75.537,39.73]},"properties":{"key":"591-7cfb79b8","layer":"power","name":"Christiana","state":"DE","detail_file":"data/details/power-plants-49.json","plant_id":"591","capacity_mw":55.0,"status_group":"Operating","energy_sources":"DFO","type":"Power plant","is_nuclear":false}},{"type":"Feature","geometry":{"type":"Point","coordinates":[-75.543,39.693]},"properties":{"key":"59783-fadee33c","layer":"power","name":"Croda Atlas Point CHP","state":"DE","detail_file":"data/details/power-plants-42.json","plant_id":"59783","capacity_mw":4.2,"status_group":"Operating","energy_sources":"LFG","type":"Power plant","is_nuclear":false}},{"type":"Feature","geometry":{"type":"Point","coordinates":[-75.512,39.737]},"properties":{"key":"59715-e3deffe3","layer":"power","name":"DD Hay Road Solar 23 LLC","state":"DE","detail_file":"data/details/power-plants-60.json","plant_id":"59715","capacity_mw":1.2,"status_group":"Operating","energy_sources":"SUN","type":"Power plant","is_nuclear":false}},{"type":"Feature","geometry":{"type":"Point","coordinates":[-75.731,39.186]},"properties":{"key":"69141-f0d8ec47","layer":"power","name":"DE-ECA CS Hartly","state":"DE","detail_file":"data/details/power-plants-07.json","plant_id":"69141","capacity_mw":4.0,"status_group":"Operating","energy_sources":"SUN","type":"Power plant","is_nuclear":false}},{"type":"Feature","geometry":{"type":"Point","coordinates":[-75.399,38.665]},"properties":{"key":"63392-5f82e000","layer":"power","name":"DEC Phase II at Georgetown","state":"DE","detail_file":"data/details/power-plants-27.json","plant_id":"63392","capacity_mw":3.0,"status_group":"Operating","energy_sources":"SUN","type":"Power plant","is_nuclear":false}},{"type":"Feature","geometry":{"type":"Point","coordinates":[-75.622,39.28]},"properties":{"key":"61800-1ee28e01","layer":"power","name":"DG AMP Solar Smyrna","state":"DE","detail_file":"data/details/power-plants-31.json","plant_id":"61800","capacity_mw":1.2,"status_group":"Operating","energy_sources":"SUN","type":"Power plant","is_nuclear":false}},{"type":"Feature","geometry":{"type":"Point","coordinates":[-75.571,38.931]},"properties":{"key":"68195-71139d36","layer":"power","name":"Delaware Ave Solar","state":"DE","detail_file":"data/details/power-plants-11.json","plant_id":"68195","capacity_mw":4.0,"status_group":"Under construction","energy_sources":"SUN","type":"Power plant","is_nuclear":false}},{"type":"Feature","geometry":{"type":"Point","coordinates":[-75.627,39.6]},"properties":{"key":"592-1c4dc42d","layer":"power","name":"Delaware City 10","state":"DE","detail_file":"data/details/power-plants-45.json","plant_id":"592","capacity_mw":18.5,"status_group":"Operating","energy_sources":"DFO","type":"Power plant","is_nuclear":false}},{"type":"Feature","geometry":{"type":"Point","coordinates":[-75.634,39.587]},"properties":{"key":"52193-179433e5","layer":"power","name":"Delaware City Plant","state":"DE","detail_file":"data/details/power-plants-12.json","plant_id":"52193","capacity_mw":324.0,"status_group":"Operating","energy_sources":"NG; OG","type":"Power plant","is_nuclear":false}},{"type":"Feature","geometry":{"type":"Point","coordinates":[-75.504,39.184]},"properties":{"key":"57337-4ead162a","layer":"power","name":"Dover Sun Park","state":"DE","detail_file":"data/details/power-plants-46.json","plant_id":"57337","capacity_mw":10.0,"status_group":"Operating","energy_sources":"SUN","type":"Power plant","is_nuclear":false}},{"type":"Feature","geometry":{"type":"Point","coordinates":[-75.754,39.395]},"properties":{"key":"65304-412e040e","layer":"power","name":"ENGIE Solidago Solar Project - Hybrid","state":"DE","detail_file":"data/details/power-plants-01.json","plant_id":"65304","capacity_mw":50.0,"status_group":"Operating","energy_sources":"SUN","type":"Power plant","is_nuclear":false}},{"type":"Feature","geometry":{"type":"Point","coordinates":[-75.754,39.395]},"properties":{"key":"65304-cfcec279","layer":"power","name":"ENGIE Solidago Solar Project - Hybrid","state":"DE","detail_file":"data/details/power-plants-22.json","plant_id":"65304","capacity_mw":12.5,"status_group":"Planned","energy_sources":"MWH","type":"Power plant","is_nuclear":false}},{"type":"Feature","geometry":{"type":"Point","coordinates":[-75.504,39.739]},"properties":{"key":"593-b4720bfc","layer":"power","name":"Edge Moor","state":"DE","detail_file":"data/details/power-plants-43.json","plant_id":"593","capacity_mw":710.3,"status_group":"Operating","energy_sources":"DFO; NG","type":"Power plant","is_nuclear":false}},{"type":"Feature","geometry":{"type":"Point","coordinates":[-75.547,39.15]},"properties":{"key":"10030-f506e11d","layer":"power","name":"Energy Center Dover","state":"DE","detail_file":"data/details/power-plants-36.json","plant_id":"10030","capacity_mw":118.0,"status_group":"Operating","energy_sources":"NG","type":"Power plant","is_nuclear":false}},{"type":"Feature","geometry":{"type":"Point","coordinates":[-75.499,39.187]},"properties":{"key":"57349-4153a1fd","layer":"power","name":"Garrison Energy Center LLC","state":"DE","detail_file":"data/details/power-plants-01.json","plant_id":"57349","capacity_mw":361.0,"status_group":"Operating","energy_sources":"NG","type":"Power plant","is_nuclear":false}},{"type":"Feature","geometry":{"type":"Point","coordinates":[-75.706,39.38]},"properties":{"key":"68211-cfc3148d","layer":"power","name":"Grears Corner Solar","state":"DE","detail_file":"data/details/power-plants-54.json","plant_id":"68211","capacity_mw":4.0,"status_group":"Under construction","energy_sources":"SUN","type":"Power plant","is_nuclear":false}},{"type":"Feature","geometry":{"type":"Point","coordinates":[-75.507,39.744]},"properties":{"key":"7153-b1b0d2dc","layer":"power","name":"Hay Road","state":"DE","detail_file":"data/details/power-plants-40.json","plant_id":"7153","capacity_mw":1098.2,"status_group":"Operating","energy_sources":"NG","type":"Power plant","is_nuclear":false}},{"type":"Feature","geometry":{"type":"Point","coordinates":[-75.606,38.796]},"properties":{"key":"67074-a52fb7c6","layer":"power","name":"Heimlich Solar","state":"DE","detail_file":"data/details/power-plants-12.json","plant_id":"67074","capacity_mw":4.5,"status_group":"Operating","energy_sources":"SUN","type":"Power plant","is_nuclear":false}},{"type":"Feature","geometry":{"type":"Point","coordinates":[-75.234,38.586]},"properties":{"key":"594-7c7202d6","layer":"power","name":"Indian River Generating Station","state":"DE","detail_file":"data/details/power-plants-52.json","plant_id":"594","capacity_mw":18.6,"status_group":"Operating","energy_sources":"DFO","type":"Power plant","is_nuclear":false}},{"type":"Feature","geometry":{"type":"Point","coordinates":[-75.563,39.235]},"properties":{"key":"67391-051dda43","layer":"power","name":"KE73 CSG","state":"DE","detail_file":"data/details/power-plants-09.json","plant_id":"67391","capacity_mw":4.0,"status_group":"Operating","energy_sources":"SUN","type":"Power plant","is_nuclear":false}},{"type":"Feature","geometry":{"type":"Point","coordinates":[-75.438,38.993]},"properties":{"key":"57330-d15475e9","layer":"power","name":"Kent County Wastewater Treatment Solar","state":"DE","detail_file":"data/details/power-plants-34.json","plant_id":"57330","capacity_mw":1.2,"status_group":"Operating","energy_sources":"SUN","type":"Power plant","is_nuclear":false}},{"type":"Feature","geometry":{"type":"Point","coordinates":[-75.763,39.372]},"properties":{"key":"68212-ac778f53","layer":"power","name":"Maryland Line Road Solar","state":"DE","detail_file":"data/details/power-plants-03.json","plant_id":"68212","capacity_mw":2.5,"status_group":"Under construction","energy_sources":"SUN","type":"Power plant","is_nuclear":false}},{"type":"Feature","geometry":{"type":"Point","coordinates":[-75.453,38.923]},"properties":{"key":"58228-03532363","layer":"power","name":"Milford Solar Farm","state":"DE","detail_file":"data/details/power-plants-05.json","plant_id":"58228","capacity_mw":11.8,"status_group":"Operating","energy_sources":"SUN","type":"Power plant","is_nuclear":false}},{"type":"Feature","geometry":{"type":"Point","coordinates":[-75.543,38.578]},"properties":{"key":"69792-27fd597d","layer":"power","name":"NL DE Taylor","state":"DE","detail_file":"data/details/power-plants-21.json","plant_id":"69792","capacity_mw":3.0,"status_group":"Operating","energy_sources":"SUN","type":"Power plant","is_nuclear":false}},{"type":"Feature","geometry":{"type":"Point","coordinates":[-75.289,38.718]},"properties":{"key":"61206-cd8f95fa","layer":"power","name":"Onyx - Allen Harim","state":"DE","detail_file":"data/details/power-plants-08.json","plant_id":"61206","capacity_mw":1.2,"status_group":"Operating","energy_sources":"SUN","type":"Power plant","is_nuclear":false}},{"type":"Feature","geometry":{"type":"Point","coordinates":[-75.602,38.758]},"properties":{"key":"57772-1228f524","layer":"power","name":"Perdue Bridgeville Photovoltaic","state":"DE","detail_file":"data/details/power-plants-49.json","plant_id":"57772","capacity_mw":1.3,"status_group":"Operating","energy_sources":"SUN","type":"Power plant","is_nuclear":false}},{"type":"Feature","geometry":{"type":"Point","coordinates":[-75.588,38.91]},"properties":{"key":"63846-88207224","layer":"power","name":"Raceway Solar","state":"DE","detail_file":"data/details/power-plants-51.json","plant_id":"63846","capacity_mw":50.0,"status_group":"Under construction","energy_sources":"SUN","type":"Power plant","is_nuclear":false}},{"type":"Feature","geometry":{"type":"Point","coordinates":[-75.63,39.61]},"properties":{"key":"58433-68bd5715","layer":"power","name":"Red Lion Energy Center","state":"DE","detail_file":"data/details/power-plants-16.json","plant_id":"58433","capacity_mw":24.9,"status_group":"Operating","energy_sources":"NG","type":"Power plant","is_nuclear":false}},{"type":"Feature","geometry":{"type":"Point","coordinates":[-75.571,38.726]},"properties":{"key":"68196-cb86e7b0","layer":"power","name":"Rifle Range Road Solar","state":"DE","detail_file":"data/details/power-plants-51.json","plant_id":"68196","capacity_mw":4.0,"status_group":"Under construction","energy_sources":"SUN","type":"Power plant","is_nuclear":false}},{"type":"Feature","geometry":{"type":"Point","coordinates":[-75.548,39.781]},"properties":{"key":"59922-e81247b6","layer":"power","name":"South Campus Solar","state":"DE","detail_file":"data/details/power-plants-22.json","plant_id":"59922","capacity_mw":1.8,"status_group":"Operating","energy_sources":"SUN","type":"Power plant","is_nuclear":false}},{"type":"Feature","geometry":{"type":"Point","coordinates":[-75.493,39.071]},"properties":{"key":"69560-bbd6017c","layer":"power","name":"Sunrise Magnolia DE","state":"DE","detail_file":"data/details/power-plants-46.json","plant_id":"69560","capacity_mw":3.0,"status_group":"Under construction","energy_sources":"SUN","type":"Power plant","is_nuclear":false}},{"type":"Feature","geometry":{"type":"Point","coordinates":[-75.401,38.853]},"properties":{"key":"69561-57833e1f","layer":"power","name":"Sunrise Solar Lincoln DE (CSG)","state":"DE","detail_file":"data/details/power-plants-53.json","plant_id":"69561","capacity_mw":4.0,"status_group":"Operating","energy_sources":"SUN","type":"Power plant","is_nuclear":false}},{"type":"Feature","geometry":{"type":"Point","coordinates":[-75.246,38.522]},"properties":{"key":"69703-9faf86d8","layer":"power","name":"Sussex CSG 2 LLC","state":"DE","detail_file":"data/details/power-plants-37.json","plant_id":"69703","capacity_mw":3.3,"status_group":"Operating","energy_sources":"SUN","type":"Power plant","is_nuclear":false}},{"type":"Feature","geometry":{"type":"Point","coordinates":[-75.165,38.783]},"properties":{"key":"57176-97fbaa04","layer":"power","name":"University of Delaware Wind Turbine","state":"DE","detail_file":"data/details/power-plants-46.json","plant_id":"57176","capacity_mw":2.0,"status_group":"Operating","energy_sources":"WND","type":"Power plant","is_nuclear":false}},{"type":"Feature","geometry":{"type":"Point","coordinates":[-75.548,39.145]},"properties":{"key":"7318-72116f9b","layer":"power","name":"Van Sant Station","state":"DE","detail_file":"data/details/power-plants-21.json","plant_id":"7318","capacity_mw":45.1,"status_group":"Operating","energy_sources":"NG","type":"Power plant","is_nuclear":false}},{"type":"Feature","geometry":{"type":"Point","coordinates":[-75.546,39.724]},"properties":{"key":"61934-2efd356a","layer":"power","name":"WHA Southbridge Solar Park CSG","state":"DE","detail_file":"data/details/power-plants-48.json","plant_id":"61934","capacity_mw":1.4,"status_group":"Operating","energy_sources":"SUN","type":"Power plant","is_nuclear":false}},{"type":"Feature","geometry":{"type":"Point","coordinates":[-75.624,39.279]},"properties":{"key":"7962-cb944b53","layer":"power","name":"Warren F Sam Beasley Generation Station","state":"DE","detail_file":"data/details/power-plants-18.json","plant_id":"7962","capacity_mw":96.0,"status_group":"Operating","energy_sources":"NG","type":"Power plant","is_nuclear":false}},{"type":"Feature","geometry":{"type":"Point","coordinates":[-75.629,39.728]},"properties":{"key":"597-318d1c83","layer":"power","name":"West Station (DE)","state":"DE","detail_file":"data/details/power-plants-25.json","plant_id":"597","capacity_mw":16.2,"status_group":"Operating","energy_sources":"DFO","type":"Power plant","is_nuclear":false}},{"type":"Feature","geometry":{"type":"Point","coordinates":[-75.217,38.328]},"properties":{"key":"6565-1a5d220f","layer":"power","name":"Berlin","state":"MD","detail_file":"data/details/power-plants-26.json","plant_id":"6565","capacity_mw":5.6,"status_group":"Operating","energy_sources":"DFO; NG","type":"Power plant","is_nuclear":false}},{"type":"Feature","geometry":{"type":"Point","coordinates":[-75.85,39.35]},"properties":{"key":"62332-31345337","layer":"power","name":"Blue Star","state":"MD","detail_file":"data/details/power-plants-15.json","plant_id":"62332","capacity_mw":7.5,"status_group":"Operating","energy_sources":"SUN","type":"Power plant","is_nuclear":false}},{"type":"Feature","geometry":{"type":"Point","coordinates":[-75.961,39.179]},"properties":{"key":"63910-3d72a924","layer":"power","name":"Bluegrass Solar","state":"MD","detail_file":"data/details/power-plants-23.json","plant_id":"63910","capacity_mw":79.6,"status_group":"Operating","energy_sources":"SUN","type":"Power plant","is_nuclear":false}},{"type":"Feature","geometry":{"type":"Point","coordinates":[-75.896,38.615]},"properties":{"key":"68301-64919351","layer":"power","name":"Cabin Creek MD","state":"MD","detail_file":"data/details/power-plants-29.json","plant_id":"68301","capacity_mw":2.0,"status_group":"Operating","energy_sources":"SUN","type":"Power plant","is_nuclear":false}},{"type":"Feature","geometry":{"type":"Point","coordinates":[-75.808,39.651]},"properties":{"key":"60353-1de29722","layer":"power","name":"Cecil County CCVT HS","state":"MD","detail_file":"data/details/power-plants-29.json","plant_id":"60353","capacity_mw":2.0,"status_group":"Operating","energy_sources":"SUN","type":"Power plant","is_nuclear":false}},{"type":"Feature","geometry":{"type":"Point","coordinates":[-75.418,38.39]},"properties":{"key":"69005-357a91bd","layer":"power","name":"Chaberton Solar Greyrock","state":"MD","detail_file":"data/details/power-plants-58.json","plant_id":"69005","capacity_mw":2.0,"status_group":"Operating","energy_sources":"SUN","type":"Power plant","is_nuclear":false}},{"type":"Feature","geometry":{"type":"Point","coordinates":[-75.783,39.008]},"properties":{"key":"67444-c0774bbb","layer":"power","name":"Cherrywood Solar I","state":"MD","detail_file":"data/details/power-plants-20.json","plant_id":"67444","capacity_mw":145.0,"status_group":"Under construction","energy_sources":"SUN","type":"Power plant","is_nuclear":false}},{"type":"Feature","geometry":{"type":"Point","coordinates":[-75.96,39.101]},"properties":{"key":"60737-33f1d169","layer":"power","name":"Church Hill","state":"MD","detail_file":"data/details/power-plants-12.json","plant_id":"60737","capacity_mw":6.0,"status_group":"Operating","energy_sources":"SUN","type":"Power plant","is_nuclear":false}},{"type":"Feature","geometry":{"type":"Point","coordinates":[-75.611,38.098]},"properties":{"key":"69306-d8d0f396","layer":"power","name":"Costen Solar","state":"MD","detail_file":"data/details/power-plants-23.json","plant_id":"69306","capacity_mw":8.8,"status_group":"Operating","energy_sources":"SUN","type":"Power plant","is_nuclear":false}},{"type":"Feature","geometry":{"type":"Point","coordinates":[-75.838,37.994]},"properties":{"key":"1563-29bda7d5","layer":"power","name":"Crisfield","state":"MD","detail_file":"data/details/power-plants-50.json","plant_id":"1563","capacity_mw":11.6,"status_group":"Operating","energy_sources":"DFO","type":"Power plant","is_nuclear":false}},{"type":"Feature","geometry":{"type":"Point","coordinates":[-75.704,38.159]},"properties":{"key":"10693-040467a2","layer":"power","name":"Eastern Correctional Institute","state":"MD","detail_file":"data/details/power-plants-26.json","plant_id":"10693","capacity_mw":5.8,"status_group":"Operating","energy_sources":"DFO; NG","type":"Power plant","is_nuclear":false}},{"type":"Feature","geometry":{"type":"Point","coordinates":[-75.836,39.604]},"properties":{"key":"60089-2d288c14","layer":"power","name":"Elkton Solar","state":"MD","detail_file":"data/details/power-plants-36.json","plant_id":"60089","capacity_mw":1.6,"status_group":"Operating","energy_sources":"SUN","type":"Power plant","is_nuclear":false}},{"type":"Feature","geometry":{"type":"Point","coordinates":[-75.711,38.64]},"properties":{"key":"66499-a31057cf","layer":"power","name":"Federalsburg Energy Storage 1 LLC","state":"MD","detail_file":"data/details/power-plants-25.json","plant_id":"66499","capacity_mw":2.0,"status_group":"Operating","energy_sources":"MWH; SUN","type":"Power plant","is_nuclear":false}},{"type":"Feature","geometry":{"type":"Point","coordinates":[-75.274,38.377]},"properties":{"key":"61794-d3c9ee84","layer":"power","name":"Gateway Solar","state":"MD","detail_file":"data/details/power-plants-61.json","plant_id":"61794","capacity_mw":7.6,"status_group":"Operating","energy_sources":"SUN","type":"Power plant","is_nuclear":false}},{"type":"Feature","geometry":{"type":"Point","coordinates":[-75.215,38.115]},"properties":{"key":"63089-ac942b7a","layer":"power","name":"Gibbons CSG","state":"MD","detail_file":"data/details/power-plants-21.json","plant_id":"63089","capacity_mw":2.0,"status_group":"Operating","energy_sources":"SUN","type":"Power plant","is_nuclear":false}},{"type":"Feature","geometry":{"type":"Point","coordinates":[-75.698,38.169]},"properties":{"key":"59851-9e7bb2e7","layer":"power","name":"Great Bay Solar 1","state":"MD","detail_file":"data/details/power-plants-09.json","plant_id":"59851","capacity_mw":118.0,"status_group":"Operating","energy_sources":"SUN","type":"Power plant","is_nuclear":false}},{"type":"Feature","geometry":{"type":"Point","coordinates":[-75.772,39.232]},"properties":{"key":"66842-10cff495","layer":"power","name":"Jones Farm Solar","state":"MD","detail_file":"data/details/power-plants-48.json","plant_id":"66842","capacity_mw":64.0,"status_group":"Operating","energy_sources":"SUN","type":"Power plant","is_nuclear":false}},{"type":"Feature","geometry":{"type":"Point","coordinates":[-75.982,39.297]},"properties":{"key":"58239-1f0a549b","layer":"power","name":"Kent County-Kennedyville","state":"MD","detail_file":"data/details/power-plants-51.json","plant_id":"58239","capacity_mw":1.0,"status_group":"Operating","energy_sources":"SUN","type":"Power plant","is_nuclear":false}},{"type":"Feature","geometry":{"type":"Point","coordinates":[-75.673,38.395]},"properties":{"key":"60735-b6309521","layer":"power","name":"Longview Solar","state":"MD","detail_file":"data/details/power-plants-60.json","plant_id":"60735","capacity_mw":13.6,"status_group":"Operating","energy_sources":"SUN","type":"Power plant","is_nuclear":false}},{"type":"Feature","geometry":{"type":"Point","coordinates":[-75.806,39.644]},"properties":{"key":"69049-16763f7c","layer":"power","name":"MD - WL Gore - Appleton","state":"MD","detail_file":"data/details/power-plants-58.json","plant_id":"69049","capacity_mw":1.1,"status_group":"Operating","energy_sources":"SUN","type":"Power plant","is_nuclear":false}},{"type":"Feature","geometry":{"type":"Point","coordinates":[-75.858,39.67]},"properties":{"key":"69050-86abd5e9","layer":"power","name":"MD - WL Gore - Cherry Hill","state":"MD","detail_file":"data/details/power-plants-01.json","plant_id":"69050","capacity_mw":4.0,"status_group":"Operating","energy_sources":"SUN","type":"Power plant","is_nuclear":false}},{"type":"Feature","geometry":{"type":"Point","coordinates":[-75.918,39.692]},"properties":{"key":"64645-5496dd1b","layer":"power","name":"Mason Solar One LLC","state":"MD","detail_file":"data/details/power-plants-40.json","plant_id":"64645","capacity_mw":1.0,"status_group":"Operating","energy_sources":"SUN","type":"Power plant","is_nuclear":false}},{"type":"Feature","geometry":{"type":"Point","coordinates":[-75.943,39.704]},"properties":{"key":"67397-45423473","layer":"power","name":"Meeting House","state":"MD","detail_file":"data/details/power-plants-09.json","plant_id":"67397","capacity_mw":2.0,"status_group":"Operating","energy_sources":"SUN","type":"Power plant","is_nuclear":false}},{"type":"Feature","geometry":{"type":"Point","coordinates":[-75.543,38.323]},"properties":{"key":"67439-93cd095f","layer":"power","name":"Parker Place","state":"MD","detail_file":"data/details/power-plants-11.json","plant_id":"67439","capacity_mw":2.0,"status_group":"Operating","energy_sources":"SUN","type":"Power plant","is_nuclear":false}},{"type":"Feature","geometry":{"type":"Point","coordinates":[-75.535,38.374]},"properties":{"key":"57879-51522264","layer":"power","name":"Perdue Salisbury Photovoltaic","state":"MD","detail_file":"data/details/power-plants-55.json","plant_id":"57879","capacity_mw":1.0,"status_group":"Operating","energy_sources":"SUN","type":"Power plant","is_nuclear":false}},{"type":"Feature","geometry":{"type":"Point","coordinates":[-75.835,38.613]},"properties":{"key":"64690-4d2093c3","layer":"power","name":"Todd Solar","state":"MD","detail_file":"data/details/power-plants-08.json","plant_id":"64690","capacity_mw":20.0,"status_group":"Operating","energy_sources":"SUN","type":"Power plant","is_nuclear":false}},{"type":"Feature","geometry":{"type":"Point","coordinates":[-75.676,38.203]},"properties":{"key":"59749-67a13cb0","layer":"power","name":"UMES (MD) - Princess Anne","state":"MD","detail_file":"data/details/power-plants-22.json","plant_id":"59749","capacity_mw":2.0,"status_group":"Operating","energy_sources":"SUN","type":"Power plant","is_nuclear":false}},{"type":"Feature","geometry":{"type":"Point","coordinates":[-75.611,38.098]},"properties":{"key":"58329-aad19184","layer":"power","name":"UMMS at Pocomoke","state":"MD","detail_file":"data/details/power-plants-28.json","plant_id":"58329","capacity_mw":2.8,"status_group":"Operating","energy_sources":"SUN","type":"Power plant","is_nuclear":false}},{"type":"Feature","geometry":{"type":"Point","coordinates":[-75.821,38.488]},"properties":{"key":"1564-c4400d76","layer":"power","name":"Vienna Operations","state":"MD","detail_file":"data/details/power-plants-60.json","plant_id":"1564","capacity_mw":180.6,"status_group":"Operating","energy_sources":"DFO; RFO","type":"Power plant","is_nuclear":false}},{"type":"Feature","geometry":{"type":"Point","coordinates":[-75.634,38.385]},"properties":{"key":"56680-316b12ab","layer":"power","name":"Wicomico","state":"MD","detail_file":"data/details/power-plants-21.json","plant_id":"56680","capacity_mw":5.4,"status_group":"Operating","energy_sources":"LFG","type":"Power plant","is_nuclear":false}},{"type":"Feature","geometry":{"type":"Point","coordinates":[-75.69,38.413]},"properties":{"key":"63512-0afb3e78","layer":"power","name":"Wor-Wic Community College - Offsite","state":"MD","detail_file":"data/details/power-plants-06.json","plant_id":"63512","capacity_mw":2.0,"status_group":"Operating","energy_sources":"SUN","type":"Power plant","is_nuclear":false}},{"type":"Feature","geometry":{"type":"Point","coordinates":[-75.881,36.234]},"properties":{"key":"59518-d0ad5a21","layer":"power","name":"Grandy PV 1","state":"NC","detail_file":"data/details/power-plants-12.json","plant_id":"59518","capacity_mw":20.0,"status_group":"Operating","energy_sources":"SUN","type":"Power plant","is_nuclear":false}},{"type":"Feature","geometry":{"type":"Point","coordinates":[-74.691,39.438]},"properties":{"key":"58798-96323a89","layer":"power","name":"AC Criminal Courts Complex SPE2, LLC","state":"NJ","detail_file":"data/details/power-plants-01.json","plant_id":"58798","capacity_mw":1.3,"status_group":"Operating","energy_sources":"SUN","type":"Power plant","is_nuclear":false}},{"type":"Feature","geometry":{"type":"Point","coordinates":[-74.681,39.461]},"properties":{"key":"60802-3f31c0b0","layer":"power","name":"ACCC Mays Landing","state":"NJ","detail_file":"data/details/power-plants-01.json","plant_id":"60802","capacity_mw":1.4,"status_group":"Operating","energy_sources":"SUN","type":"Power plant","is_nuclear":false}},{"type":"Feature","geometry":{"type":"Point","coordinates":[-74.434,39.36]},"properties":{"key":"63483-bb8fc0a1","layer":"power","name":"ACM - Midtown Thermal","state":"NJ","detail_file":"data/details/power-plants-61.json","plant_id":"63483","capacity_mw":5.5,"status_group":"Operating","energy_sources":"NG","type":"Power plant","is_nuclear":false}},{"type":"Feature","geometry":{"type":"Point","coordinates":[-74.445,39.382]},"properties":{"key":"61923-df9c3128","layer":"power","name":"ACUA","state":"NJ","detail_file":"data/details/power-plants-16.json","plant_id":"61923","capacity_mw":1.0,"status_group":"Operating","energy_sources":"MWH","type":"Power plant","is_nuclear":false}},{"type":"Feature","geometry":{"type":"Point","coordinates":[-74.516,39.48]},"properties":{"key":"65622-432eb1c0","layer":"power","name":"Absegami","state":"NJ","detail_file":"data/details/power-plants-32.json","plant_id":"65622","capacity_mw":2.1,"status_group":"Operating","energy_sources":"SUN","type":"Power plant","is_nuclear":false}},{"type":"Feature","geometry":{"type":"Point","coordinates":[-74.531,39.411]},"properties":{"key":"60772-61d68936","layer":"power","name":"Adams Ave MS and HS","state":"NJ","detail_file":"data/details/power-plants-16.json","plant_id":"60772","capacity_mw":3.1,"status_group":"Operating","energy_sources":"SUN","type":"Power plant","is_nuclear":false}},{"type":"Feature","geometry":{"type":"Point","coordinates":[-74.895,39.82]},"properties":{"key":"63195-a6189911","layer":"power","name":"Aero Haven Solar","state":"NJ","detail_file":"data/details/power-plants-24.json","plant_id":"63195","capacity_mw":2.6,"status_group":"Operating","energy_sources":"SUN","type":"Power plant","is_nuclear":false}},{"type":"Feature","geometry":{"type":"Point","coordinates":[-74.441,39.364]},"properties":{"key":"56900-5242b38d","layer":"power","name":"Atlantic City Convention Center","state":"NJ","detail_file":"data/details/power-plants-40.json","plant_id":"56900","capacity_mw":2.0,"status_group":"Operating","energy_sources":"SUN","type":"Power plant","is_nuclear":false}},{"type":"Feature","geometry":{"type":"Point","coordinates":[-75.029,39.52]},"properties":{"key":"58360-bf934873","layer":"power","name":"Atlantic Coast Freezers Solar Facility","state":"NJ","detail_file":"data/details/power-plants-36.json","plant_id":"58360","capacity_mw":2.0,"status_group":"Operating","energy_sources":"SUN","type":"Power plant","is_nuclear":false}},{"type":"Feature","geometry":{"type":"Point","coordinates":[-74.698,39.894]},"properties":{"key":"66802-713ff4c5","layer":"power","name":"BEMS East Solar (CSG)","state":"NJ","detail_file":"data/details/power-plants-45.json","plant_id":"66802","capacity_mw":4.0,"status_group":"Operating","energy_sources":"SUN","type":"Power plant","is_nuclear":false}},{"type":"Feature","geometry":{"type":"Point","coordinates":[-74.695,39.892]},"properties":{"key":"66803-68616f49","layer":"power","name":"BEMS West Solar CSG","state":"NJ","detail_file":"data/details/power-plants-33.json","plant_id":"66803","capacity_mw":4.0,"status_group":"Operating","energy_sources":"SUN","type":"Power plant","is_nuclear":false}},{"type":"Feature","geometry":{"type":"Point","coordinates":[-75.108,39.939]},"properties":{"key":"61893-6cd17a38","layer":"power","name":"BNB Camden Solar","state":"NJ","detail_file":"data/details/power-plants-32.json","plant_id":"61893","capacity_mw":3.7,"status_group":"Operating","energy_sources":"SUN","type":"Power plant","is_nuclear":false}},{"type":"Feature","geometry":{"type":"Point","coordinates":[-74.6,39.488]},"properties":{"key":"63298-d3792379","layer":"power","name":"Barrette Outdoor Living, Inc.","state":"NJ","detail_file":"data/details/power-plants-14.json","plant_id":"63298","capacity_mw":1.9,"status_group":"Operating","energy_sources":"SUN","type":"Power plant","is_nuclear":false}},{"type":"Feature","geometry":{"type":"Point","coordinates":[-74.178,39.909]},"properties":{"key":"54569-aee95d43","layer":"power","name":"Bayville Central Facility","state":"NJ","detail_file":"data/details/power-plants-16.json","plant_id":"54569","capacity_mw":7.1,"status_group":"Operating","energy_sources":"DFO; OBG; SUN","type":"Power plant","is_nuclear":false}},{"type":"Feature","geometry":{"type":"Point","coordinates":[-75.351,39.788]},"properties":{"key":"59166-cd1d652e","layer":"power","name":"Bridgeport Disposal Solar Farm","state":"NJ","detail_file":"data/details/power-plants-59.json","plant_id":"59166","capacity_mw":1.2,"status_group":"Operating","energy_sources":"SUN","type":"Power plant","is_nuclear":false}},{"type":"Feature","geometry":{"type":"Point","coordinates":[-75.127,39.923]},"properties":{"key":"59248-2bd9a188","layer":"power","name":"CCMUA","state":"NJ","detail_file":"data/details/power-plants-30.json","plant_id":"59248","capacity_mw":1.5,"status_group":"Operating","energy_sources":"SUN","type":"Power plant","is_nuclear":false}},{"type":"Feature","geometry":{"type":"Point","coordinates":[-75.236,39.415]},"properties":{"key":"63971-52f7d119","layer":"power","name":"CCUA Solar","state":"NJ","detail_file":"data/details/power-plants-27.json","plant_id":"63971","capacity_mw":1.5,"status_group":"Operating","energy_sources":"SUN","type":"Power plant","is_nuclear":false}},{"type":"Feature","geometry":{"type":"Point","coordinates":[-75.026,39.942]},"properties":{"key":"60201-b02237e3","layer":"power","name":"CES Cherry Hill Solar","state":"NJ","detail_file":"data/details/power-plants-27.json","plant_id":"60201","capacity_mw":1.2,"status_group":"Operating","energy_sources":"SUN","type":"Power plant","is_nuclear":false}},{"type":"Feature","geometry":{"type":"Point","coordinates":[-74.436,39.356]},"properties":{"key":"66813-45ea9efa","layer":"power","name":"Caesar's Atlantic City - POI 1 (Colosseu","state":"NJ","detail_file":"data/details/power-plants-01.json","plant_id":"66813","capacity_mw":1.4,"status_group":"Operating","energy_sources":"SUN","type":"Power plant","is_nuclear":false}},{"type":"Feature","geometry":{"type":"Point","coordinates":[-75.067,39.464]},"properties":{"key":"57081-33ecc6c0","layer":"power","name":"Calpine Vineland Solar LLC","state":"NJ","detail_file":"data/details/power-plants-56.json","plant_id":"57081","capacity_mw":4.1,"status_group":"Operating","energy_sources":"SUN","type":"Power plant","is_nuclear":false}},{"type":"Feature","geometry":{"type":"Point","coordinates":[-75.119,39.917]},"properties":{"key":"10751-48edc92a","layer":"power","name":"Camden Plant Holding LLC","state":"NJ","detail_file":"data/details/power-plants-17.json","plant_id":"10751","capacity_mw":172.9,"status_group":"Operating","energy_sources":"NG","type":"Power plant","is_nuclear":false}},{"type":"Feature","geometry":{"type":"Point","coordinates":[-75.117,39.909]},"properties":{"key":"10435-6d90639a","layer":"power","name":"Camden Resource Recovery Facility","state":"NJ","detail_file":"data/details/power-plants-00.json","plant_id":"10435","capacity_mw":35.0,"status_group":"Operating","energy_sources":"MSW","type":"Power plant","is_nuclear":false}},{"type":"Feature","geometry":{"type":"Point","coordinates":[-75.42,39.686]},"properties":{"key":"69842-eab00112","layer":"power","name":"Carneys Point Solar 1 LLC","state":"NJ","detail_file":"data/details/power-plants-55.json","plant_id":"69842","capacity_mw":3.0,"status_group":"Under construction","energy_sources":"SUN","type":"Power plant","is_nuclear":false}},{"type":"Feature","geometry":{"type":"Point","coordinates":[-74.964,39.503]},"properties":{"key":"60266-6bb2942b","layer":"power","name":"Cedar Branch","state":"NJ","detail_file":"data/details/power-plants-23.json","plant_id":"60266","capacity_mw":6.1,"status_group":"Operating","energy_sources":"SUN","type":"Power plant","is_nuclear":false}},{"type":"Feature","geometry":{"type":"Point","coordinates":[-74.627,39.551]},"properties":{"key":"65623-166e1713","layer":"power","name":"Cedar Creek (NJ)","state":"NJ","detail_file":"data/details/power-plants-56.json","plant_id":"65623","capacity_mw":1.6,"status_group":"Operating","energy_sources":"SUN","type":"Power plant","is_nuclear":false}},{"type":"Feature","geometry":{"type":"Point","coordinates":[-75.009,39.876]},"properties":{"key":"57734-676f59aa","layer":"power","name":"Cherry Hill","state":"NJ","detail_file":"data/details/power-plants-62.json","plant_id":"57734","capacity_mw":1.1,"status_group":"Operating","energy_sources":"SUN","type":"Power plant","is_nuclear":false}},{"type":"Feature","geometry":{"type":"Point","coordinates":[-75.02,39.424]},"properties":{"key":"58235-0937f4b5","layer":"power","name":"Clayville","state":"NJ","detail_file":"data/details/power-plants-48.json","plant_id":"58235","capacity_mw":73.0,"status_group":"Operating","energy_sources":"NG","type":"Power plant","is_nuclear":false}},{"type":"Feature","geometry":{"type":"Point","coordinates":[-75.197,39.817]},"properties":{"key":"63357-e71d415d","layer":"power","name":"Colonial Pipeline Woodbury West Deptford","state":"NJ","detail_file":"data/details/power-plants-04.json","plant_id":"63357","capacity_mw":3.7,"status_group":"Operating","energy_sources":"SUN","type":"Power plant","is_nuclear":false}},{"type":"Feature","geometry":{"type":"Point","coordinates":[-74.818,39.929]},"properties":{"key":"58029-f2aed050","layer":"power","name":"Constellation New Energy Inc","state":"NJ","detail_file":"data/details/power-plants-20.json","plant_id":"58029","capacity_mw":3.9,"status_group":"Operating","energy_sources":"SUN","type":"Power plant","is_nuclear":false}},{"type":"Feature","geometry":{"type":"Point","coordinates":[-75.044,39.44]},"properties":{"key":"58512-bf0c280d","layer":"power","name":"Cornerstone Power Vineland I LLC","state":"NJ","detail_file":"data/details/power-plants-06.json","plant_id":"58512","capacity_mw":3.1,"status_group":"Operating","energy_sources":"SUN","type":"Power plant","is_nuclear":false}},{"type":"Feature","geometry":{"type":"Point","coordinates":[-75.019,39.497]},"properties":{"key":"58359-93bf3c08","layer":"power","name":"Corning Pharmaceutical Glass","state":"NJ","detail_file":"data/details/power-plants-62.json","plant_id":"58359","capacity_mw":2.3,"status_group":"Operating","energy_sources":"SUN","type":"Power plant","is_nuclear":false}},{"type":"Feature","geometry":{"type":"Point","coordinates":[-75.054,39.925]},"properties":{"key":"69081-ed01e899","layer":"power","name":"Crowne Plaza","state":"NJ","detail_file":"data/details/power-plants-33.json","plant_id":"69081","capacity_mw":1.8,"status_group":"Operating","energy_sources":"SUN","type":"Power plant","is_nuclear":false}},{"type":"Feature","geometry":{"type":"Point","coordinates":[-74.965,39.376]},"properties":{"key":"5083-b52aed04","layer":"power","name":"Cumberland (NJ)","state":"NJ","detail_file":"data/details/power-plants-56.json","plant_id":"5083","capacity_mw":231.2,"status_group":"Operating","energy_sources":"NG","type":"Power plant","is_nuclear":false}},{"type":"Feature","geometry":{"type":"Point","coordinates":[-75.093,39.449]},"properties":{"key":"56884-da13c0bb","layer":"power","name":"Cumberland County Solid Waste Complex","state":"NJ","detail_file":"data/details/power-plants-54.json","plant_id":"56884","capacity_mw":4.8,"status_group":"Operating","energy_sources":"LFG","type":"Power plant","is_nuclear":false}},{"type":"Feature","geometry":{"type":"Point","coordinates":[-75.216,39.823]},"properties":{"key":"63286-166eeee6","layer":"power","name":"DG Amaze ACY1","state":"NJ","detail_file":"data/details/power-plants-46.json","plant_id":"63286","capacity_mw":3.8,"status_group":"Operating","energy_sources":"SUN","type":"Power plant","is_nuclear":false}},{"type":"Feature","geometry":{"type":"Point","coordinates":[-75.119,39.911]},"properties":{"key":"61515-021c9455","layer":"power","name":"DG Camden LLC Holtec","state":"NJ","detail_file":"data/details/power-plants-21.json","plant_id":"61515","capacity_mw":2.2,"status_group":"Operating","energy_sources":"SUN","type":"Power plant","is_nuclear":false}},{"type":"Feature","geometry":{"type":"Point","coordinates":[-75.014,39.575]},"properties":{"key":"61507-273346db","layer":"power","name":"DG New Jersey Solar RLS Logistics","state":"NJ","detail_file":"data/details/power-plants-29.json","plant_id":"61507","capacity_mw":4.0,"status_group":"Operating","energy_sources":"SUN","type":"Power plant","is_nuclear":false}},{"type":"Feature","geometry":{"type":"Point","coordinates":[-75.01,39.859]},"properties":{"key":"66021-9edcfd3a","layer":"power","name":"DRPA Ashland Station Solar Project","state":"NJ","detail_file":"data/details/power-plants-36.json","plant_id":"66021","capacity_mw":2.7,"status_group":"Operating","energy_sources":"SUN","type":"Power plant","is_nuclear":false}},{"type":"Feature","geometry":{"type":"Point","coordinates":[-75.093,39.922]},"properties":{"key":"66028-b5f59718","layer":"power","name":"DRPA Ferry Ave Station Solar Project","state":"NJ","detail_file":"data/details/power-plants-43.json","plant_id":"66028","capacity_mw":3.2,"status_group":"Operating","energy_sources":"SUN","type":"Power plant","is_nuclear":false}},{"type":"Feature","geometry":{"type":"Point","coordinates":[-74.999,39.832]},"properties":{"key":"65658-ebd3b9f8","layer":"power","name":"DRPA Lindenwold Station Solar Project","state":"NJ","detail_file":"data/details/power-plants-00.json","plant_id":"65658","capacity_mw":6.0,"status_group":"Operating","energy_sources":"SUN","type":"Power plant","is_nuclear":false}},{"type":"Feature","geometry":{"type":"Point","coordinates":[-75.047,39.907]},"properties":{"key":"66020-bebebee5","layer":"power","name":"DRPA Woodcrest Station Solar Project","state":"NJ","detail_file":"data/details/power-plants-29.json","plant_id":"66020","capacity_mw":4.4,"status_group":"Operating","energy_sources":"SUN","type":"Power plant","is_nuclear":false}},{"type":"Feature","geometry":{"type":"Point","coordinates":[-74.437,39.373]},"properties":{"key":"62492-d0dbf4de","layer":"power","name":"DTE Atlantic, LLC","state":"NJ","detail_file":"data/details/power-plants-62.json","plant_id":"62492","capacity_mw":7.5,"status_group":"Operating","energy_sources":"NG","type":"Power plant","is_nuclear":false}},{"type":"Feature","geometry":{"type":"Point","coordinates":[-74.544,39.416]},"properties":{"key":"58951-1303a66c","layer":"power","name":"Delilah Road Landfill","state":"NJ","detail_file":"data/details/power-plants-34.json","plant_id":"58951","capacity_mw":8.5,"status_group":"Operating","energy_sources":"SUN","type":"Power plant","is_nuclear":false}},{"type":"Feature","geometry":{"type":"Point","coordinates":[-75.128,39.816]},"properties":{"key":"69112-2fa7b192","layer":"power","name":"Deptford Solar Farm","state":"NJ","detail_file":"data/details/power-plants-51.json","plant_id":"69112","capacity_mw":1.3,"status_group":"Operating","energy_sources":"SUN","type":"Power plant","is_nuclear":false}},{"type":"Feature","geometry":{"type":"Point","coordinates":[-74.622,39.977]},"properties":{"key":"61864-262eddf0","layer":"power","name":"Dix Solar, L.L.C","state":"NJ","detail_file":"data/details/power-plants-32.json","plant_id":"61864","capacity_mw":13.0,"status_group":"Operating","energy_sources":"SUN","type":"Power plant","is_nuclear":false}},{"type":"Feature","geometry":{"type":"Point","coordinates":[-74.238,39.984]},"properties":{"key":"64327-438f1e61","layer":"power","name":"EDF Ph1 Toms River","state":"NJ","detail_file":"data/details/power-plants-35.json","plant_id":"64327","capacity_mw":21.3,"status_group":"Operating","energy_sources":"SUN","type":"Power plant","is_nuclear":false}},{"type":"Feature","geometry":{"type":"Point","coordinates":[-75.159,39.875]},"properties":{"key":"50561-fde96905","layer":"power","name":"Eagle Point Power Generation","state":"NJ","detail_file":"data/details/power-plants-45.json","plant_id":"50561","capacity_mw":251.8,"status_group":"Operating","energy_sources":"NG","type":"Power plant","is_nuclear":false}},{"type":"Feature","geometry":{"type":"Point","coordinates":[-75.2,39.71]},"properties":{"key":"69291-e995f47a","layer":"power","name":"Esky Solar","state":"NJ","detail_file":"data/details/power-plants-37.json","plant_id":"69291","capacity_mw":7.0,"status_group":"Under construction","energy_sources":"SUN","type":"Power plant","is_nuclear":false}},{"type":"Feature","geometry":{"type":"Point","coordinates":[-74.21,39.815]},"properties":{"key":"7138-db8c4e8e","layer":"power","name":"Forked River","state":"NJ","detail_file":"data/details/power-plants-31.json","plant_id":"7138","capacity_mw":76.8,"status_group":"Operating","energy_sources":"NG","type":"Power plant","is_nuclear":false}},{"type":"Feature","geometry":{"type":"Point","coordinates":[-75.109,39.886]},"properties":{"key":"66485-7f88ade1","layer":"power","name":"Gloucester","state":"NJ","detail_file":"data/details/power-plants-41.json","plant_id":"66485","capacity_mw":2.4,"status_group":"Operating","energy_sources":"SUN","type":"Power plant","is_nuclear":false}},{"type":"Feature","geometry":{"type":"Point","coordinates":[-75.123,39.781]},"properties":{"key":"60752-f61a27e7","layer":"power","name":"Gloucester Community College Solar","state":"NJ","detail_file":"data/details/power-plants-43.json","plant_id":"60752","capacity_mw":2.3,"status_group":"Operating","energy_sources":"SUN","type":"Power plant","is_nuclear":false}},{"type":"Feature","geometry":{"type":"Point","coordinates":[-74.809,39.657]},"properties":{"key":"66906-0439426d","layer":"power","name":"Hammonton-High School Solar","state":"NJ","detail_file":"data/details/power-plants-43.json","plant_id":"66906","capacity_mw":1.2,"status_group":"Operating","energy_sources":"SUN","type":"Power plant","is_nuclear":false}},{"type":"Feature","geometry":{"type":"Point","coordinates":[-74.426,39.384]},"properties":{"key":"66830-1789365f","layer":"power","name":"Harrah's Atlantic City - POI 1 (Meeting","state":"NJ","detail_file":"data/details/power-plants-52.json","plant_id":"66830","capacity_mw":2.3,"status_group":"Under construction","energy_sources":"SUN","type":"Power plant","is_nuclear":false}},{"type":"Feature","geometry":{"type":"Point","coordinates":[-74.426,39.384]},"properties":{"key":"66831-ffcf1eb2","layer":"power","name":"Harrah's Atlantic City - POI 2 (Self Par","state":"NJ","detail_file":"data/details/power-plants-52.json","plant_id":"66831","capacity_mw":1.8,"status_group":"Operating","energy_sources":"SUN","type":"Power plant","is_nuclear":false}},{"type":"Feature","geometry":{"type":"Point","coordinates":[-75.035,39.489]},"properties":{"key":"2434-763dc928","layer":"power","name":"Howard Down","state":"NJ","detail_file":"data/details/power-plants-26.json","plant_id":"2434","capacity_mw":68.2,"status_group":"Operating","energy_sources":"NG","type":"Power plant","is_nuclear":false}},{"type":"Feature","geometry":{"type":"Point","coordinates":[-74.637,39.993]},"properties":{"key":"58793-a20b009c","layer":"power","name":"JMB Mcguire-Dix-Lakehurst Solar Project","state":"NJ","detail_file":"data/details/power-plants-62.json","plant_id":"58793","capacity_mw":11.4,"status_group":"Operating","energy_sources":"SUN","type":"Power plant","is_nuclear":false}},{"type":"Feature","geometry":{"type":"Point","coordinates":[-74.448,39.382]},"properties":{"key":"56300-62d4b4e8","layer":"power","name":"Jersey-Atlantic Wind Farm","state":"NJ","detail_file":"data/details/power-plants-58.json","plant_id":"56300","capacity_mw":7.5,"status_group":"Operating","energy_sources":"WND","type":"Power plant","is_nuclear":false}},{"type":"Feature","geometry":{"type":"Point","coordinates":[-75.22,39.825]},"properties":{"key":"57723-360f1cca","layer":"power","name":"Johnson Matthey, Inc. Solar","state":"NJ","detail_file":"data/details/power-plants-11.json","plant_id":"57723","capacity_mw":4.0,"status_group":"Operating","energy_sources":"SUN","type":"Power plant","is_nuclear":false}},{"type":"Feature","geometry":{"type":"Point","coordinates":[-75.219,39.41]},"properties":{"key":"62739-879d6e0c","layer":"power","name":"KDC Solar ASGM","state":"NJ","detail_file":"data/details/power-plants-60.json","plant_id":"62739","capacity_mw":3.8,"status_group":"Operating","energy_sources":"SUN","type":"Power plant","is_nuclear":false}},{"type":"Feature","geometry":{"type":"Point","coordinates":[-75.111,39.793]},"properties":{"key":"65466-2b719eda","layer":"power","name":"Kinsley II Landfill Solar System","state":"NJ","detail_file":"data/details/power-plants-16.json","plant_id":"65466","capacity_mw":3.8,"status_group":"Operating","energy_sources":"SUN","type":"Power plant","is_nuclear":false}},{"type":"Feature","geometry":{"type":"Point","coordinates":[-75.106,39.793]},"properties":{"key":"58877-80316f97","layer":"power","name":"Kinsley Landfill Solar","state":"NJ","detail_file":"data/details/power-plants-45.json","plant_id":"58877","capacity_mw":8.6,"status_group":"Operating","energy_sources":"SUN","type":"Power plant","is_nuclear":false}},{"type":"Feature","geometry":{"type":"Point","coordinates":[-74.77,39.98]},"properties":{"key":"59601-81e3272c","layer":"power","name":"L&D Landfill Solar","state":"NJ","detail_file":"data/details/power-plants-41.json","plant_id":"59601","capacity_mw":10.0,"status_group":"Operating","energy_sources":"SUN","type":"Power plant","is_nuclear":false}},{"type":"Feature","geometry":{"type":"Point","coordinates":[-74.936,39.008]},"properties":{"key":"63413-6bbfa868","layer":"power","name":"LTMUA","state":"NJ","detail_file":"data/details/power-plants-62.json","plant_id":"63413","capacity_mw":1.0,"status_group":"Operating","energy_sources":"SUN","type":"Power plant","is_nuclear":false}},{"type":"Feature","geometry":{"type":"Point","coordinates":[-75.218,39.471]},"properties":{"key":"65486-a20dc312","layer":"power","name":"Love Lane Solar","state":"NJ","detail_file":"data/details/power-plants-10.json","plant_id":"65486","capacity_mw":1.8,"status_group":"Operating","energy_sources":"SUN","type":"Power plant","is_nuclear":false}},{"type":"Feature","geometry":{"type":"Point","coordinates":[-74.907,38.977]},"properties":{"key":"60769-587bf12f","layer":"power","name":"Lower Cape May HS","state":"NJ","detail_file":"data/details/power-plants-52.json","plant_id":"60769","capacity_mw":1.5,"status_group":"Operating","energy_sources":"SUN","type":"Power plant","is_nuclear":false}},{"type":"Feature","geometry":{"type":"Point","coordinates":[-74.981,39.487]},"properties":{"key":"57750-2131d589","layer":"power","name":"Maple Solar","state":"NJ","detail_file":"data/details/power-plants-58.json","plant_id":"57750","capacity_mw":2.4,"status_group":"Operating","energy_sources":"SUN","type":"Power plant","is_nuclear":false}},{"type":"Feature","geometry":{"type":"Point","coordinates":[-74.807,39.922]},"properties":{"key":"59277-c2799b80","layer":"power","name":"Medford WWTP","state":"NJ","detail_file":"data/details/power-plants-45.json","plant_id":"59277","capacity_mw":1.3,"status_group":"Operating","energy_sources":"SUN","type":"Power plant","is_nuclear":false}},{"type":"Feature","geometry":{"type":"Point","coordinates":[-75.033,39.376]},"properties":{"key":"58822-0fbf5b3f","layer":"power","name":"Millville City Sewer Auth WTP","state":"NJ","detail_file":"data/details/power-plants-46.json","plant_id":"58822","capacity_mw":1.2,"status_group":"Operating","energy_sources":"SUN","type":"Power plant","is_nuclear":false}},{"type":"Feature","geometry":{"type":"Point","coordinates":[-74.889,39.976]},"properties":{"key":"65329-5e5abc45","layer":"power","name":"Mount Laurel Solar","state":"NJ","detail_file":"data/details/power-plants-24.json","plant_id":"65329","capacity_mw":2.5,"status_group":"Operating","energy_sources":"SUN","type":"Power plant","is_nuclear":false}},{"type":"Feature","geometry":{"type":"Point","coordinates":[-74.907,39.964]},"properties":{"key":"69827-b922779f","layer":"power","name":"Mount Laurel Solar 2 LLC CSG","state":"NJ","detail_file":"data/details/power-plants-24.json","plant_id":"69827","capacity_mw":1.9,"status_group":"Operating","energy_sources":"SUN","type":"Power plant","is_nuclear":false}},{"type":"Feature","geometry":{"type":"Point","coordinates":[-74.235,39.905]},"properties":{"key":"69097-25f587c5","layer":"power","name":"NJ - CS Energy - Berkeley 1","state":"NJ","detail_file":"data/details/power-plants-01.json","plant_id":"69097","capacity_mw":4.0,"status_group":"Operating","energy_sources":"SUN","type":"Power plant","is_nuclear":false}},{"type":"Feature","geometry":{"type":"Point","coordinates":[-74.235,39.905]},"properties":{"key":"69098-8b5bdac4","layer":"power","name":"NJ - CS Energy - Berkeley II","state":"NJ","detail_file":"data/details/power-plants-18.json","plant_id":"69098","capacity_mw":4.0,"status_group":"Operating","energy_sources":"SUN","type":"Power plant","is_nuclear":false}},{"type":"Feature","geometry":{"type":"Point","coordinates":[-75.188,39.381]},"properties":{"key":"57948-8e0588a0","layer":"power","name":"NJ Oak Solar Plant","state":"NJ","detail_file":"data/details/power-plants-42.json","plant_id":"57948","capacity_mw":10.0,"status_group":"Operating","energy_sources":"SUN","type":"Power plant","is_nuclear":false}},{"type":"Feature","geometry":{"type":"Point","coordinates":[-75.18,39.861]},"properties":{"key":"69249-ee15e2c4","layer":"power","name":"National Park Solar","state":"NJ","detail_file":"data/details/power-plants-28.json","plant_id":"69249","capacity_mw":6.0,"status_group":"Operating","energy_sources":"SUN","type":"Power plant","is_nuclear":false}},{"type":"Feature","geometry":{"type":"Point","coordinates":[-75.053,39.839]},"properties":{"key":"62439-167d01ec","layer":"power","name":"Owens Corning","state":"NJ","detail_file":"data/details/power-plants-14.json","plant_id":"62439","capacity_mw":2.8,"status_group":"Operating","energy_sources":"SUN","type":"Power plant","is_nuclear":false}},{"type":"Feature","geometry":{"type":"Point","coordinates":[-75.538,39.467]},"properties":{"key":"6118-bfbfed81","layer":"power","name":"PSEG Hope Creek Generating Station","state":"NJ","detail_file":"data/details/power-plants-13.json","plant_id":"6118","capacity_mw":1290.7,"status_group":"Operating","energy_sources":"NUC","type":"Nuclear power plant","is_nuclear":true}},{"type":"Feature","geometry":{"type":"Point","coordinates":[-75.536,39.462]},"properties":{"key":"2410-43731ec8","layer":"power","name":"PSEG Salem Generating Station","state":"NJ","detail_file":"data/details/power-plants-37.json","plant_id":"2410","capacity_mw":2381.8,"status_group":"Operating","energy_sources":"DFO; NUC","type":"Nuclear power plant","is_nuclear":true}},{"type":"Feature","geometry":{"type":"Point","coordinates":[-75.222,39.836]},"properties":{"key":"58569-161aef1a","layer":"power","name":"Paradise Solar Energy Center","state":"NJ","detail_file":"data/details/power-plants-35.json","plant_id":"58569","capacity_mw":5.0,"status_group":"Operating","energy_sources":"SUN","type":"Power plant","is_nuclear":false}},{"type":"Feature","geometry":{"type":"Point","coordinates":[-75.258,39.84]},"properties":{"key":"50628-8340fb4a","layer":"power","name":"Paulsboro Refinery","state":"NJ","detail_file":"data/details/power-plants-30.json","plant_id":"50628","capacity_mw":78.5,"status_group":"Operating","energy_sources":"NG; OG; PC","type":"Power plant","is_nuclear":false}},{"type":"Feature","geometry":{"type":"Point","coordinates":[-74.697,39.982]},"properties":{"key":"61073-017c62d9","layer":"power","name":"Pemberton Road I","state":"NJ","detail_file":"data/details/power-plants-58.json","plant_id":"61073","capacity_mw":8.8,"status_group":"Operating","energy_sources":"SUN","type":"Power plant","is_nuclear":false}},{"type":"Feature","geometry":{"type":"Point","coordinates":[-74.702,39.98]},"properties":{"key":"61074-f3776250","layer":"power","name":"Pemberton Road II","state":"NJ","detail_file":"data/details/power-plants-54.json","plant_id":"61074","capacity_mw":8.8,"status_group":"Operating","energy_sources":"SUN","type":"Power plant","is_nuclear":false}},{"type":"Feature","geometry":{"type":"Point","coordinates":[-75.079,39.963]},"properties":{"key":"65467-0a91fd9f","layer":"power","name":"Pennsauken Brownfield Solar","state":"NJ","detail_file":"data/details/power-plants-48.json","plant_id":"65467","capacity_mw":12.0,"status_group":"Operating","energy_sources":"SUN","type":"Power plant","is_nuclear":false}},{"type":"Feature","geometry":{"type":"Point","coordinates":[-75.04,39.989]},"properties":{"key":"56511-1c589329","layer":"power","name":"Pennsauken Landfill","state":"NJ","detail_file":"data/details/power-plants-61.json","plant_id":"56511","capacity_mw":0.9,"status_group":"Operating","energy_sources":"LFG","type":"Power plant","is_nuclear":false}},{"type":"Feature","geometry":{"type":"Point","coordinates":[-75.04,39.989]},"properties":{"key":"56883-a36883cb","layer":"power","name":"Pennsauken Solar","state":"NJ","detail_file":"data/details/power-plants-14.json","plant_id":"56883","capacity_mw":3.9,"status_group":"Operating","energy_sources":"SUN","type":"Power plant","is_nuclear":false}},{"type":"Feature","geometry":{"type":"Point","coordinates":[-75.544,39.638]},"properties":{"key":"69525-13e7507c","layer":"power","name":"Pennsville Landfill (CSG)","state":"NJ","detail_file":"data/details/power-plants-12.json","plant_id":"69525","capacity_mw":4.3,"status_group":"Operating","energy_sources":"SUN","type":"Power plant","is_nuclear":false}},{"type":"Feature","geometry":{"type":"Point","coordinates":[-75.309,39.613]},"properties":{"key":"57448-5b91b3a1","layer":"power","name":"Pilesgrove","state":"NJ","detail_file":"data/details/power-plants-53.json","plant_id":"57448","capacity_mw":18.0,"status_group":"Operating","energy_sources":"SUN","type":"Power plant","is_nuclear":false}},{"type":"Feature","geometry":{"type":"Point","coordinates":[-75.179,39.539]},"properties":{"key":"60740-fb262541","layer":"power","name":"Pittsgrove Solar","state":"NJ","detail_file":"data/details/power-plants-08.json","plant_id":"60740","capacity_mw":2.0,"status_group":"Operating","energy_sources":"SUN","type":"Power plant","is_nuclear":false}},{"type":"Feature","geometry":{"type":"Point","coordinates":[-74.814,39.927]},"properties":{"key":"59278-7435bc42","layer":"power","name":"Reeves South","state":"NJ","detail_file":"data/details/power-plants-18.json","plant_id":"59278","capacity_mw":1.0,"status_group":"Operating","energy_sources":"SUN","type":"Power plant","is_nuclear":false}},{"type":"Feature","geometry":{"type":"Point","coordinates":[-74.814,39.928]},"properties":{"key":"58030-1ba2bd6e","layer":"power","name":"Reeves Station Rd East","state":"NJ","detail_file":"data/details/power-plants-08.json","plant_id":"58030","capacity_mw":5.5,"status_group":"Operating","energy_sources":"SUN","type":"Power plant","is_nuclear":false}},{"type":"Feature","geometry":{"type":"Point","coordinates":[-75.126,39.903]},"properties":{"key":"58036-c01e0528","layer":"power","name":"Riverside Renewable Energy LLC","state":"NJ","detail_file":"data/details/power-plants-60.json","plant_id":"58036","capacity_mw":7.5,"status_group":"Operating","energy_sources":"SUN","type":"Power plant","is_nuclear":false}},{"type":"Feature","geometry":{"type":"Point","coordinates":[-75.102,39.955]},"properties":{"key":"66049-f996841b","layer":"power","name":"Salvation Army Solar","state":"NJ","detail_file":"data/details/power-plants-16.json","plant_id":"66049","capacity_mw":1.1,"status_group":"Operating","energy_sources":"SUN","type":"Power plant","is_nuclear":false}},{"type":"Feature","geometry":{"type":"Point","coordinates":[-75.246,39.787]},"properties":{"key":"64096-9f061ec4","layer":"power","name":"Samuel Mickle School","state":"NJ","detail_file":"data/details/power-plants-06.json","plant_id":"64096","capacity_mw":1.1,"status_group":"Operating","energy_sources":"SUN","type":"Power plant","is_nuclear":false}},{"type":"Feature","geometry":{"type":"Point","coordinates":[-75.215,39.485]},"properties":{"key":"57667-6c1b5808","layer":"power","name":"Seabrook Solar Plant","state":"NJ","detail_file":"data/details/power-plants-60.json","plant_id":"57667","capacity_mw":6.8,"status_group":"Operating","energy_sources":"SUN","type":"Power plant","is_nuclear":false}},{"type":"Feature","geometry":{"type":"Point","coordinates":[-74.079,39.943]},"properties":{"key":"58172-6cf2bbdd","layer":"power","name":"Seaside Heights Power Plant","state":"NJ","detail_file":"data/details/power-plants-36.json","plant_id":"58172","capacity_mw":6.0,"status_group":"Operating","energy_sources":"DFO","type":"Power plant","is_nuclear":false}},{"type":"Feature","geometry":{"type":"Point","coordinates":[-75.058,39.451]},"properties":{"key":"7288-35d17e76","layer":"power","name":"Sherman Avenue","state":"NJ","detail_file":"data/details/power-plants-52.json","plant_id":"7288","capacity_mw":112.8,"status_group":"Operating","energy_sources":"NG","type":"Power plant","is_nuclear":false}},{"type":"Feature","geometry":{"type":"Point","coordinates":[-74.98,39.7]},"properties":{"key":"67557-43cd23c3","layer":"power","name":"Sicklerville Landfill","state":"NJ","detail_file":"data/details/power-plants-05.json","plant_id":"67557","capacity_mw":2.3,"status_group":"Operating","energy_sources":"SUN","type":"Power plant","is_nuclear":false}},{"type":"Feature","geometry":{"type":"Point","coordinates":[-75.212,39.847]},"properties":{"key":"63452-8bdef949","layer":"power","name":"Solvay Solar","state":"NJ","detail_file":"data/details/power-plants-61.json","plant_id":"63452","capacity_mw":6.5,"status_group":"Operating","energy_sources":"SUN","type":"Power plant","is_nuclear":false}},{"type":"Feature","geometry":{"type":"Point","coordinates":[-74.535,39.488]},"properties":{"key":"57864-581910e4","layer":"power","name":"Stockton Athletic Center","state":"NJ","detail_file":"data/details/power-plants-55.json","plant_id":"57864","capacity_mw":1.3,"status_group":"Operating","energy_sources":"SUN","type":"Power plant","is_nuclear":false}},{"type":"Feature","geometry":{"type":"Point","coordinates":[-74.802,39.987]},"properties":{"key":"60809-6bcd51de","layer":"power","name":"Summit Water Nexus Mt. Holly, LLC Solar","state":"NJ","detail_file":"data/details/power-plants-45.json","plant_id":"60809","capacity_mw":1.0,"status_group":"Operating","energy_sources":"SUN","type":"Power plant","is_nuclear":false}},{"type":"Feature","geometry":{"type":"Point","coordinates":[-74.998,39.505]},"properties":{"key":"57746-87a5fadd","layer":"power","name":"The City of Vineland at North Vineland","state":"NJ","detail_file":"data/details/power-plants-56.json","plant_id":"57746","capacity_mw":2.3,"status_group":"Operating","energy_sources":"SUN","type":"Power plant","is_nuclear":false}},{"type":"Feature","geometry":{"type":"Point","coordinates":[-75.07,39.462]},"properties":{"key":"57745-6d7c2a0f","layer":"power","name":"The City of Vineland at West Vineland","state":"NJ","detail_file":"data/details/power-plants-20.json","plant_id":"57745","capacity_mw":3.7,"status_group":"Operating","energy_sources":"SUN","type":"Power plant","is_nuclear":false}},{"type":"Feature","geometry":{"type":"Point","coordinates":[-75.015,39.76]},"properties":{"key":"60771-484d55e3","layer":"power","name":"Timber Creek HS","state":"NJ","detail_file":"data/details/power-plants-33.json","plant_id":"60771","capacity_mw":1.3,"status_group":"Operating","energy_sources":"SUN","type":"Power plant","is_nuclear":false}},{"type":"Feature","geometry":{"type":"Point","coordinates":[-74.173,39.989]},"properties":{"key":"67243-30e2de6a","layer":"power","name":"Tom's River (Lowes)","state":"NJ","detail_file":"data/details/power-plants-07.json","plant_id":"67243","capacity_mw":1.0,"status_group":"Operating","energy_sources":"SUN","type":"Power plant","is_nuclear":false}},{"type":"Feature","geometry":{"type":"Point","coordinates":[-74.236,39.988]},"properties":{"key":"66751-882ead40","layer":"power","name":"Toms River CSG","state":"NJ","detail_file":"data/details/power-plants-01.json","plant_id":"66751","capacity_mw":4.0,"status_group":"Operating","energy_sources":"SUN","type":"Power plant","is_nuclear":false}},{"type":"Feature","geometry":{"type":"Point","coordinates":[-75.011,39.683]},"properties":{"key":"67273-6712b82e","layer":"power","name":"Township of Monroe - Williamstown HS","state":"NJ","detail_file":"data/details/power-plants-20.json","plant_id":"67273","capacity_mw":2.6,"status_group":"Operating","energy_sources":"SUN","type":"Power plant","is_nuclear":false}},{"type":"Feature","geometry":{"type":"Point","coordinates":[-75.003,39.681]},"properties":{"key":"67274-34f4b633","layer":"power","name":"Township of Monroe - Williamstown MS","state":"NJ","detail_file":"data/details/power-plants-53.json","plant_id":"67274","capacity_mw":1.8,"status_group":"Operating","energy_sources":"SUN","type":"Power plant","is_nuclear":false}},{"type":"Feature","geometry":{"type":"Point","coordinates":[-75.037,39.49]},"properties":{"key":"57742-c65165fd","layer":"power","name":"Vineland Headquarters","state":"NJ","detail_file":"data/details/power-plants-60.json","plant_id":"57742","capacity_mw":1.1,"status_group":"Operating","energy_sources":"SUN","type":"Power plant","is_nuclear":false}},{"type":"Feature","geometry":{"type":"Point","coordinates":[-74.974,39.417]},"properties":{"key":"57660-689e4041","layer":"power","name":"Vineland Mays Landing Solar","state":"NJ","detail_file":"data/details/power-plants-34.json","plant_id":"57660","capacity_mw":4.0,"status_group":"Operating","energy_sources":"SUN","type":"Power plant","is_nuclear":false}},{"type":"Feature","geometry":{"type":"Point","coordinates":[-75.061,39.471]},"properties":{"key":"69951-cb471af2","layer":"power","name":"Vineland Solar LLC","state":"NJ","detail_file":"data/details/power-plants-51.json","plant_id":"69951","capacity_mw":15.0,"status_group":"Operating","energy_sources":"SUN","type":"Power plant","is_nuclear":false}},{"type":"Feature","geometry":{"type":"Point","coordinates":[-75.221,39.841]},"properties":{"key":"56963-ad2b39d3","layer":"power","name":"West Deptford Energy Station","state":"NJ","detail_file":"data/details/power-plants-26.json","plant_id":"56963","capacity_mw":754.6,"status_group":"Operating","energy_sources":"NG","type":"Power plant","is_nuclear":false}},{"type":"Feature","geometry":{"type":"Point","coordinates":[-75.215,39.835]},"properties":{"key":"69836-3d08198c","layer":"power","name":"West Deptford Solar 1 LLC","state":"NJ","detail_file":"data/details/power-plants-14.json","plant_id":"69836","capacity_mw":1.4,"status_group":"Operating","energy_sources":"SUN","type":"Power plant","is_nuclear":false}},{"type":"Feature","geometry":{"type":"Point","coordinates":[-75.193,39.836]},"properties":{"key":"69853-8fc6f38e","layer":"power","name":"West Deptford Solar 2 LLC CSG","state":"NJ","detail_file":"data/details/power-plants-08.json","plant_id":"69853","capacity_mw":1.7,"status_group":"Operating","energy_sources":"SUN","type":"Power plant","is_nuclear":false}},{"type":"Feature","geometry":{"type":"Point","coordinates":[-75.138,39.873]},"properties":{"key":"50885-dc9e21fc","layer":"power","name":"Wheelabrator Gloucester LP","state":"NJ","detail_file":"data/details/power-plants-18.json","plant_id":"50885","capacity_mw":14.0,"status_group":"Operating","energy_sources":"MSW","type":"Power plant","is_nuclear":false}},{"type":"Feature","geometry":{"type":"Point","coordinates":[-74.781,39.231]},"properties":{"key":"59116-583a5378","layer":"power","name":"Woodbine Landfill Plant","state":"NJ","detail_file":"data/details/power-plants-39.json","plant_id":"59116","capacity_mw":1.1,"status_group":"Operating","energy_sources":"LFG","type":"Power plant","is_nuclear":false}},{"type":"Feature","geometry":{"type":"Point","coordinates":[-75.658,39.965]},"properties":{"key":"57280-856e5aa6","layer":"power","name":"Aqua Ingrams Mill","state":"PA","detail_file":"data/details/power-plants-04.json","plant_id":"57280","capacity_mw":1.0,"status_group":"Operating","energy_sources":"SUN","type":"Power plant","is_nuclear":false}},{"type":"Feature","geometry":{"type":"Point","coordinates":[-75.384,39.83]},"properties":{"key":"3157-e52dd684","layer":"power","name":"Chester Generating Station","state":"PA","detail_file":"data/details/power-plants-35.json","plant_id":"3157","capacity_mw":55.8,"status_group":"Operating","energy_sources":"DFO","type":"Power plant","is_nuclear":false}},{"type":"Feature","geometry":{"type":"Point","coordinates":[-75.359,39.844]},"properties":{"key":"50410-1277e5f8","layer":"power","name":"Chester Operations","state":"PA","detail_file":"data/details/power-plants-04.json","plant_id":"50410","capacity_mw":69.2,"status_group":"Operating","energy_sources":"NG","type":"Power plant","is_nuclear":false}},{"type":"Feature","geometry":{"type":"Point","coordinates":[-75.388,39.827]},"properties":{"key":"10746-52d193af","layer":"power","name":"Covanta Delaware Valley","state":"PA","detail_file":"data/details/power-plants-48.json","plant_id":"10746","capacity_mw":90.0,"status_group":"Operating","energy_sources":"MSW","type":"Power plant","is_nuclear":false}},{"type":"Feature","geometry":{"type":"Point","coordinates":[-75.125,39.968]},"properties":{"key":"3160-563c16e2","layer":"power","name":"Delaware Generating Station","state":"PA","detail_file":"data/details/power-plants-55.json","plant_id":"3160","capacity_mw":77.0,"status_group":"Operating","energy_sources":"DFO","type":"Power plant","is_nuclear":false}},{"type":"Feature","geometry":{"type":"Point","coordinates":[-75.323,39.858]},"properties":{"key":"3161-596ab1a6","layer":"power","name":"Eddystone Generating Station","state":"PA","detail_file":"data/details/power-plants-23.json","plant_id":"3161","capacity_mw":861.6,"status_group":"Operating","energy_sources":"DFO; NG","type":"Power plant","is_nuclear":false}},{"type":"Feature","geometry":{"type":"Point","coordinates":[-75.188,39.942]},"properties":{"key":"54785-d28dd8b5","layer":"power","name":"Grays Ferry Cogeneration","state":"PA","detail_file":"data/details/power-plants-01.json","plant_id":"54785","capacity_mw":192.6,"status_group":"Operating","energy_sources":"NG","type":"Power plant","is_nuclear":false}},{"type":"Feature","geometry":{"type":"Point","coordinates":[-75.336,39.861]},"properties":{"key":"55231-74edd527","layer":"power","name":"Liberty Electric Power Plant","state":"PA","detail_file":"data/details/power-plants-09.json","plant_id":"55231","capacity_mw":614.0,"status_group":"Operating","energy_sources":"NG","type":"Power plant","is_nuclear":false}},{"type":"Feature","geometry":{"type":"Point","coordinates":[-75.168,39.901]},"properties":{"key":"58231-e94cf605","layer":"power","name":"Lincoln Financial Field","state":"PA","detail_file":"data/details/power-plants-51.json","plant_id":"58231","capacity_mw":2.9,"status_group":"Operating","energy_sources":"SUN","type":"Power plant","is_nuclear":false}},{"type":"Feature","geometry":{"type":"Point","coordinates":[-75.668,39.867]},"properties":{"key":"57768-fcb968bd","layer":"power","name":"Longwood Gardens","state":"PA","detail_file":"data/details/power-plants-00.json","plant_id":"57768","capacity_mw":1.3,"status_group":"Operating","energy_sources":"SUN","type":"Power plant","is_nuclear":false}},{"type":"Feature","geometry":{"type":"Point","coordinates":[-75.422,39.807]},"properties":{"key":"55801-759e9a4d","layer":"power","name":"Marcus Hook Energy LP","state":"PA","detail_file":"data/details/power-plants-57.json","plant_id":"55801","capacity_mw":836.1,"status_group":"Operating","energy_sources":"NG","type":"Power plant","is_nuclear":false}},{"type":"Feature","geometry":{"type":"Point","coordinates":[-75.829,39.883]},"properties":{"key":"59327-1dfc3e3b","layer":"power","name":"Marlboro Mushrooms Solar Field","state":"PA","detail_file":"data/details/power-plants-01.json","plant_id":"59327","capacity_mw":1.0,"status_group":"Operating","energy_sources":"SUN","type":"Power plant","is_nuclear":false}},{"type":"Feature","geometry":{"type":"Point","coordinates":[-75.186,39.89]},"properties":{"key":"61737-3df781f9","layer":"power","name":"Navy Yard Peaker Station","state":"PA","detail_file":"data/details/power-plants-56.json","plant_id":"61737","capacity_mw":8.0,"status_group":"Operating","energy_sources":"NG","type":"Power plant","is_nuclear":false}},{"type":"Feature","geometry":{"type":"Point","coordinates":[-75.186,39.89]},"properties":{"key":"67899-0844c419","layer":"power","name":"PNY BESS LLC","state":"PA","detail_file":"data/details/power-plants-31.json","plant_id":"67899","capacity_mw":6.2,"status_group":"Operating","energy_sources":"MWH","type":"Power plant","is_nuclear":false}},{"type":"Feature","geometry":{"type":"Point","coordinates":[-75.083,39.989]},"properties":{"key":"58326-916f9728","layer":"power","name":"PWD Northeast WPCP Biogas Cogen Plant","state":"PA","detail_file":"data/details/power-plants-47.json","plant_id":"58326","capacity_mw":5.6,"status_group":"Operating","energy_sources":"OBG","type":"Power plant","is_nuclear":false}},{"type":"Feature","geometry":{"type":"Point","coordinates":[-75.075,39.984]},"properties":{"key":"3168-ce289203","layer":"power","name":"Richmond Generating Station","state":"PA","detail_file":"data/details/power-plants-49.json","plant_id":"3168","capacity_mw":131.6,"status_group":"Operating","energy_sources":"DFO","type":"Power plant","is_nuclear":false}},{"type":"Feature","geometry":{"type":"Point","coordinates":[-75.843,39.864]},"properties":{"key":"56873-a9f17a14","layer":"power","name":"SECCRA Community Landfill","state":"PA","detail_file":"data/details/power-plants-40.json","plant_id":"56873","capacity_mw":2.5,"status_group":"Operating","energy_sources":"LFG","type":"Power plant","is_nuclear":false}},{"type":"Feature","geometry":{"type":"Point","coordinates":[-75.188,39.942]},"properties":{"key":"3169-94dcc6e4","layer":"power","name":"Schuylkill Generating Station","state":"PA","detail_file":"data/details/power-plants-29.json","plant_id":"3169","capacity_mw":39.8,"status_group":"Operating","energy_sources":"DFO","type":"Power plant","is_nuclear":false}},{"type":"Feature","geometry":{"type":"Point","coordinates":[-75.135,39.914]},"properties":{"key":"3170-edd5228e","layer":"power","name":"Southwark","state":"PA","detail_file":"data/details/power-plants-60.json","plant_id":"3170","capacity_mw":74.4,"status_group":"Operating","energy_sources":"DFO","type":"Power plant","is_nuclear":false}},{"type":"Feature","geometry":{"type":"Point","coordinates":[-75.151,39.98]},"properties":{"key":"58897-decb183f","layer":"power","name":"Temple SEGF","state":"PA","detail_file":"data/details/power-plants-41.json","plant_id":"58897","capacity_mw":16.0,"status_group":"Operating","energy_sources":"NG","type":"Power plant","is_nuclear":false}},{"type":"Feature","geometry":{"type":"Point","coordinates":[-75.534,39.94]},"properties":{"key":"68803-888be867","layer":"power","name":"Westtown School Solar","state":"PA","detail_file":"data/details/power-plants-58.json","plant_id":"68803","capacity_mw":1.5,"status_group":"Operating","energy_sources":"SUN","type":"Power plant","is_nuclear":false}},{"type":"Feature","geometry":{"type":"Point","coordinates":[-75.968,37.272]},"properties":{"key":"3782-35fb00ec","layer":"power","name":"Bayview","state":"VA","detail_file":"data/details/power-plants-43.json","plant_id":"3782","capacity_mw":12.0,"status_group":"Operating","energy_sources":"DFO","type":"Power plant","is_nuclear":false}},{"type":"Feature","geometry":{"type":"Point","coordinates":[-75.791,37.549]},"properties":{"key":"60234-fa1948a9","layer":"power","name":"Belle Haven Diesel Generation Facility","state":"VA","detail_file":"data/details/power-plants-43.json","plant_id":"60234","capacity_mw":4.0,"status_group":"Operating","energy_sources":"DFO","type":"Power plant","is_nuclear":false}},{"type":"Feature","geometry":{"type":"Point","coordinates":[-75.349,36.908]},"properties":{"key":"64550-9f8b80fe","layer":"power","name":"Coastal Virginia Offshore Wind (CVOW) Commercial Project","state":"VA","detail_file":"data/details/power-plants-35.json","plant_id":"64550","capacity_mw":2640.0,"status_group":"Under construction","energy_sources":"WND","type":"Power plant","is_nuclear":false}},{"type":"Feature","geometry":{"type":"Point","coordinates":[-75.492,36.892]},"properties":{"key":"59693-814af512","layer":"power","name":"Coastal Virginia Offshore Wind (CVOW) Pi","state":"VA","detail_file":"data/details/power-plants-57.json","plant_id":"59693","capacity_mw":12.0,"status_group":"Operating","energy_sources":"WND","type":"Power plant","is_nuclear":false}},{"type":"Feature","geometry":{"type":"Point","coordinates":[-75.54,37.989]},"properties":{"key":"55381-c30eec85","layer":"power","name":"Commonwealth Chesapeake","state":"VA","detail_file":"data/details/power-plants-25.json","plant_id":"55381","capacity_mw":402.5,"status_group":"Operating","energy_sources":"DFO","type":"Power plant","is_nuclear":false}},{"type":"Feature","geometry":{"type":"Point","coordinates":[-75.57,37.944]},"properties":{"key":"60127-bb471177","layer":"power","name":"Eastern Shore Solar, LLC","state":"VA","detail_file":"data/details/power-plants-42.json","plant_id":"60127","capacity_mw":80.0,"status_group":"Operating","energy_sources":"SUN","type":"Power plant","is_nuclear":false}},{"type":"Feature","geometry":{"type":"Point","coordinates":[-75.917,37.37]},"properties":{"key":"61375-14dd7954","layer":"power","name":"Hecate Energy Cherrydale LLC","state":"VA","detail_file":"data/details/power-plants-57.json","plant_id":"61375","capacity_mw":20.0,"status_group":"Operating","energy_sources":"SUN","type":"Power plant","is_nuclear":false}},{"type":"Feature","geometry":{"type":"Point","coordinates":[-75.474,37.938]},"properties":{"key":"62948-96dc4da6","layer":"power","name":"NASA Wallops Flight Facility Solar","state":"VA","detail_file":"data/details/power-plants-63.json","plant_id":"62948","capacity_mw":4.3,"status_group":"Operating","energy_sources":"SUN","type":"Power plant","is_nuclear":false}},{"type":"Feature","geometry":{"type":"Point","coordinates":[-75.72,37.745]},"properties":{"key":"60236-f6f460e3","layer":"power","name":"Onancock Diesel Generation Facility","state":"VA","detail_file":"data/details/power-plants-19.json","plant_id":"60236","capacity_mw":4.0,"status_group":"Operating","energy_sources":"DFO","type":"Power plant","is_nuclear":false}},{"type":"Feature","geometry":{"type":"Point","coordinates":[-75.656,37.742]},"properties":{"key":"60235-9c9db5dd","layer":"power","name":"Perdue Diesel Generation Facility","state":"VA","detail_file":"data/details/power-plants-11.json","plant_id":"60235","capacity_mw":4.0,"status_group":"Operating","energy_sources":"DFO","type":"Power plant","is_nuclear":false}},{"type":"Feature","geometry":{"type":"Point","coordinates":[-75.992,37.828]},"properties":{"key":"6390-8d934a8d","layer":"power","name":"Tangier","state":"VA","detail_file":"data/details/power-plants-45.json","plant_id":"6390","capacity_mw":2.4,"status_group":"Operating","energy_sources":"DFO","type":"Power plant","is_nuclear":false}},{"type":"Feature","geometry":{"type":"Point","coordinates":[-75.703,37.706]},"properties":{"key":"3785-18074836","layer":"power","name":"Tasley","state":"VA","detail_file":"data/details/power-plants-07.json","plant_id":"3785","capacity_mw":27.0,"status_group":"Operating","energy_sources":"DFO","type":"Power plant","is_nuclear":false}}]}