{"type":"FeatureCollection","features":[{"type":"Feature","geometry":{"type":"Point","coordinates":[-158.017,21.448]},"properties":{"key":"hub-25--186","layer":"data-center-hub","count":1,"capacity_mw":0,"states":"HI","status_counts":{"Proposed":1}}},{"type":"Feature","geometry":{"type":"Point","coordinates":[-80.248,25.884]},"properties":{"key":"hub-30--95","layer":"data-center-hub","count":1,"capacity_mw":16.0,"states":"FL","status_counts":{"Under construction":1}}},{"type":"Feature","geometry":{"type":"Point","coordinates":[-97.784,26.48]},"properties":{"key":"hub-31--116","layer":"data-center-hub","count":1,"capacity_mw":166.0,"states":"TX","status_counts":{"Under construction":1}}},{"type":"Feature","geometry":{"type":"Point","coordinates":[-80.39,26.628]},"properties":{"key":"hub-31--95","layer":"data-center-hub","count":1,"capacity_mw":0,"states":"FL","status_counts":{"Cancelled":1}}},{"type":"Feature","geometry":{"type":"Point","coordinates":[-99.48,27.531]},"properties":{"key":"hub-32--118","layer":"data-center-hub","count":1,"capacity_mw":5000.0,"states":"TX","status_counts":{"Proposed":1}}},{"type":"Feature","geometry":{"type":"Point","coordinates":[-97.669,27.79]},"properties":{"key":"hub-32--115","layer":"data-center-hub","count":1,"capacity_mw":352.0,"states":"TX","status_counts":{"Under construction":1}}},{"type":"Feature","geometry":{"type":"Point","coordinates":[-81.904,27.892]},"properties":{"key":"hub-32--97","layer":"data-center-hub","count":2,"capacity_mw":1200.0,"states":"FL","status_counts":{"Proposed":2}}},{"type":"Feature","geometry":{"type":"Point","coordinates":[-80.33,27.44]},"properties":{"key":"hub-32--95","layer":"data-center-hub","count":1,"capacity_mw":240.0,"states":"FL","status_counts":{"Proposed":1}}},{"type":"Feature","geometry":{"type":"Point","coordinates":[-99.235,28.436]},"properties":{"key":"hub-33--117","layer":"data-center-hub","count":1,"capacity_mw":0,"states":"TX","status_counts":{"Proposed":1}}},{"type":"Feature","geometry":{"type":"Point","coordinates":[-97.004,28.805]},"properties":{"key":"hub-33--115","layer":"data-center-hub","count":1,"capacity_mw":1500.0,"states":"TX","status_counts":{"Proposed":1}}},{"type":"Feature","geometry":{"type":"Point","coordinates":[-81.421,28.429]},"properties":{"key":"hub-33--96","layer":"data-center-hub","count":1,"capacity_mw":0,"states":"FL","status_counts":{"Operating":1}}},{"type":"Feature","geometry":{"type":"Point","coordinates":[-98.88,29.35]},"properties":{"key":"hub-34--117","layer":"data-center-hub","count":1,"capacity_mw":0,"states":"TX","status_counts":{"Under construction":1}}},{"type":"Feature","geometry":{"type":"Point","coordinates":[-95.97,28.95]},"properties":{"key":"hub-34--113","layer":"data-center-hub","count":1,"capacity_mw":1000.0,"states":"TX","status_counts":{"Proposed":1}}},{"type":"Feature","geometry":{"type":"Point","coordinates":[-97.86,29.9]},"properties":{"key":"hub-35--116","layer":"data-center-hub","count":3,"capacity_mw":3200.0,"states":"TX","status_counts":{"Under construction":1,"Proposed":2}}},{"type":"Feature","geometry":{"type":"Point","coordinates":[-97.591,30.181]},"properties":{"key":"hub-35--115","layer":"data-center-hub","count":2,"capacity_mw":500.0,"states":"TX","status_counts":{"Under construction":2}}},{"type":"Feature","geometry":{"type":"Point","coordinates":[-81.68,30.55]},"properties":{"key":"hub-35--97","layer":"data-center-hub","count":1,"capacity_mw":200.0,"states":"FL","status_counts":{"Proposed":1}}},{"type":"Feature","geometry":{"type":"Point","coordinates":[-103.207,31.201]},"properties":{"key":"hub-36--122","layer":"data-center-hub","count":4,"capacity_mw":5500.0,"states":"TX","status_counts":{"Under construction":1,"Proposed":3}}},{"type":"Feature","geometry":{"type":"Point","coordinates":[-100.478,31.335]},"properties":{"key":"hub-36--119","layer":"data-center-hub","count":1,"capacity_mw":0,"states":"TX","status_counts":{"Proposed":1}}},{"type":"Feature","geometry":{"type":"Point","coordinates":[-99.335,31.132]},"properties":{"key":"hub-36--117","layer":"data-center-hub","count":1,"capacity_mw":0,"states":"TX","status_counts":{"Proposed":1}}},{"type":"Feature","geometry":{"type":"Point","coordinates":[-97.238,31.13]},"properties":{"key":"hub-36--115","layer":"data-center-hub","count":3,"capacity_mw":5000.0,"states":"TX","status_counts":{"Proposed":1,"Under construction":2}}},{"type":"Feature","geometry":{"type":"Point","coordinates":[-95.551,30.724]},"properties":{"key":"hub-36--113","layer":"data-center-hub","count":1,"capacity_mw":0,"states":"TX","status_counts":{"Proposed":1}}},{"type":"Feature","geometry":{"type":"Point","coordinates":[-92.65,31.4]},"properties":{"key":"hub-36--110","layer":"data-center-hub","count":1,"capacity_mw":300.0,"states":"LA","status_counts":{"Under construction":1}}},{"type":"Feature","geometry":{"type":"Point","coordinates":[-91.38,30.79]},"properties":{"key":"hub-36--108","layer":"data-center-hub","count":1,"capacity_mw":330.0,"states":"LA","status_counts":{"Under construction":1}}},{"type":"Feature","geometry":{"type":"Point","coordinates":[-84.935,31.376]},"properties":{"key":"hub-36--100","layer":"data-center-hub","count":1,"capacity_mw":1000.0,"states":"GA","status_counts":{"Permitted":1}}},{"type":"Feature","geometry":{"type":"Point","coordinates":[-110.75,32.1]},"properties":{"key":"hub-37--131","layer":"data-center-hub","count":1,"capacity_mw":0,"states":"AZ","status_counts":{"Under construction":1}}},{"type":"Feature","geometry":{"type":"Point","coordinates":[-106.62,31.837]},"properties":{"key":"hub-37--126","layer":"data-center-hub","count":2,"capacity_mw":2000.0,"states":"NM, TX","status_counts":{"Under construction":2}}},{"type":"Feature","geometry":{"type":"Point","coordinates":[-103.161,31.751]},"properties":{"key":"hub-37--122","layer":"data-center-hub","count":1,"capacity_mw":300.0,"states":"TX","status_counts":{"Under construction":1}}},{"type":"Feature","geometry":{"type":"Point","coordinates":[-102.54,31.87]},"properties":{"key":"hub-37--121","layer":"data-center-hub","count":1,"capacity_mw":250.0,"states":"TX","status_counts":{"Proposed":1}}},{"type":"Feature","geometry":{"type":"Point","coordinates":[-100.321,31.529]},"properties":{"key":"hub-37--119","layer":"data-center-hub","count":1,"capacity_mw":1000.0,"states":"TX","status_counts":{"Proposed":1}}},{"type":"Feature","geometry":{"type":"Point","coordinates":[-97.046,31.752]},"properties":{"key":"hub-37--115","layer":"data-center-hub","count":2,"capacity_mw":1235.0,"states":"TX","status_counts":{"Proposed":2}}},{"type":"Feature","geometry":{"type":"Point","coordinates":[-96.776,31.824]},"properties":{"key":"hub-37--114","layer":"data-center-hub","count":1,"capacity_mw":612.0,"states":"TX","status_counts":{"Proposed":1}}},{"type":"Feature","geometry":{"type":"Point","coordinates":[-89.99,32.27]},"properties":{"key":"hub-37--106","layer":"data-center-hub","count":1,"capacity_mw":116.0,"states":"MS","status_counts":{"Under construction":1}}},{"type":"Feature","geometry":{"type":"Point","coordinates":[-86.273,32.185]},"properties":{"key":"hub-37--102","layer":"data-center-hub","count":1,"capacity_mw":0,"states":"AL","status_counts":{"Under construction":1}}},{"type":"Feature","geometry":{"type":"Point","coordinates":[-115.565,32.819]},"properties":{"key":"hub-38--136","layer":"data-center-hub","count":2,"capacity_mw":330.0,"states":"CA","status_counts":{"Proposed":2}}},{"type":"Feature","geometry":{"type":"Point","coordinates":[-111.55,32.75]},"properties":{"key":"hub-38--132","layer":"data-center-hub","count":1,"capacity_mw":0,"states":"AZ","status_counts":{"Proposed":1}}},{"type":"Feature","geometry":{"type":"Point","coordinates":[-111.198,32.495]},"properties":{"key":"hub-38--131","layer":"data-center-hub","count":1,"capacity_mw":0,"states":"AZ","status_counts":{"Proposed":1}}},{"type":"Feature","geometry":{"type":"Point","coordinates":[-104.52,33.14]},"properties":{"key":"hub-38--123","layer":"data-center-hub","count":1,"capacity_mw":1240.0,"states":"NM","status_counts":{"Permitted":1}}},{"type":"Feature","geometry":{"type":"Point","coordinates":[-103.3,32.7]},"properties":{"key":"hub-38--122","layer":"data-center-hub","count":1,"capacity_mw":7000.0,"states":"NM","status_counts":{"Proposed":1}}},{"type":"Feature","geometry":{"type":"Point","coordinates":[-102.546,32.319]},"properties":{"key":"hub-38--121","layer":"data-center-hub","count":1,"capacity_mw":0,"states":"TX","status_counts":{"Under construction":1}}},{"type":"Feature","geometry":{"type":"Point","coordinates":[-100.637,32.433]},"properties":{"key":"hub-38--119","layer":"data-center-hub","count":2,"capacity_mw":2300.0,"states":"TX","status_counts":{"Under construction":2}}},{"type":"Feature","geometry":{"type":"Point","coordinates":[-99.761,32.475]},"properties":{"key":"hub-38--118","layer":"data-center-hub","count":2,"capacity_mw":1400.0,"states":"TX","status_counts":{"Operating":1,"Under construction":1}}},{"type":"Feature","geometry":{"type":"Point","coordinates":[-99.299,32.727]},"properties":{"key":"hub-38--117","layer":"data-center-hub","count":1,"capacity_mw":1400.0,"states":"TX","status_counts":{"Under construction":1}}},{"type":"Feature","geometry":{"type":"Point","coordinates":[-97.805,32.385]},"properties":{"key":"hub-38--116","layer":"data-center-hub","count":2,"capacity_mw":100.0,"states":"TX","status_counts":{"Proposed":2}}},{"type":"Feature","geometry":{"type":"Point","coordinates":[-97.141,32.802]},"properties":{"key":"hub-38--115","layer":"data-center-hub","count":2,"capacity_mw":1800.0,"states":"TX","status_counts":{"Operating":1,"Under construction":1}}},{"type":"Feature","geometry":{"type":"Point","coordinates":[-96.634,32.7]},"properties":{"key":"hub-38--114","layer":"data-center-hub","count":5,"capacity_mw":1010.0,"states":"TX","status_counts":{"Operating":1,"Under construction":2,"Proposed":2}}},{"type":"Feature","geometry":{"type":"Point","coordinates":[-93.797,32.593]},"properties":{"key":"hub-38--111","layer":"data-center-hub","count":3,"capacity_mw":0,"states":"LA","status_counts":{"Under construction":3}}},{"type":"Feature","geometry":{"type":"Point","coordinates":[-91.491,32.444]},"properties":{"key":"hub-38--108","layer":"data-center-hub","count":1,"capacity_mw":2000.0,"states":"LA","status_counts":{"Under construction":1}}},{"type":"Feature","geometry":{"type":"Point","coordinates":[-90.039,32.612]},"properties":{"key":"hub-38--106","layer":"data-center-hub","count":1,"capacity_mw":1000.0,"states":"MS","status_counts":{"Under construction":1}}},{"type":"Feature","geometry":{"type":"Point","coordinates":[-88.704,32.364]},"properties":{"key":"hub-38--105","layer":"data-center-hub","count":1,"capacity_mw":500.0,"states":"MS","status_counts":{"Under construction":1}}},{"type":"Feature","geometry":{"type":"Point","coordinates":[-80.328,32.956]},"properties":{"key":"hub-38--95","layer":"data-center-hub","count":3,"capacity_mw":0,"states":"SC","status_counts":{"Operating":1,"Under construction":1,"Proposed":1}}},{"type":"Feature","geometry":{"type":"Point","coordinates":[-112.495,33.508]},"properties":{"key":"hub-39--133","layer":"data-center-hub","count":6,"capacity_mw":940.0,"states":"AZ","status_counts":{"Under construction":3,"Permitted":2,"Proposed":1}}},{"type":"Feature","geometry":{"type":"Point","coordinates":[-111.769,33.38]},"properties":{"key":"hub-39--132","layer":"data-center-hub","count":8,"capacity_mw":1332.0,"states":"AZ","status_counts":{"Proposed":2,"Under construction":4,"Operating":2}}},{"type":"Feature","geometry":{"type":"Point","coordinates":[-101.84,33.84]},"properties":{"key":"hub-39--120","layer":"data-center-hub","count":2,"capacity_mw":708.0,"states":"TX","status_counts":{"Under construction":2}}},{"type":"Feature","geometry":{"type":"Point","coordinates":[-100.86,33.751]},"properties":{"key":"hub-39--119","layer":"data-center-hub","count":2,"capacity_mw":1830.0,"states":"TX","status_counts":{"Under construction":1,"Operating":1}}},{"type":"Feature","geometry":{"type":"Point","coordinates":[-99.734,33.158]},"properties":{"key":"hub-39--118","layer":"data-center-hub","count":1,"capacity_mw":0,"states":"TX","status_counts":{"Under construction":1}}},{"type":"Feature","geometry":{"type":"Point","coordinates":[-86.892,33.448]},"properties":{"key":"hub-39--103","layer":"data-center-hub","count":2,"capacity_mw":1500.0,"states":"AL","status_counts":{"Under construction":1,"Proposed":1}}},{"type":"Feature","geometry":{"type":"Point","coordinates":[-84.661,33.569]},"properties":{"key":"hub-39--100","layer":"data-center-hub","count":6,"capacity_mw":2916.0,"states":"GA","status_counts":{"Under construction":2,"Operating":1,"Permitted":2,"Proposed":1}}},{"type":"Feature","geometry":{"type":"Point","coordinates":[-83.869,33.658]},"properties":{"key":"hub-39--99","layer":"data-center-hub","count":2,"capacity_mw":216.0,"states":"GA","status_counts":{"Under construction":1,"Proposed":1}}},{"type":"Feature","geometry":{"type":"Point","coordinates":[-82.04,33.545]},"properties":{"key":"hub-39--97","layer":"data-center-hub","count":3,"capacity_mw":200.0,"states":"GA, SC","status_counts":{"Under construction":2,"Permitted":1}}},{"type":"Feature","geometry":{"type":"Point","coordinates":[-80.579,33.184]},"properties":{"key":"hub-39--95","layer":"data-center-hub","count":1,"capacity_mw":0,"states":"SC","status_counts":{"Under construction":1}}},{"type":"Feature","geometry":{"type":"Point","coordinates":[-118.219,34.005]},"properties":{"key":"hub-40--140","layer":"data-center-hub","count":1,"capacity_mw":32.0,"states":"CA","status_counts":{"Proposed":1}}},{"type":"Feature","geometry":{"type":"Point","coordinates":[-106.73,34.808]},"properties":{"key":"hub-40--126","layer":"data-center-hub","count":1,"capacity_mw":0,"states":"NM","status_counts":{"Under construction":1}}},{"type":"Feature","geometry":{"type":"Point","coordinates":[-100.205,34.428]},"properties":{"key":"hub-40--118","layer":"data-center-hub","count":1,"capacity_mw":750.0,"states":"TX","status_counts":{"Under construction":1}}},{"type":"Feature","geometry":{"type":"Point","coordinates":[-99.294,34.155]},"properties":{"key":"hub-40--117","layer":"data-center-hub","count":1,"capacity_mw":0,"states":"TX","status_counts":{"Under construction":1}}},{"type":"Feature","geometry":{"type":"Point","coordinates":[-92.293,34.713]},"properties":{"key":"hub-40--109","layer":"data-center-hub","count":2,"capacity_mw":1000.0,"states":"AR","status_counts":{"Proposed":1,"Under construction":1}}},{"type":"Feature","geometry":{"type":"Point","coordinates":[-86.647,34.726]},"properties":{"key":"hub-40--102","layer":"data-center-hub","count":1,"capacity_mw":0,"states":"AL","status_counts":{"Operating":1}}},{"type":"Feature","geometry":{"type":"Point","coordinates":[-85.16,34.27]},"properties":{"key":"hub-40--101","layer":"data-center-hub","count":1,"capacity_mw":0,"states":"GA","status_counts":{"Permitted":1}}},{"type":"Feature","geometry":{"type":"Point","coordinates":[-84.884,34.315]},"properties":{"key":"hub-40--100","layer":"data-center-hub","count":3,"capacity_mw":2030.0,"states":"GA","status_counts":{"Under construction":1,"Proposed":1,"Permitted":1}}},{"type":"Feature","geometry":{"type":"Point","coordinates":[-119.55,35.36]},"properties":{"key":"hub-41--141","layer":"data-center-hub","count":1,"capacity_mw":275.0,"states":"CA","status_counts":{"Proposed":1}}},{"type":"Feature","geometry":{"type":"Point","coordinates":[-101.455,35.184]},"properties":{"key":"hub-41--120","layer":"data-center-hub","count":2,"capacity_mw":0,"states":"TX","status_counts":{"Under construction":2}}},{"type":"Feature","geometry":{"type":"Point","coordinates":[-100.961,35.536]},"properties":{"key":"hub-41--119","layer":"data-center-hub","count":1,"capacity_mw":0,"states":"TX","status_counts":{"Under construction":1}}},{"type":"Feature","geometry":{"type":"Point","coordinates":[-97.795,35.49]},"properties":{"key":"hub-41--116","layer":"data-center-hub","count":1,"capacity_mw":0,"states":"OK","status_counts":{"Proposed":1}}},{"type":"Feature","geometry":{"type":"Point","coordinates":[-97.516,35.468]},"properties":{"key":"hub-41--115","layer":"data-center-hub","count":1,"capacity_mw":10.0,"states":"OK","status_counts":{"Operating":1}}},{"type":"Feature","geometry":{"type":"Point","coordinates":[-95.65,35.57]},"properties":{"key":"hub-41--113","layer":"data-center-hub","count":1,"capacity_mw":0,"states":"OK","status_counts":{"Proposed":1}}},{"type":"Feature","geometry":{"type":"Point","coordinates":[-90.175,35.156]},"properties":{"key":"hub-41--107","layer":"data-center-hub","count":1,"capacity_mw":0,"states":"AR","status_counts":{"Under construction":1}}},{"type":"Feature","geometry":{"type":"Point","coordinates":[-89.994,35.025]},"properties":{"key":"hub-41--106","layer":"data-center-hub","count":2,"capacity_mw":150.0,"states":"MS, TN","status_counts":{"Operating":2}}},{"type":"Feature","geometry":{"type":"Point","coordinates":[-85.755,34.884]},"properties":{"key":"hub-41--101","layer":"data-center-hub","count":1,"capacity_mw":0,"states":"AL","status_counts":{"Operating":1}}},{"type":"Feature","geometry":{"type":"Point","coordinates":[-81.826,35.317]},"properties":{"key":"hub-41--97","layer":"data-center-hub","count":1,"capacity_mw":0,"states":"NC","status_counts":{"Operating":1}}},{"type":"Feature","geometry":{"type":"Point","coordinates":[-80.966,35.409]},"properties":{"key":"hub-41--96","layer":"data-center-hub","count":4,"capacity_mw":700.0,"states":"NC","status_counts":{"Operating":1,"Permitted":1,"Cancelled":1,"Under construction":1}}},{"type":"Feature","geometry":{"type":"Point","coordinates":[-79.775,34.944]},"properties":{"key":"hub-41--94","layer":"data-center-hub","count":1,"capacity_mw":0,"states":"NC","status_counts":{"Under construction":1}}},{"type":"Feature","geometry":{"type":"Point","coordinates":[-78.941,35.353]},"properties":{"key":"hub-41--93","layer":"data-center-hub","count":2,"capacity_mw":300.0,"states":"NC","status_counts":{"Proposed":2}}},{"type":"Feature","geometry":{"type":"Point","coordinates":[-119.953,36.303]},"properties":{"key":"hub-42--142","layer":"data-center-hub","count":1,"capacity_mw":100.0,"states":"CA","status_counts":{"Proposed":1}}},{"type":"Feature","geometry":{"type":"Point","coordinates":[-115.043,36.056]},"properties":{"key":"hub-42--136","layer":"data-center-hub","count":1,"capacity_mw":0,"states":"NV","status_counts":{"Operating":1}}},{"type":"Feature","geometry":{"type":"Point","coordinates":[-97.806,35.722]},"properties":{"key":"hub-42--116","layer":"data-center-hub","count":2,"capacity_mw":1500.0,"states":"OK","status_counts":{"Proposed":2}}},{"type":"Feature","geometry":{"type":"Point","coordinates":[-97.06,36.14]},"properties":{"key":"hub-42--115","layer":"data-center-hub","count":1,"capacity_mw":0,"states":"OK","status_counts":{"Permitted":1}}},{"type":"Feature","geometry":{"type":"Point","coordinates":[-96.11,36.256]},"properties":{"key":"hub-42--114","layer":"data-center-hub","count":1,"capacity_mw":0,"states":"OK","status_counts":{"Proposed":1}}},{"type":"Feature","geometry":{"type":"Point","coordinates":[-95.612,36.154]},"properties":{"key":"hub-42--113","layer":"data-center-hub","count":5,"capacity_mw":70.0,"states":"OK","status_counts":{"Under construction":3,"Operating":1,"Proposed":1}}},{"type":"Feature","geometry":{"type":"Point","coordinates":[-87.362,36.529]},"properties":{"key":"hub-42--103","layer":"data-center-hub","count":2,"capacity_mw":350.0,"states":"TN","status_counts":{"Proposed":1,"Operating":1}}},{"type":"Feature","geometry":{"type":"Point","coordinates":[-86.437,36.388]},"properties":{"key":"hub-42--102","layer":"data-center-hub","count":1,"capacity_mw":300.0,"states":"TN","status_counts":{"Operating":1}}},{"type":"Feature","geometry":{"type":"Point","coordinates":[-83.836,35.941]},"properties":{"key":"hub-42--99","layer":"data-center-hub","count":1,"capacity_mw":86.0,"states":"TN","status_counts":{"Under construction":1}}},{"type":"Feature","geometry":{"type":"Point","coordinates":[-81.217,35.841]},"properties":{"key":"hub-42--96","layer":"data-center-hub","count":2,"capacity_mw":500.0,"states":"NC","status_counts":{"Proposed":1,"Operating":1}}},{"type":"Feature","geometry":{"type":"Point","coordinates":[-80.129,36.31]},"properties":{"key":"hub-42--95","layer":"data-center-hub","count":3,"capacity_mw":200.0,"states":"NC","status_counts":{"Proposed":2,"Under construction":1}}},{"type":"Feature","geometry":{"type":"Point","coordinates":[-79.792,36.073]},"properties":{"key":"hub-42--94","layer":"data-center-hub","count":1,"capacity_mw":20.0,"states":"NC","status_counts":{"Under construction":1}}},{"type":"Feature","geometry":{"type":"Point","coordinates":[-78.727,36.352]},"properties":{"key":"hub-42--93","layer":"data-center-hub","count":2,"capacity_mw":0,"states":"NC","status_counts":{"Permitted":1,"Proposed":1}}},{"type":"Feature","geometry":{"type":"Point","coordinates":[-77.734,35.941]},"properties":{"key":"hub-42--92","layer":"data-center-hub","count":1,"capacity_mw":900.0,"states":"NC","status_counts":{"Permitted":1}}},{"type":"Feature","geometry":{"type":"Point","coordinates":[-121.874,37.31]},"properties":{"key":"hub-43--144","layer":"data-center-hub","count":4,"capacity_mw":255.0,"states":"CA","status_counts":{"Permitted":2,"Proposed":2}}},{"type":"Feature","geometry":{"type":"Point","coordinates":[-121.541,36.997]},"properties":{"key":"hub-43--143","layer":"data-center-hub","count":1,"capacity_mw":98.0,"states":"CA","status_counts":{"Under construction":1}}},{"type":"Feature","geometry":{"type":"Point","coordinates":[-98.667,36.803]},"properties":{"key":"hub-43--117","layer":"data-center-hub","count":1,"capacity_mw":1600.0,"states":"OK","status_counts":{"Proposed":1}}},{"type":"Feature","geometry":{"type":"Point","coordinates":[-86.591,36.703]},"properties":{"key":"hub-43--102","layer":"data-center-hub","count":1,"capacity_mw":0,"states":"KY","status_counts":{"Proposed":1}}},{"type":"Feature","geometry":{"type":"Point","coordinates":[-82.53,36.99]},"properties":{"key":"hub-43--98","layer":"data-center-hub","count":1,"capacity_mw":0,"states":"VA","status_counts":{"Proposed":1}}},{"type":"Feature","geometry":{"type":"Point","coordinates":[-79.32,36.642]},"properties":{"key":"hub-43--94","layer":"data-center-hub","count":2,"capacity_mw":0,"states":"VA","status_counts":{"Permitted":1,"Proposed":1}}},{"type":"Feature","geometry":{"type":"Point","coordinates":[-78.392,36.67]},"properties":{"key":"hub-43--93","layer":"data-center-hub","count":2,"capacity_mw":0,"states":"VA","status_counts":{"Operating":1,"Permitted":1}}},{"type":"Feature","geometry":{"type":"Point","coordinates":[-77.646,37.145]},"properties":{"key":"hub-43--92","layer":"data-center-hub","count":3,"capacity_mw":120.0,"states":"VA","status_counts":{"Proposed":1,"Under construction":1,"Permitted":1}}},{"type":"Feature","geometry":{"type":"Point","coordinates":[-77.3,37.346]},"properties":{"key":"hub-43--91","layer":"data-center-hub","count":1,"capacity_mw":0,"states":"VA","status_counts":{"Under construction":1}}},{"type":"Feature","geometry":{"type":"Point","coordinates":[-76.188,36.681]},"properties":{"key":"hub-43--90","layer":"data-center-hub","count":1,"capacity_mw":0,"states":"VA","status_counts":{"Cancelled":1}}},{"type":"Feature","geometry":{"type":"Point","coordinates":[-121.968,37.473]},"properties":{"key":"hub-44--144","layer":"data-center-hub","count":3,"capacity_mw":534.0,"states":"CA","status_counts":{"Under construction":1,"Proposed":2}}},{"type":"Feature","geometry":{"type":"Point","coordinates":[-86.757,37.9]},"properties":{"key":"hub-44--103","layer":"data-center-hub","count":1,"capacity_mw":401.0,"states":"KY","status_counts":{"Under construction":1}}},{"type":"Feature","geometry":{"type":"Point","coordinates":[-85.849,38.195]},"properties":{"key":"hub-44--101","layer":"data-center-hub","count":1,"capacity_mw":402.0,"states":"KY","status_counts":{"Under construction":1}}},{"type":"Feature","geometry":{"type":"Point","coordinates":[-77.553,37.963]},"properties":{"key":"hub-44--92","layer":"data-center-hub","count":23,"capacity_mw":7220.0,"states":"VA","status_counts":{"Proposed":14,"Permitted":2,"Under construction":5,"Cancelled":2}}},{"type":"Feature","geometry":{"type":"Point","coordinates":[-77.27,37.49]},"properties":{"key":"hub-44--91","layer":"data-center-hub","count":1,"capacity_mw":0,"states":"VA","status_counts":{"Permitted":1}}},{"type":"Feature","geometry":{"type":"Point","coordinates":[-121.399,38.671]},"properties":{"key":"hub-45--143","layer":"data-center-hub","count":1,"capacity_mw":18.0,"states":"CA","status_counts":{"Under construction":1}}},{"type":"Feature","geometry":{"type":"Point","coordinates":[-104.821,38.834]},"properties":{"key":"hub-45--124","layer":"data-center-hub","count":1,"capacity_mw":50.0,"states":"CO","status_counts":{"Permitted":1}}},{"type":"Feature","geometry":{"type":"Point","coordinates":[-94.825,38.959]},"properties":{"key":"hub-45--112","layer":"data-center-hub","count":3,"capacity_mw":35.0,"states":"KS, MO","status_counts":{"Proposed":1,"Under construction":2}}},{"type":"Feature","geometry":{"type":"Point","coordinates":[-94.342,39.089]},"properties":{"key":"hub-45--111","layer":"data-center-hub","count":1,"capacity_mw":1200.0,"states":"MO","status_counts":{"Under construction":1}}},{"type":"Feature","geometry":{"type":"Point","coordinates":[-91.289,38.858]},"properties":{"key":"hub-45--108","layer":"data-center-hub","count":4,"capacity_mw":1700.0,"states":"MO","status_counts":{"Under construction":2,"Proposed":1,"Permitted":1}}},{"type":"Feature","geometry":{"type":"Point","coordinates":[-85.715,38.33]},"properties":{"key":"hub-45--101","layer":"data-center-hub","count":1,"capacity_mw":0,"states":"IN","status_counts":{"Under construction":1}}},{"type":"Feature","geometry":{"type":"Point","coordinates":[-82.828,38.678]},"properties":{"key":"hub-45--98","layer":"data-center-hub","count":4,"capacity_mw":11000.0,"states":"KY, OH","status_counts":{"Proposed":1,"Under construction":2,"Permitted":1}}},{"type":"Feature","geometry":{"type":"Point","coordinates":[-82.028,38.757]},"properties":{"key":"hub-45--97","layer":"data-center-hub","count":2,"capacity_mw":2000.0,"states":"WV","status_counts":{"Proposed":2}}},{"type":"Feature","geometry":{"type":"Point","coordinates":[-77.647,38.669]},"properties":{"key":"hub-45--92","layer":"data-center-hub","count":20,"capacity_mw":2658.0,"states":"VA","status_counts":{"Permitted":6,"Under construction":4,"Proposed":5,"Cancelled":2,"Operating":3}}},{"type":"Feature","geometry":{"type":"Point","coordinates":[-77.152,38.451]},"properties":{"key":"hub-45--91","layer":"data-center-hub","count":4,"capacity_mw":1820.0,"states":"MD, VA","status_counts":{"Permitted":2,"Proposed":2}}},{"type":"Feature","geometry":{"type":"Point","coordinates":[-76.443,38.437]},"properties":{"key":"hub-45--90","layer":"data-center-hub","count":1,"capacity_mw":0,"states":"MD","status_counts":{"Proposed":1}}},{"type":"Feature","geometry":{"type":"Point","coordinates":[-119.435,39.57]},"properties":{"key":"hub-46--141","layer":"data-center-hub","count":5,"capacity_mw":534.0,"states":"NV","status_counts":{"Operating":3,"Proposed":1,"Under construction":1}}},{"type":"Feature","geometry":{"type":"Point","coordinates":[-112.578,39.353]},"properties":{"key":"hub-46--133","layer":"data-center-hub","count":1,"capacity_mw":10000.0,"states":"UT","status_counts":{"Under construction":1}}},{"type":"Feature","geometry":{"type":"Point","coordinates":[-112.165,39.107]},"properties":{"key":"hub-46--132","layer":"data-center-hub","count":1,"capacity_mw":4000.0,"states":"UT","status_counts":{"Under construction":1}}},{"type":"Feature","geometry":{"type":"Point","coordinates":[-104.857,39.725]},"properties":{"key":"hub-46--124","layer":"data-center-hub","count":2,"capacity_mw":237.0,"states":"CO","status_counts":{"Under construction":2}}},{"type":"Feature","geometry":{"type":"Point","coordinates":[-94.668,39.229]},"properties":{"key":"hub-46--112","layer":"data-center-hub","count":6,"capacity_mw":1550.0,"states":"KS, MO","status_counts":{"Proposed":3,"Under construction":2,"Operating":1}}},{"type":"Feature","geometry":{"type":"Point","coordinates":[-89.368,39.49]},"properties":{"key":"hub-46--106","layer":"data-center-hub","count":1,"capacity_mw":1000.0,"states":"IL","status_counts":{"Proposed":1}}},{"type":"Feature","geometry":{"type":"Point","coordinates":[-86.227,39.683]},"properties":{"key":"hub-46--102","layer":"data-center-hub","count":3,"capacity_mw":718.0,"states":"IN","status_counts":{"Proposed":1,"Under construction":1,"Permitted":1}}},{"type":"Feature","geometry":{"type":"Point","coordinates":[-84.464,39.48]},"properties":{"key":"hub-46--100","layer":"data-center-hub","count":1,"capacity_mw":0,"states":"OH","status_counts":{"Permitted":1}}},{"type":"Feature","geometry":{"type":"Point","coordinates":[-82.859,39.72]},"properties":{"key":"hub-46--98","layer":"data-center-hub","count":2,"capacity_mw":0,"states":"OH","status_counts":{"Proposed":1,"Operating":1}}},{"type":"Feature","geometry":{"type":"Point","coordinates":[-80.873,39.775]},"properties":{"key":"hub-46--96","layer":"data-center-hub","count":1,"capacity_mw":570.0,"states":"OH","status_counts":{"Under construction":1}}},{"type":"Feature","geometry":{"type":"Point","coordinates":[-77.554,39.361]},"properties":{"key":"hub-46--92","layer":"data-center-hub","count":3,"capacity_mw":972.0,"states":"MD, WV","status_counts":{"Under construction":2,"Proposed":1}}},{"type":"Feature","geometry":{"type":"Point","coordinates":[-75.209,39.489]},"properties":{"key":"hub-46--89","layer":"data-center-hub","count":3,"capacity_mw":1300.0,"states":"DE, NJ","status_counts":{"Proposed":1,"Cancelled":1,"Operating":1}}},{"type":"Feature","geometry":{"type":"Point","coordinates":[-112.93,40.2]},"properties":{"key":"hub-47--133","layer":"data-center-hub","count":1,"capacity_mw":0,"states":"UT","status_counts":{"Proposed":1}}},{"type":"Feature","geometry":{"type":"Point","coordinates":[-111.977,40.315]},"properties":{"key":"hub-47--132","layer":"data-center-hub","count":2,"capacity_mw":0,"states":"UT","status_counts":{"Operating":1,"Under construction":1}}},{"type":"Feature","geometry":{"type":"Point","coordinates":[-96.371,40.474]},"properties":{"key":"hub-47--114","layer":"data-center-hub","count":1,"capacity_mw":1000.0,"states":"NE","status_counts":{"Proposed":1}}},{"type":"Feature","geometry":{"type":"Point","coordinates":[-86.45,40.07]},"properties":{"key":"hub-47--102","layer":"data-center-hub","count":1,"capacity_mw":1000.0,"states":"IN","status_counts":{"Under construction":1}}},{"type":"Feature","geometry":{"type":"Point","coordinates":[-84.21,40.197]},"properties":{"key":"hub-47--100","layer":"data-center-hub","count":2,"capacity_mw":1500.0,"states":"OH","status_counts":{"Under construction":1,"Permitted":1}}},{"type":"Feature","geometry":{"type":"Point","coordinates":[-83.728,40.49]},"properties":{"key":"hub-47--99","layer":"data-center-hub","count":2,"capacity_mw":0,"states":"OH","status_counts":{"Under construction":1,"Permitted":1}}},{"type":"Feature","geometry":{"type":"Point","coordinates":[-82.847,40.087]},"properties":{"key":"hub-47--98","layer":"data-center-hub","count":24,"capacity_mw":2537.0,"states":"OH","status_counts":{"Operating":11,"Under construction":12,"Permitted":1}}},{"type":"Feature","geometry":{"type":"Point","coordinates":[-81.83,40.27]},"properties":{"key":"hub-47--97","layer":"data-center-hub","count":1,"capacity_mw":0,"states":"OH","status_counts":{"Under construction":1}}},{"type":"Feature","geometry":{"type":"Point","coordinates":[-80.385,40.69]},"properties":{"key":"hub-47--95","layer":"data-center-hub","count":2,"capacity_mw":0,"states":"PA","status_counts":{"Proposed":2}}},{"type":"Feature","geometry":{"type":"Point","coordinates":[-79.154,40.538]},"properties":{"key":"hub-47--94","layer":"data-center-hub","count":1,"capacity_mw":0,"states":"PA","status_counts":{"Under construction":1}}},{"type":"Feature","geometry":{"type":"Point","coordinates":[-77.189,40.202]},"properties":{"key":"hub-47--91","layer":"data-center-hub","count":1,"capacity_mw":1350.0,"states":"PA","status_counts":{"Under construction":1}}},{"type":"Feature","geometry":{"type":"Point","coordinates":[-76.305,40.038]},"properties":{"key":"hub-47--90","layer":"data-center-hub","count":1,"capacity_mw":300.0,"states":"PA","status_counts":{"Proposed":1}}},{"type":"Feature","geometry":{"type":"Point","coordinates":[-75.567,40.262]},"properties":{"key":"hub-47--89","layer":"data-center-hub","count":3,"capacity_mw":300.0,"states":"PA","status_counts":{"Proposed":2,"Permitted":1}}},{"type":"Feature","geometry":{"type":"Point","coordinates":[-74.219,40.602]},"properties":{"key":"hub-47--88","layer":"data-center-hub","count":5,"capacity_mw":250.0,"states":"NJ, NY, PA","status_counts":{"Under construction":2,"Operating":3}}},{"type":"Feature","geometry":{"type":"Point","coordinates":[-113.5,41.5]},"properties":{"key":"hub-48--134","layer":"data-center-hub","count":1,"capacity_mw":9000.0,"states":"UT","status_counts":{"Proposed":1}}},{"type":"Feature","geometry":{"type":"Point","coordinates":[-104.793,41.103]},"properties":{"key":"hub-48--124","layer":"data-center-hub","count":3,"capacity_mw":2700.0,"states":"WY","status_counts":{"Under construction":2,"Proposed":1}}},{"type":"Feature","geometry":{"type":"Point","coordinates":[-96.146,41.092]},"properties":{"key":"hub-48--114","layer":"data-center-hub","count":2,"capacity_mw":0,"states":"NE","status_counts":{"Operating":1,"Under construction":1}}},{"type":"Feature","geometry":{"type":"Point","coordinates":[-95.793,41.167]},"properties":{"key":"hub-48--113","layer":"data-center-hub","count":1,"capacity_mw":0,"states":"IA","status_counts":{"Operating":1}}},{"type":"Feature","geometry":{"type":"Point","coordinates":[-93.854,41.585]},"properties":{"key":"hub-48--111","layer":"data-center-hub","count":2,"capacity_mw":0,"states":"IA","status_counts":{"Operating":1,"Under construction":1}}},{"type":"Feature","geometry":{"type":"Point","coordinates":[-93.47,41.646]},"properties":{"key":"hub-48--110","layer":"data-center-hub","count":1,"capacity_mw":350.0,"states":"IA","status_counts":{"Operating":1}}},{"type":"Feature","geometry":{"type":"Point","coordinates":[-88.43,41.36]},"properties":{"key":"hub-48--105","layer":"data-center-hub","count":1,"capacity_mw":1000.0,"states":"IL","status_counts":{"Proposed":1}}},{"type":"Feature","geometry":{"type":"Point","coordinates":[-88.195,41.441]},"properties":{"key":"hub-48--104","layer":"data-center-hub","count":2,"capacity_mw":1800.0,"states":"IL","status_counts":{"Proposed":1,"Permitted":1}}},{"type":"Feature","geometry":{"type":"Point","coordinates":[-87.171,41.44]},"properties":{"key":"hub-48--103","layer":"data-center-hub","count":5,"capacity_mw":680.0,"states":"IN","status_counts":{"Under construction":2,"Permitted":1,"Cancelled":1,"Proposed":1}}},{"type":"Feature","geometry":{"type":"Point","coordinates":[-85.056,40.99]},"properties":{"key":"hub-48--101","layer":"data-center-hub","count":1,"capacity_mw":0,"states":"IN","status_counts":{"Operating":1}}},{"type":"Feature","geometry":{"type":"Point","coordinates":[-83.701,41.432]},"properties":{"key":"hub-48--99","layer":"data-center-hub","count":1,"capacity_mw":0,"states":"OH","status_counts":{"Under construction":1}}},{"type":"Feature","geometry":{"type":"Point","coordinates":[-81.633,41.361]},"properties":{"key":"hub-48--97","layer":"data-center-hub","count":1,"capacity_mw":0,"states":"OH","status_counts":{"Operating":1}}},{"type":"Feature","geometry":{"type":"Point","coordinates":[-81.13,41.143]},"properties":{"key":"hub-48--96","layer":"data-center-hub","count":6,"capacity_mw":2252.0,"states":"OH","status_counts":{"Operating":2,"Proposed":3,"Under construction":1}}},{"type":"Feature","geometry":{"type":"Point","coordinates":[-80.427,40.992]},"properties":{"key":"hub-48--95","layer":"data-center-hub","count":1,"capacity_mw":0,"states":"PA","status_counts":{"Proposed":1}}},{"type":"Feature","geometry":{"type":"Point","coordinates":[-76.804,41.23]},"properties":{"key":"hub-48--91","layer":"data-center-hub","count":1,"capacity_mw":0,"states":"PA","status_counts":{"Proposed":1}}},{"type":"Feature","geometry":{"type":"Point","coordinates":[-76.05,41.04]},"properties":{"key":"hub-48--90","layer":"data-center-hub","count":2,"capacity_mw":48.0,"states":"PA","status_counts":{"Under construction":1,"Proposed":1}}},{"type":"Feature","geometry":{"type":"Point","coordinates":[-75.557,41.487]},"properties":{"key":"hub-48--89","layer":"data-center-hub","count":3,"capacity_mw":1600.0,"states":"PA","status_counts":{"Proposed":2,"Permitted":1}}},{"type":"Feature","geometry":{"type":"Point","coordinates":[-74.362,41.039]},"properties":{"key":"hub-48--88","layer":"data-center-hub","count":2,"capacity_mw":4.0,"states":"NJ, NY","status_counts":{"Proposed":1,"Operating":1}}},{"type":"Feature","geometry":{"type":"Point","coordinates":[-73.815,41.088]},"properties":{"key":"hub-48--87","layer":"data-center-hub","count":1,"capacity_mw":0,"states":"NY","status_counts":{"Operating":1}}},{"type":"Feature","geometry":{"type":"Point","coordinates":[-72.158,41.322]},"properties":{"key":"hub-48--85","layer":"data-center-hub","count":1,"capacity_mw":300.0,"states":"CT","status_counts":{"Cancelled":1}}},{"type":"Feature","geometry":{"type":"Point","coordinates":[-91.721,41.934]},"properties":{"key":"hub-49--108","layer":"data-center-hub","count":2,"capacity_mw":1050.0,"states":"IA","status_counts":{"Under construction":2}}},{"type":"Feature","geometry":{"type":"Point","coordinates":[-90.24,41.88]},"properties":{"key":"hub-49--107","layer":"data-center-hub","count":1,"capacity_mw":0,"states":"IA","status_counts":{"Proposed":1}}},{"type":"Feature","geometry":{"type":"Point","coordinates":[-88.461,41.7]},"properties":{"key":"hub-49--105","layer":"data-center-hub","count":1,"capacity_mw":1800.0,"states":"IL","status_counts":{"Permitted":1}}},{"type":"Feature","geometry":{"type":"Point","coordinates":[-87.985,42.004]},"properties":{"key":"hub-49--104","layer":"data-center-hub","count":3,"capacity_mw":1295.0,"states":"IL","status_counts":{"Under construction":3}}},{"type":"Feature","geometry":{"type":"Point","coordinates":[-86.321,41.714]},"properties":{"key":"hub-49--102","layer":"data-center-hub","count":2,"capacity_mw":3200.0,"states":"IN","status_counts":{"Operating":1,"Under construction":1}}},{"type":"Feature","geometry":{"type":"Point","coordinates":[-83.624,42.259]},"properties":{"key":"hub-49--99","layer":"data-center-hub","count":4,"capacity_mw":1400.0,"states":"MI","status_counts":{"Proposed":3,"Under construction":1}}},{"type":"Feature","geometry":{"type":"Point","coordinates":[-72.674,42.18]},"properties":{"key":"hub-49--86","layer":"data-center-hub","count":2,"capacity_mw":57.0,"states":"MA","status_counts":{"Operating":1,"Proposed":1}}},{"type":"Feature","geometry":{"type":"Point","coordinates":[-71.527,41.867]},"properties":{"key":"hub-49--85","layer":"data-center-hub","count":1,"capacity_mw":0,"states":"RI","status_counts":{"Proposed":1}}},{"type":"Feature","geometry":{"type":"Point","coordinates":[-71.06,42.355]},"properties":{"key":"hub-49--84","layer":"data-center-hub","count":1,"capacity_mw":30.0,"states":"MA","status_counts":{"Operating":1}}},{"type":"Feature","geometry":{"type":"Point","coordinates":[-91.007,42.716]},"properties":{"key":"hub-50--108","layer":"data-center-hub","count":1,"capacity_mw":0,"states":"WI","status_counts":{"Cancelled":1}}},{"type":"Feature","geometry":{"type":"Point","coordinates":[-89.34,43.243]},"properties":{"key":"hub-50--106","layer":"data-center-hub","count":1,"capacity_mw":0,"states":"WI","status_counts":{"Cancelled":1}}},{"type":"Feature","geometry":{"type":"Point","coordinates":[-87.896,42.629]},"properties":{"key":"hub-50--104","layer":"data-center-hub","count":2,"capacity_mw":1000.0,"states":"WI","status_counts":{"Proposed":1,"Under construction":1}}},{"type":"Feature","geometry":{"type":"Point","coordinates":[-85.64,42.823]},"properties":{"key":"hub-50--101","layer":"data-center-hub","count":1,"capacity_mw":225.0,"states":"MI","status_counts":{"Under construction":1}}},{"type":"Feature","geometry":{"type":"Point","coordinates":[-79.06,43.089]},"properties":{"key":"hub-50--94","layer":"data-center-hub","count":1,"capacity_mw":135.0,"states":"NY","status_counts":{"Proposed":1}}},{"type":"Feature","geometry":{"type":"Point","coordinates":[-78.851,43.11]},"properties":{"key":"hub-50--93","layer":"data-center-hub","count":4,"capacity_mw":300.0,"states":"NY","status_counts":{"Proposed":2,"Operating":2}}},{"type":"Feature","geometry":{"type":"Point","coordinates":[-76.443,42.858]},"properties":{"key":"hub-50--90","layer":"data-center-hub","count":2,"capacity_mw":700.0,"states":"NY","status_counts":{"Proposed":2}}},{"type":"Feature","geometry":{"type":"Point","coordinates":[-71.316,42.633]},"properties":{"key":"hub-50--84","layer":"data-center-hub","count":1,"capacity_mw":0,"states":"MA","status_counts":{"Operating":1}}},{"type":"Feature","geometry":{"type":"Point","coordinates":[-116.418,43.491]},"properties":{"key":"hub-51--137","layer":"data-center-hub","count":1,"capacity_mw":0,"states":"ID","status_counts":{"Under construction":1}}},{"type":"Feature","geometry":{"type":"Point","coordinates":[-96.685,43.583]},"properties":{"key":"hub-51--114","layer":"data-center-hub","count":1,"capacity_mw":500.0,"states":"SD","status_counts":{"Permitted":1}}},{"type":"Feature","geometry":{"type":"Point","coordinates":[-95.6,43.62]},"properties":{"key":"hub-51--113","layer":"data-center-hub","count":1,"capacity_mw":400.0,"states":"MN","status_counts":{"Proposed":1}}},{"type":"Feature","geometry":{"type":"Point","coordinates":[-88.837,43.457]},"properties":{"key":"hub-51--105","layer":"data-center-hub","count":1,"capacity_mw":220.0,"states":"WI","status_counts":{"Under construction":1}}},{"type":"Feature","geometry":{"type":"Point","coordinates":[-87.875,43.388]},"properties":{"key":"hub-51--104","layer":"data-center-hub","count":1,"capacity_mw":902.0,"states":"WI","status_counts":{"Under construction":1}}},{"type":"Feature","geometry":{"type":"Point","coordinates":[-69.655,44.002]},"properties":{"key":"hub-51--82","layer":"data-center-hub","count":1,"capacity_mw":0,"states":"ME","status_counts":{"Proposed":1}}},{"type":"Feature","geometry":{"type":"Point","coordinates":[-120.852,44.304]},"properties":{"key":"hub-52--143","layer":"data-center-hub","count":1,"capacity_mw":400.0,"states":"OR","status_counts":{"Operating":1}}},{"type":"Feature","geometry":{"type":"Point","coordinates":[-96.62,44.567]},"properties":{"key":"hub-52--114","layer":"data-center-hub","count":1,"capacity_mw":430.0,"states":"SD","status_counts":{"Cancelled":1}}},{"type":"Feature","geometry":{"type":"Point","coordinates":[-93.115,44.74]},"properties":{"key":"hub-52--110","layer":"data-center-hub","count":1,"capacity_mw":75.0,"states":"MN","status_counts":{"Under construction":1}}},{"type":"Feature","geometry":{"type":"Point","coordinates":[-92.284,44.539]},"properties":{"key":"hub-52--109","layer":"data-center-hub","count":2,"capacity_mw":0,"states":"MN, WI","status_counts":{"Proposed":2}}},{"type":"Feature","geometry":{"type":"Point","coordinates":[-89.82,44.39]},"properties":{"key":"hub-52--106","layer":"data-center-hub","count":1,"capacity_mw":0,"states":"WI","status_counts":{"Proposed":1}}},{"type":"Feature","geometry":{"type":"Point","coordinates":[-70.218,44.502]},"properties":{"key":"hub-52--83","layer":"data-center-hub","count":1,"capacity_mw":82.0,"states":"ME","status_counts":{"Cancelled":1}}},{"type":"Feature","geometry":{"type":"Point","coordinates":[-123.049,45.522]},"properties":{"key":"hub-53--145","layer":"data-center-hub","count":2,"capacity_mw":151.0,"states":"OR","status_counts":{"Under construction":1,"Proposed":1}}},{"type":"Feature","geometry":{"type":"Point","coordinates":[-121.178,45.597]},"properties":{"key":"hub-53--143","layer":"data-center-hub","count":1,"capacity_mw":300.0,"states":"OR","status_counts":{"Operating":1}}},{"type":"Feature","geometry":{"type":"Point","coordinates":[-119.702,45.84]},"properties":{"key":"hub-53--141","layer":"data-center-hub","count":1,"capacity_mw":1000.0,"states":"OR","status_counts":{"Proposed":1}}},{"type":"Feature","geometry":{"type":"Point","coordinates":[-108.7,45.823]},"properties":{"key":"hub-53--128","layer":"data-center-hub","count":1,"capacity_mw":1000.0,"states":"MT","status_counts":{"Proposed":1}}},{"type":"Feature","geometry":{"type":"Point","coordinates":[-93.876,45.397]},"properties":{"key":"hub-53--111","layer":"data-center-hub","count":1,"capacity_mw":0,"states":"MN","status_counts":{"Cancelled":1}}},{"type":"Feature","geometry":{"type":"Point","coordinates":[-119.339,45.919]},"properties":{"key":"hub-54--141","layer":"data-center-hub","count":1,"capacity_mw":100.0,"states":"OR","status_counts":{"Under construction":1}}},{"type":"Feature","geometry":{"type":"Point","coordinates":[-118.913,46.073]},"properties":{"key":"hub-54--140","layer":"data-center-hub","count":1,"capacity_mw":300.0,"states":"WA","status_counts":{"Under construction":1}}},{"type":"Feature","geometry":{"type":"Point","coordinates":[-98.509,46.003]},"properties":{"key":"hub-54--116","layer":"data-center-hub","count":1,"capacity_mw":100.0,"states":"ND","status_counts":{"Under construction":1}}},{"type":"Feature","geometry":{"type":"Point","coordinates":[-120.206,47.351]},"properties":{"key":"hub-55--142","layer":"data-center-hub","count":3,"capacity_mw":468.0,"states":"WA","status_counts":{"Under construction":2,"Operating":1}}},{"type":"Feature","geometry":{"type":"Point","coordinates":[-101.426,47.111]},"properties":{"key":"hub-55--120","layer":"data-center-hub","count":1,"capacity_mw":430.0,"states":"ND","status_counts":{"Proposed":1}}},{"type":"Feature","geometry":{"type":"Point","coordinates":[-97.025,47.02]},"properties":{"key":"hub-55--115","layer":"data-center-hub","count":1,"capacity_mw":280.0,"states":"ND","status_counts":{"Under construction":1}}},{"type":"Feature","geometry":{"type":"Point","coordinates":[-67.885,46.95]},"properties":{"key":"hub-55--80","layer":"data-center-hub","count":1,"capacity_mw":50.0,"states":"ME","status_counts":{"Proposed":1}}},{"type":"Feature","geometry":{"type":"Point","coordinates":[-148.5,69.84]},"properties":{"key":"hub-82--175","layer":"data-center-hub","count":1,"capacity_mw":3000.0,"states":"AK","status_counts":{"Proposed":1}}}]}