{"type":"FeatureCollection","features":[{"type":"Feature","geometry":{"type":"Point","coordinates":[-87.1189,34.7042]},"properties":{"key":"46-0b830336","layer":"nuclear","name":"Browns Ferry","state":"AL","detail_file":"data/details/nuclear-plants.json","plant_id":"46","capacity_mw":3854.0,"status_group":"Operating","energy_sources":"NUC","type":"Nuclear power plant","is_nuclear":true}},{"type":"Feature","geometry":{"type":"Point","coordinates":[-85.1116,31.2231]},"properties":{"key":"6001-11ca52ec","layer":"nuclear","name":"Joseph M Farley","state":"AL","detail_file":"data/details/nuclear-plants.json","plant_id":"6001","capacity_mw":1776.4,"status_group":"Operating","energy_sources":"NUC","type":"Nuclear power plant","is_nuclear":true}},{"type":"Feature","geometry":{"type":"Point","coordinates":[-93.2351,35.311]},"properties":{"key":"8055-d34c99fa","layer":"nuclear","name":"Arkansas Nuclear One","state":"AR","detail_file":"data/details/nuclear-plants.json","plant_id":"8055","capacity_mw":1845.0,"status_group":"Operating","energy_sources":"NUC","type":"Nuclear power plant","is_nuclear":true}},{"type":"Feature","geometry":{"type":"Point","coordinates":[-112.8617,33.3881]},"properties":{"key":"6008-e92194c8","layer":"nuclear","name":"Palo Verde","state":"AZ","detail_file":"data/details/nuclear-plants.json","plant_id":"6008","capacity_mw":4209.6,"status_group":"Operating","energy_sources":"NUC","type":"Nuclear power plant","is_nuclear":true}},{"type":"Feature","geometry":{"type":"Point","coordinates":[-120.8555,35.2115]},"properties":{"key":"6099-48070798","layer":"nuclear","name":"Diablo Canyon","state":"CA","detail_file":"data/details/nuclear-plants.json","plant_id":"6099","capacity_mw":2323.0,"status_group":"Operating","energy_sources":"NUC","type":"Nuclear power plant","is_nuclear":true}},{"type":"Feature","geometry":{"type":"Point","coordinates":[-72.1677,41.3107]},"properties":{"key":"566-bea4f437","layer":"nuclear","name":"Millstone","state":"CT","detail_file":"data/details/nuclear-plants.json","plant_id":"566","capacity_mw":2259.9,"status_group":"Operating","energy_sources":"NUC","type":"Nuclear power plant","is_nuclear":true}},{"type":"Feature","geometry":{"type":"Point","coordinates":[-80.2464,27.3486]},"properties":{"key":"6045-ce9217d1","layer":"nuclear","name":"St Lucie","state":"FL","detail_file":"data/details/nuclear-plants.json","plant_id":"6045","capacity_mw":2160.0,"status_group":"Operating","energy_sources":"NUC","type":"Nuclear power plant","is_nuclear":true}},{"type":"Feature","geometry":{"type":"Point","coordinates":[-80.3308,25.4356]},"properties":{"key":"621-47e6c1da","layer":"nuclear","name":"Turkey Point","state":"FL","detail_file":"data/details/nuclear-plants.json","plant_id":"621","capacity_mw":2978.4,"status_group":"Operating","energy_sources":"NG; NUC","type":"Nuclear power plant","is_nuclear":true}},{"type":"Feature","geometry":{"type":"Point","coordinates":[-82.3447,31.9342]},"properties":{"key":"6051-f7440957","layer":"nuclear","name":"Edwin I Hatch","state":"GA","detail_file":"data/details/nuclear-plants.json","plant_id":"6051","capacity_mw":1848.0,"status_group":"Operating","energy_sources":"NUC","type":"Nuclear power plant","is_nuclear":true}},{"type":"Feature","geometry":{"type":"Point","coordinates":[-81.7625,33.1427]},"properties":{"key":"649-cf26b878","layer":"nuclear","name":"Vogtle","state":"GA","detail_file":"data/details/nuclear-plants.json","plant_id":"649","capacity_mw":4658.0,"status_group":"Operating","energy_sources":"NUC","type":"Nuclear power plant","is_nuclear":true}},{"type":"Feature","geometry":{"type":"Point","coordinates":[-88.2286,41.2435]},"properties":{"key":"6022-ebfe4beb","layer":"nuclear","name":"Braidwood Generation Station","state":"IL","detail_file":"data/details/nuclear-plants.json","plant_id":"6022","capacity_mw":2449.8,"status_group":"Operating","energy_sources":"NUC","type":"Nuclear power plant","is_nuclear":true}},{"type":"Feature","geometry":{"type":"Point","coordinates":[-89.2819,42.0742]},"properties":{"key":"6023-64008849","layer":"nuclear","name":"Byron Generating Station","state":"IL","detail_file":"data/details/nuclear-plants.json","plant_id":"6023","capacity_mw":2449.8,"status_group":"Operating","energy_sources":"NUC","type":"Nuclear power plant","is_nuclear":true}},{"type":"Feature","geometry":{"type":"Point","coordinates":[-88.8339,40.1719]},"properties":{"key":"204-053ec3c5","layer":"nuclear","name":"Clinton Power Station","state":"IL","detail_file":"data/details/nuclear-plants.json","plant_id":"204","capacity_mw":1138.3,"status_group":"Operating","energy_sources":"NUC","type":"Nuclear power plant","is_nuclear":true}},{"type":"Feature","geometry":{"type":"Point","coordinates":[-88.27,41.39]},"properties":{"key":"869-84d8e493","layer":"nuclear","name":"Dresden Generating Station","state":"IL","detail_file":"data/details/nuclear-plants.json","plant_id":"869","capacity_mw":2018.6,"status_group":"Operating","energy_sources":"NUC","type":"Nuclear power plant","is_nuclear":true}},{"type":"Feature","geometry":{"type":"Point","coordinates":[-88.6691,41.2455]},"properties":{"key":"6026-07bf59ef","layer":"nuclear","name":"LaSalle Generating Station","state":"IL","detail_file":"data/details/nuclear-plants.json","plant_id":"6026","capacity_mw":2340.0,"status_group":"Operating","energy_sources":"NUC","type":"Nuclear power plant","is_nuclear":true}},{"type":"Feature","geometry":{"type":"Point","coordinates":[-90.3103,41.7261]},"properties":{"key":"880-584e1f75","layer":"nuclear","name":"Quad Cities Generating Station","state":"IL","detail_file":"data/details/nuclear-plants.json","plant_id":"880","capacity_mw":2018.6,"status_group":"Operating","energy_sources":"NUC","type":"Nuclear power plant","is_nuclear":true}},{"type":"Feature","geometry":{"type":"Point","coordinates":[-95.6898,38.2393]},"properties":{"key":"210-cb8eacbf","layer":"nuclear","name":"Wolf Creek Generating Station","state":"KS","detail_file":"data/details/nuclear-plants.json","plant_id":"210","capacity_mw":1296.3,"status_group":"Operating","energy_sources":"NUC","type":"Nuclear power plant","is_nuclear":true}},{"type":"Feature","geometry":{"type":"Point","coordinates":[-91.3327,30.757]},"properties":{"key":"6462-cf9c4478","layer":"nuclear","name":"River Bend","state":"LA","detail_file":"data/details/nuclear-plants.json","plant_id":"6462","capacity_mw":1035.9,"status_group":"Operating","energy_sources":"NUC","type":"Nuclear power plant","is_nuclear":true}},{"type":"Feature","geometry":{"type":"Point","coordinates":[-90.4716,29.9953]},"properties":{"key":"4270-6f7ddaae","layer":"nuclear","name":"Waterford 3","state":"LA","detail_file":"data/details/nuclear-plants.json","plant_id":"4270","capacity_mw":1199.8,"status_group":"Operating","energy_sources":"NUC","type":"Nuclear power plant","is_nuclear":true}},{"type":"Feature","geometry":{"type":"Point","coordinates":[-76.4417,38.4344]},"properties":{"key":"6011-c7f10615","layer":"nuclear","name":"Calvert Cliffs Nuclear Power Plant","state":"MD","detail_file":"data/details/nuclear-plants.json","plant_id":"6011","capacity_mw":1850.4,"status_group":"Operating","energy_sources":"NUC","type":"Nuclear power plant","is_nuclear":true}},{"type":"Feature","geometry":{"type":"Point","coordinates":[-86.5652,41.9756]},"properties":{"key":"6000-5a7b9034","layer":"nuclear","name":"Donald C Cook","state":"MI","detail_file":"data/details/nuclear-plants.json","plant_id":"6000","capacity_mw":2285.3,"status_group":"Operating","energy_sources":"NUC","type":"Nuclear power plant","is_nuclear":true}},{"type":"Feature","geometry":{"type":"Point","coordinates":[-83.2581,41.9631]},"properties":{"key":"1729-104f20ff","layer":"nuclear","name":"Fermi","state":"MI","detail_file":"data/details/nuclear-plants.json","plant_id":"1729","capacity_mw":1281.0,"status_group":"Operating","energy_sources":"DFO; NUC","type":"Nuclear power plant","is_nuclear":true}},{"type":"Feature","geometry":{"type":"Point","coordinates":[-86.3146,42.323]},"properties":{"key":"1715-6d761a9c","layer":"nuclear","name":"Palisades","state":"MI","detail_file":"data/details/nuclear-plants.json","plant_id":"1715","capacity_mw":811.8,"status_group":"Operating","energy_sources":"NUC","type":"Nuclear power plant","is_nuclear":true}},{"type":"Feature","geometry":{"type":"Point","coordinates":[-93.8493,45.3338]},"properties":{"key":"1922-02e2ee92","layer":"nuclear","name":"Monticello Nuclear Facility","state":"MN","detail_file":"data/details/nuclear-plants.json","plant_id":"1922","capacity_mw":685.0,"status_group":"Operating","energy_sources":"NUC","type":"Nuclear power plant","is_nuclear":true}},{"type":"Feature","geometry":{"type":"Point","coordinates":[-92.6333,44.622]},"properties":{"key":"1925-dc589896","layer":"nuclear","name":"Prairie Island","state":"MN","detail_file":"data/details/nuclear-plants.json","plant_id":"1925","capacity_mw":1186.2,"status_group":"Operating","energy_sources":"NUC","type":"Nuclear power plant","is_nuclear":true}},{"type":"Feature","geometry":{"type":"Point","coordinates":[-91.7788,38.7589]},"properties":{"key":"6153-bff5947e","layer":"nuclear","name":"Callaway","state":"MO","detail_file":"data/details/nuclear-plants.json","plant_id":"6153","capacity_mw":1235.8,"status_group":"Operating","energy_sources":"NUC","type":"Nuclear power plant","is_nuclear":true}},{"type":"Feature","geometry":{"type":"Point","coordinates":[-91.0478,32.0081]},"properties":{"key":"6072-f3602d0c","layer":"nuclear","name":"Grand Gulf","state":"MS","detail_file":"data/details/nuclear-plants.json","plant_id":"6072","capacity_mw":1440.0,"status_group":"Operating","energy_sources":"NUC","type":"Nuclear power plant","is_nuclear":true}},{"type":"Feature","geometry":{"type":"Point","coordinates":[-78.0114,33.9597]},"properties":{"key":"6014-3e0fea2e","layer":"nuclear","name":"Brunswick Nuclear","state":"NC","detail_file":"data/details/nuclear-plants.json","plant_id":"6014","capacity_mw":2003.2,"status_group":"Operating","energy_sources":"NUC","type":"Nuclear power plant","is_nuclear":true}},{"type":"Feature","geometry":{"type":"Point","coordinates":[-78.9556,35.6334]},"properties":{"key":"6015-faf610e7","layer":"nuclear","name":"Harris (NC)","state":"NC","detail_file":"data/details/nuclear-plants.json","plant_id":"6015","capacity_mw":950.9,"status_group":"Operating","energy_sources":"NUC","type":"Nuclear power plant","is_nuclear":true}},{"type":"Feature","geometry":{"type":"Point","coordinates":[-80.9486,35.4331]},"properties":{"key":"6038-e1b69143","layer":"nuclear","name":"McGuire","state":"NC","detail_file":"data/details/nuclear-plants.json","plant_id":"6038","capacity_mw":2440.6,"status_group":"Operating","energy_sources":"NUC","type":"Nuclear power plant","is_nuclear":true}},{"type":"Feature","geometry":{"type":"Point","coordinates":[-95.6408,40.3628]},"properties":{"key":"8036-da433099","layer":"nuclear","name":"Cooper Nuclear Station","state":"NE","detail_file":"data/details/nuclear-plants.json","plant_id":"8036","capacity_mw":801.0,"status_group":"Operating","energy_sources":"NUC","type":"Nuclear power plant","is_nuclear":true}},{"type":"Feature","geometry":{"type":"Point","coordinates":[-70.8489,42.8992]},"properties":{"key":"6115-61cfddac","layer":"nuclear","name":"Seabrook","state":"NH","detail_file":"data/details/nuclear-plants.json","plant_id":"6115","capacity_mw":1242.0,"status_group":"Operating","energy_sources":"NUC","type":"Nuclear power plant","is_nuclear":true}},{"type":"Feature","geometry":{"type":"Point","coordinates":[-75.5377,39.4666]},"properties":{"key":"6118-bfbfed81","layer":"nuclear","name":"PSEG Hope Creek Generating Station","state":"NJ","detail_file":"data/details/nuclear-plants.json","plant_id":"6118","capacity_mw":1290.7,"status_group":"Operating","energy_sources":"NUC","type":"Nuclear power plant","is_nuclear":true}},{"type":"Feature","geometry":{"type":"Point","coordinates":[-75.5358,39.4625]},"properties":{"key":"2410-43731ec8","layer":"nuclear","name":"PSEG Salem Generating Station","state":"NJ","detail_file":"data/details/nuclear-plants.json","plant_id":"2410","capacity_mw":2381.8,"status_group":"Operating","energy_sources":"DFO; NUC","type":"Nuclear power plant","is_nuclear":true}},{"type":"Feature","geometry":{"type":"Point","coordinates":[-76.4084,43.5214]},"properties":{"key":"6110-6fab23ad","layer":"nuclear","name":"James A Fitzpatrick","state":"NY","detail_file":"data/details/nuclear-plants.json","plant_id":"6110","capacity_mw":883.3,"status_group":"Operating","energy_sources":"NUC","type":"Nuclear power plant","is_nuclear":true}},{"type":"Feature","geometry":{"type":"Point","coordinates":[-76.41,43.5211]},"properties":{"key":"2589-7be2013d","layer":"nuclear","name":"Nine Mile Point Nuclear Station","state":"NY","detail_file":"data/details/nuclear-plants.json","plant_id":"2589","capacity_mw":1901.1,"status_group":"Operating","energy_sources":"NUC","type":"Nuclear power plant","is_nuclear":true}},{"type":"Feature","geometry":{"type":"Point","coordinates":[-77.3099,43.2777]},"properties":{"key":"6122-2d7fdfff","layer":"nuclear","name":"R E Ginna Nuclear Power Plant","state":"NY","detail_file":"data/details/nuclear-plants.json","plant_id":"6122","capacity_mw":614.0,"status_group":"Operating","energy_sources":"NUC","type":"Nuclear power plant","is_nuclear":true}},{"type":"Feature","geometry":{"type":"Point","coordinates":[-83.0861,41.5967]},"properties":{"key":"6149-70bbcfef","layer":"nuclear","name":"Davis Besse","state":"OH","detail_file":"data/details/nuclear-plants.json","plant_id":"6149","capacity_mw":925.2,"status_group":"Operating","energy_sources":"NUC","type":"Nuclear power plant","is_nuclear":true}},{"type":"Feature","geometry":{"type":"Point","coordinates":[-82.996,39.018]},"properties":{"key":"oklo-aurora-pike-county-oh-e26dc52e","layer":"nuclear","name":"Oklo Aurora Powerhouse","state":"OH","detail_file":"data/details/nuclear-plants.json","plant_id":"oklo-aurora-pike-county-oh","capacity_mw":1200.0,"status_group":"Proposed","energy_sources":"nuclear_smr","type":"Nuclear power plant","is_nuclear":true}},{"type":"Feature","geometry":{"type":"Point","coordinates":[-81.1439,41.8006]},"properties":{"key":"6020-58b95faa","layer":"nuclear","name":"Perry","state":"OH","detail_file":"data/details/nuclear-plants.json","plant_id":"6020","capacity_mw":1311.6,"status_group":"Operating","energy_sources":"NUC","type":"Nuclear power plant","is_nuclear":true}},{"type":"Feature","geometry":{"type":"Point","coordinates":[-80.4336,40.6219]},"properties":{"key":"6040-ca81bcb1","layer":"nuclear","name":"Beaver Valley","state":"PA","detail_file":"data/details/nuclear-plants.json","plant_id":"6040","capacity_mw":1846.8,"status_group":"Operating","energy_sources":"NUC","type":"Nuclear power plant","is_nuclear":true}},{"type":"Feature","geometry":{"type":"Point","coordinates":[-76.7232,40.1515]},"properties":{"key":"8011-157f7a28","layer":"nuclear","name":"Crane Clean Energy Center","state":"PA","detail_file":"data/details/nuclear-plants.json","plant_id":"8011","capacity_mw":980.8,"status_group":"Operating","energy_sources":"NUC","type":"Nuclear power plant","is_nuclear":true}},{"type":"Feature","geometry":{"type":"Point","coordinates":[-76.725,40.1542]},"properties":{"key":"crane-clean-energy-center-tmi-pa-aa7f4f42","layer":"nuclear","name":"Crane Clean Energy Center (Three Mile Island Unit 1)","state":"PA","detail_file":"data/details/nuclear-plants.json","plant_id":"crane-clean-energy-center-tmi-pa","capacity_mw":835.0,"status_group":"Under construction","energy_sources":"nuclear","type":"Nuclear power plant","is_nuclear":true}},{"type":"Feature","geometry":{"type":"Point","coordinates":[-75.5874,40.2243]},"properties":{"key":"6105-e12c3a9d","layer":"nuclear","name":"Limerick","state":"PA","detail_file":"data/details/nuclear-plants.json","plant_id":"6105","capacity_mw":2277.0,"status_group":"Operating","energy_sources":"NUC","type":"Nuclear power plant","is_nuclear":true}},{"type":"Feature","geometry":{"type":"Point","coordinates":[-76.2687,39.7589]},"properties":{"key":"3166-1372f102","layer":"nuclear","name":"Peach Bottom","state":"PA","detail_file":"data/details/nuclear-plants.json","plant_id":"3166","capacity_mw":2876.4,"status_group":"Operating","energy_sources":"NUC","type":"Nuclear power plant","is_nuclear":true}},{"type":"Feature","geometry":{"type":"Point","coordinates":[-76.1489,41.0889]},"properties":{"key":"talen-susquehanna-aws-pa-c6cac70a","layer":"nuclear","name":"Susquehanna Steam Electric Station","state":"PA","detail_file":"data/details/nuclear-plants.json","plant_id":"talen-susquehanna-aws-pa","status_group":"Operating","energy_sources":"nuclear","type":"Nuclear power plant","is_nuclear":true}},{"type":"Feature","geometry":{"type":"Point","coordinates":[-76.1462,41.0919]},"properties":{"key":"6103-aee724bf","layer":"nuclear","name":"TalenEnergy Susquehanna","state":"PA","detail_file":"data/details/nuclear-plants.json","plant_id":"6103","capacity_mw":2532.0,"status_group":"Operating","energy_sources":"NUC","type":"Nuclear power plant","is_nuclear":true}},{"type":"Feature","geometry":{"type":"Point","coordinates":[-81.0694,35.0514]},"properties":{"key":"6036-7765e7f5","layer":"nuclear","name":"Catawba","state":"SC","detail_file":"data/details/nuclear-plants.json","plant_id":"6036","capacity_mw":2410.2,"status_group":"Operating","energy_sources":"NUC","type":"Nuclear power plant","is_nuclear":true}},{"type":"Feature","geometry":{"type":"Point","coordinates":[-80.1589,34.4017]},"properties":{"key":"3251-27f2fa3a","layer":"nuclear","name":"H B Robinson","state":"SC","detail_file":"data/details/nuclear-plants.json","plant_id":"3251","capacity_mw":768.6,"status_group":"Operating","energy_sources":"NUC","type":"Nuclear power plant","is_nuclear":true}},{"type":"Feature","geometry":{"type":"Point","coordinates":[-82.8986,34.7939]},"properties":{"key":"3265-a128061f","layer":"nuclear","name":"Oconee","state":"SC","detail_file":"data/details/nuclear-plants.json","plant_id":"3265","capacity_mw":2666.7,"status_group":"Operating","energy_sources":"NUC","type":"Nuclear power plant","is_nuclear":true}},{"type":"Feature","geometry":{"type":"Point","coordinates":[-81.3153,34.2983]},"properties":{"key":"6127-95e4d737","layer":"nuclear","name":"V C Summer","state":"SC","detail_file":"data/details/nuclear-plants.json","plant_id":"6127","capacity_mw":1029.6,"status_group":"Operating","energy_sources":"NUC","type":"Nuclear power plant","is_nuclear":true}},{"type":"Feature","geometry":{"type":"Point","coordinates":[-84.39,35.92]},"properties":{"key":"kairos-hermes-2-oak-ridge-tn-64590a39","layer":"nuclear","name":"Kairos Power Hermes 2","state":"TN","detail_file":"data/details/nuclear-plants.json","plant_id":"kairos-hermes-2-oak-ridge-tn","capacity_mw":50.0,"status_group":"Under construction","energy_sources":"nuclear_smr","type":"Nuclear power plant","is_nuclear":true}},{"type":"Feature","geometry":{"type":"Point","coordinates":[-85.0917,35.2267]},"properties":{"key":"6152-463cf095","layer":"nuclear","name":"Sequoyah","state":"TN","detail_file":"data/details/nuclear-plants.json","plant_id":"6152","capacity_mw":2441.0,"status_group":"Operating","energy_sources":"NUC","type":"Nuclear power plant","is_nuclear":true}},{"type":"Feature","geometry":{"type":"Point","coordinates":[-84.7895,35.6021]},"properties":{"key":"7722-d44cadd7","layer":"nuclear","name":"Watts Bar Nuclear Plant","state":"TN","detail_file":"data/details/nuclear-plants.json","plant_id":"7722","capacity_mw":2539.8,"status_group":"Operating","energy_sources":"NUC","type":"Nuclear power plant","is_nuclear":true}},{"type":"Feature","geometry":{"type":"Point","coordinates":[-97.7855,32.2984]},"properties":{"key":"6145-f84ebcee","layer":"nuclear","name":"Comanche Peak","state":"TX","detail_file":"data/details/nuclear-plants.json","plant_id":"6145","capacity_mw":2430.0,"status_group":"Operating","energy_sources":"NUC","type":"Nuclear power plant","is_nuclear":true}},{"type":"Feature","geometry":{"type":"Point","coordinates":[-101.569,35.2838]},"properties":{"key":"69798-a501f654","layer":"nuclear","name":"Project Matador Nuclear","state":"TX","detail_file":"data/details/nuclear-plants.json","plant_id":"69798","capacity_mw":4468.0,"status_group":"Planned","energy_sources":"NUC","type":"Nuclear power plant","is_nuclear":true}},{"type":"Feature","geometry":{"type":"Point","coordinates":[-96.0481,28.795]},"properties":{"key":"6251-33981f18","layer":"nuclear","name":"South Texas Project","state":"TX","detail_file":"data/details/nuclear-plants.json","plant_id":"6251","capacity_mw":2708.6,"status_group":"Operating","energy_sources":"NUC","type":"Nuclear power plant","is_nuclear":true}},{"type":"Feature","geometry":{"type":"Point","coordinates":[-77.7897,38.06]},"properties":{"key":"6168-583eb6fe","layer":"nuclear","name":"North Anna","state":"VA","detail_file":"data/details/nuclear-plants.json","plant_id":"6168","capacity_mw":1960.4,"status_group":"Operating","energy_sources":"NUC; WAT","type":"Nuclear power plant","is_nuclear":true}},{"type":"Feature","geometry":{"type":"Point","coordinates":[-76.6986,37.1661]},"properties":{"key":"3806-4e8f6eef","layer":"nuclear","name":"Surry","state":"VA","detail_file":"data/details/nuclear-plants.json","plant_id":"3806","capacity_mw":1695.0,"status_group":"Operating","energy_sources":"NUC","type":"Nuclear power plant","is_nuclear":true}},{"type":"Feature","geometry":{"type":"Point","coordinates":[-119.3339,46.4706]},"properties":{"key":"cascade-advanced-energy-facility-wa-3539c055","layer":"nuclear","name":"Cascade Advanced Energy Facility","state":"WA","detail_file":"data/details/nuclear-plants.json","plant_id":"cascade-advanced-energy-facility-wa","capacity_mw":320.0,"status_group":"Proposed","energy_sources":"nuclear_smr","type":"Nuclear power plant","is_nuclear":true}},{"type":"Feature","geometry":{"type":"Point","coordinates":[-119.3339,46.4711]},"properties":{"key":"371-eb460f33","layer":"nuclear","name":"Columbia Generating Station","state":"WA","detail_file":"data/details/nuclear-plants.json","plant_id":"371","capacity_mw":1200.0,"status_group":"Operating","energy_sources":"NUC","type":"Nuclear power plant","is_nuclear":true}},{"type":"Feature","geometry":{"type":"Point","coordinates":[-87.5369,44.2806]},"properties":{"key":"4046-cdd42c37","layer":"nuclear","name":"Point Beach Nuclear Plant","state":"WI","detail_file":"data/details/nuclear-plants.json","plant_id":"4046","capacity_mw":1311.0,"status_group":"Operating","energy_sources":"DFO; NUC","type":"Nuclear power plant","is_nuclear":true}},{"type":"Feature","geometry":{"type":"Point","coordinates":[-110.5603,41.706]},"properties":{"key":"68635-2b21a93b","layer":"nuclear","name":"Kemmerer Unit 1","state":"WY","detail_file":"data/details/nuclear-plants.json","plant_id":"68635","capacity_mw":500.0,"status_group":"Under construction","energy_sources":"NUC","type":"Nuclear power plant","is_nuclear":true}}]}