{"type":"FeatureCollection","features":[{"type":"Feature","geometry":{"type":"Point","coordinates":[-90.18,38.627]},"properties":{"key":"water-62fbadac3e","layer":"water","name":"Mississippi River - St. Louis","state":"MO","detail_file":"data/details/water-sources.json","type":"river"}},{"type":"Feature","geometry":{"type":"Point","coordinates":[-90.049,35.149]},"properties":{"key":"water-4f20ed6123","layer":"water","name":"Mississippi River - Memphis","state":"TN","detail_file":"data/details/water-sources.json","type":"river"}},{"type":"Feature","geometry":{"type":"Point","coordinates":[-91.187,30.451]},"properties":{"key":"water-f9214796b1","layer":"water","name":"Mississippi River - Baton Rouge","state":"LA","detail_file":"data/details/water-sources.json","type":"river"}},{"type":"Feature","geometry":{"type":"Point","coordinates":[-94.578,39.099]},"properties":{"key":"water-8a19686371","layer":"water","name":"Missouri River - Kansas City","state":"MO","detail_file":"data/details/water-sources.json","type":"river"}},{"type":"Feature","geometry":{"type":"Point","coordinates":[-95.938,41.258]},"properties":{"key":"water-eec40af2a8","layer":"water","name":"Missouri River - Omaha","state":"NE","detail_file":"data/details/water-sources.json","type":"river"}},{"type":"Feature","geometry":{"type":"Point","coordinates":[-80.01,40.441]},"properties":{"key":"water-9c3fb8e599","layer":"water","name":"Ohio River - Pittsburgh","state":"PA","detail_file":"data/details/water-sources.json","type":"river"}},{"type":"Feature","geometry":{"type":"Point","coordinates":[-84.512,39.103]},"properties":{"key":"water-2eb18ef4b0","layer":"water","name":"Ohio River - Cincinnati","state":"OH","detail_file":"data/details/water-sources.json","type":"river"}},{"type":"Feature","geometry":{"type":"Point","coordinates":[-85.759,38.254]},"properties":{"key":"water-a3d1de2565","layer":"water","name":"Ohio River - Louisville","state":"KY","detail_file":"data/details/water-sources.json","type":"river"}},{"type":"Feature","geometry":{"type":"Point","coordinates":[-85.309,35.045]},"properties":{"key":"water-d3f3d7fcc4","layer":"water","name":"Tennessee River - Chattanooga","state":"TN","detail_file":"data/details/water-sources.json","type":"river"}},{"type":"Feature","geometry":{"type":"Point","coordinates":[-87.677,34.799]},"properties":{"key":"water-8bfa0dc13c","layer":"water","name":"Tennessee River - Florence","state":"AL","detail_file":"data/details/water-sources.json","type":"river"}},{"type":"Feature","geometry":{"type":"Point","coordinates":[-119.273,46.276]},"properties":{"key":"water-511000cb8d","layer":"water","name":"Columbia River - Richland","state":"WA","detail_file":"data/details/water-sources.json","type":"river"}},{"type":"Feature","geometry":{"type":"Point","coordinates":[-122.68,45.56]},"properties":{"key":"water-bb7f56f5e4","layer":"water","name":"Columbia River - Portland","state":"OR","detail_file":"data/details/water-sources.json","type":"river"}},{"type":"Feature","geometry":{"type":"Point","coordinates":[-112.719,43.188]},"properties":{"key":"water-2ce202f74c","layer":"water","name":"Snake River - Boise region","state":"ID","detail_file":"data/details/water-sources.json","type":"river"}},{"type":"Feature","geometry":{"type":"Point","coordinates":[-114.322,34.483]},"properties":{"key":"water-5ff740d365","layer":"water","name":"Colorado River - Lake Havasu","state":"AZ","detail_file":"data/details/water-sources.json","type":"river/lake"}},{"type":"Feature","geometry":{"type":"Point","coordinates":[-97.743,30.267]},"properties":{"key":"water-9467db1940","layer":"water","name":"Colorado River - Austin","state":"TX","detail_file":"data/details/water-sources.json","type":"river"}},{"type":"Feature","geometry":{"type":"Point","coordinates":[-106.485,31.761]},"properties":{"key":"water-f24398a694","layer":"water","name":"Rio Grande - El Paso","state":"TX","detail_file":"data/details/water-sources.json","type":"river"}},{"type":"Feature","geometry":{"type":"Point","coordinates":[-93.75,32.525]},"properties":{"key":"water-db3d21df9c","layer":"water","name":"Red River - Shreveport","state":"LA","detail_file":"data/details/water-sources.json","type":"river"}},{"type":"Feature","geometry":{"type":"Point","coordinates":[-95.993,36.154]},"properties":{"key":"water-ad55914414","layer":"water","name":"Arkansas River - Tulsa","state":"OK","detail_file":"data/details/water-sources.json","type":"river"}},{"type":"Feature","geometry":{"type":"Point","coordinates":[-92.289,34.746]},"properties":{"key":"water-4723f72b24","layer":"water","name":"Arkansas River - Little Rock","state":"AR","detail_file":"data/details/water-sources.json","type":"river"}},{"type":"Feature","geometry":{"type":"Point","coordinates":[-76.887,40.273]},"properties":{"key":"water-363d23c740","layer":"water","name":"Susquehanna River - Harrisburg","state":"PA","detail_file":"data/details/water-sources.json","type":"river"}},{"type":"Feature","geometry":{"type":"Point","coordinates":[-77.386,38.969]},"properties":{"key":"water-54efec8e21","layer":"water","name":"Potomac River - Northern Virginia","state":"VA","detail_file":"data/details/water-sources.json","type":"river"}},{"type":"Feature","geometry":{"type":"Point","coordinates":[-77.436,37.54]},"properties":{"key":"water-0072df6c37","layer":"water","name":"James River - Richmond","state":"VA","detail_file":"data/details/water-sources.json","type":"river"}},{"type":"Feature","geometry":{"type":"Point","coordinates":[-81.967,33.473]},"properties":{"key":"water-338557c010","layer":"water","name":"Savannah River - Augusta","state":"GA","detail_file":"data/details/water-sources.json","type":"river"}},{"type":"Feature","geometry":{"type":"Point","coordinates":[-84.444,33.809]},"properties":{"key":"water-b4ae31a81e","layer":"water","name":"Chattahoochee River - Atlanta","state":"GA","detail_file":"data/details/water-sources.json","type":"river"}},{"type":"Feature","geometry":{"type":"Point","coordinates":[-75.135,39.952]},"properties":{"key":"water-1a0f14bce8","layer":"water","name":"Delaware River - Philadelphia","state":"PA","detail_file":"data/details/water-sources.json","type":"river"}},{"type":"Feature","geometry":{"type":"Point","coordinates":[-73.98,40.79]},"properties":{"key":"water-19a24336ad","layer":"water","name":"Hudson River - New York","state":"NY","detail_file":"data/details/water-sources.json","type":"river"}},{"type":"Feature","geometry":{"type":"Point","coordinates":[-79.064,43.081]},"properties":{"key":"water-b450d72671","layer":"water","name":"Niagara River - Niagara Falls","state":"NY","detail_file":"data/details/water-sources.json","type":"river"}},{"type":"Feature","geometry":{"type":"Point","coordinates":[-87.6,41.878]},"properties":{"key":"water-6105dbafdc","layer":"water","name":"Lake Michigan - Chicago","state":"IL","detail_file":"data/details/water-sources.json","type":"lake"}},{"type":"Feature","geometry":{"type":"Point","coordinates":[-87.906,43.039]},"properties":{"key":"water-99ef2b32e9","layer":"water","name":"Lake Michigan - Milwaukee","state":"WI","detail_file":"data/details/water-sources.json","type":"lake"}},{"type":"Feature","geometry":{"type":"Point","coordinates":[-81.694,41.499]},"properties":{"key":"water-8a02e93506","layer":"water","name":"Lake Erie - Cleveland","state":"OH","detail_file":"data/details/water-sources.json","type":"lake"}},{"type":"Feature","geometry":{"type":"Point","coordinates":[-78.878,42.886]},"properties":{"key":"water-9a49026811","layer":"water","name":"Lake Erie - Buffalo","state":"NY","detail_file":"data/details/water-sources.json","type":"lake"}},{"type":"Feature","geometry":{"type":"Point","coordinates":[-77.608,43.156]},"properties":{"key":"water-c7ba8a5c57","layer":"water","name":"Lake Ontario - Rochester","state":"NY","detail_file":"data/details/water-sources.json","type":"lake"}},{"type":"Feature","geometry":{"type":"Point","coordinates":[-83.85,43.8]},"properties":{"key":"water-7da24bb438","layer":"water","name":"Lake Huron - Saginaw Bay","state":"MI","detail_file":"data/details/water-sources.json","type":"lake"}},{"type":"Feature","geometry":{"type":"Point","coordinates":[-92.1,46.786]},"properties":{"key":"water-d165085025","layer":"water","name":"Lake Superior - Duluth","state":"MN","detail_file":"data/details/water-sources.json","type":"lake"}},{"type":"Feature","geometry":{"type":"Point","coordinates":[-112.583,41.169]},"properties":{"key":"water-bb407d205a","layer":"water","name":"Great Salt Lake","state":"UT","detail_file":"data/details/water-sources.json","type":"lake"}},{"type":"Feature","geometry":{"type":"Point","coordinates":[-114.396,36.245]},"properties":{"key":"water-0e214f59d6","layer":"water","name":"Lake Mead","state":"NV","detail_file":"data/details/water-sources.json","type":"reservoir"}},{"type":"Feature","geometry":{"type":"Point","coordinates":[-111.484,36.938]},"properties":{"key":"water-ce69be64ca","layer":"water","name":"Lake Powell","state":"AZ","detail_file":"data/details/water-sources.json","type":"reservoir"}},{"type":"Feature","geometry":{"type":"Point","coordinates":[-83.969,34.204]},"properties":{"key":"water-6cec3beb4a","layer":"water","name":"Lake Lanier","state":"GA","detail_file":"data/details/water-sources.json","type":"reservoir"}},{"type":"Feature","geometry":{"type":"Point","coordinates":[-80.939,35.489]},"properties":{"key":"water-ba17161e4a","layer":"water","name":"Lake Norman","state":"NC","detail_file":"data/details/water-sources.json","type":"reservoir"}},{"type":"Feature","geometry":{"type":"Point","coordinates":[-78.297,36.599]},"properties":{"key":"water-2603fbea25","layer":"water","name":"Kerr Reservoir","state":"VA","detail_file":"data/details/water-sources.json","type":"reservoir"}},{"type":"Feature","geometry":{"type":"Point","coordinates":[-96.571,33.824]},"properties":{"key":"water-80f24704c0","layer":"water","name":"Lake Texoma","state":"TX","detail_file":"data/details/water-sources.json","type":"reservoir"}}]}